{
  "type": "FeatureCollection",
  "features": [
    {
      "type": "Feature",
      "geometry": {
        "type": "Point",
        "coordinates": [
          15.9445552,
          49.5602669
        ]
      },
      "properties": {
        "id": 270680351,
        "osm_type": "node",
        "name": "Albert",
        "brand": "Albert"
      }
    },
    {
      "type": "Feature",
      "geometry": {
        "type": "Point",
        "coordinates": [
          16.0779165,
          49.5616352
        ]
      },
      "properties": {
        "id": 315211246,
        "osm_type": "node",
        "name": "Billa",
        "brand": "Billa"
      }
    },
    {
      "type": "Feature",
      "geometry": {
        "type": "Point",
        "coordinates": [
          16.0800282,
          49.5679506
        ]
      },
      "properties": {
        "id": 315211261,
        "osm_type": "node",
        "name": "Lidl",
        "brand": "Lidl"
      }
    },
    {
      "type": "Feature",
      "geometry": {
        "type": "Point",
        "coordinates": [
          15.5923916,
          49.3923355
        ]
      },
      "properties": {
        "id": 357537162,
        "osm_type": "node",
        "name": "Albert",
        "brand": "Albert",
        "opening_hours": "Mo-Su 08:00-22:00"
      }
    },
    {
      "type": "Feature",
      "geometry": {
        "type": "Point",
        "coordinates": [
          15.895258,
          49.2150739
        ]
      },
      "properties": {
        "id": 363825681,
        "osm_type": "node",
        "name": "Kaufland",
        "brand": "Kaufland",
        "opening_hours": "Mo-Su 08:00-22:00"
      }
    },
    {
      "type": "Feature",
      "geometry": {
        "type": "Point",
        "coordinates": [
          15.8926543,
          49.2186708
        ]
      },
      "properties": {
        "id": 363825721,
        "osm_type": "node",
        "name": "Albert",
        "brand": "Albert"
      }
    },
    {
      "type": "Feature",
      "geometry": {
        "type": "Point",
        "coordinates": [
          16.0663653,
          49.5618921
        ]
      },
      "properties": {
        "id": 365747499,
        "osm_type": "node",
        "name": "COOP",
        "opening_hours": "Mo-Fr 06:00-17:30; Sa 06:30-11:00; Su 07:30-10:30"
      }
    },
    {
      "type": "Feature",
      "geometry": {
        "type": "Point",
        "coordinates": [
          15.5880503,
          49.3975067
        ]
      },
      "properties": {
        "id": 448166998,
        "osm_type": "node",
        "name": "Natur Styl"
      }
    },
    {
      "type": "Feature",
      "geometry": {
        "type": "Point",
        "coordinates": [
          15.5908073,
          49.3956516
        ]
      },
      "properties": {
        "id": 448167023,
        "osm_type": "node",
        "name": "Albert",
        "brand": "Albert",
        "opening_hours": "Mo-Sa 07:00-19:00"
      }
    },
    {
      "type": "Feature",
      "geometry": {
        "type": "Point",
        "coordinates": [
          15.8851416,
          49.2026688
        ]
      },
      "properties": {
        "id": 477079240,
        "osm_type": "node",
        "name": "Albert",
        "brand": "Albert",
        "opening_hours": "Mo-Su 07:00-22:00"
      }
    },
    {
      "type": "Feature",
      "geometry": {
        "type": "Point",
        "coordinates": [
          15.9511029,
          49.5569238
        ]
      },
      "properties": {
        "id": 623848317,
        "osm_type": "node",
        "name": "Penny",
        "brand": "Penny",
        "opening_hours": "Mo-Su 07:00-20:00",
        "check_date": "2025-06-07"
      }
    },
    {
      "type": "Feature",
      "geometry": {
        "type": "Point",
        "coordinates": [
          15.5849812,
          49.394405
        ]
      },
      "properties": {
        "id": 671322363,
        "osm_type": "node",
        "name": "Pramen",
        "opening_hours": "Mo-Fr 06:00-19:00; Sa 07:00-14:00"
      }
    },
    {
      "type": "Feature",
      "geometry": {
        "type": "Point",
        "coordinates": [
          15.5735883,
          49.0197634
        ]
      },
      "properties": {
        "id": 687864597,
        "osm_type": "node",
        "name": "Penny",
        "brand": "Penny"
      }
    },
    {
      "type": "Feature",
      "geometry": {
        "type": "Point",
        "coordinates": [
          16.2493538,
          49.5277731
        ]
      },
      "properties": {
        "id": 1126057335,
        "osm_type": "node",
        "name": "Penny",
        "brand": "Penny",
        "opening_hours": "Mo-Su 07:00-20:00"
      }
    },
    {
      "type": "Feature",
      "geometry": {
        "type": "Point",
        "coordinates": [
          15.4829665,
          49.2900207
        ]
      },
      "properties": {
        "id": 1150915653,
        "osm_type": "node",
        "name": "Albert",
        "brand": "Albert",
        "opening_hours": "Mo-Su 07:00-20:00"
      }
    },
    {
      "type": "Feature",
      "geometry": {
        "type": "Point",
        "coordinates": [
          16.1952116,
          49.2313271
        ]
      },
      "properties": {
        "id": 1156127144,
        "osm_type": "node",
        "name": "Brněnka"
      }
    },
    {
      "type": "Feature",
      "geometry": {
        "type": "Point",
        "coordinates": [
          16.0766831,
          49.5633869
        ]
      },
      "properties": {
        "id": 1304652649,
        "osm_type": "node",
        "name": "PENNY",
        "brand": "PENNY"
      }
    },
    {
      "type": "Feature",
      "geometry": {
        "type": "Point",
        "coordinates": [
          15.7306923,
          49.4855603
        ]
      },
      "properties": {
        "id": 1573777315,
        "osm_type": "node",
        "name": "JMB"
      }
    },
    {
      "type": "Feature",
      "geometry": {
        "type": "Point",
        "coordinates": [
          15.4802427,
          49.2866575
        ]
      },
      "properties": {
        "id": 1679746834,
        "osm_type": "node",
        "name": "Penny Market",
        "brand": "Penny"
      }
    },
    {
      "type": "Feature",
      "geometry": {
        "type": "Point",
        "coordinates": [
          15.575618,
          49.3943168
        ]
      },
      "properties": {
        "id": 1737401134,
        "osm_type": "node",
        "name": "Horpo"
      }
    },
    {
      "type": "Feature",
      "geometry": {
        "type": "Point",
        "coordinates": [
          15.4908036,
          49.3596052
        ]
      },
      "properties": {
        "id": 1759696780,
        "osm_type": "node",
        "name": "Lapek"
      }
    },
    {
      "type": "Feature",
      "geometry": {
        "type": "Point",
        "coordinates": [
          15.5924448,
          49.4134428
        ]
      },
      "properties": {
        "id": 1833462080,
        "osm_type": "node",
        "name": "Albert",
        "brand": "Albert",
        "opening_hours": "Mo-Su 07:00-20:00"
      }
    },
    {
      "type": "Feature",
      "geometry": {
        "type": "Point",
        "coordinates": [
          16.2597581,
          49.5180748
        ]
      },
      "properties": {
        "id": 1897724502,
        "osm_type": "node",
        "name": "Coop"
      }
    },
    {
      "type": "Feature",
      "geometry": {
        "type": "Point",
        "coordinates": [
          16.2605789,
          49.5260529
        ]
      },
      "properties": {
        "id": 1897736049,
        "osm_type": "node",
        "name": "Albert",
        "brand": "Albert",
        "opening_hours": "Mo-Su 07:00-20:00"
      }
    },
    {
      "type": "Feature",
      "geometry": {
        "type": "Point",
        "coordinates": [
          16.259607,
          49.5242527
        ]
      },
      "properties": {
        "id": 1901765501,
        "osm_type": "node",
        "name": "Albert",
        "brand": "Albert",
        "opening_hours": "Mo-Su 07:00-20:00"
      }
    },
    {
      "type": "Feature",
      "geometry": {
        "type": "Point",
        "coordinates": [
          15.781596,
          49.6367231
        ]
      },
      "properties": {
        "id": 2331953143,
        "osm_type": "node",
        "name": "COOP Jednota",
        "brand": "COOP Jednota",
        "opening_hours": "Mo-Fr 06:00-16:00; Sa 06:00-09:30; Su off"
      }
    },
    {
      "type": "Feature",
      "geometry": {
        "type": "Point",
        "coordinates": [
          15.8063873,
          49.6961714
        ]
      },
      "properties": {
        "id": 2332253932,
        "osm_type": "node",
        "name": "Albert",
        "brand": "Albert"
      }
    },
    {
      "type": "Feature",
      "geometry": {
        "type": "Point",
        "coordinates": [
          15.4774336,
          49.816284
        ]
      },
      "properties": {
        "id": 2415635354,
        "osm_type": "node",
        "name": "COOP Jednota",
        "brand": "COOP Jednota"
      }
    },
    {
      "type": "Feature",
      "geometry": {
        "type": "Point",
        "coordinates": [
          15.0680213,
          49.300621
        ]
      },
      "properties": {
        "id": 2542124131,
        "osm_type": "node",
        "name": "PENNY",
        "brand": "PENNY",
        "opening_hours": "Mo-Su 07:00-20:00"
      }
    },
    {
      "type": "Feature",
      "geometry": {
        "type": "Point",
        "coordinates": [
          15.778534,
          49.25863
        ]
      },
      "properties": {
        "id": 2609134959,
        "osm_type": "node",
        "name": "COOP Tuti",
        "brand": "COOP",
        "opening_hours": "Mo-Fr 06:30-17:00; Sa 06:30-10:30; Su,PH off"
      }
    },
    {
      "type": "Feature",
      "geometry": {
        "type": "Point",
        "coordinates": [
          15.5731496,
          49.6169176
        ]
      },
      "properties": {
        "id": 2746414749,
        "osm_type": "node",
        "name": "Penny Market HB",
        "brand": "Penny"
      }
    },
    {
      "type": "Feature",
      "geometry": {
        "type": "Point",
        "coordinates": [
          15.8901971,
          49.2018683
        ]
      },
      "properties": {
        "id": 2756625728,
        "osm_type": "node",
        "name": "Kaufland",
        "brand": "Kaufland"
      }
    },
    {
      "type": "Feature",
      "geometry": {
        "type": "Point",
        "coordinates": [
          16.0005514,
          49.2240824
        ]
      },
      "properties": {
        "id": 2780228460,
        "osm_type": "node"
      }
    },
    {
      "type": "Feature",
      "geometry": {
        "type": "Point",
        "coordinates": [
          15.8576061,
          49.2104117
        ]
      },
      "properties": {
        "id": 2792268839,
        "osm_type": "node",
        "name": "Penny Market",
        "brand": "Penny"
      }
    },
    {
      "type": "Feature",
      "geometry": {
        "type": "Point",
        "coordinates": [
          15.001945,
          49.4697259
        ]
      },
      "properties": {
        "id": 2849826141,
        "osm_type": "node",
        "name": "PENNY",
        "brand": "PENNY",
        "opening_hours": "07:00-20:00"
      }
    },
    {
      "type": "Feature",
      "geometry": {
        "type": "Point",
        "coordinates": [
          15.215015,
          49.4354016
        ]
      },
      "properties": {
        "id": 2870753743,
        "osm_type": "node",
        "name": "COOP Jednota",
        "brand": "COOP Jednota"
      }
    },
    {
      "type": "Feature",
      "geometry": {
        "type": "Point",
        "coordinates": [
          16.1911532,
          49.0800992
        ]
      },
      "properties": {
        "id": 2940760456,
        "osm_type": "node",
        "name": "JMB"
      }
    },
    {
      "type": "Feature",
      "geometry": {
        "type": "Point",
        "coordinates": [
          15.8502065,
          49.6886534
        ]
      },
      "properties": {
        "id": 2992380451,
        "osm_type": "node"
      }
    },
    {
      "type": "Feature",
      "geometry": {
        "type": "Point",
        "coordinates": [
          15.6643867,
          49.0220093
        ]
      },
      "properties": {
        "id": 3435380604,
        "osm_type": "node",
        "name": "CBA",
        "brand": "CBA"
      }
    },
    {
      "type": "Feature",
      "geometry": {
        "type": "Point",
        "coordinates": [
          15.5755788,
          49.6084379
        ]
      },
      "properties": {
        "id": 3463182070,
        "osm_type": "node",
        "name": "Coop",
        "brand": "Coop"
      }
    },
    {
      "type": "Feature",
      "geometry": {
        "type": "Point",
        "coordinates": [
          15.5800708,
          49.605928
        ]
      },
      "properties": {
        "id": 3464845673,
        "osm_type": "node",
        "name": "Flop"
      }
    },
    {
      "type": "Feature",
      "geometry": {
        "type": "Point",
        "coordinates": [
          15.2266841,
          49.4295629
        ]
      },
      "properties": {
        "id": 3481645386,
        "osm_type": "node",
        "name": "Billa",
        "brand": "Billa"
      }
    },
    {
      "type": "Feature",
      "geometry": {
        "type": "Point",
        "coordinates": [
          15.46577,
          49.1857192
        ]
      },
      "properties": {
        "id": 3701771831,
        "osm_type": "node",
        "name": "Tesco",
        "brand": "Tesco",
        "opening_hours": "Mo-Su 07:00-20:00"
      }
    },
    {
      "type": "Feature",
      "geometry": {
        "type": "Point",
        "coordinates": [
          16.0055588,
          49.3554469
        ]
      },
      "properties": {
        "id": 3761109531,
        "osm_type": "node",
        "name": "Billa",
        "brand": "Billa"
      }
    },
    {
      "type": "Feature",
      "geometry": {
        "type": "Point",
        "coordinates": [
          15.8904811,
          49.0951294
        ]
      },
      "properties": {
        "id": 3840635173,
        "osm_type": "node",
        "name": "Coop",
        "opening_hours": "Mo-Fr 07:00-18:00; Sa 07:00-11:00; Su 08:00-11:00"
      }
    },
    {
      "type": "Feature",
      "geometry": {
        "type": "Point",
        "coordinates": [
          15.2112943,
          49.4392979
        ]
      },
      "properties": {
        "id": 4331001802,
        "osm_type": "node",
        "name": "Kaufland",
        "brand": "Kaufland",
        "opening_hours": "Mo-Su 07:00-22:00"
      }
    },
    {
      "type": "Feature",
      "geometry": {
        "type": "Point",
        "coordinates": [
          15.4563123,
          49.1731042
        ]
      },
      "properties": {
        "id": 4338710389,
        "osm_type": "node",
        "name": "Coop"
      }
    },
    {
      "type": "Feature",
      "geometry": {
        "type": "Point",
        "coordinates": [
          15.8269407,
          49.1969433
        ]
      },
      "properties": {
        "id": 4345524531,
        "osm_type": "node",
        "name": "prodejna zdravé výživy Proud zdraví"
      }
    },
    {
      "type": "Feature",
      "geometry": {
        "type": "Point",
        "coordinates": [
          15.9305622,
          49.5609249
        ]
      },
      "properties": {
        "id": 4347118994,
        "osm_type": "node",
        "name": "Penny",
        "brand": "Penny",
        "opening_hours": "07:00-20:00"
      }
    },
    {
      "type": "Feature",
      "geometry": {
        "type": "Point",
        "coordinates": [
          15.2783732,
          49.6947386
        ]
      },
      "properties": {
        "id": 4879790021,
        "osm_type": "node",
        "name": "Coop",
        "brand": "Coop",
        "opening_hours": "Mo-Fr 08:00-17:00; Sa 08:00-11:00"
      }
    },
    {
      "type": "Feature",
      "geometry": {
        "type": "Point",
        "coordinates": [
          15.7991697,
          49.5085693
        ]
      },
      "properties": {
        "id": 5218162578,
        "osm_type": "node",
        "name": "Coop Jednota"
      }
    },
    {
      "type": "Feature",
      "geometry": {
        "type": "Point",
        "coordinates": [
          15.4612156,
          49.1832046
        ]
      },
      "properties": {
        "id": 5727798822,
        "osm_type": "node",
        "name": "Coop",
        "opening_hours": "Mo-Fr 06:30-17:30; Sa 06:30-11:00"
      }
    },
    {
      "type": "Feature",
      "geometry": {
        "type": "Point",
        "coordinates": [
          15.8688023,
          49.2200328
        ]
      },
      "properties": {
        "id": 6103828431,
        "osm_type": "node",
        "name": "Potraviny"
      }
    },
    {
      "type": "Feature",
      "geometry": {
        "type": "Point",
        "coordinates": [
          16.1435774,
          49.4389149
        ]
      },
      "properties": {
        "id": 6108877189,
        "osm_type": "node",
        "name": "Coop",
        "opening_hours": "Mo, We-Fr 07:00-16:00; Tu 07:00-13:00; Sa 07:00-11:00; Su 09:00-11:00"
      }
    },
    {
      "type": "Feature",
      "geometry": {
        "type": "Point",
        "coordinates": [
          15.902379,
          49.2182895
        ]
      },
      "properties": {
        "id": 6180879686,
        "osm_type": "node",
        "name": "Albert",
        "brand": "Albert",
        "opening_hours": "07:00-20:00"
      }
    },
    {
      "type": "Feature",
      "geometry": {
        "type": "Point",
        "coordinates": [
          15.2145416,
          49.438001
        ]
      },
      "properties": {
        "id": 6180879687,
        "osm_type": "node",
        "name": "Lidl",
        "brand": "Lidl",
        "opening_hours": "Mo-Sa 07:00-20:00; Su 08:00-20:00"
      }
    },
    {
      "type": "Feature",
      "geometry": {
        "type": "Point",
        "coordinates": [
          15.2135333,
          49.438057
        ]
      },
      "properties": {
        "id": 6180879688,
        "osm_type": "node",
        "name": "PENNY",
        "brand": "PENNY",
        "opening_hours": "07:00-20:00"
      }
    },
    {
      "type": "Feature",
      "geometry": {
        "type": "Point",
        "coordinates": [
          15.0025606,
          49.4703778
        ]
      },
      "properties": {
        "id": 6180879689,
        "osm_type": "node",
        "name": "Albert",
        "brand": "Albert",
        "opening_hours": "07:00-20:00"
      }
    },
    {
      "type": "Feature",
      "geometry": {
        "type": "Point",
        "coordinates": [
          16.0640681,
          49.2011065
        ]
      },
      "properties": {
        "id": 7093841046,
        "osm_type": "node",
        "name": "COOP Jednota",
        "brand": "COOP Jednota"
      }
    },
    {
      "type": "Feature",
      "geometry": {
        "type": "Point",
        "coordinates": [
          15.5664569,
          49.0217807
        ]
      },
      "properties": {
        "id": 8292868721,
        "osm_type": "node",
        "name": "Flop"
      }
    },
    {
      "type": "Feature",
      "geometry": {
        "type": "Point",
        "coordinates": [
          15.5530154,
          49.3934968
        ]
      },
      "properties": {
        "id": 9085968728,
        "osm_type": "node",
        "name": "Lidl",
        "brand": "Lidl"
      }
    },
    {
      "type": "Feature",
      "geometry": {
        "type": "Point",
        "coordinates": [
          15.8269839,
          49.1970109
        ]
      },
      "properties": {
        "id": 9201775955,
        "osm_type": "node",
        "name": "Železářství"
      }
    },
    {
      "type": "Feature",
      "geometry": {
        "type": "Point",
        "coordinates": [
          15.8014639,
          49.0454079
        ]
      },
      "properties": {
        "id": 9734582273,
        "osm_type": "node",
        "name": "Albert",
        "brand": "Albert"
      }
    },
    {
      "type": "Feature",
      "geometry": {
        "type": "Point",
        "coordinates": [
          15.0067043,
          49.4655522
        ]
      },
      "properties": {
        "id": 10078090018,
        "osm_type": "node",
        "name": "Coop Tuty",
        "opening_hours": "Mo-Fr 07:00-11:00,14:00-16:00; Sa 07:00-09:00; Su off"
      }
    },
    {
      "type": "Feature",
      "geometry": {
        "type": "Point",
        "coordinates": [
          15.0061253,
          49.4786093
        ]
      },
      "properties": {
        "id": 10078117806,
        "osm_type": "node",
        "name": "Flop Top",
        "opening_hours": "Mo-Fr 07:00-18:00; Sa 07:00-12:00; Su off"
      }
    },
    {
      "type": "Feature",
      "geometry": {
        "type": "Point",
        "coordinates": [
          15.8775344,
          49.215335
        ]
      },
      "properties": {
        "id": 10705070687,
        "osm_type": "node",
        "name": "Albert",
        "brand": "Albert",
        "opening_hours": "Mo-Su 07:00-20:00"
      }
    },
    {
      "type": "Feature",
      "geometry": {
        "type": "Point",
        "coordinates": [
          15.3787422,
          49.5635163
        ]
      },
      "properties": {
        "id": 11055421667,
        "osm_type": "node",
        "name": "Coop",
        "brand": "Coop",
        "opening_hours": "Mo,Th 06:30-12:30; Tu,Fr 06:30-15:30; We 06:30-13:00; Sa 07:00-09:30"
      }
    },
    {
      "type": "Feature",
      "geometry": {
        "type": "Point",
        "coordinates": [
          15.2741906,
          49.6944249
        ]
      },
      "properties": {
        "id": 11108403951,
        "osm_type": "node",
        "name": "Billa",
        "brand": "Billa"
      }
    },
    {
      "type": "Feature",
      "geometry": {
        "type": "Point",
        "coordinates": [
          15.9382056,
          49.5758022
        ]
      },
      "properties": {
        "id": 11114869653,
        "osm_type": "node",
        "name": "Billa",
        "brand": "Billa"
      }
    },
    {
      "type": "Feature",
      "geometry": {
        "type": "Point",
        "coordinates": [
          15.3554917,
          49.5412847
        ]
      },
      "properties": {
        "id": 11253763167,
        "osm_type": "node",
        "name": "Coop Tip",
        "brand": "Coop Tip",
        "opening_hours": "Mo-Fr 06:00-18:00; Sa 06:00-11:00; Su off"
      }
    },
    {
      "type": "Feature",
      "geometry": {
        "type": "Point",
        "coordinates": [
          15.4041475,
          49.6681279
        ]
      },
      "properties": {
        "id": 12079645892,
        "osm_type": "node",
        "name": "Coop",
        "brand": "Coop",
        "opening_hours": "Mo-Fr 06:00-18:00; Sa 06:00-12:00; Su 07:30-11:30"
      }
    },
    {
      "type": "Feature",
      "geometry": {
        "type": "Point",
        "coordinates": [
          16.041211,
          49.3458784
        ]
      },
      "properties": {
        "id": 12301966506,
        "osm_type": "node",
        "name": "Lidl",
        "brand": "Lidl",
        "opening_hours": "Mo-Sa 07:00-21:00, Su 8:00-21:00"
      }
    },
    {
      "type": "Feature",
      "geometry": {
        "type": "Point",
        "coordinates": [
          15.6039514,
          49.6062537
        ]
      },
      "properties": {
        "id": 12439273618,
        "osm_type": "node",
        "name": "Billa",
        "brand": "Billa"
      }
    },
    {
      "type": "Feature",
      "geometry": {
        "type": "Point",
        "coordinates": [
          15.4961264,
          49.6615841
        ]
      },
      "properties": {
        "id": 12757295662,
        "osm_type": "node",
        "name": "Coop",
        "brand": "Coop"
      }
    },
    {
      "type": "Feature",
      "geometry": {
        "type": "Point",
        "coordinates": [
          15.9392042,
          49.5611145
        ]
      },
      "properties": {
        "id": 12869214314,
        "osm_type": "node",
        "name": "Beregynia"
      }
    },
    {
      "type": "Feature",
      "geometry": {
        "type": "Point",
        "coordinates": [
          15.5314397,
          49.6852344
        ]
      },
      "properties": {
        "id": 13766516989,
        "osm_type": "node",
        "name": "Coop",
        "brand": "Coop"
      }
    },
    {
      "type": "Feature",
      "geometry": {
        "type": "Point",
        "coordinates": [
          15.8771568,
          49.2258705
        ]
      },
      "properties": {
        "id": 4079183,
        "osm_type": "way",
        "name": "Billa",
        "brand": "Billa"
      }
    },
    {
      "type": "Feature",
      "geometry": {
        "type": "Point",
        "coordinates": [
          15.9349877,
          49.5575186
        ]
      },
      "properties": {
        "id": 23087567,
        "osm_type": "way",
        "name": "Albert",
        "brand": "Albert"
      }
    },
    {
      "type": "Feature",
      "geometry": {
        "type": "Point",
        "coordinates": [
          15.9368922,
          49.555184
        ]
      },
      "properties": {
        "id": 23113740,
        "osm_type": "way",
        "name": "Kaufland",
        "brand": "Kaufland",
        "opening_hours": "07:00-22:00",
        "check_date": "2025-09-01"
      }
    },
    {
      "type": "Feature",
      "geometry": {
        "type": "Point",
        "coordinates": [
          15.5758785,
          49.4026251
        ]
      },
      "properties": {
        "id": 26575636,
        "osm_type": "way",
        "name": "Lidl",
        "brand": "Lidl",
        "opening_hours": "Mo-Sa 07:00-21:00; Su 08:00-21:00"
      }
    },
    {
      "type": "Feature",
      "geometry": {
        "type": "Point",
        "coordinates": [
          15.5679681,
          49.4090133
        ]
      },
      "properties": {
        "id": 26575641,
        "osm_type": "way",
        "name": "PENNY",
        "brand": "PENNY",
        "opening_hours": "07:00-22:00"
      }
    },
    {
      "type": "Feature",
      "geometry": {
        "type": "Point",
        "coordinates": [
          15.6062399,
          49.4016982
        ]
      },
      "properties": {
        "id": 26594503,
        "osm_type": "way",
        "name": "Lidl",
        "brand": "Lidl"
      }
    },
    {
      "type": "Feature",
      "geometry": {
        "type": "Point",
        "coordinates": [
          15.5799828,
          49.4078858
        ]
      },
      "properties": {
        "id": 26594513,
        "osm_type": "way",
        "name": "Albert",
        "brand": "Albert"
      }
    },
    {
      "type": "Feature",
      "geometry": {
        "type": "Point",
        "coordinates": [
          15.5826027,
          49.4065298
        ]
      },
      "properties": {
        "id": 26594631,
        "osm_type": "way",
        "name": "Kaufland",
        "brand": "Kaufland"
      }
    },
    {
      "type": "Feature",
      "geometry": {
        "type": "Point",
        "coordinates": [
          15.9420329,
          49.564975
        ]
      },
      "properties": {
        "id": 28511457,
        "osm_type": "way",
        "name": "Lidl",
        "brand": "Lidl",
        "check_date": "2025-07-22"
      }
    },
    {
      "type": "Feature",
      "geometry": {
        "type": "Point",
        "coordinates": [
          15.6015729,
          49.605329
        ]
      },
      "properties": {
        "id": 30908762,
        "osm_type": "way",
        "name": "Hypermarket Albert",
        "opening_hours": "Mo-Fr 07:00-22:00"
      }
    },
    {
      "type": "Feature",
      "geometry": {
        "type": "Point",
        "coordinates": [
          15.8954386,
          49.2237586
        ]
      },
      "properties": {
        "id": 31856084,
        "osm_type": "way",
        "name": "Penny Market",
        "brand": "Penny"
      }
    },
    {
      "type": "Feature",
      "geometry": {
        "type": "Point",
        "coordinates": [
          15.8919875,
          49.2187654
        ]
      },
      "properties": {
        "id": 31858184,
        "osm_type": "way"
      }
    },
    {
      "type": "Feature",
      "geometry": {
        "type": "Point",
        "coordinates": [
          15.8849041,
          49.2035948
        ]
      },
      "properties": {
        "id": 31858718,
        "osm_type": "way",
        "name": "Lidl",
        "brand": "Lidl"
      }
    },
    {
      "type": "Feature",
      "geometry": {
        "type": "Point",
        "coordinates": [
          15.8858683,
          49.2237006
        ]
      },
      "properties": {
        "id": 31902140,
        "osm_type": "way",
        "name": "Albert",
        "brand": "Albert"
      }
    },
    {
      "type": "Feature",
      "geometry": {
        "type": "Point",
        "coordinates": [
          15.5875923,
          49.4009109
        ]
      },
      "properties": {
        "id": 38544620,
        "osm_type": "way",
        "name": "Billa",
        "brand": "Billa"
      }
    },
    {
      "type": "Feature",
      "geometry": {
        "type": "Point",
        "coordinates": [
          15.5945695,
          49.3893289
        ]
      },
      "properties": {
        "id": 41525276,
        "osm_type": "way",
        "name": "Albert",
        "brand": "Albert"
      }
    },
    {
      "type": "Feature",
      "geometry": {
        "type": "Point",
        "coordinates": [
          15.5669771,
          49.3951824
        ]
      },
      "properties": {
        "id": 41796169,
        "osm_type": "way",
        "name": "Terno",
        "opening_hours": "Mo-Fr 06:30-19:30;Sa 07:00-19:00;Su 08:00-19:00"
      }
    },
    {
      "type": "Feature",
      "geometry": {
        "type": "Point",
        "coordinates": [
          16.0150638,
          49.3541107
        ]
      },
      "properties": {
        "id": 47512402,
        "osm_type": "way",
        "name": "Kotvička"
      }
    },
    {
      "type": "Feature",
      "geometry": {
        "type": "Point",
        "coordinates": [
          16.0205299,
          49.3483007
        ]
      },
      "properties": {
        "id": 47937629,
        "osm_type": "way",
        "name": "PENNY",
        "brand": "PENNY"
      }
    },
    {
      "type": "Feature",
      "geometry": {
        "type": "Point",
        "coordinates": [
          16.1575211,
          49.2051914
        ]
      },
      "properties": {
        "id": 48543779,
        "osm_type": "way",
        "name": "Penny",
        "brand": "Penny"
      }
    },
    {
      "type": "Feature",
      "geometry": {
        "type": "Point",
        "coordinates": [
          16.0196406,
          49.3502416
        ]
      },
      "properties": {
        "id": 48612884,
        "osm_type": "way",
        "name": "PENNY",
        "brand": "PENNY"
      }
    },
    {
      "type": "Feature",
      "geometry": {
        "type": "Point",
        "coordinates": [
          15.219753,
          49.4270596
        ]
      },
      "properties": {
        "id": 53554642,
        "osm_type": "way",
        "name": "FLOP"
      }
    },
    {
      "type": "Feature",
      "geometry": {
        "type": "Point",
        "coordinates": [
          15.8127286,
          49.049653
        ]
      },
      "properties": {
        "id": 54624762,
        "osm_type": "way",
        "name": "Billa",
        "brand": "Billa"
      }
    },
    {
      "type": "Feature",
      "geometry": {
        "type": "Point",
        "coordinates": [
          15.4129463,
          49.6674737
        ]
      },
      "properties": {
        "id": 86607242,
        "osm_type": "way",
        "name": "Penny",
        "brand": "Penny",
        "opening_hours": "Mo-Su 07:00-20:00"
      }
    },
    {
      "type": "Feature",
      "geometry": {
        "type": "Point",
        "coordinates": [
          15.4091984,
          49.6682652
        ]
      },
      "properties": {
        "id": 86607795,
        "osm_type": "way",
        "name": "Billa",
        "brand": "Billa",
        "opening_hours": "Mo-Sa 07:00-20:00; Su 08:00-20:00"
      }
    },
    {
      "type": "Feature",
      "geometry": {
        "type": "Point",
        "coordinates": [
          15.2239806,
          49.4251598
        ]
      },
      "properties": {
        "id": 87380088,
        "osm_type": "way",
        "name": "Penny",
        "brand": "Penny"
      }
    },
    {
      "type": "Feature",
      "geometry": {
        "type": "Point",
        "coordinates": [
          15.5750703,
          49.6051668
        ]
      },
      "properties": {
        "id": 87540700,
        "osm_type": "way",
        "name": "Billa",
        "brand": "Billa"
      }
    },
    {
      "type": "Feature",
      "geometry": {
        "type": "Point",
        "coordinates": [
          15.5756179,
          49.6182541
        ]
      },
      "properties": {
        "id": 87540742,
        "osm_type": "way",
        "name": "Penny Market HB",
        "brand": "PENNY",
        "opening_hours": "Mo-Su 07:00-20:00",
        "check_date": "2024-09-08"
      }
    },
    {
      "type": "Feature",
      "geometry": {
        "type": "Point",
        "coordinates": [
          15.5859368,
          49.6015134
        ]
      },
      "properties": {
        "id": 87665607,
        "osm_type": "way",
        "name": "Kaufland",
        "brand": "Kaufland",
        "opening_hours": "07:00-22:00"
      }
    },
    {
      "type": "Feature",
      "geometry": {
        "type": "Point",
        "coordinates": [
          15.58326,
          49.6011041
        ]
      },
      "properties": {
        "id": 87665613,
        "osm_type": "way",
        "name": "Pramen"
      }
    },
    {
      "type": "Feature",
      "geometry": {
        "type": "Point",
        "coordinates": [
          15.5791821,
          49.6126132
        ]
      },
      "properties": {
        "id": 87667403,
        "osm_type": "way",
        "name": "Pramen"
      }
    },
    {
      "type": "Feature",
      "geometry": {
        "type": "Point",
        "coordinates": [
          15.5993346,
          49.606977
        ]
      },
      "properties": {
        "id": 87974709,
        "osm_type": "way",
        "name": "Lidl",
        "brand": "Lidl",
        "opening_hours": "Mo-Sa 07:00-21:00; Su 08:00-21:00"
      }
    },
    {
      "type": "Feature",
      "geometry": {
        "type": "Point",
        "coordinates": [
          16.1517979,
          49.2072721
        ]
      },
      "properties": {
        "id": 91722952,
        "osm_type": "way",
        "name": "Coop Tip",
        "brand": "Coop Tip",
        "opening_hours": "Mo-Fr 07:00-19:00; Sa 07:00-12:00; Su 08:00-16:00"
      }
    },
    {
      "type": "Feature",
      "geometry": {
        "type": "Point",
        "coordinates": [
          15.8140317,
          49.0491796
        ]
      },
      "properties": {
        "id": 91924135,
        "osm_type": "way",
        "name": "PENNY",
        "brand": "Penny"
      }
    },
    {
      "type": "Feature",
      "geometry": {
        "type": "Point",
        "coordinates": [
          16.1240096,
          49.5084908
        ]
      },
      "properties": {
        "id": 93381115,
        "osm_type": "way",
        "name": "COOP Jednota",
        "brand": "COOP Jednota"
      }
    },
    {
      "type": "Feature",
      "geometry": {
        "type": "Point",
        "coordinates": [
          15.6702718,
          49.7177528
        ]
      },
      "properties": {
        "id": 104560572,
        "osm_type": "way",
        "name": "COOP Jednota - Doubravka",
        "brand": "COOP Jednota",
        "opening_hours": "Mo-Fr 06:00-18:00; Sa 06:00-12:00; Su 07:30-11:30"
      }
    },
    {
      "type": "Feature",
      "geometry": {
        "type": "Point",
        "coordinates": [
          15.6661278,
          49.7153677
        ]
      },
      "properties": {
        "id": 104560601,
        "osm_type": "way",
        "name": "Penny",
        "brand": "Penny"
      }
    },
    {
      "type": "Feature",
      "geometry": {
        "type": "Point",
        "coordinates": [
          15.3537404,
          49.5426877
        ]
      },
      "properties": {
        "id": 111736402,
        "osm_type": "way",
        "name": "Billa",
        "brand": "Billa",
        "opening_hours": "Mo-Sa 07:00-21:00; Su 08:00-20:00"
      }
    },
    {
      "type": "Feature",
      "geometry": {
        "type": "Point",
        "coordinates": [
          15.3463359,
          49.5417537
        ]
      },
      "properties": {
        "id": 111737044,
        "osm_type": "way",
        "name": "Penny",
        "brand": "Penny",
        "opening_hours": "Mo-Su 07:00-21:00"
      }
    },
    {
      "type": "Feature",
      "geometry": {
        "type": "Point",
        "coordinates": [
          15.3570778,
          49.545802
        ]
      },
      "properties": {
        "id": 111739454,
        "osm_type": "way",
        "name": "Penny Market Humpolec",
        "brand": "Penny",
        "opening_hours": "Mo-Su 07:00-20:00"
      }
    },
    {
      "type": "Feature",
      "geometry": {
        "type": "Point",
        "coordinates": [
          15.6625891,
          49.7114828
        ]
      },
      "properties": {
        "id": 139609109,
        "osm_type": "way",
        "name": "Tesco Chotěboř",
        "brand": "Tesco",
        "opening_hours": "Mo-Su 07:00-22:00"
      }
    },
    {
      "type": "Feature",
      "geometry": {
        "type": "Point",
        "coordinates": [
          15.6689853,
          49.7145312
        ]
      },
      "properties": {
        "id": 143066274,
        "osm_type": "way",
        "name": "Coop Diskont",
        "brand": "Coop Diskont"
      }
    },
    {
      "type": "Feature",
      "geometry": {
        "type": "Point",
        "coordinates": [
          15.2751417,
          49.6846819
        ]
      },
      "properties": {
        "id": 147319304,
        "osm_type": "way",
        "name": "Penny Market Ledeč n.S.",
        "brand": "Penny"
      }
    },
    {
      "type": "Feature",
      "geometry": {
        "type": "Point",
        "coordinates": [
          15.7682807,
          49.2457455
        ]
      },
      "properties": {
        "id": 175696937,
        "osm_type": "way",
        "name": "Albert",
        "brand": "Albert",
        "opening_hours": "Mo-Su 07:00-19:00"
      }
    },
    {
      "type": "Feature",
      "geometry": {
        "type": "Point",
        "coordinates": [
          15.3556308,
          49.5390285
        ]
      },
      "properties": {
        "id": 274568712,
        "osm_type": "way",
        "name": "Lidl",
        "brand": "Lidl",
        "opening_hours": "Mo-Sa 07:00-21:00; Su 08:00-21:00"
      }
    },
    {
      "type": "Feature",
      "geometry": {
        "type": "Point",
        "coordinates": [
          16.0238034,
          49.348124
        ]
      },
      "properties": {
        "id": 356356671,
        "osm_type": "way",
        "name": "Kaufland",
        "brand": "Kaufland",
        "opening_hours": "Mo-Su 07:00-22:00"
      }
    },
    {
      "type": "Feature",
      "geometry": {
        "type": "Point",
        "coordinates": [
          15.6096557,
          49.3962119
        ]
      },
      "properties": {
        "id": 409985984,
        "osm_type": "way",
        "name": "Tesco",
        "brand": "Tesco"
      }
    },
    {
      "type": "Feature",
      "geometry": {
        "type": "Point",
        "coordinates": [
          15.8882397,
          49.0985783
        ]
      },
      "properties": {
        "id": 508405707,
        "osm_type": "way",
        "name": "Centrum potravin Kučera",
        "opening_hours": "Mo-Sa 07:00-20:00"
      }
    },
    {
      "type": "Feature",
      "geometry": {
        "type": "Point",
        "coordinates": [
          15.6610124,
          49.5409652
        ]
      },
      "properties": {
        "id": 541341729,
        "osm_type": "way"
      }
    },
    {
      "type": "Feature",
      "geometry": {
        "type": "Point",
        "coordinates": [
          15.8979489,
          49.2156218
        ]
      },
      "properties": {
        "id": 655066389,
        "osm_type": "way",
        "name": "Lidl",
        "brand": "Lidl"
      }
    },
    {
      "type": "Feature",
      "geometry": {
        "type": "Point",
        "coordinates": [
          15.3450666,
          49.5392308
        ]
      },
      "properties": {
        "id": 912582245,
        "osm_type": "way",
        "name": "Kaufland",
        "brand": "Kaufland",
        "opening_hours": "Mo-Su 07:00-22:00"
      }
    },
    {
      "type": "Feature",
      "geometry": {
        "type": "Point",
        "coordinates": [
          15.2302011,
          49.2593232
        ]
      },
      "properties": {
        "id": 1018551444,
        "osm_type": "way",
        "name": "Penny",
        "brand": "Penny"
      }
    },
    {
      "type": "Feature",
      "geometry": {
        "type": "Point",
        "coordinates": [
          15.7407712,
          49.5812015
        ]
      },
      "properties": {
        "id": 1149256906,
        "osm_type": "way",
        "name": "Penny Market",
        "brand": "PENNY"
      }
    },
    {
      "type": "Feature",
      "geometry": {
        "type": "Point",
        "coordinates": [
          16.2186073,
          49.296323
        ]
      },
      "properties": {
        "id": 1206708144,
        "osm_type": "way",
        "name": "Lidl",
        "brand": "Lidl"
      }
    },
    {
      "type": "Feature",
      "geometry": {
        "type": "Point",
        "coordinates": [
          15.8044044,
          49.6966309
        ]
      },
      "properties": {
        "id": 1242287882,
        "osm_type": "way",
        "name": "Penny Market",
        "brand": "Penny",
        "opening_hours": "Mo-Su 07:00-20:00"
      }
    }
  ]
}