{
  "type": "FeatureCollection",
  "features": [
    {
      "type": "Feature",
      "geometry": {
        "type": "Point",
        "coordinates": [
          8.4494321,
          47.1077481
        ]
      },
      "properties": {
        "id": 13346549482,
        "osm_type": "node",
        "name": "McDonald's",
        "brand": "McDonald's",
        "opening_hours": "Mo-Th 10:00-23:00; Fr-Su 10:00-00:00",
        "phone": "+41 41 545 42 80",
        "brand:wikidata": "Q38076",
        "chain": "mcdonalds"
      }
    },
    {
      "type": "Feature",
      "geometry": {
        "type": "Point",
        "coordinates": [
          8.7520404,
          47.1963208
        ]
      },
      "properties": {
        "id": 473456103,
        "osm_type": "node",
        "name": "McDonald's",
        "brand": "McDonald's",
        "opening_hours": "Su-Th 06:00-24:00, Fr,Sa 06:00-02:00",
        "brand:wikidata": "Q38076",
        "chain": "mcdonalds"
      }
    },
    {
      "type": "Feature",
      "geometry": {
        "type": "Point",
        "coordinates": [
          8.627896,
          47.0323739
        ]
      },
      "properties": {
        "id": 31859285,
        "osm_type": "way",
        "name": "McDonald's",
        "brand": "McDonald's",
        "opening_hours": "Mo-Th 10:00-00:00; Fr 10:00-00:00; Sa,Su 00:00-02:00, 10:00-00:00",
        "operator": "McDonald's",
        "brand:wikidata": "Q38076",
        "chain": "mcdonalds"
      }
    }
  ]
}