{
  "type": "FeatureCollection",
  "features": [
    {
      "type": "Feature",
      "geometry": {
        "type": "Point",
        "coordinates": [
          8.5251103,
          46.9914127
        ]
      },
      "properties": {
        "id": 1575815267,
        "osm_type": "node",
        "name": "Volg",
        "brand": "Volg",
        "opening_hours": "Mo-Sa 07:00-19:00; Su 08:00-18:00; Nov-Mar Su 08:00-12:00"
      }
    },
    {
      "type": "Feature",
      "geometry": {
        "type": "Point",
        "coordinates": [
          8.72426,
          46.9879117
        ]
      },
      "properties": {
        "id": 4127520001,
        "osm_type": "node",
        "name": "Volg",
        "brand": "Volg",
        "opening_hours": "Mo-Fr 07:30-12:00, 14:00-18:30; Sa 07:30-16:00; Su off"
      }
    },
    {
      "type": "Feature",
      "geometry": {
        "type": "Point",
        "coordinates": [
          8.4418228,
          47.0835538
        ]
      },
      "properties": {
        "id": 1411316291,
        "osm_type": "node",
        "name": "Denner",
        "brand": "Denner"
      }
    },
    {
      "type": "Feature",
      "geometry": {
        "type": "Point",
        "coordinates": [
          8.441276,
          47.0838219
        ]
      },
      "properties": {
        "id": 1411316292,
        "osm_type": "node",
        "name": "Migros",
        "brand": "Migros",
        "opening_hours": "Mo-Fr 08:00-20:00, Sa 08:00-19:00; PH off"
      }
    },
    {
      "type": "Feature",
      "geometry": {
        "type": "Point",
        "coordinates": [
          8.4629726,
          47.096447
        ]
      },
      "properties": {
        "id": 1080951354,
        "osm_type": "node",
        "name": "Volg",
        "brand": "Volg",
        "opening_hours": "Mo-Fr 06:00-19:00; Sa-Su 07:00-19:00"
      }
    },
    {
      "type": "Feature",
      "geometry": {
        "type": "Point",
        "coordinates": [
          8.5480754,
          47.0448173
        ]
      },
      "properties": {
        "id": 10221155424,
        "osm_type": "node",
        "name": "Licht Natur"
      }
    },
    {
      "type": "Feature",
      "geometry": {
        "type": "Point",
        "coordinates": [
          8.5235837,
          47.0645486
        ]
      },
      "properties": {
        "id": 1433944987,
        "osm_type": "node",
        "name": "Spar",
        "brand": "Spar",
        "opening_hours": "Mo-Fr 07:00-19:00; Sa 07:00-15:00"
      }
    },
    {
      "type": "Feature",
      "geometry": {
        "type": "Point",
        "coordinates": [
          8.550274,
          47.0504061
        ]
      },
      "properties": {
        "id": 2866713901,
        "osm_type": "node",
        "name": "Coop",
        "brand": "Coop",
        "opening_hours": "Mo-Sa 07:30-20:00"
      }
    },
    {
      "type": "Feature",
      "geometry": {
        "type": "Point",
        "coordinates": [
          8.5509558,
          47.0508444
        ]
      },
      "properties": {
        "id": 2866812512,
        "osm_type": "node",
        "name": "Migros",
        "brand": "Migros",
        "opening_hours": "Mo-Th 08:00-19:00, Fr 08:00-20:00, Sa 08:00-18:00; PH off"
      }
    },
    {
      "type": "Feature",
      "geometry": {
        "type": "Point",
        "coordinates": [
          8.6075027,
          46.996546
        ]
      },
      "properties": {
        "id": 4343491253,
        "osm_type": "node",
        "name": "Coop",
        "brand": "Coop",
        "opening_hours": "Mo-Sa 07:30-20:00"
      }
    },
    {
      "type": "Feature",
      "geometry": {
        "type": "Point",
        "coordinates": [
          8.6089199,
          46.999906
        ]
      },
      "properties": {
        "id": 384874978,
        "osm_type": "node",
        "name": "Denner",
        "brand": "Denner"
      }
    },
    {
      "type": "Feature",
      "geometry": {
        "type": "Point",
        "coordinates": [
          8.6092318,
          46.9998738
        ]
      },
      "properties": {
        "id": 1575842960,
        "osm_type": "node",
        "name": "Migros",
        "brand": "Migros",
        "opening_hours": "Mo-Fr 08:00-19:00, Sa 08:00-17:00"
      }
    },
    {
      "type": "Feature",
      "geometry": {
        "type": "Point",
        "coordinates": [
          8.6113208,
          47.0010596
        ]
      },
      "properties": {
        "id": 9947587529,
        "osm_type": "node",
        "name": "Lidl",
        "brand": "Lidl",
        "opening_hours": "Mo-Th, Sa 07:30-20:00; Fr 07:30-21:00"
      }
    },
    {
      "type": "Feature",
      "geometry": {
        "type": "Point",
        "coordinates": [
          8.6458641,
          47.0154045
        ]
      },
      "properties": {
        "id": 3510810512,
        "osm_type": "node",
        "name": "Migros",
        "brand": "Migros",
        "opening_hours": "Mo-Th 09:00-20:00, Fr 09:00-21:00, Sa 08:00-18:00"
      }
    },
    {
      "type": "Feature",
      "geometry": {
        "type": "Point",
        "coordinates": [
          8.6474974,
          47.0153632
        ]
      },
      "properties": {
        "id": 7299717750,
        "osm_type": "node",
        "name": "Denner",
        "brand": "Denner"
      }
    },
    {
      "type": "Feature",
      "geometry": {
        "type": "Point",
        "coordinates": [
          8.6367518,
          47.024758
        ]
      },
      "properties": {
        "id": 10899535410,
        "osm_type": "node",
        "name": "Liquidationen Radikal Liquidations ¦ GESCHLOSSEN",
        "opening_hours": "Mo-Fr 09:00-12:00, 13:30-18:30; Sa 09:00-16:00"
      }
    },
    {
      "type": "Feature",
      "geometry": {
        "type": "Point",
        "coordinates": [
          8.6295711,
          47.0296794
        ]
      },
      "properties": {
        "id": 10272242701,
        "osm_type": "node",
        "name": "Denner",
        "brand": "Denner",
        "opening_hours": "Mo-Th 06:30-19:00; Fr 06:30-20:00; Sa 07:00-17:00"
      }
    },
    {
      "type": "Feature",
      "geometry": {
        "type": "Point",
        "coordinates": [
          8.6320516,
          47.0278436
        ]
      },
      "properties": {
        "id": 9355223423,
        "osm_type": "node",
        "name": "Spar",
        "brand": "Spar",
        "opening_hours": "Mo-Fr 06:30-19:00; Sa 07:00-17:00"
      }
    },
    {
      "type": "Feature",
      "geometry": {
        "type": "Point",
        "coordinates": [
          8.6281987,
          47.032874
        ]
      },
      "properties": {
        "id": 3723824807,
        "osm_type": "node",
        "name": "Coop",
        "brand": "Coop",
        "opening_hours": "Mo-Th,Sa 08:00-20:00; Fr 08:00-21:00"
      }
    },
    {
      "type": "Feature",
      "geometry": {
        "type": "Point",
        "coordinates": [
          8.651667,
          47.0202366
        ]
      },
      "properties": {
        "id": 291379304,
        "osm_type": "node",
        "name": "Coop",
        "brand": "Coop",
        "opening_hours": "Mo-Fr 07:30-19:00; Sa 07:30-18:00"
      }
    },
    {
      "type": "Feature",
      "geometry": {
        "type": "Point",
        "coordinates": [
          8.6567979,
          47.0206359
        ]
      },
      "properties": {
        "id": 5762808948,
        "osm_type": "node",
        "name": "Denner Satellit",
        "brand": "Denner"
      }
    },
    {
      "type": "Feature",
      "geometry": {
        "type": "Point",
        "coordinates": [
          8.6128461,
          47.0489528
        ]
      },
      "properties": {
        "id": 7389830912,
        "osm_type": "node",
        "name": "Denner Partner",
        "brand": "Denner"
      }
    },
    {
      "type": "Feature",
      "geometry": {
        "type": "Point",
        "coordinates": [
          8.6341717,
          47.0812005
        ]
      },
      "properties": {
        "id": 1823099745,
        "osm_type": "node",
        "name": "Volg",
        "brand": "Volg",
        "opening_hours": "Mo-Fr 06:00-19:00; Sa 06:00-17:00"
      }
    },
    {
      "type": "Feature",
      "geometry": {
        "type": "Point",
        "coordinates": [
          8.7039962,
          47.0426478
        ]
      },
      "properties": {
        "id": 10099037415,
        "osm_type": "node",
        "name": "Skiverleih Brunni Rental Lodge",
        "brand": "Head;Fischer",
        "opening_hours": "Mo-Su 08:30-17:00"
      }
    },
    {
      "type": "Feature",
      "geometry": {
        "type": "Point",
        "coordinates": [
          8.779794,
          47.0383052
        ]
      },
      "properties": {
        "id": 324153785,
        "osm_type": "node",
        "name": "Volg",
        "brand": "Volg",
        "opening_hours": "Mo-Fr 07:00-12:15, 14:00-19:00; Sa-Su 07:00-17:00"
      }
    },
    {
      "type": "Feature",
      "geometry": {
        "type": "Point",
        "coordinates": [
          8.8004457,
          47.0585539
        ]
      },
      "properties": {
        "id": 895808166,
        "osm_type": "node",
        "name": "Spar",
        "brand": "Spar",
        "opening_hours": "Mo-Fr 07:00-19:30; Sa 07:00-18:00"
      }
    },
    {
      "type": "Feature",
      "geometry": {
        "type": "Point",
        "coordinates": [
          8.8023233,
          47.0597535
        ]
      },
      "properties": {
        "id": 895808079,
        "osm_type": "node",
        "name": "Prima",
        "opening_hours": "Mo,Tu,Th,Fr 07:00-12:00,14:00-18:30; We 07:00-12:00; Sa 07:00-16:00"
      }
    },
    {
      "type": "Feature",
      "geometry": {
        "type": "Point",
        "coordinates": [
          8.6755663,
          47.1035633
        ]
      },
      "properties": {
        "id": 9980053269,
        "osm_type": "node",
        "name": "Volg",
        "brand": "Volg",
        "opening_hours": "Mo-Sa 06:00-19:00; Su 06:00-12:00"
      }
    },
    {
      "type": "Feature",
      "geometry": {
        "type": "Point",
        "coordinates": [
          8.743477,
          47.1285949
        ]
      },
      "properties": {
        "id": 800659128,
        "osm_type": "node",
        "name": "Volg",
        "brand": "Volg",
        "opening_hours": "Mo-Fr 06:00-18:30; Sa 07:00-16:00; Su 07:00-12:00"
      }
    },
    {
      "type": "Feature",
      "geometry": {
        "type": "Point",
        "coordinates": [
          8.7461406,
          47.1287297
        ]
      },
      "properties": {
        "id": 2577948127,
        "osm_type": "node",
        "name": "Migros",
        "brand": "Migros",
        "opening_hours": "Mo-Fr 08:00-20:00, Sa 08:00-18:00; PH off"
      }
    },
    {
      "type": "Feature",
      "geometry": {
        "type": "Point",
        "coordinates": [
          8.7436436,
          47.1310282
        ]
      },
      "properties": {
        "id": 800656826,
        "osm_type": "node",
        "name": "Denner",
        "brand": "Denner"
      }
    },
    {
      "type": "Feature",
      "geometry": {
        "type": "Point",
        "coordinates": [
          8.711475,
          47.1743372
        ]
      },
      "properties": {
        "id": 345560177,
        "osm_type": "node",
        "name": "Spar",
        "brand": "Spar",
        "opening_hours": "Mo-Fr 07:00-19:30; Sa 07:00-18:00"
      }
    },
    {
      "type": "Feature",
      "geometry": {
        "type": "Point",
        "coordinates": [
          8.7130911,
          47.1757272
        ]
      },
      "properties": {
        "id": 7390289543,
        "osm_type": "node",
        "name": "Migros",
        "brand": "Migros",
        "opening_hours": "Mo-Fr 08:00-20:00, Sa 08:00-18:00; PH off"
      }
    },
    {
      "type": "Feature",
      "geometry": {
        "type": "Point",
        "coordinates": [
          8.726828,
          47.1681362
        ]
      },
      "properties": {
        "id": 4602150494,
        "osm_type": "node",
        "name": "Premiumshop - Genusshalle",
        "opening_hours": "Mo-Fr 06:00-21:00; Sa-Su 07:00-21:00"
      }
    },
    {
      "type": "Feature",
      "geometry": {
        "type": "Point",
        "coordinates": [
          8.721596,
          47.1918481
        ]
      },
      "properties": {
        "id": 1347029585,
        "osm_type": "node",
        "name": "Migros",
        "brand": "Migros",
        "opening_hours": "Mo-Sa 07:30-20:00; PH off"
      }
    },
    {
      "type": "Feature",
      "geometry": {
        "type": "Point",
        "coordinates": [
          8.7231329,
          47.1951635
        ]
      },
      "properties": {
        "id": 1346995360,
        "osm_type": "node",
        "name": "Coop",
        "brand": "Coop",
        "opening_hours": "Mo-Sa 07:00-20:00"
      }
    },
    {
      "type": "Feature",
      "geometry": {
        "type": "Point",
        "coordinates": [
          8.7226229,
          47.1964113
        ]
      },
      "properties": {
        "id": 5513256743,
        "osm_type": "node",
        "name": "Denner",
        "brand": "Denner",
        "opening_hours": "Mo-Sa 07:30-20:00; PH off"
      }
    },
    {
      "type": "Feature",
      "geometry": {
        "type": "Point",
        "coordinates": [
          8.7783749,
          47.2005652
        ]
      },
      "properties": {
        "id": 283199465,
        "osm_type": "node",
        "name": "Coop",
        "brand": "Coop",
        "opening_hours": "Mo-Sa 07:00-20:00"
      }
    },
    {
      "type": "Feature",
      "geometry": {
        "type": "Point",
        "coordinates": [
          8.7942008,
          47.2007179
        ]
      },
      "properties": {
        "id": 1989668095,
        "osm_type": "node",
        "name": "Coop",
        "brand": "Coop"
      }
    },
    {
      "type": "Feature",
      "geometry": {
        "type": "Point",
        "coordinates": [
          8.7932039,
          47.2004223
        ]
      },
      "properties": {
        "id": 1989668103,
        "osm_type": "node",
        "name": "Migros",
        "brand": "Migros",
        "opening_hours": "Mo-Fr 09:00-21:00, Sa 08:00-18:00; PH off"
      }
    },
    {
      "type": "Feature",
      "geometry": {
        "type": "Point",
        "coordinates": [
          8.7931378,
          47.2008165
        ]
      },
      "properties": {
        "id": 7465426724,
        "osm_type": "node",
        "name": "Denner",
        "brand": "Denner"
      }
    },
    {
      "type": "Feature",
      "geometry": {
        "type": "Point",
        "coordinates": [
          8.7586583,
          47.2035194
        ]
      },
      "properties": {
        "id": 13302401281,
        "osm_type": "node",
        "name": "Coop",
        "opening_hours": "Mo-Sa 07:00-20:00; PH closed"
      }
    },
    {
      "type": "Feature",
      "geometry": {
        "type": "Point",
        "coordinates": [
          8.8103652,
          47.1991151
        ]
      },
      "properties": {
        "id": 12488576193,
        "osm_type": "node",
        "name": "Coop",
        "brand": "Coop",
        "opening_hours": "Mo-Sa 07:00-20:00"
      }
    },
    {
      "type": "Feature",
      "geometry": {
        "type": "Point",
        "coordinates": [
          8.8297452,
          47.1919808
        ]
      },
      "properties": {
        "id": 2118018216,
        "osm_type": "node",
        "name": "Denner Satellit",
        "brand": "Denner",
        "opening_hours": "Mo-Fr 07:00-19:00; Sa 07:00-17:00; PH off"
      }
    },
    {
      "type": "Feature",
      "geometry": {
        "type": "Point",
        "coordinates": [
          8.83079,
          47.1927155
        ]
      },
      "properties": {
        "id": 2118018221,
        "osm_type": "node",
        "name": "Spar",
        "brand": "Spar",
        "opening_hours": "Mo-Fr 07:00-21:00; Sa 07:00-18:00"
      }
    },
    {
      "type": "Feature",
      "geometry": {
        "type": "Point",
        "coordinates": [
          8.8551943,
          47.1916974
        ]
      },
      "properties": {
        "id": 2570311006,
        "osm_type": "node",
        "name": "Migros",
        "brand": "Migros",
        "opening_hours": "Mo-Fr 08:00-20:00, Sa 08:00-18:00; PH off"
      }
    },
    {
      "type": "Feature",
      "geometry": {
        "type": "Point",
        "coordinates": [
          8.8555993,
          47.1916482
        ]
      },
      "properties": {
        "id": 2570311007,
        "osm_type": "node",
        "name": "Coop",
        "brand": "Coop"
      }
    },
    {
      "type": "Feature",
      "geometry": {
        "type": "Point",
        "coordinates": [
          8.8550816,
          47.1914915
        ]
      },
      "properties": {
        "id": 2570311008,
        "osm_type": "node",
        "name": "Denner",
        "brand": "Denner"
      }
    },
    {
      "type": "Feature",
      "geometry": {
        "type": "Point",
        "coordinates": [
          8.8933916,
          47.1758299
        ]
      },
      "properties": {
        "id": 13204666201,
        "osm_type": "node",
        "name": "Lidl",
        "brand": "Lidl",
        "opening_hours": "Mo-Sa 07:30-20:00"
      }
    },
    {
      "type": "Feature",
      "geometry": {
        "type": "Point",
        "coordinates": [
          8.9022254,
          47.1755809
        ]
      },
      "properties": {
        "id": 277204947,
        "osm_type": "node",
        "name": "Coop",
        "brand": "Coop",
        "opening_hours": "Mo-Fr 08:00-20:00; Sa 07:30-20:00"
      }
    },
    {
      "type": "Feature",
      "geometry": {
        "type": "Point",
        "coordinates": [
          8.901942,
          47.1759674
        ]
      },
      "properties": {
        "id": 277204951,
        "osm_type": "node",
        "name": "Denner",
        "brand": "Denner",
        "opening_hours": "Mo-Fr 08:00-20:00; Sa 07:30-20:00"
      }
    },
    {
      "type": "Feature",
      "geometry": {
        "type": "Point",
        "coordinates": [
          8.900457,
          47.1753504
        ]
      },
      "properties": {
        "id": 1635306340,
        "osm_type": "node",
        "name": "VOI",
        "brand": "VOI",
        "opening_hours": "Mo-Sa 07:30-20:00; PH off"
      }
    },
    {
      "type": "Feature",
      "geometry": {
        "type": "Point",
        "coordinates": [
          8.9121709,
          47.1753518
        ]
      },
      "properties": {
        "id": 6810431764,
        "osm_type": "node",
        "name": "Aldi",
        "brand": "Aldi",
        "opening_hours": "Mo-Sa 07:30-20:00; PH off"
      }
    },
    {
      "type": "Feature",
      "geometry": {
        "type": "Point",
        "coordinates": [
          8.8995678,
          47.1824867
        ]
      },
      "properties": {
        "id": 5405006535,
        "osm_type": "node",
        "name": "Laveba Shop",
        "opening_hours": "Mo-Fr 06:00-21:00; Sa-Su 07:00-21:00"
      }
    },
    {
      "type": "Feature",
      "geometry": {
        "type": "Point",
        "coordinates": [
          8.8965076,
          47.189675
        ]
      },
      "properties": {
        "id": 429282986,
        "osm_type": "node",
        "name": "Spar",
        "brand": "Spar",
        "opening_hours": "Mo-Fr 07:00-19:30; Sa 07:00-19:00"
      }
    },
    {
      "type": "Feature",
      "geometry": {
        "type": "Point",
        "coordinates": [
          8.957314,
          47.173469
        ]
      },
      "properties": {
        "id": 1814667113,
        "osm_type": "node",
        "name": "Denner Partner",
        "brand": "Denner"
      }
    },
    {
      "type": "Feature",
      "geometry": {
        "type": "Point",
        "coordinates": [
          8.9688639,
          47.1725649
        ]
      },
      "properties": {
        "id": 9494808348,
        "osm_type": "node",
        "name": "Migros",
        "brand": "Migros",
        "opening_hours": "Mo-Fr 07:30-20:00, Sa 07:30-18:00"
      }
    },
    {
      "type": "Feature",
      "geometry": {
        "type": "Point",
        "coordinates": [
          8.9799232,
          47.167425
        ]
      },
      "properties": {
        "id": 6566460811,
        "osm_type": "node",
        "name": "Coop",
        "brand": "Coop"
      }
    },
    {
      "type": "Feature",
      "geometry": {
        "type": "Point",
        "coordinates": [
          8.9418092,
          47.2023497
        ]
      },
      "properties": {
        "id": 279818318,
        "osm_type": "node",
        "name": "Volg",
        "brand": "Volg",
        "opening_hours": "Mo-Sa 06:00-20:00; PH closed"
      }
    },
    {
      "type": "Feature",
      "geometry": {
        "type": "Point",
        "coordinates": [
          8.7668776,
          46.9727013
        ]
      },
      "properties": {
        "id": 291764709,
        "osm_type": "way",
        "name": "Spar",
        "brand": "Spar"
      }
    },
    {
      "type": "Feature",
      "geometry": {
        "type": "Point",
        "coordinates": [
          8.4396805,
          47.0825004
        ]
      },
      "properties": {
        "id": 385368229,
        "osm_type": "way",
        "name": "Coop",
        "brand": "Coop"
      }
    },
    {
      "type": "Feature",
      "geometry": {
        "type": "Point",
        "coordinates": [
          8.448779,
          47.0924142
        ]
      },
      "properties": {
        "id": 227197521,
        "osm_type": "way",
        "name": "Landi",
        "brand": "Landi"
      }
    },
    {
      "type": "Feature",
      "geometry": {
        "type": "Point",
        "coordinates": [
          8.5487595,
          47.0503409
        ]
      },
      "properties": {
        "id": 204259966,
        "osm_type": "way",
        "name": "Denner",
        "brand": "Denner",
        "opening_hours": "Mo-Fr 08:00-19:00;Sa 08:00-17:00"
      }
    },
    {
      "type": "Feature",
      "geometry": {
        "type": "Point",
        "coordinates": [
          8.4502076,
          47.1072539
        ]
      },
      "properties": {
        "id": 154831418,
        "osm_type": "way",
        "name": "Aldi",
        "brand": "Aldi",
        "opening_hours": "Mo-We,Sa 07:30-20:00; Th-Fr 07:30-21:00; PH off"
      }
    },
    {
      "type": "Feature",
      "geometry": {
        "type": "Point",
        "coordinates": [
          8.4501761,
          47.1063274
        ]
      },
      "properties": {
        "id": 636383378,
        "osm_type": "way",
        "name": "Lidl",
        "brand": "Lidl",
        "opening_hours": "Mo-Fr 07:30-21:00; Sa 07:30-20:00"
      }
    },
    {
      "type": "Feature",
      "geometry": {
        "type": "Point",
        "coordinates": [
          8.6203494,
          47.0033419
        ]
      },
      "properties": {
        "id": 733978849,
        "osm_type": "way",
        "name": "ALDI",
        "brand": "ALDI",
        "opening_hours": "Mo-Th, Sa 07:30-20:00; Fr 07:30-21:00"
      }
    },
    {
      "type": "Feature",
      "geometry": {
        "type": "Point",
        "coordinates": [
          8.6277377,
          47.0311735
        ]
      },
      "properties": {
        "id": 204360636,
        "osm_type": "way",
        "name": "Lidl",
        "brand": "Lidl",
        "opening_hours": "Mo-Th, Sa 07:30-20:00; Fr 07:30-21:00"
      }
    },
    {
      "type": "Feature",
      "geometry": {
        "type": "Point",
        "coordinates": [
          8.745888,
          47.126874
        ]
      },
      "properties": {
        "id": 68456966,
        "osm_type": "way",
        "name": "Coop",
        "brand": "Coop",
        "opening_hours": "Mo-Fr 07:30-19:00; Sa 07:30-18:00; Su off"
      }
    },
    {
      "type": "Feature",
      "geometry": {
        "type": "Point",
        "coordinates": [
          8.7451981,
          47.1325071
        ]
      },
      "properties": {
        "id": 258502276,
        "osm_type": "way",
        "name": "Coop",
        "brand": "Coop",
        "opening_hours": "Mo-Sa 08:00-20:00"
      }
    },
    {
      "type": "Feature",
      "geometry": {
        "type": "Point",
        "coordinates": [
          8.744911,
          47.1383705
        ]
      },
      "properties": {
        "id": 219200737,
        "osm_type": "way",
        "name": "Lidl",
        "brand": "Lidl",
        "opening_hours": "Mo-Fr 07:30-20:00; Sa 07:30-18:00"
      }
    },
    {
      "type": "Feature",
      "geometry": {
        "type": "Point",
        "coordinates": [
          8.7400027,
          47.1898953
        ]
      },
      "properties": {
        "id": 195291147,
        "osm_type": "way",
        "name": "Aldi",
        "brand": "Aldi",
        "opening_hours": "Mo-Sa 07:30-20:00; Su,PH off"
      }
    },
    {
      "type": "Feature",
      "geometry": {
        "type": "Point",
        "coordinates": [
          8.7544008,
          47.2063967
        ]
      },
      "properties": {
        "id": 190486168,
        "osm_type": "way",
        "name": "Spar",
        "brand": "Spar",
        "opening_hours": "Mo-Fr 07:00-19:30; Sa 07:00-18:00; PH closed"
      }
    },
    {
      "type": "Feature",
      "geometry": {
        "type": "Point",
        "coordinates": [
          8.7662247,
          47.2036364
        ]
      },
      "properties": {
        "id": 191364308,
        "osm_type": "way",
        "name": "Denner",
        "brand": "Denner",
        "opening_hours": "Mo-Sa 07:00-20:00; PH closed"
      }
    },
    {
      "type": "Feature",
      "geometry": {
        "type": "Point",
        "coordinates": [
          8.8184289,
          47.1939144
        ]
      },
      "properties": {
        "id": 160128361,
        "osm_type": "way",
        "name": "Lidl",
        "brand": "Lidl"
      }
    }
  ]
}