{
  "type": "FeatureCollection",
  "features": [
    {
      "type": "Feature",
      "geometry": {
        "type": "Point",
        "coordinates": [
          23.0506252,
          62.9597152
        ]
      },
      "properties": {
        "id": 454729256,
        "osm_type": "node",
        "name": "Shell Tamppari, Lapua",
        "opening_hours": "24/7"
      }
    },
    {
      "type": "Feature",
      "geometry": {
        "type": "Point",
        "coordinates": [
          22.276382,
          63.0119306
        ]
      },
      "properties": {
        "id": 902830664,
        "osm_type": "node",
        "name": "Tuuralan Kyläkaffila"
      }
    },
    {
      "type": "Feature",
      "geometry": {
        "type": "Point",
        "coordinates": [
          22.0545683,
          62.12481
        ]
      },
      "properties": {
        "id": 1144464013,
        "osm_type": "node",
        "name": "Lauhansarvi"
      }
    },
    {
      "type": "Feature",
      "geometry": {
        "type": "Point",
        "coordinates": [
          23.8434682,
          62.6479068
        ]
      },
      "properties": {
        "id": 1378775400,
        "osm_type": "node",
        "name": "Sepänniemen kahvio",
        "outdoor_seating": "yes"
      }
    },
    {
      "type": "Feature",
      "geometry": {
        "type": "Point",
        "coordinates": [
          23.7223107,
          62.6034226
        ]
      },
      "properties": {
        "id": 1390781476,
        "osm_type": "node",
        "name": "OnnenTähti Kahvila",
        "opening_hours": "Mo-Fr 09:00-19:30;Sa 09:00-17:30"
      }
    },
    {
      "type": "Feature",
      "geometry": {
        "type": "Point",
        "coordinates": [
          23.7267405,
          62.6028918
        ]
      },
      "properties": {
        "id": 1552202358,
        "osm_type": "node",
        "name": "Vesa's Café",
        "opening_hours": "Mo-Fr 08:00-21:00;Sa 08:00-18:00;Su 11:30-18:00"
      }
    },
    {
      "type": "Feature",
      "geometry": {
        "type": "Point",
        "coordinates": [
          23.6170283,
          62.5867917
        ]
      },
      "properties": {
        "id": 1552343015,
        "osm_type": "node",
        "name": "Leipomo-Kahvila Nallenpesä",
        "opening_hours": "Mo-Fr 05:00-17:00; Sa 07:30-14:00; Su off"
      }
    },
    {
      "type": "Feature",
      "geometry": {
        "type": "Point",
        "coordinates": [
          23.6100963,
          62.59346
        ]
      },
      "properties": {
        "id": 1552355891,
        "osm_type": "node",
        "name": "ABC",
        "brand": "ABC",
        "opening_hours": "Mo-Fr 06:00-22:00; Sa 07:00-22:00; Su 08:00-22:00"
      }
    },
    {
      "type": "Feature",
      "geometry": {
        "type": "Point",
        "coordinates": [
          23.9474969,
          62.8207641
        ]
      },
      "properties": {
        "id": 1559091659,
        "osm_type": "node",
        "name": "Neste Lehtimäki"
      }
    },
    {
      "type": "Feature",
      "geometry": {
        "type": "Point",
        "coordinates": [
          24.208385,
          62.8725765
        ]
      },
      "properties": {
        "id": 1592965294,
        "osm_type": "node"
      }
    },
    {
      "type": "Feature",
      "geometry": {
        "type": "Point",
        "coordinates": [
          22.7298198,
          62.5113823
        ]
      },
      "properties": {
        "id": 1634022549,
        "osm_type": "node",
        "name": "Jalastuuli",
        "opening_hours": "24/7"
      }
    },
    {
      "type": "Feature",
      "geometry": {
        "type": "Point",
        "coordinates": [
          23.6050376,
          62.5875111
        ]
      },
      "properties": {
        "id": 1650121634,
        "osm_type": "node",
        "name": "Alavuskirppiksen kahvio"
      }
    },
    {
      "type": "Feature",
      "geometry": {
        "type": "Point",
        "coordinates": [
          22.4038131,
          62.6238391
        ]
      },
      "properties": {
        "id": 1665636397,
        "osm_type": "node",
        "name": "Neste Kurikka, Varikko"
      }
    },
    {
      "type": "Feature",
      "geometry": {
        "type": "Point",
        "coordinates": [
          21.9638432,
          62.1115927
        ]
      },
      "properties": {
        "id": 1666857661,
        "osm_type": "node",
        "name": "Cafe Meteora"
      }
    },
    {
      "type": "Feature",
      "geometry": {
        "type": "Point",
        "coordinates": [
          23.0555735,
          63.0078437
        ]
      },
      "properties": {
        "id": 1679994287,
        "osm_type": "node"
      }
    },
    {
      "type": "Feature",
      "geometry": {
        "type": "Point",
        "coordinates": [
          23.8027863,
          63.0097423
        ]
      },
      "properties": {
        "id": 1698471548,
        "osm_type": "node",
        "name": "Teboil Alajärvi",
        "opening_hours": "Mo-Fr 6:30-19:00; Sa-Su 08:00-19:00"
      }
    },
    {
      "type": "Feature",
      "geometry": {
        "type": "Point",
        "coordinates": [
          24.1747272,
          62.5411842
        ]
      },
      "properties": {
        "id": 1830552508,
        "osm_type": "node",
        "name": "Kaakkolammen kahvio",
        "opening_hours": "Mo-Su,PH 10:30-17:00",
        "outdoor_seating": "yes"
      }
    },
    {
      "type": "Feature",
      "geometry": {
        "type": "Point",
        "coordinates": [
          23.5072543,
          62.8063514
        ]
      },
      "properties": {
        "id": 1998565464,
        "osm_type": "node"
      }
    },
    {
      "type": "Feature",
      "geometry": {
        "type": "Point",
        "coordinates": [
          23.616349,
          62.5852558
        ]
      },
      "properties": {
        "id": 2004045546,
        "osm_type": "node",
        "name": "Cafe Kyntäjä"
      }
    },
    {
      "type": "Feature",
      "geometry": {
        "type": "Point",
        "coordinates": [
          23.6153151,
          62.5922051
        ]
      },
      "properties": {
        "id": 2238163086,
        "osm_type": "node"
      }
    },
    {
      "type": "Feature",
      "geometry": {
        "type": "Point",
        "coordinates": [
          22.4016333,
          62.6205836
        ]
      },
      "properties": {
        "id": 2327725431,
        "osm_type": "node",
        "name": "Kipsakka"
      }
    },
    {
      "type": "Feature",
      "geometry": {
        "type": "Point",
        "coordinates": [
          23.4670108,
          63.3594778
        ]
      },
      "properties": {
        "id": 2356668687,
        "osm_type": "node",
        "name": "Liikenneasema Mäntyhovi",
        "opening_hours": "Mo-Sa 06:00-22:00; Su 09:00-22:00"
      }
    },
    {
      "type": "Feature",
      "geometry": {
        "type": "Point",
        "coordinates": [
          23.8151787,
          63.0002958
        ]
      },
      "properties": {
        "id": 2992011004,
        "osm_type": "node",
        "name": "Kahvila Toivo"
      }
    },
    {
      "type": "Feature",
      "geometry": {
        "type": "Point",
        "coordinates": [
          23.8160911,
          63.0015917
        ]
      },
      "properties": {
        "id": 2992011012,
        "osm_type": "node",
        "name": "Yökahvila Risteyspaikka"
      }
    },
    {
      "type": "Feature",
      "geometry": {
        "type": "Point",
        "coordinates": [
          24.1111842,
          62.5566286
        ]
      },
      "properties": {
        "id": 3461933226,
        "osm_type": "node",
        "name": "Neste Ähtäri"
      }
    },
    {
      "type": "Feature",
      "geometry": {
        "type": "Point",
        "coordinates": [
          22.8406686,
          62.7898314
        ]
      },
      "properties": {
        "id": 3606101943,
        "osm_type": "node",
        "name": "Fafa's",
        "brand": "Fafa's"
      }
    },
    {
      "type": "Feature",
      "geometry": {
        "type": "Point",
        "coordinates": [
          22.8763861,
          62.8056865
        ]
      },
      "properties": {
        "id": 3606101948,
        "osm_type": "node",
        "name": "Presso",
        "brand": "Presso"
      }
    },
    {
      "type": "Feature",
      "geometry": {
        "type": "Point",
        "coordinates": [
          22.8407638,
          62.7896065
        ]
      },
      "properties": {
        "id": 3606101949,
        "osm_type": "node",
        "name": "Kahvila-Konditoria Pikku Paussi"
      }
    },
    {
      "type": "Feature",
      "geometry": {
        "type": "Point",
        "coordinates": [
          22.8374605,
          62.7898054
        ]
      },
      "properties": {
        "id": 3606101956,
        "osm_type": "node",
        "name": "Café Kismus"
      }
    },
    {
      "type": "Feature",
      "geometry": {
        "type": "Point",
        "coordinates": [
          22.8794055,
          62.7901409
        ]
      },
      "properties": {
        "id": 4038924881,
        "osm_type": "node",
        "name": "Minimanin lounaskavila",
        "opening_hours": "8:00-17:00"
      }
    },
    {
      "type": "Feature",
      "geometry": {
        "type": "Point",
        "coordinates": [
          22.8439248,
          62.7893119
        ]
      },
      "properties": {
        "id": 4406948966,
        "osm_type": "node",
        "name": "Valkoinen puu",
        "opening_hours": "Mo-Fr 11:00-19:00; Sa 11:00-18:00; Su 12:00-17:00"
      }
    },
    {
      "type": "Feature",
      "geometry": {
        "type": "Point",
        "coordinates": [
          24.1727623,
          62.5399533
        ]
      },
      "properties": {
        "id": 4975672423,
        "osm_type": "node",
        "name": "Ähtäri Zoo Camping Mekkoranta",
        "opening_hours": "Fr,Sa 10:00-22:00; Su-Th 10:00-20:00",
        "outdoor_seating": "yes"
      }
    },
    {
      "type": "Feature",
      "geometry": {
        "type": "Point",
        "coordinates": [
          23.7401895,
          62.6051554
        ]
      },
      "properties": {
        "id": 4982898206,
        "osm_type": "node",
        "name": "JM-Rally Parc Fermé"
      }
    },
    {
      "type": "Feature",
      "geometry": {
        "type": "Point",
        "coordinates": [
          24.1178786,
          62.5564845
        ]
      },
      "properties": {
        "id": 5315046149,
        "osm_type": "node",
        "name": "Autopirtti"
      }
    },
    {
      "type": "Feature",
      "geometry": {
        "type": "Point",
        "coordinates": [
          23.7477618,
          62.6059192
        ]
      },
      "properties": {
        "id": 5322632999,
        "osm_type": "node",
        "name": "Töysäläinen Oy tehtaanmyymälä"
      }
    },
    {
      "type": "Feature",
      "geometry": {
        "type": "Point",
        "coordinates": [
          22.0007373,
          62.1680321
        ]
      },
      "properties": {
        "id": 5781235475,
        "osm_type": "node"
      }
    },
    {
      "type": "Feature",
      "geometry": {
        "type": "Point",
        "coordinates": [
          23.7267382,
          62.602099
        ]
      },
      "properties": {
        "id": 6177264762,
        "osm_type": "node",
        "name": "Kyläkaupan Wanhanajan Kahvila"
      }
    },
    {
      "type": "Feature",
      "geometry": {
        "type": "Point",
        "coordinates": [
          24.1226266,
          63.0333422
        ]
      },
      "properties": {
        "id": 6330371542,
        "osm_type": "node",
        "name": "K-Kauppa Pitkänen"
      }
    },
    {
      "type": "Feature",
      "geometry": {
        "type": "Point",
        "coordinates": [
          22.8598314,
          63.2290767
        ]
      },
      "properties": {
        "id": 6780976713,
        "osm_type": "node",
        "name": "Cafe El Paso"
      }
    },
    {
      "type": "Feature",
      "geometry": {
        "type": "Point",
        "coordinates": [
          22.7932899,
          62.7941193
        ]
      },
      "properties": {
        "id": 7125388740,
        "osm_type": "node",
        "name": "Espresso House",
        "brand": "Espresso House",
        "takeaway": "yes"
      }
    },
    {
      "type": "Feature",
      "geometry": {
        "type": "Point",
        "coordinates": [
          24.0640315,
          62.5535911
        ]
      },
      "properties": {
        "id": 7237433181,
        "osm_type": "node",
        "name": "Ähtärin Asemankahvila"
      }
    },
    {
      "type": "Feature",
      "geometry": {
        "type": "Point",
        "coordinates": [
          22.8361376,
          62.793637
        ]
      },
      "properties": {
        "id": 7436677120,
        "osm_type": "node",
        "name": "Cafeteria Salotta"
      }
    },
    {
      "type": "Feature",
      "geometry": {
        "type": "Point",
        "coordinates": [
          22.7910252,
          62.794133
        ]
      },
      "properties": {
        "id": 7436689330,
        "osm_type": "node",
        "name": "Artessa Elonen"
      }
    },
    {
      "type": "Feature",
      "geometry": {
        "type": "Point",
        "coordinates": [
          22.879618,
          62.7893712
        ]
      },
      "properties": {
        "id": 7436755844,
        "osm_type": "node",
        "name": "Lounaskahvila Aisakello"
      }
    },
    {
      "type": "Feature",
      "geometry": {
        "type": "Point",
        "coordinates": [
          22.8639795,
          62.7944543
        ]
      },
      "properties": {
        "id": 7437006536,
        "osm_type": "node",
        "name": "Pohjan Purtava"
      }
    },
    {
      "type": "Feature",
      "geometry": {
        "type": "Point",
        "coordinates": [
          23.0097484,
          62.9706105
        ]
      },
      "properties": {
        "id": 7439673968,
        "osm_type": "node",
        "name": "Hyväskä",
        "opening_hours": "Mo-Fr 07:30-17:00; Sa 08:30-14:00"
      }
    },
    {
      "type": "Feature",
      "geometry": {
        "type": "Point",
        "coordinates": [
          24.1837346,
          62.5366295
        ]
      },
      "properties": {
        "id": 7478080394,
        "osm_type": "node",
        "name": "Zoo Deli & Café",
        "opening_hours": "10.00 - 16.00"
      }
    },
    {
      "type": "Feature",
      "geometry": {
        "type": "Point",
        "coordinates": [
          23.0169886,
          62.9676659
        ]
      },
      "properties": {
        "id": 8118070564,
        "osm_type": "node",
        "name": "Café Patruuna Oy",
        "opening_hours": "Mo-Sa 14:00-22:00",
        "outdoor_seating": "yes"
      }
    },
    {
      "type": "Feature",
      "geometry": {
        "type": "Point",
        "coordinates": [
          23.7107942,
          62.6050938
        ]
      },
      "properties": {
        "id": 8245576700,
        "osm_type": "node",
        "name": "Nes'Carte Cafe&Deli shop"
      }
    },
    {
      "type": "Feature",
      "geometry": {
        "type": "Point",
        "coordinates": [
          23.6287583,
          63.2318438
        ]
      },
      "properties": {
        "id": 8405689455,
        "osm_type": "node",
        "name": "Auto-Markus / St1",
        "opening_hours": "Mo-Fr 08:00-17:00; Sa 09:00-13:00; Su off"
      }
    },
    {
      "type": "Feature",
      "geometry": {
        "type": "Point",
        "coordinates": [
          23.6319413,
          63.2187029
        ]
      },
      "properties": {
        "id": 8424695432,
        "osm_type": "node",
        "name": "Kahvila Pikku Pulla",
        "opening_hours": "Keittolounas ti - la 11:00-14:00"
      }
    },
    {
      "type": "Feature",
      "geometry": {
        "type": "Point",
        "coordinates": [
          22.4529948,
          62.6910162
        ]
      },
      "properties": {
        "id": 8714565332,
        "osm_type": "node",
        "name": "Korvan kukka ja lahjapuoti"
      }
    },
    {
      "type": "Feature",
      "geometry": {
        "type": "Point",
        "coordinates": [
          23.0695624,
          62.9624187
        ]
      },
      "properties": {
        "id": 8920051503,
        "osm_type": "node",
        "name": "Annalan Villa Café & Shop",
        "opening_hours": "Mo-Fr 12:00-18:00",
        "outdoor_seating": "yes"
      }
    },
    {
      "type": "Feature",
      "geometry": {
        "type": "Point",
        "coordinates": [
          22.1778963,
          62.4225269
        ]
      },
      "properties": {
        "id": 8954641514,
        "osm_type": "node",
        "name": "Valkoinen Puu",
        "outdoor_seating": "yes"
      }
    },
    {
      "type": "Feature",
      "geometry": {
        "type": "Point",
        "coordinates": [
          24.1667435,
          62.9351795
        ]
      },
      "properties": {
        "id": 9376750121,
        "osm_type": "node",
        "name": "Ski Vuorenmaa",
        "outdoor_seating": "yes"
      }
    },
    {
      "type": "Feature",
      "geometry": {
        "type": "Point",
        "coordinates": [
          24.0566285,
          62.5500596
        ]
      },
      "properties": {
        "id": 9431789873,
        "osm_type": "node",
        "name": "Leipomo-Kahvila Körkkö",
        "opening_hours": "Mo-Fr 07:00-17:00"
      }
    },
    {
      "type": "Feature",
      "geometry": {
        "type": "Point",
        "coordinates": [
          23.8068532,
          63.0005357
        ]
      },
      "properties": {
        "id": 9828864967,
        "osm_type": "node",
        "name": "Kahvio Aallotar"
      }
    },
    {
      "type": "Feature",
      "geometry": {
        "type": "Point",
        "coordinates": [
          23.8168909,
          63.0007225
        ]
      },
      "properties": {
        "id": 9851881323,
        "osm_type": "node",
        "name": "Kahvila Helmi",
        "opening_hours": "Mo-Fr 10:00-16:00"
      }
    },
    {
      "type": "Feature",
      "geometry": {
        "type": "Point",
        "coordinates": [
          22.6985698,
          62.3254694
        ]
      },
      "properties": {
        "id": 9855505084,
        "osm_type": "node",
        "name": "Pramia Viinatehtaanmyymälä & Kahvio"
      }
    },
    {
      "type": "Feature",
      "geometry": {
        "type": "Point",
        "coordinates": [
          24.0691481,
          62.5498713
        ]
      },
      "properties": {
        "id": 9861982873,
        "osm_type": "node",
        "name": "Lailin Kahvila & Suolahuone"
      }
    },
    {
      "type": "Feature",
      "geometry": {
        "type": "Point",
        "coordinates": [
          24.068366,
          62.5493024
        ]
      },
      "properties": {
        "id": 9866454777,
        "osm_type": "node",
        "name": "Vanha pappila Hetki"
      }
    },
    {
      "type": "Feature",
      "geometry": {
        "type": "Point",
        "coordinates": [
          22.5327177,
          62.949544
        ]
      },
      "properties": {
        "id": 9889675613,
        "osm_type": "node",
        "name": "Myllykaffila"
      }
    },
    {
      "type": "Feature",
      "geometry": {
        "type": "Point",
        "coordinates": [
          22.8293632,
          62.7713712
        ]
      },
      "properties": {
        "id": 9916824213,
        "osm_type": "node",
        "name": "Verstas"
      }
    },
    {
      "type": "Feature",
      "geometry": {
        "type": "Point",
        "coordinates": [
          22.8297654,
          62.7857764
        ]
      },
      "properties": {
        "id": 10079424053,
        "osm_type": "node",
        "name": "Cafe & shop Vapari"
      }
    },
    {
      "type": "Feature",
      "geometry": {
        "type": "Point",
        "coordinates": [
          22.8591454,
          63.2300574
        ]
      },
      "properties": {
        "id": 10749742075,
        "osm_type": "node",
        "name": "Heidi’s Cafe"
      }
    },
    {
      "type": "Feature",
      "geometry": {
        "type": "Point",
        "coordinates": [
          22.8587988,
          63.2282207
        ]
      },
      "properties": {
        "id": 10749742076,
        "osm_type": "node",
        "name": "Skaala Cafe"
      }
    },
    {
      "type": "Feature",
      "geometry": {
        "type": "Point",
        "coordinates": [
          22.841523,
          62.7901074
        ]
      },
      "properties": {
        "id": 10873341832,
        "osm_type": "node",
        "name": "Kahvila konditoria Hanna ja Kerttu"
      }
    },
    {
      "type": "Feature",
      "geometry": {
        "type": "Point",
        "coordinates": [
          22.841751,
          62.7904477
        ]
      },
      "properties": {
        "id": 10873341843,
        "osm_type": "node",
        "name": "Espresso House",
        "brand": "Espresso House",
        "takeaway": "yes"
      }
    },
    {
      "type": "Feature",
      "geometry": {
        "type": "Point",
        "coordinates": [
          23.6150271,
          62.5821191
        ]
      },
      "properties": {
        "id": 10881847550,
        "osm_type": "node",
        "name": "Monkey Island",
        "opening_hours": "Tu-Sa 14:00-20:00; Su-Mo off"
      }
    },
    {
      "type": "Feature",
      "geometry": {
        "type": "Point",
        "coordinates": [
          23.0079355,
          62.9686087
        ]
      },
      "properties": {
        "id": 10905698410,
        "osm_type": "node",
        "name": "Aarla",
        "opening_hours": "Mo-Fr 08:00-17:00; Sa 08:30-15:00",
        "outdoor_seating": "yes"
      }
    },
    {
      "type": "Feature",
      "geometry": {
        "type": "Point",
        "coordinates": [
          22.3975151,
          62.6156145
        ]
      },
      "properties": {
        "id": 11179027451,
        "osm_type": "node",
        "name": "Hyggis Café & Bakery",
        "opening_hours": "Mo-Tu 10:30-18:00; We-Fr 10:30-19:00; Sa 10:00-17:00",
        "outdoor_seating": "yes"
      }
    },
    {
      "type": "Feature",
      "geometry": {
        "type": "Point",
        "coordinates": [
          22.8541322,
          63.2438076
        ]
      },
      "properties": {
        "id": 11337275100,
        "osm_type": "node",
        "name": "Kahvila JuSa"
      }
    },
    {
      "type": "Feature",
      "geometry": {
        "type": "Point",
        "coordinates": [
          22.2006678,
          62.45945
        ]
      },
      "properties": {
        "id": 11503251146,
        "osm_type": "node",
        "name": "Kahvila Laturi",
        "opening_hours": "Mo-Th 08:00-15:30; Fr 07:30-16:30"
      }
    },
    {
      "type": "Feature",
      "geometry": {
        "type": "Point",
        "coordinates": [
          22.2007878,
          62.4596786
        ]
      },
      "properties": {
        "id": 11503251148,
        "osm_type": "node",
        "name": "Kauhajoen Laatuleipurit Oy",
        "opening_hours": "Mo-Th 08:00-15:30; Fr 07:30-16:30"
      }
    },
    {
      "type": "Feature",
      "geometry": {
        "type": "Point",
        "coordinates": [
          23.0408115,
          63.1003317
        ]
      },
      "properties": {
        "id": 11519195373,
        "osm_type": "node",
        "name": "Leipomo-Kahvila Unelma"
      }
    },
    {
      "type": "Feature",
      "geometry": {
        "type": "Point",
        "coordinates": [
          22.8203087,
          62.7874698
        ]
      },
      "properties": {
        "id": 11524384940,
        "osm_type": "node",
        "name": "The Local Cafe Treffi",
        "brand": "Food & Co",
        "opening_hours": "Mo-Fr 08:00-14:00",
        "outdoor_seating": "no"
      }
    },
    {
      "type": "Feature",
      "geometry": {
        "type": "Point",
        "coordinates": [
          22.1775216,
          62.4282206
        ]
      },
      "properties": {
        "id": 11608670407,
        "osm_type": "node",
        "name": "Katjan Vohvelikahvila",
        "opening_hours": "Mo-Fr 11:00-17:00; Sa 13:00-18:00"
      }
    },
    {
      "type": "Feature",
      "geometry": {
        "type": "Point",
        "coordinates": [
          22.1785174,
          62.4265629
        ]
      },
      "properties": {
        "id": 11608821296,
        "osm_type": "node",
        "name": "Ojalan Pakari",
        "opening_hours": "Mo-Fr 08:00-18:00; Sa 08:30-15:00",
        "outdoor_seating": "yes"
      }
    },
    {
      "type": "Feature",
      "geometry": {
        "type": "Point",
        "coordinates": [
          23.0461889,
          63.100765
        ]
      },
      "properties": {
        "id": 11739239350,
        "osm_type": "node",
        "name": "Kahvila-Konditoria Hanna-Täti"
      }
    },
    {
      "type": "Feature",
      "geometry": {
        "type": "Point",
        "coordinates": [
          22.0273131,
          62.4690811
        ]
      },
      "properties": {
        "id": 11766159324,
        "osm_type": "node",
        "name": "Pirjon Pakari – Kauhajoen gluteeniton leipomo"
      }
    },
    {
      "type": "Feature",
      "geometry": {
        "type": "Point",
        "coordinates": [
          21.7473755,
          62.4918576
        ]
      },
      "properties": {
        "id": 12121955315,
        "osm_type": "node",
        "name": "Kahvila 8-pallo"
      }
    },
    {
      "type": "Feature",
      "geometry": {
        "type": "Point",
        "coordinates": [
          22.8453405,
          62.7911607
        ]
      },
      "properties": {
        "id": 12396780467,
        "osm_type": "node",
        "name": "Picnic",
        "brand": "Picnic",
        "takeaway": "yes"
      }
    },
    {
      "type": "Feature",
      "geometry": {
        "type": "Point",
        "coordinates": [
          23.0040575,
          62.9647417
        ]
      },
      "properties": {
        "id": 12862400796,
        "osm_type": "node",
        "name": "Kahvila Nukkeruusu"
      }
    },
    {
      "type": "Feature",
      "geometry": {
        "type": "Point",
        "coordinates": [
          23.0907136,
          63.1102488
        ]
      },
      "properties": {
        "id": 12954375323,
        "osm_type": "node",
        "name": "Kahvila Vauhtipyörä"
      }
    },
    {
      "type": "Feature",
      "geometry": {
        "type": "Point",
        "coordinates": [
          23.4954653,
          62.8057164
        ]
      },
      "properties": {
        "id": 12954455410,
        "osm_type": "node",
        "name": "Kesäpesä",
        "opening_hours": "Jun-Jul: Mo-Fr 10:30-16:00; Sa-Su 11:00-15:00",
        "outdoor_seating": "yes"
      }
    },
    {
      "type": "Feature",
      "geometry": {
        "type": "Point",
        "coordinates": [
          23.9454732,
          62.82156
        ]
      },
      "properties": {
        "id": 12965465933,
        "osm_type": "node",
        "name": "Aulakahvio"
      }
    },
    {
      "type": "Feature",
      "geometry": {
        "type": "Point",
        "coordinates": [
          24.1874185,
          62.5353946
        ]
      },
      "properties": {
        "id": 12987400151,
        "osm_type": "node",
        "name": "Farmikahvila"
      }
    },
    {
      "type": "Feature",
      "geometry": {
        "type": "Point",
        "coordinates": [
          23.6189709,
          62.5852336
        ]
      },
      "properties": {
        "id": 12987834348,
        "osm_type": "node",
        "name": "Huhtalavan kesäkahvila",
        "outdoor_seating": "yes"
      }
    },
    {
      "type": "Feature",
      "geometry": {
        "type": "Point",
        "coordinates": [
          23.5064306,
          62.8051736
        ]
      },
      "properties": {
        "id": 13002027637,
        "osm_type": "node",
        "name": "Kotileipomo Paula Kahra"
      }
    },
    {
      "type": "Feature",
      "geometry": {
        "type": "Point",
        "coordinates": [
          23.0645734,
          63.1019617
        ]
      },
      "properties": {
        "id": 13577567209,
        "osm_type": "node",
        "name": "Kirpputori-kahvila Toiska"
      }
    },
    {
      "type": "Feature",
      "geometry": {
        "type": "Point",
        "coordinates": [
          24.070732,
          62.5493005
        ]
      },
      "properties": {
        "id": 13610455064,
        "osm_type": "node",
        "name": "Ilonan Pakari"
      }
    },
    {
      "type": "Feature",
      "geometry": {
        "type": "Point",
        "coordinates": [
          22.8664589,
          62.799307
        ]
      },
      "properties": {
        "id": 13769862732,
        "osm_type": "node",
        "name": "Lounaskahvila Hilla",
        "outdoor_seating": "yes"
      }
    },
    {
      "type": "Feature",
      "geometry": {
        "type": "Point",
        "coordinates": [
          22.8058839,
          62.7966359
        ]
      },
      "properties": {
        "id": 28507016,
        "osm_type": "way",
        "name": "Pirjon Pakari",
        "opening_hours": "Mo-Fr 07:30-18:00; Sa 09:00-15:00"
      }
    },
    {
      "type": "Feature",
      "geometry": {
        "type": "Point",
        "coordinates": [
          24.2803586,
          62.5275488
        ]
      },
      "properties": {
        "id": 144454873,
        "osm_type": "way",
        "name": "Kioski-Kahvio Mylly",
        "outdoor_seating": "yes"
      }
    },
    {
      "type": "Feature",
      "geometry": {
        "type": "Point",
        "coordinates": [
          22.8673341,
          62.7993454
        ]
      },
      "properties": {
        "id": 159923732,
        "osm_type": "way"
      }
    },
    {
      "type": "Feature",
      "geometry": {
        "type": "Point",
        "coordinates": [
          23.8212185,
          63.1608265
        ]
      },
      "properties": {
        "id": 179169775,
        "osm_type": "way",
        "name": "Nelimarkan leipomo"
      }
    },
    {
      "type": "Feature",
      "geometry": {
        "type": "Point",
        "coordinates": [
          22.5169273,
          62.9409625
        ]
      },
      "properties": {
        "id": 224099960,
        "osm_type": "way",
        "name": "Kahvila LeiBai"
      }
    },
    {
      "type": "Feature",
      "geometry": {
        "type": "Point",
        "coordinates": [
          22.1673031,
          63.0018127
        ]
      },
      "properties": {
        "id": 232683875,
        "osm_type": "way",
        "name": "Tornikahvila Tervajoki"
      }
    },
    {
      "type": "Feature",
      "geometry": {
        "type": "Point",
        "coordinates": [
          23.7208044,
          62.6016186
        ]
      },
      "properties": {
        "id": 360802785,
        "osm_type": "way",
        "name": "Fantasy Minigolf"
      }
    },
    {
      "type": "Feature",
      "geometry": {
        "type": "Point",
        "coordinates": [
          22.2763394,
          63.0118966
        ]
      },
      "properties": {
        "id": 719517122,
        "osm_type": "way"
      }
    },
    {
      "type": "Feature",
      "geometry": {
        "type": "Point",
        "coordinates": [
          22.8963635,
          62.3986641
        ]
      },
      "properties": {
        "id": 759281800,
        "osm_type": "way"
      }
    },
    {
      "type": "Feature",
      "geometry": {
        "type": "Point",
        "coordinates": [
          22.4635599,
          62.6887584
        ]
      },
      "properties": {
        "id": 1349156320,
        "osm_type": "way",
        "name": "Retro-kahvila"
      }
    },
    {
      "type": "Feature",
      "geometry": {
        "type": "Point",
        "coordinates": [
          24.0865019,
          62.5500807
        ]
      },
      "properties": {
        "id": 1482833044,
        "osm_type": "way",
        "name": "ABC Ähtäri",
        "opening_hours": "Mo-Fr 06:00-21:00; Sa,Su 08:00-21:00"
      }
    },
    {
      "type": "Feature",
      "geometry": {
        "type": "Point",
        "coordinates": [
          23.623579,
          62.6405818
        ]
      },
      "properties": {
        "id": 12206585,
        "osm_type": "relation",
        "name": "Elonen Oy/ Töysäläinen"
      }
    }
  ]
}