{
  "type": "FeatureCollection",
  "features": [
    {
      "type": "Feature",
      "geometry": {
        "type": "Point",
        "coordinates": [
          23.0557317,
          63.0941575
        ]
      },
      "properties": {
        "id": 26197415,
        "osm_type": "node",
        "name": "St1",
        "opening_hours": "24/7"
      }
    },
    {
      "type": "Feature",
      "geometry": {
        "type": "Point",
        "coordinates": [
          23.4669688,
          63.3597277
        ]
      },
      "properties": {
        "id": 26197416,
        "osm_type": "node",
        "name": "St1 Evijärvi Autom, Liikenneasema Mäntyhovi",
        "brand": "St1",
        "opening_hours": "24/7"
      }
    },
    {
      "type": "Feature",
      "geometry": {
        "type": "Point",
        "coordinates": [
          22.4229226,
          62.6193598
        ]
      },
      "properties": {
        "id": 26197418,
        "osm_type": "node",
        "name": "St1 Kurikka Saumantie"
      }
    },
    {
      "type": "Feature",
      "geometry": {
        "type": "Point",
        "coordinates": [
          21.982102,
          62.6913308
        ]
      },
      "properties": {
        "id": 26197448,
        "osm_type": "node",
        "name": "Teboil Jurva Automaatti"
      }
    },
    {
      "type": "Feature",
      "geometry": {
        "type": "Point",
        "coordinates": [
          22.8805597,
          62.8069348
        ]
      },
      "properties": {
        "id": 26197475,
        "osm_type": "node",
        "name": "ST1",
        "brand": "St1"
      }
    },
    {
      "type": "Feature",
      "geometry": {
        "type": "Point",
        "coordinates": [
          23.0526372,
          63.0999941
        ]
      },
      "properties": {
        "id": 26197477,
        "osm_type": "node",
        "name": "SEO Kauhava"
      }
    },
    {
      "type": "Feature",
      "geometry": {
        "type": "Point",
        "coordinates": [
          21.7313156,
          62.4838885
        ]
      },
      "properties": {
        "id": 26851027,
        "osm_type": "node",
        "name": "Teboil Teuva Autom",
        "brand": "Teboil"
      }
    },
    {
      "type": "Feature",
      "geometry": {
        "type": "Point",
        "coordinates": [
          22.7944576,
          63.1429127
        ]
      },
      "properties": {
        "id": 27289188,
        "osm_type": "node",
        "name": "ABC",
        "brand": "ABC"
      }
    },
    {
      "type": "Feature",
      "geometry": {
        "type": "Point",
        "coordinates": [
          22.1843794,
          62.4334473
        ]
      },
      "properties": {
        "id": 27290959,
        "osm_type": "node",
        "name": "ABC Kauhajoki",
        "brand": "ABC"
      }
    },
    {
      "type": "Feature",
      "geometry": {
        "type": "Point",
        "coordinates": [
          22.4506242,
          62.6935407
        ]
      },
      "properties": {
        "id": 78339904,
        "osm_type": "node",
        "name": "Seo Koskenkorva"
      }
    },
    {
      "type": "Feature",
      "geometry": {
        "type": "Point",
        "coordinates": [
          22.7525271,
          62.48644
        ]
      },
      "properties": {
        "id": 89613608,
        "osm_type": "node",
        "name": "ABC Jalasjärvi automaattiasema",
        "brand": "ABC"
      }
    },
    {
      "type": "Feature",
      "geometry": {
        "type": "Point",
        "coordinates": [
          21.9829176,
          62.6882059
        ]
      },
      "properties": {
        "id": 101393539,
        "osm_type": "node",
        "name": "SEO Jurva",
        "opening_hours": "Mo-Fr 08:00-15:00"
      }
    },
    {
      "type": "Feature",
      "geometry": {
        "type": "Point",
        "coordinates": [
          22.826708,
          62.7980415
        ]
      },
      "properties": {
        "id": 112492666,
        "osm_type": "node",
        "name": "Teboil",
        "brand": "Teboil"
      }
    },
    {
      "type": "Feature",
      "geometry": {
        "type": "Point",
        "coordinates": [
          23.8342868,
          63.159114
        ]
      },
      "properties": {
        "id": 192148395,
        "osm_type": "node",
        "brand": "Seo"
      }
    },
    {
      "type": "Feature",
      "geometry": {
        "type": "Point",
        "coordinates": [
          23.0217139,
          62.9752939
        ]
      },
      "properties": {
        "id": 194522398,
        "osm_type": "node",
        "name": "St1 Automaatti",
        "brand": "St1"
      }
    },
    {
      "type": "Feature",
      "geometry": {
        "type": "Point",
        "coordinates": [
          23.0225455,
          62.9746706
        ]
      },
      "properties": {
        "id": 194522556,
        "osm_type": "node",
        "name": "ABC",
        "brand": "ABC"
      }
    },
    {
      "type": "Feature",
      "geometry": {
        "type": "Point",
        "coordinates": [
          23.0263687,
          62.9740462
        ]
      },
      "properties": {
        "id": 194522752,
        "osm_type": "node",
        "name": "Neste Express Lapua Rakentajantie",
        "brand": "Neste",
        "opening_hours": "24/7"
      }
    },
    {
      "type": "Feature",
      "geometry": {
        "type": "Point",
        "coordinates": [
          23.0270867,
          62.976264
        ]
      },
      "properties": {
        "id": 194530134,
        "osm_type": "node",
        "name": "Teboil",
        "brand": "Teboil"
      }
    },
    {
      "type": "Feature",
      "geometry": {
        "type": "Point",
        "coordinates": [
          23.0185184,
          62.9688077
        ]
      },
      "properties": {
        "id": 194561359,
        "osm_type": "node",
        "name": "Neste Lapua",
        "brand": "Neste"
      }
    },
    {
      "type": "Feature",
      "geometry": {
        "type": "Point",
        "coordinates": [
          23.0551035,
          62.5684783
        ]
      },
      "properties": {
        "id": 253748456,
        "osm_type": "node",
        "name": "Neste Peräseinäjoki",
        "brand": "Neste"
      }
    },
    {
      "type": "Feature",
      "geometry": {
        "type": "Point",
        "coordinates": [
          23.629519,
          63.0153247
        ]
      },
      "properties": {
        "id": 262225490,
        "osm_type": "node",
        "name": "SEO Sissala"
      }
    },
    {
      "type": "Feature",
      "geometry": {
        "type": "Point",
        "coordinates": [
          22.3958669,
          62.6139936
        ]
      },
      "properties": {
        "id": 266877010,
        "osm_type": "node",
        "name": "St1 Kurikka Keskusta Autom"
      }
    },
    {
      "type": "Feature",
      "geometry": {
        "type": "Point",
        "coordinates": [
          22.7292297,
          62.5114366
        ]
      },
      "properties": {
        "id": 303599882,
        "osm_type": "node",
        "name": "Neste Express Jalasjärvi Seinäjoentie",
        "brand": "Neste"
      }
    },
    {
      "type": "Feature",
      "geometry": {
        "type": "Point",
        "coordinates": [
          22.7923764,
          62.4173653
        ]
      },
      "properties": {
        "id": 304661258,
        "osm_type": "node",
        "name": "Neste Express Jalasjärvi Juustoportti",
        "brand": "Neste"
      }
    },
    {
      "type": "Feature",
      "geometry": {
        "type": "Point",
        "coordinates": [
          22.8078281,
          62.7930576
        ]
      },
      "properties": {
        "id": 312962376,
        "osm_type": "node",
        "name": "Neste Express Seinäjoki Jouppi CM",
        "brand": "Neste"
      }
    },
    {
      "type": "Feature",
      "geometry": {
        "type": "Point",
        "coordinates": [
          22.8326923,
          62.7923405
        ]
      },
      "properties": {
        "id": 314578322,
        "osm_type": "node",
        "name": "Neste Express Seinäjoki Vapaudentie",
        "brand": "Neste",
        "opening_hours": "24/7"
      }
    },
    {
      "type": "Feature",
      "geometry": {
        "type": "Point",
        "coordinates": [
          22.8378646,
          62.7943763
        ]
      },
      "properties": {
        "id": 392685105,
        "osm_type": "node",
        "name": "Teboil",
        "brand": "Teboil"
      }
    },
    {
      "type": "Feature",
      "geometry": {
        "type": "Point",
        "coordinates": [
          22.8317317,
          62.7948466
        ]
      },
      "properties": {
        "id": 450523925,
        "osm_type": "node",
        "name": "ABC",
        "brand": "ABC"
      }
    },
    {
      "type": "Feature",
      "geometry": {
        "type": "Point",
        "coordinates": [
          23.051357,
          62.9597144
        ]
      },
      "properties": {
        "id": 454738664,
        "osm_type": "node",
        "name": "Shell Tamppari, Lapua",
        "brand": "Shell"
      }
    },
    {
      "type": "Feature",
      "geometry": {
        "type": "Point",
        "coordinates": [
          23.0559821,
          63.1010104
        ]
      },
      "properties": {
        "id": 476280980,
        "osm_type": "node",
        "name": "Neste Express Kauhava kk",
        "brand": "Neste",
        "opening_hours": "24/7"
      }
    },
    {
      "type": "Feature",
      "geometry": {
        "type": "Point",
        "coordinates": [
          23.0012912,
          62.9722153
        ]
      },
      "properties": {
        "id": 485085040,
        "osm_type": "node",
        "name": "St1 Lapua Poutuntie",
        "brand": "St1"
      }
    },
    {
      "type": "Feature",
      "geometry": {
        "type": "Point",
        "coordinates": [
          22.8790697,
          62.8054594
        ]
      },
      "properties": {
        "id": 521708375,
        "osm_type": "node",
        "name": "ABC Prisma Seinäjoki",
        "brand": "ABC"
      }
    },
    {
      "type": "Feature",
      "geometry": {
        "type": "Point",
        "coordinates": [
          22.8556951,
          63.2397584
        ]
      },
      "properties": {
        "id": 661096102,
        "osm_type": "node",
        "name": "Huoltoasema Virtakangas"
      }
    },
    {
      "type": "Feature",
      "geometry": {
        "type": "Point",
        "coordinates": [
          22.5816374,
          62.7333372
        ]
      },
      "properties": {
        "id": 665300095,
        "osm_type": "node",
        "name": "St1 Ilmajoki Mikontie"
      }
    },
    {
      "type": "Feature",
      "geometry": {
        "type": "Point",
        "coordinates": [
          22.455311,
          62.6936186
        ]
      },
      "properties": {
        "id": 665897000,
        "osm_type": "node"
      }
    },
    {
      "type": "Feature",
      "geometry": {
        "type": "Point",
        "coordinates": [
          22.8680846,
          62.8013647
        ]
      },
      "properties": {
        "id": 707164051,
        "osm_type": "node"
      }
    },
    {
      "type": "Feature",
      "geometry": {
        "type": "Point",
        "coordinates": [
          23.8729583,
          63.0331715
        ]
      },
      "properties": {
        "id": 816517692,
        "osm_type": "node",
        "name": "Neste Alajärvi Hoisko",
        "brand": "Neste"
      }
    },
    {
      "type": "Feature",
      "geometry": {
        "type": "Point",
        "coordinates": [
          23.803156,
          63.0097771
        ]
      },
      "properties": {
        "id": 816517700,
        "osm_type": "node",
        "name": "Teboil Alajärvi"
      }
    },
    {
      "type": "Feature",
      "geometry": {
        "type": "Point",
        "coordinates": [
          23.804185,
          63.0026571
        ]
      },
      "properties": {
        "id": 888349149,
        "osm_type": "node",
        "name": "SEO Alajärvi"
      }
    },
    {
      "type": "Feature",
      "geometry": {
        "type": "Point",
        "coordinates": [
          23.5262542,
          62.768249
        ]
      },
      "properties": {
        "id": 893115267,
        "osm_type": "node",
        "name": "Neste Kuortane Mäyry",
        "brand": "Neste"
      }
    },
    {
      "type": "Feature",
      "geometry": {
        "type": "Point",
        "coordinates": [
          22.8477564,
          63.2386917
        ]
      },
      "properties": {
        "id": 989970539,
        "osm_type": "node",
        "name": "ABC Autom Alahärmä",
        "brand": "ABC"
      }
    },
    {
      "type": "Feature",
      "geometry": {
        "type": "Point",
        "coordinates": [
          22.2021439,
          62.4297712
        ]
      },
      "properties": {
        "id": 1112767275,
        "osm_type": "node",
        "name": "Teboil"
      }
    },
    {
      "type": "Feature",
      "geometry": {
        "type": "Point",
        "coordinates": [
          22.1975792,
          62.4186057
        ]
      },
      "properties": {
        "id": 1112767642,
        "osm_type": "node",
        "name": "Neste Express Kauhajoki Eteläinenyhdystie",
        "brand": "Neste"
      }
    },
    {
      "type": "Feature",
      "geometry": {
        "type": "Point",
        "coordinates": [
          21.964615,
          62.1114747
        ]
      },
      "properties": {
        "id": 1149802609,
        "osm_type": "node",
        "name": "SEO Isojoki"
      }
    },
    {
      "type": "Feature",
      "geometry": {
        "type": "Point",
        "coordinates": [
          23.6091632,
          62.5933398
        ]
      },
      "properties": {
        "id": 1225267918,
        "osm_type": "node",
        "name": "ABC",
        "brand": "ABC",
        "opening_hours": "24/7"
      }
    },
    {
      "type": "Feature",
      "geometry": {
        "type": "Point",
        "coordinates": [
          22.8696465,
          62.7922249
        ]
      },
      "properties": {
        "id": 1225283332,
        "osm_type": "node",
        "name": "St1 Seinäjoki Päivölänkatu"
      }
    },
    {
      "type": "Feature",
      "geometry": {
        "type": "Point",
        "coordinates": [
          22.6051744,
          62.7335981
        ]
      },
      "properties": {
        "id": 1225337570,
        "osm_type": "node",
        "name": "Asema 67"
      }
    },
    {
      "type": "Feature",
      "geometry": {
        "type": "Point",
        "coordinates": [
          23.8033961,
          63.0036262
        ]
      },
      "properties": {
        "id": 1286750942,
        "osm_type": "node",
        "name": "Neste Express Alajärvi",
        "brand": "Neste"
      }
    },
    {
      "type": "Feature",
      "geometry": {
        "type": "Point",
        "coordinates": [
          23.8043434,
          63.0061213
        ]
      },
      "properties": {
        "id": 1286750943,
        "osm_type": "node",
        "name": "ABC Alajärvi",
        "brand": "ABC"
      }
    },
    {
      "type": "Feature",
      "geometry": {
        "type": "Point",
        "coordinates": [
          23.8204377,
          62.6365423
        ]
      },
      "properties": {
        "id": 1371979131,
        "osm_type": "node",
        "name": "ABC",
        "brand": "ABC",
        "opening_hours": "24/7"
      }
    },
    {
      "type": "Feature",
      "geometry": {
        "type": "Point",
        "coordinates": [
          23.8240545,
          63.1589456
        ]
      },
      "properties": {
        "id": 1374129073,
        "osm_type": "node",
        "name": "ABC S-market Vimpeli",
        "brand": "ABC",
        "opening_hours": "24/7"
      }
    },
    {
      "type": "Feature",
      "geometry": {
        "type": "Point",
        "coordinates": [
          23.604044,
          62.5925438
        ]
      },
      "properties": {
        "id": 1524619477,
        "osm_type": "node",
        "name": "Teboil Alavus Express",
        "brand": "Teboil"
      }
    },
    {
      "type": "Feature",
      "geometry": {
        "type": "Point",
        "coordinates": [
          23.947808,
          62.8207273
        ]
      },
      "properties": {
        "id": 1559091231,
        "osm_type": "node",
        "name": "Neste Lehtimäki",
        "brand": "Neste"
      }
    },
    {
      "type": "Feature",
      "geometry": {
        "type": "Point",
        "coordinates": [
          23.9271605,
          62.7929078
        ]
      },
      "properties": {
        "id": 1584511497,
        "osm_type": "node",
        "name": "Futura",
        "brand": "Futura"
      }
    },
    {
      "type": "Feature",
      "geometry": {
        "type": "Point",
        "coordinates": [
          24.2000847,
          62.8752519
        ]
      },
      "properties": {
        "id": 1589462792,
        "osm_type": "node",
        "name": "SEO"
      }
    },
    {
      "type": "Feature",
      "geometry": {
        "type": "Point",
        "coordinates": [
          24.2047697,
          62.8708217
        ]
      },
      "properties": {
        "id": 1592958174,
        "osm_type": "node",
        "name": "St1 Soini",
        "brand": "St1"
      }
    },
    {
      "type": "Feature",
      "geometry": {
        "type": "Point",
        "coordinates": [
          24.2113758,
          62.8719173
        ]
      },
      "properties": {
        "id": 1593152149,
        "osm_type": "node",
        "name": "ABC S-market Soini Autom",
        "brand": "ABC"
      }
    },
    {
      "type": "Feature",
      "geometry": {
        "type": "Point",
        "coordinates": [
          22.8154191,
          62.6927256
        ]
      },
      "properties": {
        "id": 1594592683,
        "osm_type": "node",
        "name": "Teboil Rengonhovi"
      }
    },
    {
      "type": "Feature",
      "geometry": {
        "type": "Point",
        "coordinates": [
          23.7254878,
          62.5982328
        ]
      },
      "properties": {
        "id": 1623469863,
        "osm_type": "node",
        "name": "Liikenneasema Onnenliekki",
        "opening_hours": "Mo-Fr 07:00-20:00; Sa 07:00-18:30; Su 11:30-18:30"
      }
    },
    {
      "type": "Feature",
      "geometry": {
        "type": "Point",
        "coordinates": [
          23.6239554,
          63.2180154
        ]
      },
      "properties": {
        "id": 1628609836,
        "osm_type": "node",
        "name": "ABC S-market Lappajärvi",
        "brand": "ABC",
        "opening_hours": "24/7"
      }
    },
    {
      "type": "Feature",
      "geometry": {
        "type": "Point",
        "coordinates": [
          22.3104507,
          62.9916898
        ]
      },
      "properties": {
        "id": 1632799125,
        "osm_type": "node",
        "name": "Neste Express Isokyrö Kyröntie",
        "brand": "Neste",
        "opening_hours": "24/7"
      }
    },
    {
      "type": "Feature",
      "geometry": {
        "type": "Point",
        "coordinates": [
          22.510889,
          62.9357177
        ]
      },
      "properties": {
        "id": 1635072479,
        "osm_type": "node",
        "name": "St1 Automaatti",
        "brand": "St1"
      }
    },
    {
      "type": "Feature",
      "geometry": {
        "type": "Point",
        "coordinates": [
          23.6123654,
          62.5971561
        ]
      },
      "properties": {
        "id": 1652643582,
        "osm_type": "node",
        "name": "Neste Truck Alavus",
        "brand": "Neste",
        "opening_hours": "24/7"
      }
    },
    {
      "type": "Feature",
      "geometry": {
        "type": "Point",
        "coordinates": [
          23.6121079,
          62.597124
        ]
      },
      "properties": {
        "id": 1652643586,
        "osm_type": "node",
        "name": "Neste Express Alavus",
        "brand": "Neste",
        "opening_hours": "24/7"
      }
    },
    {
      "type": "Feature",
      "geometry": {
        "type": "Point",
        "coordinates": [
          22.5771581,
          62.7305426
        ]
      },
      "properties": {
        "id": 1660364396,
        "osm_type": "node",
        "name": "ABC Ilmajoki Autom",
        "brand": "ABC"
      }
    },
    {
      "type": "Feature",
      "geometry": {
        "type": "Point",
        "coordinates": [
          22.8468949,
          63.2389753
        ]
      },
      "properties": {
        "id": 1665079313,
        "osm_type": "node",
        "name": "St1 Alahärmä Kauhava",
        "brand": "St1"
      }
    },
    {
      "type": "Feature",
      "geometry": {
        "type": "Point",
        "coordinates": [
          21.9600989,
          62.1125613
        ]
      },
      "properties": {
        "id": 1666857660,
        "osm_type": "node",
        "name": "ABC S-market Isojoki",
        "brand": "ABC",
        "opening_hours": "24/7"
      }
    },
    {
      "type": "Feature",
      "geometry": {
        "type": "Point",
        "coordinates": [
          23.1404634,
          63.292577
        ]
      },
      "properties": {
        "id": 1672662097,
        "osm_type": "node",
        "name": "SEO Kortesjärvi"
      }
    },
    {
      "type": "Feature",
      "geometry": {
        "type": "Point",
        "coordinates": [
          23.1549527,
          63.3005562
        ]
      },
      "properties": {
        "id": 1672662107,
        "osm_type": "node",
        "name": "ABC Kortesjärvi",
        "brand": "ABC"
      }
    },
    {
      "type": "Feature",
      "geometry": {
        "type": "Point",
        "coordinates": [
          22.8414818,
          62.7772511
        ]
      },
      "properties": {
        "id": 1778195998,
        "osm_type": "node",
        "name": "Neste Express",
        "brand": "Neste"
      }
    },
    {
      "type": "Feature",
      "geometry": {
        "type": "Point",
        "coordinates": [
          22.852533,
          62.7759423
        ]
      },
      "properties": {
        "id": 1909659050,
        "osm_type": "node",
        "name": "ABC",
        "brand": "ABC",
        "opening_hours": "24/7"
      }
    },
    {
      "type": "Feature",
      "geometry": {
        "type": "Point",
        "coordinates": [
          23.7256879,
          62.5982854
        ]
      },
      "properties": {
        "id": 2002223330,
        "osm_type": "node",
        "name": "Onnenliekki 24/7 automaatti",
        "opening_hours": "24/7"
      }
    },
    {
      "type": "Feature",
      "geometry": {
        "type": "Point",
        "coordinates": [
          21.9815789,
          62.6888119
        ]
      },
      "properties": {
        "id": 2139206179,
        "osm_type": "node",
        "name": "ABC S-market Jurva",
        "brand": "ABC",
        "opening_hours": "24/7"
      }
    },
    {
      "type": "Feature",
      "geometry": {
        "type": "Point",
        "coordinates": [
          23.4769193,
          63.3663485
        ]
      },
      "properties": {
        "id": 2255466186,
        "osm_type": "node",
        "name": "ABC S-market Evijärvi",
        "brand": "ABC"
      }
    },
    {
      "type": "Feature",
      "geometry": {
        "type": "Point",
        "coordinates": [
          22.390647,
          62.621715
        ]
      },
      "properties": {
        "id": 2328048129,
        "osm_type": "node",
        "name": "Neste Express Kurikka Paulaharjuntie",
        "brand": "Neste"
      }
    },
    {
      "type": "Feature",
      "geometry": {
        "type": "Point",
        "coordinates": [
          23.467348,
          63.3597723
        ]
      },
      "properties": {
        "id": 2356668688,
        "osm_type": "node",
        "name": "Liikenneasema Mäntyhovi",
        "brand": "St1"
      }
    },
    {
      "type": "Feature",
      "geometry": {
        "type": "Point",
        "coordinates": [
          22.1873603,
          62.4367248
        ]
      },
      "properties": {
        "id": 3572328326,
        "osm_type": "node",
        "name": "SEO"
      }
    },
    {
      "type": "Feature",
      "geometry": {
        "type": "Point",
        "coordinates": [
          22.8790579,
          62.7910092
        ]
      },
      "properties": {
        "id": 4038923012,
        "osm_type": "node",
        "name": "Neste Express Seinäjoki Minimani",
        "brand": "Neste"
      }
    },
    {
      "type": "Feature",
      "geometry": {
        "type": "Point",
        "coordinates": [
          23.5099418,
          62.8092713
        ]
      },
      "properties": {
        "id": 4038954375,
        "osm_type": "node",
        "name": "ABC S-market Kuortane",
        "brand": "ABC"
      }
    },
    {
      "type": "Feature",
      "geometry": {
        "type": "Point",
        "coordinates": [
          24.1224227,
          63.0334663
        ]
      },
      "properties": {
        "id": 6330371543,
        "osm_type": "node",
        "name": "K-Kauppa Pitkänen"
      }
    },
    {
      "type": "Feature",
      "geometry": {
        "type": "Point",
        "coordinates": [
          23.0599551,
          63.0903238
        ]
      },
      "properties": {
        "id": 6964261776,
        "osm_type": "node",
        "name": "ABC Kauhava",
        "brand": "ABC"
      }
    },
    {
      "type": "Feature",
      "geometry": {
        "type": "Point",
        "coordinates": [
          22.9273073,
          62.7651675
        ]
      },
      "properties": {
        "id": 7148595636,
        "osm_type": "node",
        "name": "Gasum Seinäjoki Roves CNG",
        "brand": "Gasum",
        "opening_hours": "24/7"
      }
    },
    {
      "type": "Feature",
      "geometry": {
        "type": "Point",
        "coordinates": [
          22.81838,
          63.2865398
        ]
      },
      "properties": {
        "id": 7305809952,
        "osm_type": "node",
        "name": "Huoltoasema Virtakangas"
      }
    },
    {
      "type": "Feature",
      "geometry": {
        "type": "Point",
        "coordinates": [
          22.9075372,
          62.790745
        ]
      },
      "properties": {
        "id": 7528896212,
        "osm_type": "node",
        "name": "ABC S-Market Tanelinranta",
        "brand": "ABC"
      }
    },
    {
      "type": "Feature",
      "geometry": {
        "type": "Point",
        "coordinates": [
          22.8678058,
          62.7527084
        ]
      },
      "properties": {
        "id": 8207064329,
        "osm_type": "node",
        "name": "ABC S-Market Pajuluoma",
        "brand": "ABC"
      }
    },
    {
      "type": "Feature",
      "geometry": {
        "type": "Point",
        "coordinates": [
          23.4327375,
          63.0068452
        ]
      },
      "properties": {
        "id": 8305611222,
        "osm_type": "node",
        "name": "Shell Ellan Kauppa"
      }
    },
    {
      "type": "Feature",
      "geometry": {
        "type": "Point",
        "coordinates": [
          22.7943045,
          63.1459794
        ]
      },
      "properties": {
        "id": 8319848324,
        "osm_type": "node",
        "name": "Teboil",
        "brand": "Teboil"
      }
    },
    {
      "type": "Feature",
      "geometry": {
        "type": "Point",
        "coordinates": [
          23.6289476,
          63.2318855
        ]
      },
      "properties": {
        "id": 8404066030,
        "osm_type": "node",
        "name": "Auto-Markus Ky / St1 Lappajärvi"
      }
    },
    {
      "type": "Feature",
      "geometry": {
        "type": "Point",
        "coordinates": [
          23.5350042,
          63.144772
        ]
      },
      "properties": {
        "id": 8404878160,
        "osm_type": "node",
        "name": "Seo Karvala"
      }
    },
    {
      "type": "Feature",
      "geometry": {
        "type": "Point",
        "coordinates": [
          22.8085041,
          62.7921113
        ]
      },
      "properties": {
        "id": 8735603019,
        "osm_type": "node",
        "name": "St1 Automaatti Seinäjoki Jouppi",
        "brand": "St1",
        "opening_hours": "24/7"
      }
    },
    {
      "type": "Feature",
      "geometry": {
        "type": "Point",
        "coordinates": [
          22.8012914,
          63.1472766
        ]
      },
      "properties": {
        "id": 9281726374,
        "osm_type": "node"
      }
    },
    {
      "type": "Feature",
      "geometry": {
        "type": "Point",
        "coordinates": [
          22.311735,
          62.9928227
        ]
      },
      "properties": {
        "id": 9596674606,
        "osm_type": "node",
        "name": "ABC",
        "brand": "ABC"
      }
    },
    {
      "type": "Feature",
      "geometry": {
        "type": "Point",
        "coordinates": [
          23.8016905,
          63.0198184
        ]
      },
      "properties": {
        "id": 9855671606,
        "osm_type": "node",
        "name": "Teboil Alajärvi D-automaatti",
        "brand": "Teboil"
      }
    },
    {
      "type": "Feature",
      "geometry": {
        "type": "Point",
        "coordinates": [
          22.3518187,
          62.983608
        ]
      },
      "properties": {
        "id": 9881870395,
        "osm_type": "node",
        "name": "Jeppo Isokyrö",
        "brand": "Jeppo biokaasu",
        "opening_hours": "24/7"
      }
    },
    {
      "type": "Feature",
      "geometry": {
        "type": "Point",
        "coordinates": [
          22.8780549,
          62.7730664
        ]
      },
      "properties": {
        "id": 10011873745,
        "osm_type": "node",
        "name": "St1",
        "brand": "St1"
      }
    },
    {
      "type": "Feature",
      "geometry": {
        "type": "Point",
        "coordinates": [
          22.824151,
          62.7510724
        ]
      },
      "properties": {
        "id": 10215436688,
        "osm_type": "node",
        "name": "ABC S-Market Simuna",
        "brand": "ABC",
        "opening_hours": "24/7"
      }
    },
    {
      "type": "Feature",
      "geometry": {
        "type": "Point",
        "coordinates": [
          23.7271455,
          62.5976172
        ]
      },
      "properties": {
        "id": 10863578801,
        "osm_type": "node",
        "name": "SEO Tuuri Biokaasu",
        "brand": "SEO",
        "opening_hours": "24/7"
      }
    },
    {
      "type": "Feature",
      "geometry": {
        "type": "Point",
        "coordinates": [
          22.3934347,
          62.9705432
        ]
      },
      "properties": {
        "id": 10881557264,
        "osm_type": "node",
        "name": "Teboil automaattiasema",
        "brand": "Teboil"
      }
    },
    {
      "type": "Feature",
      "geometry": {
        "type": "Point",
        "coordinates": [
          22.8770109,
          62.793545
        ]
      },
      "properties": {
        "id": 11343026222,
        "osm_type": "node",
        "name": "Teboil",
        "brand": "Teboil"
      }
    },
    {
      "type": "Feature",
      "geometry": {
        "type": "Point",
        "coordinates": [
          23.9439847,
          62.8181343
        ]
      },
      "properties": {
        "id": 12077423600,
        "osm_type": "node",
        "name": "ABC kylmäasema",
        "brand": "ABC",
        "opening_hours": "24/7"
      }
    },
    {
      "type": "Feature",
      "geometry": {
        "type": "Point",
        "coordinates": [
          21.7401003,
          62.4878648
        ]
      },
      "properties": {
        "id": 12121206703,
        "osm_type": "node",
        "name": "ABC",
        "brand": "ABC"
      }
    },
    {
      "type": "Feature",
      "geometry": {
        "type": "Point",
        "coordinates": [
          22.8209715,
          63.2076222
        ]
      },
      "properties": {
        "id": 12513956460,
        "osm_type": "node",
        "name": "Neste Truck",
        "brand": "Neste",
        "opening_hours": "24/7"
      }
    },
    {
      "type": "Feature",
      "geometry": {
        "type": "Point",
        "coordinates": [
          22.8418385,
          62.7772845
        ]
      },
      "properties": {
        "id": 13236245209,
        "osm_type": "node",
        "name": "Neste Truck",
        "brand": "Neste"
      }
    },
    {
      "type": "Feature",
      "geometry": {
        "type": "Point",
        "coordinates": [
          22.7959004,
          62.7923432
        ]
      },
      "properties": {
        "id": 13267281171,
        "osm_type": "node",
        "name": "ABC Ideapark Seinäjoki",
        "brand": "ABC"
      }
    },
    {
      "type": "Feature",
      "geometry": {
        "type": "Point",
        "coordinates": [
          22.8448317,
          63.237637
        ]
      },
      "properties": {
        "id": 13585872789,
        "osm_type": "node",
        "name": "SEO Alahärmä",
        "brand": "SEO",
        "check_date": "2026-02-20"
      }
    },
    {
      "type": "Feature",
      "geometry": {
        "type": "Point",
        "coordinates": [
          23.058095,
          63.1078987
        ]
      },
      "properties": {
        "id": 13625879819,
        "osm_type": "node",
        "name": "Neste Truck+",
        "brand": "Neste",
        "opening_hours": "24/7"
      }
    },
    {
      "type": "Feature",
      "geometry": {
        "type": "Point",
        "coordinates": [
          23.057053,
          62.5671426
        ]
      },
      "properties": {
        "id": 76095249,
        "osm_type": "way",
        "name": "ABC S-market Peräseinäjoki",
        "brand": "ABC",
        "opening_hours": "24/7"
      }
    },
    {
      "type": "Feature",
      "geometry": {
        "type": "Point",
        "coordinates": [
          22.8193012,
          62.7935316
        ]
      },
      "properties": {
        "id": 158252898,
        "osm_type": "way",
        "name": "Neste",
        "brand": "Neste"
      }
    },
    {
      "type": "Feature",
      "geometry": {
        "type": "Point",
        "coordinates": [
          22.8778761,
          62.7712533
        ]
      },
      "properties": {
        "id": 211636640,
        "osm_type": "way",
        "name": "Neste",
        "brand": "Neste"
      }
    },
    {
      "type": "Feature",
      "geometry": {
        "type": "Point",
        "coordinates": [
          21.6923792,
          62.3049259
        ]
      },
      "properties": {
        "id": 231784740,
        "osm_type": "way"
      }
    },
    {
      "type": "Feature",
      "geometry": {
        "type": "Point",
        "coordinates": [
          22.8453015,
          62.7998115
        ]
      },
      "properties": {
        "id": 313528319,
        "osm_type": "way",
        "name": "St1",
        "brand": "St1"
      }
    },
    {
      "type": "Feature",
      "geometry": {
        "type": "Point",
        "coordinates": [
          22.4035999,
          62.6239264
        ]
      },
      "properties": {
        "id": 383576294,
        "osm_type": "way",
        "name": "Neste Kurikka Varikko",
        "brand": "Neste"
      }
    },
    {
      "type": "Feature",
      "geometry": {
        "type": "Point",
        "coordinates": [
          24.1111998,
          62.5564903
        ]
      },
      "properties": {
        "id": 550283469,
        "osm_type": "way",
        "name": "Neste Ähtäri Autom",
        "brand": "Neste"
      }
    },
    {
      "type": "Feature",
      "geometry": {
        "type": "Point",
        "coordinates": [
          22.5140973,
          62.940259
        ]
      },
      "properties": {
        "id": 604263581,
        "osm_type": "way",
        "name": "ABC S-market Ylistaro",
        "brand": "ABC"
      }
    },
    {
      "type": "Feature",
      "geometry": {
        "type": "Point",
        "coordinates": [
          24.0873474,
          62.5502511
        ]
      },
      "properties": {
        "id": 699055831,
        "osm_type": "way",
        "name": "ABC automaattiasema",
        "brand": "ABC",
        "opening_hours": "24/7"
      }
    },
    {
      "type": "Feature",
      "geometry": {
        "type": "Point",
        "coordinates": [
          21.7064252,
          62.3075061
        ]
      },
      "properties": {
        "id": 715105177,
        "osm_type": "way",
        "name": "ABC Karijoki",
        "brand": "ABC"
      }
    },
    {
      "type": "Feature",
      "geometry": {
        "type": "Point",
        "coordinates": [
          22.4543558,
          63.0625347
        ]
      },
      "properties": {
        "id": 720926276,
        "osm_type": "way",
        "name": "SEO Lehmäjoki",
        "brand": "SEO"
      }
    },
    {
      "type": "Feature",
      "geometry": {
        "type": "Point",
        "coordinates": [
          22.8455644,
          63.2296558
        ]
      },
      "properties": {
        "id": 1154540402,
        "osm_type": "way",
        "name": "Neste Express Alahärmä Powerpark",
        "brand": "Neste"
      }
    },
    {
      "type": "Feature",
      "geometry": {
        "type": "Point",
        "coordinates": [
          22.2322907,
          62.4547805
        ]
      },
      "properties": {
        "id": 1230200044,
        "osm_type": "way",
        "name": "St1",
        "brand": "St1"
      }
    },
    {
      "type": "Feature",
      "geometry": {
        "type": "Point",
        "coordinates": [
          22.3988997,
          62.6180527
        ]
      },
      "properties": {
        "id": 1478673378,
        "osm_type": "way",
        "name": "ABC Kurikka",
        "brand": "ABC",
        "opening_hours": "24/7"
      }
    }
  ]
}