{
  "type": "FeatureCollection",
  "features": [
    {
      "type": "Feature",
      "geometry": {
        "type": "Point",
        "coordinates": [
          16.8425206,
          42.7241469
        ]
      },
      "properties": {
        "id": 9978597919,
        "osm_type": "node",
        "access": "permissive",
        "shelter_type": "lean_to"
      }
    },
    {
      "type": "Feature",
      "geometry": {
        "type": "Point",
        "coordinates": [
          16.7906872,
          42.771321
        ]
      },
      "properties": {
        "id": 10008910035,
        "osm_type": "node",
        "shelter_type": "lean_to"
      }
    },
    {
      "type": "Feature",
      "geometry": {
        "type": "Point",
        "coordinates": [
          18.3605875,
          42.5596273
        ]
      },
      "properties": {
        "id": 962846969,
        "osm_type": "way",
        "name": "Škola Kuna Konavoska",
        "operator": "HPD Dubrovnik"
      }
    }
  ]
}