{
  "type": "FeatureCollection",
  "features": [
    {
      "type": "Feature",
      "geometry": {
        "type": "Point",
        "coordinates": [
          27.2968658,
          61.6861076
        ]
      },
      "properties": {
        "id": 249355163,
        "osm_type": "node",
        "name": "K-Citymarket",
        "brand": "K-Citymarket",
        "opening_hours": "Mo-Sa 07:00-22:00; Su 09:00-21:00"
      }
    },
    {
      "type": "Feature",
      "geometry": {
        "type": "Point",
        "coordinates": [
          27.2963021,
          61.6864665
        ]
      },
      "properties": {
        "id": 249355233,
        "osm_type": "node",
        "name": "Prisma",
        "brand": "Prisma",
        "opening_hours": "Mo-Sa 07:00-22:00; Su 09:00-21:00"
      }
    },
    {
      "type": "Feature",
      "geometry": {
        "type": "Point",
        "coordinates": [
          27.2033548,
          61.6781708
        ]
      },
      "properties": {
        "id": 392849872,
        "osm_type": "node",
        "name": "S-market",
        "brand": "S-market",
        "opening_hours": "Mo-Sa 07:00-21:00; Su 09:00-21:00"
      }
    },
    {
      "type": "Feature",
      "geometry": {
        "type": "Point",
        "coordinates": [
          27.3052273,
          61.701383
        ]
      },
      "properties": {
        "id": 404513209,
        "osm_type": "node",
        "name": "S-market",
        "brand": "S-market",
        "opening_hours": "Mo-Fr 07:00-21:00; Sa 07:00-18:00; Su 12:00-18:00"
      }
    },
    {
      "type": "Feature",
      "geometry": {
        "type": "Point",
        "coordinates": [
          26.7772693,
          61.6402756
        ]
      },
      "properties": {
        "id": 410576350,
        "osm_type": "node",
        "name": "S-market",
        "brand": "S-market",
        "opening_hours": "Mo-Sa 07:00-21:00; Su 10:00-18:00"
      }
    },
    {
      "type": "Feature",
      "geometry": {
        "type": "Point",
        "coordinates": [
          27.2738163,
          61.6890673
        ]
      },
      "properties": {
        "id": 535797673,
        "osm_type": "node",
        "name": "S-market",
        "brand": "S-market",
        "opening_hours": "Mo-Fr 07:00-21:00; Sa 07:00-18:00; Su 10:00-16:00"
      }
    },
    {
      "type": "Feature",
      "geometry": {
        "type": "Point",
        "coordinates": [
          27.8581606,
          61.8967712
        ]
      },
      "properties": {
        "id": 599344223,
        "osm_type": "node",
        "name": "S-market",
        "brand": "S-market",
        "opening_hours": "Mo-Sa 07:00-22:00; Su 09:00-21:00"
      }
    },
    {
      "type": "Feature",
      "geometry": {
        "type": "Point",
        "coordinates": [
          28.8273212,
          61.8772414
        ]
      },
      "properties": {
        "id": 629056498,
        "osm_type": "node",
        "name": "S-market",
        "brand": "S-market",
        "opening_hours": "Mo-Sa 07:00-22:00; Su 09:00-22:00"
      }
    },
    {
      "type": "Feature",
      "geometry": {
        "type": "Point",
        "coordinates": [
          27.2443703,
          61.5129635
        ]
      },
      "properties": {
        "id": 676238547,
        "osm_type": "node",
        "name": "K-Market",
        "brand": "K-Market",
        "opening_hours": "Mo-Fr 07:00-21:00; Sa 07:00-18:00; Su 12:00-18:00"
      }
    },
    {
      "type": "Feature",
      "geometry": {
        "type": "Point",
        "coordinates": [
          27.2474201,
          61.5111272
        ]
      },
      "properties": {
        "id": 834541883,
        "osm_type": "node",
        "name": "S-market",
        "brand": "S-market",
        "opening_hours": "Mo-Sa 07:00-21:00; Su 09:00-21:00"
      }
    },
    {
      "type": "Feature",
      "geometry": {
        "type": "Point",
        "coordinates": [
          26.8792735,
          61.4166287
        ]
      },
      "properties": {
        "id": 1306791757,
        "osm_type": "node",
        "name": "K-Supermarket",
        "brand": "K-Supermarket",
        "opening_hours": "Mo-Fr 07:00-21:00; Sa 07:00-20:00; Su 10:00-18:00"
      }
    },
    {
      "type": "Feature",
      "geometry": {
        "type": "Point",
        "coordinates": [
          26.8817613,
          61.414343
        ]
      },
      "properties": {
        "id": 1306791765,
        "osm_type": "node",
        "name": "S-market",
        "brand": "S-market",
        "opening_hours": "Mo-Sa 07:00-21:00; Su 10:00-18:00"
      }
    },
    {
      "type": "Feature",
      "geometry": {
        "type": "Point",
        "coordinates": [
          27.2708212,
          61.6806576
        ]
      },
      "properties": {
        "id": 1564037019,
        "osm_type": "node",
        "name": "S-market",
        "brand": "S-market",
        "opening_hours": "Mo-Sa 07:00-21:00; Su 09:00-21:00"
      }
    },
    {
      "type": "Feature",
      "geometry": {
        "type": "Point",
        "coordinates": [
          27.1615322,
          62.3015874
        ]
      },
      "properties": {
        "id": 2331201830,
        "osm_type": "node",
        "name": "Lidl",
        "brand": "Lidl",
        "opening_hours": "Mo-Fr 09:00-21:00; Sa 09:00-18:00; Su 12:00-18:00"
      }
    },
    {
      "type": "Feature",
      "geometry": {
        "type": "Point",
        "coordinates": [
          28.8764604,
          61.8707808
        ]
      },
      "properties": {
        "id": 4281151801,
        "osm_type": "node",
        "name": "S-market",
        "brand": "S-market",
        "opening_hours": "Mo-Sa 07:00-21:00; Su 10:00-18:00"
      }
    },
    {
      "type": "Feature",
      "geometry": {
        "type": "Point",
        "coordinates": [
          27.2227106,
          61.6795995
        ]
      },
      "properties": {
        "id": 5742140029,
        "osm_type": "node",
        "name": "K-Supermarket",
        "brand": "K-Supermarket",
        "opening_hours": "Mo-Fr 07:00-21:00; Sa 08:00-21:00; Su 09:00-21:00"
      }
    },
    {
      "type": "Feature",
      "geometry": {
        "type": "Point",
        "coordinates": [
          26.642621,
          61.9879517
        ]
      },
      "properties": {
        "id": 5780346519,
        "osm_type": "node",
        "name": "S-market",
        "brand": "S-market",
        "opening_hours": "Mo-Sa 07:00-21:00; Su 09:00-21:00"
      }
    },
    {
      "type": "Feature",
      "geometry": {
        "type": "Point",
        "coordinates": [
          27.2061457,
          62.0228398
        ]
      },
      "properties": {
        "id": 7684662008,
        "osm_type": "node",
        "name": "S-market",
        "brand": "S-market",
        "opening_hours": "Mo-Sa 07:00-21:00; Su 10:00-18:00"
      }
    },
    {
      "type": "Feature",
      "geometry": {
        "type": "Point",
        "coordinates": [
          27.8067181,
          61.8990168
        ]
      },
      "properties": {
        "id": 9272853200,
        "osm_type": "node",
        "name": "Kärkipyörä Juva",
        "opening_hours": "Mo-Fr 09:00-17:00"
      }
    },
    {
      "type": "Feature",
      "geometry": {
        "type": "Point",
        "coordinates": [
          27.2688823,
          61.6885866
        ]
      },
      "properties": {
        "id": 9920269208,
        "osm_type": "node",
        "name": "K-Supermarket",
        "brand": "K-Supermarket",
        "opening_hours": "Mo-Fr 07:00-21:00; Sa 07:00-19:00; Su 10:00-18:00"
      }
    },
    {
      "type": "Feature",
      "geometry": {
        "type": "Point",
        "coordinates": [
          27.2833741,
          61.7005578
        ]
      },
      "properties": {
        "id": 11358848300,
        "osm_type": "node",
        "name": "K-Supermarket",
        "brand": "K-Supermarket",
        "opening_hours": "Mo-Fr 07:00-21:00; Sa 08:00-21:00; Su 09:00-21:00"
      }
    },
    {
      "type": "Feature",
      "geometry": {
        "type": "Point",
        "coordinates": [
          28.8690016,
          61.8682747
        ]
      },
      "properties": {
        "id": 28959614,
        "osm_type": "way",
        "name": "K-Citymarket",
        "brand": "K-Citymarket",
        "opening_hours": "Mo-Fr 07:00-22:00; Sa,Su 09:00-22:00"
      }
    },
    {
      "type": "Feature",
      "geometry": {
        "type": "Point",
        "coordinates": [
          28.9481618,
          61.8763644
        ]
      },
      "properties": {
        "id": 58401279,
        "osm_type": "way",
        "name": "Prisma",
        "brand": "Prisma",
        "opening_hours": "Mo-Sa 08:00-22:00; Su 10:00-21:00"
      }
    },
    {
      "type": "Feature",
      "geometry": {
        "type": "Point",
        "coordinates": [
          28.3036562,
          62.0646755
        ]
      },
      "properties": {
        "id": 108526701,
        "osm_type": "way",
        "name": "S-market",
        "brand": "S-market",
        "opening_hours": "Mo-Sa 07:00-21:00; Su 09:00-21:00"
      }
    },
    {
      "type": "Feature",
      "geometry": {
        "type": "Point",
        "coordinates": [
          27.1657561,
          62.3034131
        ]
      },
      "properties": {
        "id": 200674520,
        "osm_type": "way",
        "name": "K-Citymarket",
        "brand": "K-Citymarket",
        "opening_hours": "Mo-Fr 08:00-22:00; Sa 08:00-20:00; Su 10:00-20:00"
      }
    },
    {
      "type": "Feature",
      "geometry": {
        "type": "Point",
        "coordinates": [
          27.2684415,
          61.6784221
        ]
      },
      "properties": {
        "id": 246643580,
        "osm_type": "way",
        "name": "Lidl",
        "brand": "Lidl",
        "opening_hours": "Mo-Sa 08:00-21:00; Su 09:00-21:00"
      }
    },
    {
      "type": "Feature",
      "geometry": {
        "type": "Point",
        "coordinates": [
          28.7029674,
          61.6081513
        ]
      },
      "properties": {
        "id": 322453418,
        "osm_type": "way",
        "name": "Kyläkauppa Rissanen",
        "opening_hours": "Mo-Fr 09:00-17:00; Sa 09:00-15:00; Su 12:00-14:00"
      }
    },
    {
      "type": "Feature",
      "geometry": {
        "type": "Point",
        "coordinates": [
          28.9212444,
          61.8698152
        ]
      },
      "properties": {
        "id": 358906732,
        "osm_type": "way",
        "name": "Lidl",
        "brand": "Lidl",
        "opening_hours": "Mo-Fr 08:00-21:00; Su 11:00-19:00"
      }
    },
    {
      "type": "Feature",
      "geometry": {
        "type": "Point",
        "coordinates": [
          28.9432696,
          61.8659284
        ]
      },
      "properties": {
        "id": 385088483,
        "osm_type": "way",
        "name": "S-market",
        "brand": "S-market",
        "opening_hours": "Mo-Sa 07:00-21:00; Su 10:00-18:00"
      }
    },
    {
      "type": "Feature",
      "geometry": {
        "type": "Point",
        "coordinates": [
          28.9395588,
          61.8649944
        ]
      },
      "properties": {
        "id": 385088485,
        "osm_type": "way",
        "name": "K-Supermarket",
        "brand": "K-Supermarket",
        "opening_hours": "Mo-Fr 07:00-21:00; Sa 08:00-19:00; Su 10:00-19:00"
      }
    },
    {
      "type": "Feature",
      "geometry": {
        "type": "Point",
        "coordinates": [
          29.3885727,
          61.7586474
        ]
      },
      "properties": {
        "id": 553934293,
        "osm_type": "way",
        "name": "S-market",
        "brand": "S-market",
        "opening_hours": "Mo-Sa 07:00-22:00; Su 09:00-22:00"
      }
    },
    {
      "type": "Feature",
      "geometry": {
        "type": "Point",
        "coordinates": [
          28.3722394,
          61.7868921
        ]
      },
      "properties": {
        "id": 554145640,
        "osm_type": "way",
        "name": "S-market",
        "brand": "S-market",
        "opening_hours": "Mo-Sa 07:00-21:00; Su 10:00-18:00"
      }
    },
    {
      "type": "Feature",
      "geometry": {
        "type": "Point",
        "coordinates": [
          29.2796856,
          61.9113861
        ]
      },
      "properties": {
        "id": 557888338,
        "osm_type": "way",
        "name": "S-market",
        "brand": "S-market",
        "opening_hours": "Mo-Sa 07:00-21:00; Su 09:00-21:00"
      }
    },
    {
      "type": "Feature",
      "geometry": {
        "type": "Point",
        "coordinates": [
          28.8134352,
          61.8792271
        ]
      },
      "properties": {
        "id": 685326538,
        "osm_type": "way",
        "name": "K-Supermarket",
        "brand": "K-Supermarket",
        "opening_hours": "Mo-Fr 07:00-21:00; Sa 08:00-21:00; Su 10:00-21:00"
      }
    },
    {
      "type": "Feature",
      "geometry": {
        "type": "Point",
        "coordinates": [
          27.1651229,
          62.2982884
        ]
      },
      "properties": {
        "id": 790644665,
        "osm_type": "way",
        "name": "Prisma",
        "brand": "Prisma",
        "opening_hours": "Mo-Sa 07:00-21:00; Su 09:00-21:00"
      }
    },
    {
      "type": "Feature",
      "geometry": {
        "type": "Point",
        "coordinates": [
          27.8527769,
          61.8975883
        ]
      },
      "properties": {
        "id": 1015667096,
        "osm_type": "way",
        "name": "K-Supermarket",
        "brand": "K-Supermarket",
        "opening_hours": "Mo-Sa 07:00-22:00; Su 10:00-18:00"
      }
    },
    {
      "type": "Feature",
      "geometry": {
        "type": "Point",
        "coordinates": [
          27.2872216,
          61.6975127
        ]
      },
      "properties": {
        "id": 1210988867,
        "osm_type": "way",
        "name": "Lidl",
        "brand": "Lidl",
        "opening_hours": "Mo-Sa 08:00-21:00; Su 10:00-21:00"
      }
    }
  ]
}