{
  "type": "FeatureCollection",
  "features": [
    {
      "type": "Feature",
      "geometry": {
        "type": "Point",
        "coordinates": [
          -5.6747201,
          40.9702831
        ]
      },
      "properties": {
        "id": 740158213,
        "osm_type": "node",
        "vending": "food",
        "check_date": "2025-04-20"
      }
    },
    {
      "type": "Feature",
      "geometry": {
        "type": "Point",
        "coordinates": [
          -5.6671524,
          40.9696786
        ]
      },
      "properties": {
        "id": 1373663500,
        "osm_type": "node",
        "name": "Pica&Pica 24h",
        "vending": "food;drinks;coffee",
        "check_date": "2024-04-15"
      }
    },
    {
      "type": "Feature",
      "geometry": {
        "type": "Point",
        "coordinates": [
          -3.1018044,
          42.4260079
        ]
      },
      "properties": {
        "id": 1497910359,
        "osm_type": "node",
        "vending": "drinks"
      }
    },
    {
      "type": "Feature",
      "geometry": {
        "type": "Point",
        "coordinates": [
          -3.4377211,
          42.3759762
        ]
      },
      "properties": {
        "id": 1502047998,
        "osm_type": "node",
        "vending": "drinks"
      }
    },
    {
      "type": "Feature",
      "geometry": {
        "type": "Point",
        "coordinates": [
          -3.6890461,
          42.3511022
        ]
      },
      "properties": {
        "id": 2023311824,
        "osm_type": "node",
        "vending": "drinks"
      }
    },
    {
      "type": "Feature",
      "geometry": {
        "type": "Point",
        "coordinates": [
          -3.6877218,
          42.3532711
        ]
      },
      "properties": {
        "id": 2023311825,
        "osm_type": "node",
        "vending": "drinks"
      }
    },
    {
      "type": "Feature",
      "geometry": {
        "type": "Point",
        "coordinates": [
          -3.68774,
          42.3532756
        ]
      },
      "properties": {
        "id": 2023311826,
        "osm_type": "node",
        "vending": "drinks"
      }
    },
    {
      "type": "Feature",
      "geometry": {
        "type": "Point",
        "coordinates": [
          -3.6877582,
          42.3532823
        ]
      },
      "properties": {
        "id": 2023311827,
        "osm_type": "node",
        "vending": "food"
      }
    },
    {
      "type": "Feature",
      "geometry": {
        "type": "Point",
        "coordinates": [
          -3.0012085,
          42.9411224
        ]
      },
      "properties": {
        "id": 2219113685,
        "osm_type": "node",
        "vending": "drinks"
      }
    },
    {
      "type": "Feature",
      "geometry": {
        "type": "Point",
        "coordinates": [
          -3.3236281,
          42.5507076
        ]
      },
      "properties": {
        "id": 2296575821,
        "osm_type": "node",
        "vending": "food",
        "operator": "Sarralde"
      }
    },
    {
      "type": "Feature",
      "geometry": {
        "type": "Point",
        "coordinates": [
          -3.5084587,
          42.3771164
        ]
      },
      "properties": {
        "id": 2303945209,
        "osm_type": "node",
        "vending": "drinks"
      }
    },
    {
      "type": "Feature",
      "geometry": {
        "type": "Point",
        "coordinates": [
          -3.6859178,
          41.672384
        ]
      },
      "properties": {
        "id": 2313042649,
        "osm_type": "node",
        "name": "Picapica",
        "opening_hours": "24/7",
        "vending": "coffee;food",
        "check_date": "2025-08-28"
      }
    },
    {
      "type": "Feature",
      "geometry": {
        "type": "Point",
        "coordinates": [
          -2.9402941,
          42.6900865
        ]
      },
      "properties": {
        "id": 3373758636,
        "osm_type": "node",
        "vending": "food"
      }
    },
    {
      "type": "Feature",
      "geometry": {
        "type": "Point",
        "coordinates": [
          -4.9040451,
          43.212044
        ]
      },
      "properties": {
        "id": 3440089034,
        "osm_type": "node",
        "vending": "drinks"
      }
    },
    {
      "type": "Feature",
      "geometry": {
        "type": "Point",
        "coordinates": [
          -4.902768,
          43.2136785
        ]
      },
      "properties": {
        "id": 3440089049,
        "osm_type": "node",
        "vending": "drinks"
      }
    },
    {
      "type": "Feature",
      "geometry": {
        "type": "Point",
        "coordinates": [
          -5.6620376,
          40.9623924
        ]
      },
      "properties": {
        "id": 3906155889,
        "osm_type": "node",
        "name": "pica&pica",
        "vending": "food",
        "check_date": "2024-07-29"
      }
    },
    {
      "type": "Feature",
      "geometry": {
        "type": "Point",
        "coordinates": [
          -6.6155769,
          42.0577979
        ]
      },
      "properties": {
        "id": 4081318998,
        "osm_type": "node",
        "vending": "drinks"
      }
    },
    {
      "type": "Feature",
      "geometry": {
        "type": "Point",
        "coordinates": [
          -5.6678731,
          40.9605749
        ]
      },
      "properties": {
        "id": 4086145558,
        "osm_type": "node",
        "name": "Libreros Vending",
        "opening_hours": "24/7",
        "vending": "coffee;drinks;snacks"
      }
    },
    {
      "type": "Feature",
      "geometry": {
        "type": "Point",
        "coordinates": [
          -4.9014372,
          43.2149636
        ]
      },
      "properties": {
        "id": 4597762848,
        "osm_type": "node",
        "vending": "drinks"
      }
    },
    {
      "type": "Feature",
      "geometry": {
        "type": "Point",
        "coordinates": [
          -2.9702459,
          42.6820948
        ]
      },
      "properties": {
        "id": 4762839011,
        "osm_type": "node",
        "name": "Vending 24 H",
        "vending": "food"
      }
    },
    {
      "type": "Feature",
      "geometry": {
        "type": "Point",
        "coordinates": [
          -7.0218389,
          42.7011868
        ]
      },
      "properties": {
        "id": 4954893386,
        "osm_type": "node",
        "vending": "drinks"
      }
    },
    {
      "type": "Feature",
      "geometry": {
        "type": "Point",
        "coordinates": [
          -5.6739399,
          40.969717
        ]
      },
      "properties": {
        "id": 5189418357,
        "osm_type": "node",
        "name": "Coffe&Smiles",
        "vending": "coffee",
        "check_date": "2024-01-26"
      }
    },
    {
      "type": "Feature",
      "geometry": {
        "type": "Point",
        "coordinates": [
          -3.6850302,
          42.3628519
        ]
      },
      "properties": {
        "id": 5835265027,
        "osm_type": "node",
        "vending": "drinks",
        "operator": "Burvending"
      }
    },
    {
      "type": "Feature",
      "geometry": {
        "type": "Point",
        "coordinates": [
          -3.6850416,
          42.3628588
        ]
      },
      "properties": {
        "id": 5835265030,
        "osm_type": "node",
        "vending": "drinks",
        "operator": "Burvending"
      }
    },
    {
      "type": "Feature",
      "geometry": {
        "type": "Point",
        "coordinates": [
          -5.5788834,
          42.5932887
        ]
      },
      "properties": {
        "id": 5846631728,
        "osm_type": "node",
        "vending": "drinks"
      }
    },
    {
      "type": "Feature",
      "geometry": {
        "type": "Point",
        "coordinates": [
          -4.5924473,
          41.4733943
        ]
      },
      "properties": {
        "id": 6184233165,
        "osm_type": "node",
        "vending": "drinks;sweets;food;condoms;chewing_gums;water;coffee"
      }
    },
    {
      "type": "Feature",
      "geometry": {
        "type": "Point",
        "coordinates": [
          -3.6757649,
          42.3551234
        ]
      },
      "properties": {
        "id": 6565237961,
        "osm_type": "node",
        "name": "Cafetalia 24h",
        "vending": "food;drinks"
      }
    },
    {
      "type": "Feature",
      "geometry": {
        "type": "Point",
        "coordinates": [
          -5.6769004,
          41.9988485
        ]
      },
      "properties": {
        "id": 6793529807,
        "osm_type": "node",
        "vending": "drinks"
      }
    },
    {
      "type": "Feature",
      "geometry": {
        "type": "Point",
        "coordinates": [
          -5.6750697,
          40.970313
        ]
      },
      "properties": {
        "id": 7092021654,
        "osm_type": "node",
        "vending": "drinks",
        "check_date": "2025-04-20"
      }
    },
    {
      "type": "Feature",
      "geometry": {
        "type": "Point",
        "coordinates": [
          -5.6751586,
          40.9703461
        ]
      },
      "properties": {
        "id": 7092021656,
        "osm_type": "node",
        "vending": "drinks",
        "check_date": "2025-04-20"
      }
    },
    {
      "type": "Feature",
      "geometry": {
        "type": "Point",
        "coordinates": [
          -5.6752628,
          40.9705813
        ]
      },
      "properties": {
        "id": 7092021659,
        "osm_type": "node",
        "vending": "drinks",
        "check_date": "2025-04-20"
      }
    },
    {
      "type": "Feature",
      "geometry": {
        "type": "Point",
        "coordinates": [
          -4.7292707,
          41.6549766
        ]
      },
      "properties": {
        "id": 7102357187,
        "osm_type": "node",
        "name": "Seven",
        "vending": "drinks;sweets"
      }
    },
    {
      "type": "Feature",
      "geometry": {
        "type": "Point",
        "coordinates": [
          -3.0662117,
          41.829167
        ]
      },
      "properties": {
        "id": 8118208774,
        "osm_type": "node",
        "name": "pica&pica",
        "vending": "food"
      }
    },
    {
      "type": "Feature",
      "geometry": {
        "type": "Point",
        "coordinates": [
          -2.528578,
          41.4895658
        ]
      },
      "properties": {
        "id": 8398591345,
        "osm_type": "node",
        "vending": "drinks"
      }
    },
    {
      "type": "Feature",
      "geometry": {
        "type": "Point",
        "coordinates": [
          -4.722644,
          41.6515635
        ]
      },
      "properties": {
        "id": 8984016017,
        "osm_type": "node",
        "name": "Mister vending",
        "vending": "drinks;sweets;food"
      }
    },
    {
      "type": "Feature",
      "geometry": {
        "type": "Point",
        "coordinates": [
          -4.7200483,
          41.658329
        ]
      },
      "properties": {
        "id": 9501766879,
        "osm_type": "node",
        "name": "Japón Market",
        "vending": "drinks;sweets;food"
      }
    },
    {
      "type": "Feature",
      "geometry": {
        "type": "Point",
        "coordinates": [
          -6.842891,
          42.0346196
        ]
      },
      "properties": {
        "id": 9759526891,
        "osm_type": "node",
        "vending": "drinks"
      }
    },
    {
      "type": "Feature",
      "geometry": {
        "type": "Point",
        "coordinates": [
          -3.5249146,
          42.3342773
        ]
      },
      "properties": {
        "id": 10010731870,
        "osm_type": "node",
        "vending": "coffee;drinks;food;sweets;water;snacks",
        "check_date": "2025-04-26"
      }
    },
    {
      "type": "Feature",
      "geometry": {
        "type": "Point",
        "coordinates": [
          -4.1146075,
          40.9423035
        ]
      },
      "properties": {
        "id": 10633835617,
        "osm_type": "node",
        "vending": "sweets;drinks",
        "check_date": "2025-09-19"
      }
    },
    {
      "type": "Feature",
      "geometry": {
        "type": "Point",
        "coordinates": [
          -5.6675849,
          40.9596651
        ]
      },
      "properties": {
        "id": 10995547324,
        "osm_type": "node",
        "vending": "water;drinks;coffee;condoms;sweets;sex_toys",
        "operator": "Cabadoblack",
        "check_date": "2025-09-14"
      }
    },
    {
      "type": "Feature",
      "geometry": {
        "type": "Point",
        "coordinates": [
          -4.5452228,
          42.3158254
        ]
      },
      "properties": {
        "id": 11047809304,
        "osm_type": "node",
        "vending": "drinks"
      }
    },
    {
      "type": "Feature",
      "geometry": {
        "type": "Point",
        "coordinates": [
          -5.0218418,
          42.3700843
        ]
      },
      "properties": {
        "id": 11047817237,
        "osm_type": "node",
        "vending": "drinks"
      }
    },
    {
      "type": "Feature",
      "geometry": {
        "type": "Point",
        "coordinates": [
          -4.7500868,
          41.6230751
        ]
      },
      "properties": {
        "id": 11382582900,
        "osm_type": "node",
        "vending": "drinks"
      }
    },
    {
      "type": "Feature",
      "geometry": {
        "type": "Point",
        "coordinates": [
          -4.1220085,
          40.9450267
        ]
      },
      "properties": {
        "id": 11643249585,
        "osm_type": "node",
        "name": "más que pan",
        "vending": "food;drinks",
        "check_date": "2025-04-08"
      }
    },
    {
      "type": "Feature",
      "geometry": {
        "type": "Point",
        "coordinates": [
          -5.661833,
          42.5513379
        ]
      },
      "properties": {
        "id": 11758981517,
        "osm_type": "node",
        "vending": "drinks;food;libros;cremas",
        "operator": "Market Domus"
      }
    },
    {
      "type": "Feature",
      "geometry": {
        "type": "Point",
        "coordinates": [
          -3.6664243,
          42.3707532
        ]
      },
      "properties": {
        "id": 11770831112,
        "osm_type": "node",
        "vending": "drinks;sweets;food;coffee;water",
        "check_date": "2025-09-11"
      }
    },
    {
      "type": "Feature",
      "geometry": {
        "type": "Point",
        "coordinates": [
          -3.7013694,
          42.3381585
        ]
      },
      "properties": {
        "id": 12007409226,
        "osm_type": "node",
        "vending": "drinks"
      }
    },
    {
      "type": "Feature",
      "geometry": {
        "type": "Point",
        "coordinates": [
          -3.7013384,
          42.3381605
        ]
      },
      "properties": {
        "id": 12007478815,
        "osm_type": "node",
        "vending": "food"
      }
    },
    {
      "type": "Feature",
      "geometry": {
        "type": "Point",
        "coordinates": [
          -3.7010268,
          42.3381633
        ]
      },
      "properties": {
        "id": 12020588889,
        "osm_type": "node",
        "vending": "drinks"
      }
    },
    {
      "type": "Feature",
      "geometry": {
        "type": "Point",
        "coordinates": [
          -3.7010664,
          42.3381649
        ]
      },
      "properties": {
        "id": 12020591722,
        "osm_type": "node",
        "vending": "drinks"
      }
    },
    {
      "type": "Feature",
      "geometry": {
        "type": "Point",
        "coordinates": [
          -4.7178067,
          41.657158
        ]
      },
      "properties": {
        "id": 12115567858,
        "osm_type": "node",
        "name": "Metro 24 st",
        "vending": "drinks;sweets"
      }
    },
    {
      "type": "Feature",
      "geometry": {
        "type": "Point",
        "coordinates": [
          -4.7216193,
          41.6608675
        ]
      },
      "properties": {
        "id": 12115582312,
        "osm_type": "node",
        "name": "Metro 24 st",
        "vending": "drinks;sweets"
      }
    },
    {
      "type": "Feature",
      "geometry": {
        "type": "Point",
        "coordinates": [
          -3.6836473,
          42.3621541
        ]
      },
      "properties": {
        "id": 12513928697,
        "osm_type": "node",
        "opening_hours": "24/7",
        "vending": "drinks",
        "check_date": "2025-01-19"
      }
    },
    {
      "type": "Feature",
      "geometry": {
        "type": "Point",
        "coordinates": [
          -3.6836659,
          42.3621662
        ]
      },
      "properties": {
        "id": 12513928698,
        "osm_type": "node",
        "opening_hours": "24/7",
        "vending": "drinks;snacks",
        "check_date": "2025-01-19"
      }
    },
    {
      "type": "Feature",
      "geometry": {
        "type": "Point",
        "coordinates": [
          -3.6836853,
          42.3621779
        ]
      },
      "properties": {
        "id": 12513928699,
        "osm_type": "node",
        "opening_hours": "24/7",
        "vending": "drinks",
        "check_date": "2025-01-19"
      }
    },
    {
      "type": "Feature",
      "geometry": {
        "type": "Point",
        "coordinates": [
          -4.7188321,
          41.664973
        ]
      },
      "properties": {
        "id": 12674064224,
        "osm_type": "node",
        "vending": "drinks;sweets"
      }
    },
    {
      "type": "Feature",
      "geometry": {
        "type": "Point",
        "coordinates": [
          -3.4982563,
          42.3788701
        ]
      },
      "properties": {
        "id": 12787754880,
        "osm_type": "node",
        "vending": "drinks;food;coffee;snacks",
        "check_date": "2025-04-26"
      }
    },
    {
      "type": "Feature",
      "geometry": {
        "type": "Point",
        "coordinates": [
          -4.7188698,
          41.6650172
        ]
      },
      "properties": {
        "id": 12913532910,
        "osm_type": "node",
        "name": "24 Horas",
        "vending": "drinks;sweets"
      }
    },
    {
      "type": "Feature",
      "geometry": {
        "type": "Point",
        "coordinates": [
          -3.0126301,
          41.9571303
        ]
      },
      "properties": {
        "id": 13028442402,
        "osm_type": "node",
        "vending": "drinks"
      }
    },
    {
      "type": "Feature",
      "geometry": {
        "type": "Point",
        "coordinates": [
          -5.0101253,
          41.5034966
        ]
      },
      "properties": {
        "id": 13047870654,
        "osm_type": "node",
        "vending": "drinks"
      }
    },
    {
      "type": "Feature",
      "geometry": {
        "type": "Point",
        "coordinates": [
          -5.0101339,
          41.5034972
        ]
      },
      "properties": {
        "id": 13047870655,
        "osm_type": "node",
        "vending": "drinks"
      }
    },
    {
      "type": "Feature",
      "geometry": {
        "type": "Point",
        "coordinates": [
          -4.7734433,
          41.6250972
        ]
      },
      "properties": {
        "id": 13075813787,
        "osm_type": "node",
        "vending": "drinks;food;sweets;water;condoms",
        "operator": "Quiosco Sueños de Caramelo"
      }
    },
    {
      "type": "Feature",
      "geometry": {
        "type": "Point",
        "coordinates": [
          -4.7204044,
          41.6506416
        ]
      },
      "properties": {
        "id": 13096905129,
        "osm_type": "node",
        "name": "Elveinticuatro 24 h",
        "vending": "drinks;sweets"
      }
    },
    {
      "type": "Feature",
      "geometry": {
        "type": "Point",
        "coordinates": [
          -4.1000238,
          40.9306685
        ]
      },
      "properties": {
        "id": 13120355352,
        "osm_type": "node",
        "vending": "food"
      }
    },
    {
      "type": "Feature",
      "geometry": {
        "type": "Point",
        "coordinates": [
          -4.1037599,
          40.9360576
        ]
      },
      "properties": {
        "id": 13201716670,
        "osm_type": "node",
        "vending": "food",
        "check_date": "2026-01-28"
      }
    },
    {
      "type": "Feature",
      "geometry": {
        "type": "Point",
        "coordinates": [
          -6.5981647,
          42.5501206
        ]
      },
      "properties": {
        "id": 13309123381,
        "osm_type": "node",
        "vending": "coffee;drinks;sweets;food"
      }
    },
    {
      "type": "Feature",
      "geometry": {
        "type": "Point",
        "coordinates": [
          -4.1161403,
          40.9480839
        ]
      },
      "properties": {
        "id": 13323981596,
        "osm_type": "node",
        "opening_hours": "24/7",
        "vending": "food;drinks;bread;water;sweets;condoms;coffee;candles",
        "operator": "OpenBlue",
        "check_date": "2026-01-27"
      }
    },
    {
      "type": "Feature",
      "geometry": {
        "type": "Point",
        "coordinates": [
          -3.3215178,
          42.5450244
        ]
      },
      "properties": {
        "id": 13357789867,
        "osm_type": "node",
        "opening_hours": "Mo-Su 08:30-22:00",
        "vending": "food;drinks;coffee;sweets",
        "operator": "La Colada Burebana"
      }
    },
    {
      "type": "Feature",
      "geometry": {
        "type": "Point",
        "coordinates": [
          -3.6771839,
          41.146323
        ]
      },
      "properties": {
        "id": 13418532874,
        "osm_type": "node",
        "vending": "drinks"
      }
    }
  ]
}