{
  "type": "FeatureCollection",
  "features": [
    {
      "type": "Feature",
      "geometry": {
        "type": "Point",
        "coordinates": [
          22.0989932,
          44.8715704
        ]
      },
      "properties": {
        "id": 4346117696,
        "osm_type": "node"
      }
    },
    {
      "type": "Feature",
      "geometry": {
        "type": "Point",
        "coordinates": [
          22.3417671,
          45.5077172
        ]
      },
      "properties": {
        "id": 5131304088,
        "osm_type": "node"
      }
    },
    {
      "type": "Feature",
      "geometry": {
        "type": "Point",
        "coordinates": [
          22.4840845,
          45.0021614
        ]
      },
      "properties": {
        "id": 9548030271,
        "osm_type": "node"
      }
    },
    {
      "type": "Feature",
      "geometry": {
        "type": "Point",
        "coordinates": [
          22.0996717,
          44.8702287
        ]
      },
      "properties": {
        "id": 9798491955,
        "osm_type": "node"
      }
    },
    {
      "type": "Feature",
      "geometry": {
        "type": "Point",
        "coordinates": [
          21.8905716,
          45.2892924
        ]
      },
      "properties": {
        "id": 10180542717,
        "osm_type": "node",
        "opening_hours": "24/7"
      }
    },
    {
      "type": "Feature",
      "geometry": {
        "type": "Point",
        "coordinates": [
          21.7791918,
          44.9235132
        ]
      },
      "properties": {
        "id": 10971756375,
        "osm_type": "node"
      }
    },
    {
      "type": "Feature",
      "geometry": {
        "type": "Point",
        "coordinates": [
          21.7791598,
          44.9232877
        ]
      },
      "properties": {
        "id": 10971756376,
        "osm_type": "node"
      }
    },
    {
      "type": "Feature",
      "geometry": {
        "type": "Point",
        "coordinates": [
          21.7789564,
          44.9230958
        ]
      },
      "properties": {
        "id": 10971756377,
        "osm_type": "node"
      }
    },
    {
      "type": "Feature",
      "geometry": {
        "type": "Point",
        "coordinates": [
          21.7405994,
          44.8655336
        ]
      },
      "properties": {
        "id": 10976677942,
        "osm_type": "node"
      }
    },
    {
      "type": "Feature",
      "geometry": {
        "type": "Point",
        "coordinates": [
          21.633015,
          45.4183966
        ]
      },
      "properties": {
        "id": 11906756081,
        "osm_type": "node",
        "access": "yes"
      }
    },
    {
      "type": "Feature",
      "geometry": {
        "type": "Point",
        "coordinates": [
          21.8840881,
          45.292252
        ]
      },
      "properties": {
        "id": 13255711080,
        "osm_type": "node",
        "access": "yes"
      }
    }
  ]
}