{
  "type": "FeatureCollection",
  "features": [
    {
      "type": "Feature",
      "geometry": {
        "type": "Point",
        "coordinates": [
          17.8435719,
          48.5869337
        ]
      },
      "properties": {
        "id": 377699149,
        "osm_type": "node",
        "name": "Cantinetta"
      }
    },
    {
      "type": "Feature",
      "geometry": {
        "type": "Point",
        "coordinates": [
          17.7433079,
          48.3749342
        ]
      },
      "properties": {
        "id": 535141692,
        "osm_type": "node",
        "name": "Kaviareň Albion"
      }
    },
    {
      "type": "Feature",
      "geometry": {
        "type": "Point",
        "coordinates": [
          17.8374523,
          48.5879994
        ]
      },
      "properties": {
        "id": 679159993,
        "osm_type": "node",
        "name": "Lavazza",
        "brand": "Lavazza",
        "takeaway": "no",
        "outdoor_seating": "yes"
      }
    },
    {
      "type": "Feature",
      "geometry": {
        "type": "Point",
        "coordinates": [
          17.8426228,
          48.5879555
        ]
      },
      "properties": {
        "id": 686814438,
        "osm_type": "node",
        "name": "Elizabeth",
        "opening_hours": "Mo-Su 09:00-19:00"
      }
    },
    {
      "type": "Feature",
      "geometry": {
        "type": "Point",
        "coordinates": [
          17.8325686,
          48.5949045
        ]
      },
      "properties": {
        "id": 724092164,
        "osm_type": "node",
        "name": "Classic coffee",
        "opening_hours": "Mo off; Tu-Fr 07:30-17:00; Sa 09:00-12:00; Su off",
        "outdoor_seating": "yes"
      }
    },
    {
      "type": "Feature",
      "geometry": {
        "type": "Point",
        "coordinates": [
          17.8362496,
          48.5891604
        ]
      },
      "properties": {
        "id": 725243775,
        "osm_type": "node",
        "name": "Cukráreň Leko",
        "outdoor_seating": "yes"
      }
    },
    {
      "type": "Feature",
      "geometry": {
        "type": "Point",
        "coordinates": [
          17.8324761,
          48.5894026
        ]
      },
      "properties": {
        "id": 725243776,
        "osm_type": "node",
        "name": "Monsalvy",
        "opening_hours": "Mo-Th 08:00-21:00, Fr 08:00-22:00, Sa 09:00-22:00, Su 09:00-21:30"
      }
    },
    {
      "type": "Feature",
      "geometry": {
        "type": "Point",
        "coordinates": [
          17.8329603,
          48.5889343
        ]
      },
      "properties": {
        "id": 725243801,
        "osm_type": "node",
        "name": "Violeta",
        "opening_hours": "Mo-Su 06:00-20:00"
      }
    },
    {
      "type": "Feature",
      "geometry": {
        "type": "Point",
        "coordinates": [
          17.754118,
          48.5953211
        ]
      },
      "properties": {
        "id": 726234004,
        "osm_type": "node"
      }
    },
    {
      "type": "Feature",
      "geometry": {
        "type": "Point",
        "coordinates": [
          17.83242,
          48.5928865
        ]
      },
      "properties": {
        "id": 727312583,
        "osm_type": "node",
        "name": "Fitness cafe"
      }
    },
    {
      "type": "Feature",
      "geometry": {
        "type": "Point",
        "coordinates": [
          17.834177,
          48.5919168
        ]
      },
      "properties": {
        "id": 727312585,
        "osm_type": "node",
        "name": "Kolonáda cafe",
        "opening_hours": "Mo-Th 08:00-19:00; Fr 08:00-20:00; Sa-Su 08:30-20:00"
      }
    },
    {
      "type": "Feature",
      "geometry": {
        "type": "Point",
        "coordinates": [
          17.8307736,
          48.58425
        ]
      },
      "properties": {
        "id": 885285649,
        "osm_type": "node",
        "name": "Čajovňa Medulienka"
      }
    },
    {
      "type": "Feature",
      "geometry": {
        "type": "Point",
        "coordinates": [
          17.5780444,
          48.1657182
        ]
      },
      "properties": {
        "id": 928023110,
        "osm_type": "node"
      }
    },
    {
      "type": "Feature",
      "geometry": {
        "type": "Point",
        "coordinates": [
          17.8325759,
          48.5953679
        ]
      },
      "properties": {
        "id": 1276001070,
        "osm_type": "node",
        "name": "Pekáreň na rožku",
        "opening_hours": "Mo-Fr 06:30-16:30; Sa 07:00-12:00"
      }
    },
    {
      "type": "Feature",
      "geometry": {
        "type": "Point",
        "coordinates": [
          17.8532059,
          48.5846057
        ]
      },
      "properties": {
        "id": 1371442074,
        "osm_type": "node",
        "name": "CARAT café"
      }
    },
    {
      "type": "Feature",
      "geometry": {
        "type": "Point",
        "coordinates": [
          17.2256346,
          48.8461091
        ]
      },
      "properties": {
        "id": 1660694161,
        "osm_type": "node",
        "name": "Piazza Doro",
        "opening_hours": "Mo-Th 07:30-21:00; Fr 07:30-23:00; Sa 10:00-23:00; Su 13:00-20:00",
        "outdoor_seating": "yes"
      }
    },
    {
      "type": "Feature",
      "geometry": {
        "type": "Point",
        "coordinates": [
          17.2266468,
          48.8456196
        ]
      },
      "properties": {
        "id": 1660694188,
        "osm_type": "node",
        "name": "Centrum"
      }
    },
    {
      "type": "Feature",
      "geometry": {
        "type": "Point",
        "coordinates": [
          17.8361857,
          48.5897081
        ]
      },
      "properties": {
        "id": 1778376243,
        "osm_type": "node",
        "name": "Cukráreň Luminous",
        "outdoor_seating": "yes"
      }
    },
    {
      "type": "Feature",
      "geometry": {
        "type": "Point",
        "coordinates": [
          17.8361458,
          48.5897686
        ]
      },
      "properties": {
        "id": 1786302804,
        "osm_type": "node",
        "name": "Aztek",
        "outdoor_seating": "yes"
      }
    },
    {
      "type": "Feature",
      "geometry": {
        "type": "Point",
        "coordinates": [
          17.5915145,
          48.3873294
        ]
      },
      "properties": {
        "id": 1791633145,
        "osm_type": "node",
        "name": "Šenkvická pekáreň"
      }
    },
    {
      "type": "Feature",
      "geometry": {
        "type": "Point",
        "coordinates": [
          17.1553784,
          48.8156037
        ]
      },
      "properties": {
        "id": 2078583692,
        "osm_type": "node",
        "name": "Pekáreň Kopčany"
      }
    },
    {
      "type": "Feature",
      "geometry": {
        "type": "Point",
        "coordinates": [
          17.2245702,
          48.845428
        ]
      },
      "properties": {
        "id": 2085567720,
        "osm_type": "node",
        "name": "Club cafe",
        "opening_hours": "Mo-Th 07:00-21:00; Fr 07:00-22:00; Sa 07:30-22:00; Su 08:00-21:00",
        "outdoor_seating": "yes"
      }
    },
    {
      "type": "Feature",
      "geometry": {
        "type": "Point",
        "coordinates": [
          17.465309,
          48.5255013
        ]
      },
      "properties": {
        "id": 2154184887,
        "osm_type": "node",
        "name": "Pekáreň KPK"
      }
    },
    {
      "type": "Feature",
      "geometry": {
        "type": "Point",
        "coordinates": [
          17.8077036,
          48.01911
        ]
      },
      "properties": {
        "id": 2297037103,
        "osm_type": "node"
      }
    },
    {
      "type": "Feature",
      "geometry": {
        "type": "Point",
        "coordinates": [
          17.367448,
          48.6815413
        ]
      },
      "properties": {
        "id": 2304110753,
        "osm_type": "node",
        "name": "Coffeshop Company"
      }
    },
    {
      "type": "Feature",
      "geometry": {
        "type": "Point",
        "coordinates": [
          17.3668043,
          48.6804404
        ]
      },
      "properties": {
        "id": 2304123502,
        "osm_type": "node",
        "name": "Club Caffé Prestigio"
      }
    },
    {
      "type": "Feature",
      "geometry": {
        "type": "Point",
        "coordinates": [
          17.8034089,
          48.0198209
        ]
      },
      "properties": {
        "id": 2305024992,
        "osm_type": "node",
        "name": "Alžbeta Faragó - PEKÁREŇ JERE"
      }
    },
    {
      "type": "Feature",
      "geometry": {
        "type": "Point",
        "coordinates": [
          17.364454,
          48.6804253
        ]
      },
      "properties": {
        "id": 2306678485,
        "osm_type": "node",
        "name": "Arli Caffé"
      }
    },
    {
      "type": "Feature",
      "geometry": {
        "type": "Point",
        "coordinates": [
          17.218179,
          48.839703
        ]
      },
      "properties": {
        "id": 2317068978,
        "osm_type": "node",
        "name": "Café Sv. Michal"
      }
    },
    {
      "type": "Feature",
      "geometry": {
        "type": "Point",
        "coordinates": [
          17.2170932,
          48.8389686
        ]
      },
      "properties": {
        "id": 2317072076,
        "osm_type": "node",
        "name": "Cinema Café"
      }
    },
    {
      "type": "Feature",
      "geometry": {
        "type": "Point",
        "coordinates": [
          17.2184436,
          48.8391098
        ]
      },
      "properties": {
        "id": 2317075909,
        "osm_type": "node",
        "name": "Gallery Café"
      }
    },
    {
      "type": "Feature",
      "geometry": {
        "type": "Point",
        "coordinates": [
          17.2245987,
          48.8477652
        ]
      },
      "properties": {
        "id": 2317130485,
        "osm_type": "node",
        "name": "Café Celio"
      }
    },
    {
      "type": "Feature",
      "geometry": {
        "type": "Point",
        "coordinates": [
          17.1572434,
          48.819215
        ]
      },
      "properties": {
        "id": 2317167095,
        "osm_type": "node",
        "name": "Presto"
      }
    },
    {
      "type": "Feature",
      "geometry": {
        "type": "Point",
        "coordinates": [
          17.1626649,
          48.810231
        ]
      },
      "properties": {
        "id": 2357646606,
        "osm_type": "node",
        "name": "Kaviareň Rézi"
      }
    },
    {
      "type": "Feature",
      "geometry": {
        "type": "Point",
        "coordinates": [
          17.1618498,
          48.8095634
        ]
      },
      "properties": {
        "id": 2357658759,
        "osm_type": "node",
        "name": "Pekárstvo Bistro Křižákovi",
        "opening_hours": "Mo-Fr 05:30-17:00; Sa 06:00-11:00"
      }
    },
    {
      "type": "Feature",
      "geometry": {
        "type": "Point",
        "coordinates": [
          17.6196186,
          48.3425619
        ]
      },
      "properties": {
        "id": 2373877579,
        "osm_type": "node",
        "name": "Empark"
      }
    },
    {
      "type": "Feature",
      "geometry": {
        "type": "Point",
        "coordinates": [
          17.6243559,
          48.5693239
        ]
      },
      "properties": {
        "id": 2388181703,
        "osm_type": "node",
        "name": "Emil Prítrský - Pekáreň"
      }
    },
    {
      "type": "Feature",
      "geometry": {
        "type": "Point",
        "coordinates": [
          17.7245719,
          48.6206162
        ]
      },
      "properties": {
        "id": 2440498356,
        "osm_type": "node",
        "name": "U Mórica"
      }
    },
    {
      "type": "Feature",
      "geometry": {
        "type": "Point",
        "coordinates": [
          17.7237659,
          48.6210382
        ]
      },
      "properties": {
        "id": 2451944367,
        "osm_type": "node"
      }
    },
    {
      "type": "Feature",
      "geometry": {
        "type": "Point",
        "coordinates": [
          17.0203086,
          48.6585119
        ]
      },
      "properties": {
        "id": 2475403935,
        "osm_type": "node",
        "name": "Pekáreň Šimek"
      }
    },
    {
      "type": "Feature",
      "geometry": {
        "type": "Point",
        "coordinates": [
          17.8368744,
          48.5903489
        ]
      },
      "properties": {
        "id": 2479104573,
        "osm_type": "node",
        "name": "Mon Bijou"
      }
    },
    {
      "type": "Feature",
      "geometry": {
        "type": "Point",
        "coordinates": [
          17.8354086,
          48.5902916
        ]
      },
      "properties": {
        "id": 2479104578,
        "osm_type": "node",
        "name": "Snack bar",
        "opening_hours": "Mo-Sa 08:30-20:00; Su 09:30-20:00",
        "outdoor_seating": "yes"
      }
    },
    {
      "type": "Feature",
      "geometry": {
        "type": "Point",
        "coordinates": [
          17.7705651,
          47.8560721
        ]
      },
      "properties": {
        "id": 2526888938,
        "osm_type": "node",
        "name": "Wagner",
        "opening_hours": "Mo-Th 09:00-20:00; Fr-Sa 09:00-21:00; Su 10:00-20:00",
        "outdoor_seating": "yes"
      }
    },
    {
      "type": "Feature",
      "geometry": {
        "type": "Point",
        "coordinates": [
          17.7708182,
          47.8565873
        ]
      },
      "properties": {
        "id": 2536576721,
        "osm_type": "node",
        "name": "Lebeco"
      }
    },
    {
      "type": "Feature",
      "geometry": {
        "type": "Point",
        "coordinates": [
          17.8345712,
          48.5906082
        ]
      },
      "properties": {
        "id": 2536857586,
        "osm_type": "node",
        "name": "Istria"
      }
    },
    {
      "type": "Feature",
      "geometry": {
        "type": "Point",
        "coordinates": [
          17.8320716,
          48.5911214
        ]
      },
      "properties": {
        "id": 2542887140,
        "osm_type": "node",
        "name": "Hookafe",
        "opening_hours": "Mo-Th 16:00-22:00, Fr,Sa 16:00-24:00, Su 16:00-22:00"
      }
    },
    {
      "type": "Feature",
      "geometry": {
        "type": "Point",
        "coordinates": [
          17.5858511,
          48.3763726
        ]
      },
      "properties": {
        "id": 2600127231,
        "osm_type": "node",
        "name": "Adria",
        "opening_hours": "Mo-Fr 08:00-20:00; Sa 10:00-20:00; Su 11:00-20:00",
        "outdoor_seating": "yes"
      }
    },
    {
      "type": "Feature",
      "geometry": {
        "type": "Point",
        "coordinates": [
          17.5866808,
          48.374245
        ]
      },
      "properties": {
        "id": 2600127304,
        "osm_type": "node",
        "name": "Trnavská káva",
        "opening_hours": "Mo-Th 08:00-18:00; Fr-Sa 08:00-19:00; Su 09:00-19:00",
        "outdoor_seating": "no"
      }
    },
    {
      "type": "Feature",
      "geometry": {
        "type": "Point",
        "coordinates": [
          17.5699613,
          48.3732067
        ]
      },
      "properties": {
        "id": 2622070602,
        "osm_type": "node",
        "name": "Manuel"
      }
    },
    {
      "type": "Feature",
      "geometry": {
        "type": "Point",
        "coordinates": [
          17.6120154,
          47.8357502
        ]
      },
      "properties": {
        "id": 2689998187,
        "osm_type": "node"
      }
    },
    {
      "type": "Feature",
      "geometry": {
        "type": "Point",
        "coordinates": [
          17.6106273,
          47.9951143
        ]
      },
      "properties": {
        "id": 2715938983,
        "osm_type": "node",
        "name": "Sunset"
      }
    },
    {
      "type": "Feature",
      "geometry": {
        "type": "Point",
        "coordinates": [
          17.6024196,
          48.0008211
        ]
      },
      "properties": {
        "id": 2718093474,
        "osm_type": "node"
      }
    },
    {
      "type": "Feature",
      "geometry": {
        "type": "Point",
        "coordinates": [
          17.6040626,
          47.9993645
        ]
      },
      "properties": {
        "id": 2724847528,
        "osm_type": "node",
        "name": "Schery Presso"
      }
    },
    {
      "type": "Feature",
      "geometry": {
        "type": "Point",
        "coordinates": [
          17.5845272,
          48.3799732
        ]
      },
      "properties": {
        "id": 2852741982,
        "osm_type": "node",
        "name": "Vrzukáč",
        "opening_hours": "Mo-Fr 07:00-18:00; Sa 07:00-13:00"
      }
    },
    {
      "type": "Feature",
      "geometry": {
        "type": "Point",
        "coordinates": [
          17.5842613,
          48.37964
        ]
      },
      "properties": {
        "id": 2852741997,
        "osm_type": "node",
        "name": "Bambi Bar",
        "opening_hours": "Mo-Th 09:30-20:00; Fr 09:30-22:00; Sa 14:30-22:00; Su 14:30-20:00",
        "outdoor_seating": "yes"
      }
    },
    {
      "type": "Feature",
      "geometry": {
        "type": "Point",
        "coordinates": [
          17.5853215,
          48.3782824
        ]
      },
      "properties": {
        "id": 2852742414,
        "osm_type": "node",
        "name": "Chlieb Náš",
        "opening_hours": "Tu-Fr 07:00-16:00, Sa 7:00-14:00"
      }
    },
    {
      "type": "Feature",
      "geometry": {
        "type": "Point",
        "coordinates": [
          17.5868019,
          48.3733049
        ]
      },
      "properties": {
        "id": 2857797306,
        "osm_type": "node",
        "name": "Win Win",
        "opening_hours": "Mo-Th 08:00-20:00; Fr-Sa 09:00-22:00; Su 09:00-20:00",
        "outdoor_seating": "yes"
      }
    },
    {
      "type": "Feature",
      "geometry": {
        "type": "Point",
        "coordinates": [
          17.8314051,
          48.6022584
        ]
      },
      "properties": {
        "id": 2931350284,
        "osm_type": "node",
        "name": "Pekárenské výrobky"
      }
    },
    {
      "type": "Feature",
      "geometry": {
        "type": "Point",
        "coordinates": [
          17.768957,
          47.8565003
        ]
      },
      "properties": {
        "id": 2963297661,
        "osm_type": "node"
      }
    },
    {
      "type": "Feature",
      "geometry": {
        "type": "Point",
        "coordinates": [
          17.6070492,
          47.9846702
        ]
      },
      "properties": {
        "id": 2972076258,
        "osm_type": "node",
        "name": "Beach cafe"
      }
    },
    {
      "type": "Feature",
      "geometry": {
        "type": "Point",
        "coordinates": [
          17.7240447,
          48.1852963
        ]
      },
      "properties": {
        "id": 3161784286,
        "osm_type": "node",
        "name": "Bubble house",
        "opening_hours": "Mo-Fr 09:00-19:00; Sa 13:00-18:00"
      }
    },
    {
      "type": "Feature",
      "geometry": {
        "type": "Point",
        "coordinates": [
          17.7235749,
          48.1855789
        ]
      },
      "properties": {
        "id": 3161784287,
        "osm_type": "node",
        "brand": "minit",
        "opening_hours": "Mo-Fr 06:00-15:00"
      }
    },
    {
      "type": "Feature",
      "geometry": {
        "type": "Point",
        "coordinates": [
          17.7745822,
          47.8547237
        ]
      },
      "properties": {
        "id": 3284463680,
        "osm_type": "node",
        "name": "Cukráreň Mónika"
      }
    },
    {
      "type": "Feature",
      "geometry": {
        "type": "Point",
        "coordinates": [
          17.8615029,
          48.6032682
        ]
      },
      "properties": {
        "id": 3292772658,
        "osm_type": "node",
        "name": "Cukroska"
      }
    },
    {
      "type": "Feature",
      "geometry": {
        "type": "Point",
        "coordinates": [
          17.8300854,
          48.5948285
        ]
      },
      "properties": {
        "id": 3413873196,
        "osm_type": "node",
        "name": "Ventos"
      }
    },
    {
      "type": "Feature",
      "geometry": {
        "type": "Point",
        "coordinates": [
          17.7244834,
          48.1890405
        ]
      },
      "properties": {
        "id": 3453777298,
        "osm_type": "node",
        "name": "Zastávka u Jociho",
        "opening_hours": "Mo-Fr 06:00-17:00; Sa 06:00-12:00"
      }
    },
    {
      "type": "Feature",
      "geometry": {
        "type": "Point",
        "coordinates": [
          17.8339976,
          48.5880642
        ]
      },
      "properties": {
        "id": 3475662825,
        "osm_type": "node",
        "name": "Deja Vu"
      }
    },
    {
      "type": "Feature",
      "geometry": {
        "type": "Point",
        "coordinates": [
          17.7258712,
          48.1908282
        ]
      },
      "properties": {
        "id": 3658314152,
        "osm_type": "node",
        "name": "Cukráreň Wagner"
      }
    },
    {
      "type": "Feature",
      "geometry": {
        "type": "Point",
        "coordinates": [
          17.7251078,
          48.1901244
        ]
      },
      "properties": {
        "id": 3658314175,
        "osm_type": "node",
        "name": "Taverna",
        "outdoor_seating": "yes"
      }
    },
    {
      "type": "Feature",
      "geometry": {
        "type": "Point",
        "coordinates": [
          17.7302323,
          48.191118
        ]
      },
      "properties": {
        "id": 3658314178,
        "osm_type": "node",
        "name": "LEVA"
      }
    },
    {
      "type": "Feature",
      "geometry": {
        "type": "Point",
        "coordinates": [
          17.8387915,
          48.5888667
        ]
      },
      "properties": {
        "id": 3669755089,
        "osm_type": "node",
        "name": "Espresso Vila Trajan"
      }
    },
    {
      "type": "Feature",
      "geometry": {
        "type": "Point",
        "coordinates": [
          17.8363196,
          48.5891094
        ]
      },
      "properties": {
        "id": 3669755092,
        "osm_type": "node",
        "name": "Promenada"
      }
    },
    {
      "type": "Feature",
      "geometry": {
        "type": "Point",
        "coordinates": [
          17.5965255,
          48.3793049
        ]
      },
      "properties": {
        "id": 3869720333,
        "osm_type": "node",
        "name": "Paleta",
        "opening_hours": "Mo-Fr 07:00-22:00; Sa-Su 08:00-22:00"
      }
    },
    {
      "type": "Feature",
      "geometry": {
        "type": "Point",
        "coordinates": [
          17.7139103,
          47.9373789
        ]
      },
      "properties": {
        "id": 4121763459,
        "osm_type": "node",
        "name": "Cukráreň Bartalos"
      }
    },
    {
      "type": "Feature",
      "geometry": {
        "type": "Point",
        "coordinates": [
          17.8356219,
          48.587244
        ]
      },
      "properties": {
        "id": 4329850363,
        "osm_type": "node",
        "name": "Mr Maroon",
        "opening_hours": "Su-Th 15:00-24:00, Fr,Sa 15:00-02:00"
      }
    },
    {
      "type": "Feature",
      "geometry": {
        "type": "Point",
        "coordinates": [
          17.8342793,
          48.5891702
        ]
      },
      "properties": {
        "id": 4353650778,
        "osm_type": "node",
        "name": "Espresso Pod lipou",
        "outdoor_seating": "yes"
      }
    },
    {
      "type": "Feature",
      "geometry": {
        "type": "Point",
        "coordinates": [
          17.3503299,
          48.0531358
        ]
      },
      "properties": {
        "id": 4416133791,
        "osm_type": "node",
        "name": "Pekáreň Kvetoslavov"
      }
    },
    {
      "type": "Feature",
      "geometry": {
        "type": "Point",
        "coordinates": [
          17.8340667,
          48.5881991
        ]
      },
      "properties": {
        "id": 4770209913,
        "osm_type": "node",
        "name": "Školuda",
        "opening_hours": "Mo-Fr 06:30-18:00; Sa 06:30-12:00"
      }
    },
    {
      "type": "Feature",
      "geometry": {
        "type": "Point",
        "coordinates": [
          17.7289389,
          48.1901199
        ]
      },
      "properties": {
        "id": 4896587245,
        "osm_type": "node",
        "name": "Waila",
        "outdoor_seating": "yes"
      }
    },
    {
      "type": "Feature",
      "geometry": {
        "type": "Point",
        "coordinates": [
          17.5938736,
          48.3737431
        ]
      },
      "properties": {
        "id": 4900540416,
        "osm_type": "node",
        "name": "I love café"
      }
    },
    {
      "type": "Feature",
      "geometry": {
        "type": "Point",
        "coordinates": [
          17.8366811,
          48.5885798
        ]
      },
      "properties": {
        "id": 4966754921,
        "osm_type": "node",
        "name": "Zuckmann",
        "opening_hours": "Mo-Su 06:30-18:00",
        "outdoor_seating": "yes"
      }
    },
    {
      "type": "Feature",
      "geometry": {
        "type": "Point",
        "coordinates": [
          17.6169648,
          47.9930778
        ]
      },
      "properties": {
        "id": 5057256802,
        "osm_type": "node",
        "name": "Edeny",
        "opening_hours": "Mo-Sa 07:00-17:00; Su 08:00-12:00"
      }
    },
    {
      "type": "Feature",
      "geometry": {
        "type": "Point",
        "coordinates": [
          17.7698104,
          47.8540823
        ]
      },
      "properties": {
        "id": 5079890976,
        "osm_type": "node",
        "name": "Istria",
        "outdoor_seating": "yes"
      }
    },
    {
      "type": "Feature",
      "geometry": {
        "type": "Point",
        "coordinates": [
          17.6167151,
          47.9946986
        ]
      },
      "properties": {
        "id": 5088695512,
        "osm_type": "node",
        "name": "No. 622",
        "opening_hours": "Mo-Fr 06:22-17:22, Sa 07:22-11:22"
      }
    },
    {
      "type": "Feature",
      "geometry": {
        "type": "Point",
        "coordinates": [
          17.6160639,
          47.9936823
        ]
      },
      "properties": {
        "id": 5088695513,
        "osm_type": "node",
        "name": "Buena",
        "opening_hours": "Mo-Th 08:00-18:00, Fr 08:00-20:00, Sa 09:00-13:00",
        "outdoor_seating": "yes"
      }
    },
    {
      "type": "Feature",
      "geometry": {
        "type": "Point",
        "coordinates": [
          17.3663217,
          48.6857413
        ]
      },
      "properties": {
        "id": 5102029707,
        "osm_type": "node",
        "name": "Balkan",
        "opening_hours": "Mo-Sa 05:00-20:00; PH off"
      }
    },
    {
      "type": "Feature",
      "geometry": {
        "type": "Point",
        "coordinates": [
          17.3679766,
          48.6800542
        ]
      },
      "properties": {
        "id": 5107772846,
        "osm_type": "node",
        "name": "Trojka"
      }
    },
    {
      "type": "Feature",
      "geometry": {
        "type": "Point",
        "coordinates": [
          17.7159869,
          48.1939538
        ]
      },
      "properties": {
        "id": 5115903004,
        "osm_type": "node",
        "name": "Café WEST"
      }
    },
    {
      "type": "Feature",
      "geometry": {
        "type": "Point",
        "coordinates": [
          17.7243711,
          48.189038
        ]
      },
      "properties": {
        "id": 5129543177,
        "osm_type": "node",
        "name": "Lipóti",
        "opening_hours": "Mo-Fr 05:30-16:00; Sa 06:00-10:00"
      }
    },
    {
      "type": "Feature",
      "geometry": {
        "type": "Point",
        "coordinates": [
          17.7265705,
          48.1886393
        ]
      },
      "properties": {
        "id": 5129543185,
        "osm_type": "node",
        "name": "Šenkvická pekáreň",
        "opening_hours": "Mo-Fr 05:30-17:00; Sa 06:00-12:00"
      }
    },
    {
      "type": "Feature",
      "geometry": {
        "type": "Point",
        "coordinates": [
          17.726879,
          48.188329
        ]
      },
      "properties": {
        "id": 5129543186,
        "osm_type": "node",
        "name": "La caffé",
        "opening_hours": "Mo-Fr 07:00-22:00; Sa 08:00-20:00"
      }
    },
    {
      "type": "Feature",
      "geometry": {
        "type": "Point",
        "coordinates": [
          17.7277037,
          48.1939982
        ]
      },
      "properties": {
        "id": 5131823430,
        "osm_type": "node",
        "name": "LIFE"
      }
    },
    {
      "type": "Feature",
      "geometry": {
        "type": "Point",
        "coordinates": [
          17.7261843,
          48.1909773
        ]
      },
      "properties": {
        "id": 5143943110,
        "osm_type": "node",
        "name": "Cosmopolitan",
        "outdoor_seating": "yes"
      }
    },
    {
      "type": "Feature",
      "geometry": {
        "type": "Point",
        "coordinates": [
          17.735969,
          48.1924274
        ]
      },
      "properties": {
        "id": 5148599868,
        "osm_type": "node",
        "name": "Esterházy",
        "opening_hours": "Mo-Th 08:00-22:00; Fr,Sa 08:00-24:00; Su 09:00-22:00",
        "outdoor_seating": "yes"
      }
    },
    {
      "type": "Feature",
      "geometry": {
        "type": "Point",
        "coordinates": [
          17.8317708,
          48.5912827
        ]
      },
      "properties": {
        "id": 5173565296,
        "osm_type": "node",
        "name": "Čachtická pekáreň",
        "opening_hours": "Mo-Fr 06:00-17:00; Sa 06:30-11:30"
      }
    },
    {
      "type": "Feature",
      "geometry": {
        "type": "Point",
        "coordinates": [
          17.2307476,
          48.8465101
        ]
      },
      "properties": {
        "id": 5273871755,
        "osm_type": "node",
        "name": "ERI"
      }
    },
    {
      "type": "Feature",
      "geometry": {
        "type": "Point",
        "coordinates": [
          17.2259493,
          48.8465522
        ]
      },
      "properties": {
        "id": 5273871772,
        "osm_type": "node",
        "name": "Pekárstvo Křižák",
        "opening_hours": "Mo-Fr 06:00-17:00; Sa 06:00-11:00"
      }
    },
    {
      "type": "Feature",
      "geometry": {
        "type": "Point",
        "coordinates": [
          17.3658614,
          48.6806775
        ]
      },
      "properties": {
        "id": 5525441827,
        "osm_type": "node",
        "name": "Delikana",
        "brand": "Delikana",
        "opening_hours": "Mo-Sa 09:00-19:00; Su 10:00-19:00"
      }
    },
    {
      "type": "Feature",
      "geometry": {
        "type": "Point",
        "coordinates": [
          17.2244604,
          48.8466461
        ]
      },
      "properties": {
        "id": 5559861404,
        "osm_type": "node",
        "name": "Do bodky",
        "opening_hours": "Mo-Fr 09:00-18:00; Sa 13:30-18:00",
        "outdoor_seating": "yes"
      }
    },
    {
      "type": "Feature",
      "geometry": {
        "type": "Point",
        "coordinates": [
          17.7243818,
          48.6212391
        ]
      },
      "properties": {
        "id": 5632413043,
        "osm_type": "node",
        "name": "Wendy's Coffee Shop"
      }
    },
    {
      "type": "Feature",
      "geometry": {
        "type": "Point",
        "coordinates": [
          17.5841266,
          48.3771062
        ]
      },
      "properties": {
        "id": 5681651116,
        "osm_type": "node",
        "name": "Bábovka",
        "opening_hours": "Mo-Th 07:30-19:00; Fr 08:30-19:30; Sa 08:30-19:00",
        "outdoor_seating": "yes"
      }
    },
    {
      "type": "Feature",
      "geometry": {
        "type": "Point",
        "coordinates": [
          17.7202043,
          48.2839283
        ]
      },
      "properties": {
        "id": 5697694652,
        "osm_type": "node",
        "name": "Pečivárne Sereď",
        "opening_hours": "Mo-Fr 08:00-17:30"
      }
    },
    {
      "type": "Feature",
      "geometry": {
        "type": "Point",
        "coordinates": [
          17.5294618,
          47.8653205
        ]
      },
      "properties": {
        "id": 5839822054,
        "osm_type": "node",
        "name": "Komp Kávézó"
      }
    },
    {
      "type": "Feature",
      "geometry": {
        "type": "Point",
        "coordinates": [
          17.3755438,
          48.6846767
        ]
      },
      "properties": {
        "id": 5843766037,
        "osm_type": "node",
        "name": "V.I.P",
        "outdoor_seating": "yes"
      }
    },
    {
      "type": "Feature",
      "geometry": {
        "type": "Point",
        "coordinates": [
          17.3668769,
          48.6856041
        ]
      },
      "properties": {
        "id": 5844798995,
        "osm_type": "node",
        "name": "U myšky",
        "opening_hours": "Mo-Th 08:00-21:00; Fr 08:00-22:30; Sa 09:00-12:00,15:00-22:30; Su 15:00-21:00"
      }
    },
    {
      "type": "Feature",
      "geometry": {
        "type": "Point",
        "coordinates": [
          17.3695242,
          48.6877644
        ]
      },
      "properties": {
        "id": 5844799198,
        "osm_type": "node",
        "name": "KM",
        "outdoor_seating": "yes"
      }
    },
    {
      "type": "Feature",
      "geometry": {
        "type": "Point",
        "coordinates": [
          17.36661,
          48.6808299
        ]
      },
      "properties": {
        "id": 5847410744,
        "osm_type": "node",
        "name": "FAUN",
        "opening_hours": "Mo-Fr 06:00-18:00; Sa 07:00-11:00; PH off"
      }
    },
    {
      "type": "Feature",
      "geometry": {
        "type": "Point",
        "coordinates": [
          17.587142,
          48.3779151
        ]
      },
      "properties": {
        "id": 5849117986,
        "osm_type": "node",
        "name": "Charlie",
        "opening_hours": "Mo-Fr 07:30-23:00; Sa 08:30-22:00; Su 09:00-22:00",
        "outdoor_seating": "yes"
      }
    },
    {
      "type": "Feature",
      "geometry": {
        "type": "Point",
        "coordinates": [
          17.3565906,
          48.6771334
        ]
      },
      "properties": {
        "id": 5849553614,
        "osm_type": "node",
        "name": "FAUN",
        "opening_hours": "Mo-Sa 06:00-20:00; Su 07:00-14:00"
      }
    },
    {
      "type": "Feature",
      "geometry": {
        "type": "Point",
        "coordinates": [
          17.3640874,
          48.680659
        ]
      },
      "properties": {
        "id": 5849553692,
        "osm_type": "node",
        "name": "Pekáreň Školuda",
        "opening_hours": "Mo-Fr 06:30-18:00; Sa 06:30-12:00"
      }
    },
    {
      "type": "Feature",
      "geometry": {
        "type": "Point",
        "coordinates": [
          17.3096238,
          48.0289458
        ]
      },
      "properties": {
        "id": 6069230280,
        "osm_type": "node",
        "name": "Caffe Siesta"
      }
    },
    {
      "type": "Feature",
      "geometry": {
        "type": "Point",
        "coordinates": [
          17.3094548,
          48.0290391
        ]
      },
      "properties": {
        "id": 6069230281,
        "osm_type": "node",
        "name": "Franco"
      }
    },
    {
      "type": "Feature",
      "geometry": {
        "type": "Point",
        "coordinates": [
          17.5830971,
          48.3708276
        ]
      },
      "properties": {
        "id": 6161043945,
        "osm_type": "node",
        "name": "Oné",
        "opening_hours": "Mo-Fr 07:00-20:00; Sa 09:00-20:00; Su 14:00-20:00",
        "takeaway": "yes",
        "outdoor_seating": "yes"
      }
    },
    {
      "type": "Feature",
      "geometry": {
        "type": "Point",
        "coordinates": [
          17.6080187,
          47.993953
        ]
      },
      "properties": {
        "id": 6407743154,
        "osm_type": "node",
        "name": "Klas",
        "opening_hours": "Mo-Sa 05:00-21:00; Su 06:00-21:00"
      }
    },
    {
      "type": "Feature",
      "geometry": {
        "type": "Point",
        "coordinates": [
          17.7347204,
          48.3045427
        ]
      },
      "properties": {
        "id": 6407797677,
        "osm_type": "node",
        "name": "Espresso \"U Oskara\""
      }
    },
    {
      "type": "Feature",
      "geometry": {
        "type": "Point",
        "coordinates": [
          17.7400661,
          48.2888569
        ]
      },
      "properties": {
        "id": 6410398984,
        "osm_type": "node",
        "name": "Art cafe"
      }
    },
    {
      "type": "Feature",
      "geometry": {
        "type": "Point",
        "coordinates": [
          17.740577,
          48.2857095
        ]
      },
      "properties": {
        "id": 6415375039,
        "osm_type": "node",
        "name": "Framipek"
      }
    },
    {
      "type": "Feature",
      "geometry": {
        "type": "Point",
        "coordinates": [
          17.7406467,
          48.285722
        ]
      },
      "properties": {
        "id": 6415375040,
        "osm_type": "node"
      }
    },
    {
      "type": "Feature",
      "geometry": {
        "type": "Point",
        "coordinates": [
          17.7416177,
          48.2858478
        ]
      },
      "properties": {
        "id": 6415375051,
        "osm_type": "node",
        "name": "minit",
        "brand": "Minit"
      }
    },
    {
      "type": "Feature",
      "geometry": {
        "type": "Point",
        "coordinates": [
          17.157839,
          48.8089793
        ]
      },
      "properties": {
        "id": 6512630473,
        "osm_type": "node",
        "name": "Zámocká kaviareň",
        "opening_hours": "Mo-Th 11:00-19:00; Fr 11:00-20:00; Sa 10:00-20:00; Su 10:00-19:00; PH off",
        "outdoor_seating": "yes"
      }
    },
    {
      "type": "Feature",
      "geometry": {
        "type": "Point",
        "coordinates": [
          17.405415,
          48.7317326
        ]
      },
      "properties": {
        "id": 6634223099,
        "osm_type": "node"
      }
    },
    {
      "type": "Feature",
      "geometry": {
        "type": "Point",
        "coordinates": [
          17.6183427,
          47.9955297
        ]
      },
      "properties": {
        "id": 6759071701,
        "osm_type": "node",
        "name": "Meskete - detská kaviareň a kníhkupectvo",
        "opening_hours": "Mo-Fr 09:00-17:00; Sa 9:00-12:00",
        "outdoor_seating": "yes"
      }
    },
    {
      "type": "Feature",
      "geometry": {
        "type": "Point",
        "coordinates": [
          17.6088497,
          47.9848404
        ]
      },
      "properties": {
        "id": 6763849826,
        "osm_type": "node",
        "outdoor_seating": "yes"
      }
    },
    {
      "type": "Feature",
      "geometry": {
        "type": "Point",
        "coordinates": [
          17.4860605,
          48.3143778
        ]
      },
      "properties": {
        "id": 6764473232,
        "osm_type": "node",
        "name": "Kafe Sýpka"
      }
    },
    {
      "type": "Feature",
      "geometry": {
        "type": "Point",
        "coordinates": [
          17.1542687,
          48.6373094
        ]
      },
      "properties": {
        "id": 6801553746,
        "osm_type": "node",
        "name": "Pekáreň Školuda",
        "opening_hours": "Mo-Fr 6:00-17:30;Sa 6:00-12:00"
      }
    },
    {
      "type": "Feature",
      "geometry": {
        "type": "Point",
        "coordinates": [
          17.6010327,
          48.3873783
        ]
      },
      "properties": {
        "id": 6817316512,
        "osm_type": "node",
        "name": "Babička"
      }
    },
    {
      "type": "Feature",
      "geometry": {
        "type": "Point",
        "coordinates": [
          17.6008752,
          48.3875762
        ]
      },
      "properties": {
        "id": 6817316513,
        "osm_type": "node",
        "name": "Minit",
        "brand": "Minit",
        "opening_hours": "Mo-Su 08:00-20:00"
      }
    },
    {
      "type": "Feature",
      "geometry": {
        "type": "Point",
        "coordinates": [
          17.600877,
          48.3873257
        ]
      },
      "properties": {
        "id": 6817316549,
        "osm_type": "node",
        "name": "Julius Meinl",
        "brand": "Julius Meinl",
        "takeaway": "yes"
      }
    },
    {
      "type": "Feature",
      "geometry": {
        "type": "Point",
        "coordinates": [
          17.6007321,
          48.3875038
        ]
      },
      "properties": {
        "id": 6817316550,
        "osm_type": "node",
        "name": "Cafe Casa Mia"
      }
    },
    {
      "type": "Feature",
      "geometry": {
        "type": "Point",
        "coordinates": [
          17.5995341,
          48.3875125
        ]
      },
      "properties": {
        "id": 6817392122,
        "osm_type": "node",
        "name": "Adré Caffe"
      }
    },
    {
      "type": "Feature",
      "geometry": {
        "type": "Point",
        "coordinates": [
          17.7285998,
          48.1898936
        ]
      },
      "properties": {
        "id": 6821151737,
        "osm_type": "node",
        "name": "Pekáreň Aurora",
        "opening_hours": "Mo-Su 05:00-20:00"
      }
    },
    {
      "type": "Feature",
      "geometry": {
        "type": "Point",
        "coordinates": [
          17.7331801,
          48.1904334
        ]
      },
      "properties": {
        "id": 6821153426,
        "osm_type": "node",
        "name": "VIP cafe"
      }
    },
    {
      "type": "Feature",
      "geometry": {
        "type": "Point",
        "coordinates": [
          17.1524215,
          48.6374011
        ]
      },
      "properties": {
        "id": 6859030061,
        "osm_type": "node",
        "name": "Faun",
        "opening_hours": "Mo-Fr 5:00-17:00; Sa 6:00-11:00"
      }
    },
    {
      "type": "Feature",
      "geometry": {
        "type": "Point",
        "coordinates": [
          17.1444614,
          48.6422228
        ]
      },
      "properties": {
        "id": 6865000703,
        "osm_type": "node",
        "name": "Noi Cafe"
      }
    },
    {
      "type": "Feature",
      "geometry": {
        "type": "Point",
        "coordinates": [
          17.6167837,
          47.9950339
        ]
      },
      "properties": {
        "id": 6970417421,
        "osm_type": "node",
        "name": "Minit",
        "brand": "minit",
        "opening_hours": "Mo-Fr 06:00-15:00"
      }
    },
    {
      "type": "Feature",
      "geometry": {
        "type": "Point",
        "coordinates": [
          17.5911631,
          48.3866754
        ]
      },
      "properties": {
        "id": 6976642602,
        "osm_type": "node",
        "name": "Piano Pub & Coffee"
      }
    },
    {
      "type": "Feature",
      "geometry": {
        "type": "Point",
        "coordinates": [
          17.7308621,
          48.2886654
        ]
      },
      "properties": {
        "id": 7092002250,
        "osm_type": "node",
        "name": "Donatelo",
        "opening_hours": "Tu-Sa 10:00-20:00"
      }
    },
    {
      "type": "Feature",
      "geometry": {
        "type": "Point",
        "coordinates": [
          17.7380216,
          48.1944669
        ]
      },
      "properties": {
        "id": 7253108386,
        "osm_type": "node",
        "name": "Čajovňa Surya",
        "opening_hours": "Mo-We 11:00-19:00; Th-Fr 11:00-21:00; Sa 16:00-21:00"
      }
    },
    {
      "type": "Feature",
      "geometry": {
        "type": "Point",
        "coordinates": [
          17.7521784,
          48.2904429
        ]
      },
      "properties": {
        "id": 7296824485,
        "osm_type": "node",
        "name": "Oldtimer",
        "opening_hours": "Tu-Fr 15:00-20:00; Sa,Su 09:00-20:00",
        "outdoor_seating": "yes"
      }
    },
    {
      "type": "Feature",
      "geometry": {
        "type": "Point",
        "coordinates": [
          17.8357729,
          48.5898466
        ]
      },
      "properties": {
        "id": 7740039586,
        "osm_type": "node",
        "name": "Why Not",
        "outdoor_seating": "yes"
      }
    },
    {
      "type": "Feature",
      "geometry": {
        "type": "Point",
        "coordinates": [
          17.6023969,
          48.0029812
        ]
      },
      "properties": {
        "id": 7740312253,
        "osm_type": "node"
      }
    },
    {
      "type": "Feature",
      "geometry": {
        "type": "Point",
        "coordinates": [
          17.6159705,
          47.9944216
        ]
      },
      "properties": {
        "id": 7740312259,
        "osm_type": "node",
        "name": "Vespresso"
      }
    },
    {
      "type": "Feature",
      "geometry": {
        "type": "Point",
        "coordinates": [
          17.8363946,
          48.5897757
        ]
      },
      "properties": {
        "id": 7746998185,
        "osm_type": "node",
        "name": "freshco",
        "opening_hours": "Mo-Su 12:00-19:00"
      }
    },
    {
      "type": "Feature",
      "geometry": {
        "type": "Point",
        "coordinates": [
          17.8169922,
          48.587015
        ]
      },
      "properties": {
        "id": 7775458799,
        "osm_type": "node",
        "name": "Caffe Family",
        "opening_hours": "Mo-Su 10:00-17:00",
        "outdoor_seating": "yes"
      }
    },
    {
      "type": "Feature",
      "geometry": {
        "type": "Point",
        "coordinates": [
          17.591081,
          48.3778619
        ]
      },
      "properties": {
        "id": 7812587124,
        "osm_type": "node",
        "name": "Synagóga Café",
        "opening_hours": "Mo-Th 08:00-22:00; Fr 08:00-00:00; Sa 10:00-00:00; Su 10:00-22:00",
        "outdoor_seating": "yes"
      }
    },
    {
      "type": "Feature",
      "geometry": {
        "type": "Point",
        "coordinates": [
          17.2294821,
          48.8390361
        ]
      },
      "properties": {
        "id": 7823583974,
        "osm_type": "node",
        "name": "Pekárenské výrobky"
      }
    },
    {
      "type": "Feature",
      "geometry": {
        "type": "Point",
        "coordinates": [
          17.2298115,
          48.8386505
        ]
      },
      "properties": {
        "id": 7823583977,
        "osm_type": "node",
        "name": "Lark",
        "opening_hours": "Mo-Fr 06:00-16:00; Sa 07:00-11:00"
      }
    },
    {
      "type": "Feature",
      "geometry": {
        "type": "Point",
        "coordinates": [
          17.2269474,
          48.8449842
        ]
      },
      "properties": {
        "id": 7850321806,
        "osm_type": "node",
        "name": "Kafé Knižnica"
      }
    },
    {
      "type": "Feature",
      "geometry": {
        "type": "Point",
        "coordinates": [
          17.7258638,
          48.188566
        ]
      },
      "properties": {
        "id": 7926299451,
        "osm_type": "node",
        "name": "BURCOFFEE s.r.o.",
        "opening_hours": "Mo-Fr 08:00-17:00"
      }
    },
    {
      "type": "Feature",
      "geometry": {
        "type": "Point",
        "coordinates": [
          17.1627501,
          48.8084268
        ]
      },
      "properties": {
        "id": 8180049873,
        "osm_type": "node",
        "name": "Grimm Café & Bar"
      }
    },
    {
      "type": "Feature",
      "geometry": {
        "type": "Point",
        "coordinates": [
          17.2248808,
          48.8463072
        ]
      },
      "properties": {
        "id": 8243075367,
        "osm_type": "node",
        "name": "Pekáreň"
      }
    },
    {
      "type": "Feature",
      "geometry": {
        "type": "Point",
        "coordinates": [
          17.4371834,
          48.510374
        ]
      },
      "properties": {
        "id": 8978055845,
        "osm_type": "node",
        "name": "Včelovina",
        "opening_hours": "Mo-Fr 09:00-18:00; Sa-Su 10:00-19:00",
        "outdoor_seating": "yes"
      }
    },
    {
      "type": "Feature",
      "geometry": {
        "type": "Point",
        "coordinates": [
          17.7348246,
          48.2856037
        ]
      },
      "properties": {
        "id": 9040987251,
        "osm_type": "node"
      }
    },
    {
      "type": "Feature",
      "geometry": {
        "type": "Point",
        "coordinates": [
          17.7409536,
          48.287043
        ]
      },
      "properties": {
        "id": 9040987262,
        "osm_type": "node",
        "name": "Retro kafé"
      }
    },
    {
      "type": "Feature",
      "geometry": {
        "type": "Point",
        "coordinates": [
          17.7961048,
          48.4253436
        ]
      },
      "properties": {
        "id": 9414044350,
        "osm_type": "node",
        "name": "La caffetteria"
      }
    },
    {
      "type": "Feature",
      "geometry": {
        "type": "Point",
        "coordinates": [
          17.7964408,
          48.4254099
        ]
      },
      "properties": {
        "id": 9414097843,
        "osm_type": "node",
        "name": "Coffee berry"
      }
    },
    {
      "type": "Feature",
      "geometry": {
        "type": "Point",
        "coordinates": [
          17.7904063,
          48.4329621
        ]
      },
      "properties": {
        "id": 9441724110,
        "osm_type": "node"
      }
    },
    {
      "type": "Feature",
      "geometry": {
        "type": "Point",
        "coordinates": [
          17.5863735,
          48.3830017
        ]
      },
      "properties": {
        "id": 9441972079,
        "osm_type": "node",
        "name": "Le Café",
        "outdoor_seating": "yes"
      }
    },
    {
      "type": "Feature",
      "geometry": {
        "type": "Point",
        "coordinates": [
          17.7966529,
          48.4264093
        ]
      },
      "properties": {
        "id": 9534526034,
        "osm_type": "node",
        "name": "Erdody"
      }
    },
    {
      "type": "Feature",
      "geometry": {
        "type": "Point",
        "coordinates": [
          17.7982619,
          48.4270262
        ]
      },
      "properties": {
        "id": 9535114561,
        "osm_type": "node",
        "name": "Pekáreň Rodina",
        "opening_hours": "Mo-Fr 09:00-20:00; Sa 09:00-12:00; Su closed"
      }
    },
    {
      "type": "Feature",
      "geometry": {
        "type": "Point",
        "coordinates": [
          17.7972112,
          48.428823
        ]
      },
      "properties": {
        "id": 9535226260,
        "osm_type": "node",
        "name": "Pekáreň Pátková"
      }
    },
    {
      "type": "Feature",
      "geometry": {
        "type": "Point",
        "coordinates": [
          17.5823212,
          48.3808755
        ]
      },
      "properties": {
        "id": 9843991990,
        "osm_type": "node",
        "name": "Uno Caffetteria",
        "outdoor_seating": "yes"
      }
    },
    {
      "type": "Feature",
      "geometry": {
        "type": "Point",
        "coordinates": [
          17.7703764,
          47.8549471
        ]
      },
      "properties": {
        "id": 9892203308,
        "osm_type": "node",
        "name": "Bamboo Cafe",
        "opening_hours": "Mo-Th 07:30-21:00; Fr-Sa 07:30-23:00; Su 09:00-21:00",
        "outdoor_seating": "yes"
      }
    },
    {
      "type": "Feature",
      "geometry": {
        "type": "Point",
        "coordinates": [
          17.5724076,
          48.3857412
        ]
      },
      "properties": {
        "id": 9921009818,
        "osm_type": "node",
        "name": "Street Cafe",
        "outdoor_seating": "yes"
      }
    },
    {
      "type": "Feature",
      "geometry": {
        "type": "Point",
        "coordinates": [
          17.5727951,
          48.3858276
        ]
      },
      "properties": {
        "id": 9921009822,
        "osm_type": "node",
        "name": "Školuda"
      }
    },
    {
      "type": "Feature",
      "geometry": {
        "type": "Point",
        "coordinates": [
          17.583735,
          48.3808822
        ]
      },
      "properties": {
        "id": 9945257355,
        "osm_type": "node",
        "name": "Amnesia",
        "opening_hours": "Mo-Th 13:00-24:00; Fr 13:00-01:00, Sa 14:00-01:00, Su 14:00-24:00"
      }
    },
    {
      "type": "Feature",
      "geometry": {
        "type": "Point",
        "coordinates": [
          17.5840367,
          48.3804037
        ]
      },
      "properties": {
        "id": 9945257364,
        "osm_type": "node",
        "name": "Tekovská kuchyňa a pekáreň"
      }
    },
    {
      "type": "Feature",
      "geometry": {
        "type": "Point",
        "coordinates": [
          17.5853443,
          48.3785376
        ]
      },
      "properties": {
        "id": 9949071987,
        "osm_type": "node",
        "name": "Čajovňa pod klenbou",
        "opening_hours": "We-Fr 16:00-22:00"
      }
    },
    {
      "type": "Feature",
      "geometry": {
        "type": "Point",
        "coordinates": [
          17.5846089,
          48.3797454
        ]
      },
      "properties": {
        "id": 9949071998,
        "osm_type": "node",
        "name": "Takáč & syn",
        "opening_hours": "Mo-Fr 05:30-18:00; Sa 05:30-12:00"
      }
    },
    {
      "type": "Feature",
      "geometry": {
        "type": "Point",
        "coordinates": [
          17.8350136,
          48.5910051
        ]
      },
      "properties": {
        "id": 10002195106,
        "osm_type": "node",
        "name": "Sissi",
        "opening_hours": "Mo-Th 09:00-20:00; Fr,Sa 09:00-22:00"
      }
    },
    {
      "type": "Feature",
      "geometry": {
        "type": "Point",
        "coordinates": [
          17.3684379,
          48.6811495
        ]
      },
      "properties": {
        "id": 10034270474,
        "osm_type": "node",
        "name": "Pekárna Bachan"
      }
    },
    {
      "type": "Feature",
      "geometry": {
        "type": "Point",
        "coordinates": [
          17.3639224,
          48.6863399
        ]
      },
      "properties": {
        "id": 10678119087,
        "osm_type": "node",
        "name": "Delikana",
        "brand": "Delikana",
        "opening_hours": "Mo-Su 09:00-19:00"
      }
    },
    {
      "type": "Feature",
      "geometry": {
        "type": "Point",
        "coordinates": [
          17.3647808,
          48.6865838
        ]
      },
      "properties": {
        "id": 10678119088,
        "osm_type": "node",
        "name": "Glacio caffe"
      }
    },
    {
      "type": "Feature",
      "geometry": {
        "type": "Point",
        "coordinates": [
          17.5854515,
          48.3793424
        ]
      },
      "properties": {
        "id": 10683266505,
        "osm_type": "node",
        "name": "Red Fawn",
        "opening_hours": "Mo-Fr 11:00-18:00"
      }
    },
    {
      "type": "Feature",
      "geometry": {
        "type": "Point",
        "coordinates": [
          16.9971491,
          48.6070607
        ]
      },
      "properties": {
        "id": 10726013851,
        "osm_type": "node",
        "name": "Pekáreň Sekule",
        "opening_hours": "Mo-Fr 09:00-17:00; Sa 05:00-17:00"
      }
    },
    {
      "type": "Feature",
      "geometry": {
        "type": "Point",
        "coordinates": [
          17.6044134,
          48.3875967
        ]
      },
      "properties": {
        "id": 10844524462,
        "osm_type": "node",
        "name": "Gaučo & coffee",
        "opening_hours": "Mo-Sa 07:00-23:00; Su 10:00-23:00",
        "outdoor_seating": "yes"
      }
    },
    {
      "type": "Feature",
      "geometry": {
        "type": "Point",
        "coordinates": [
          17.5847417,
          48.3705844
        ]
      },
      "properties": {
        "id": 10880987690,
        "osm_type": "node",
        "name": "Minit",
        "brand": "Minit"
      }
    },
    {
      "type": "Feature",
      "geometry": {
        "type": "Point",
        "coordinates": [
          17.6541749,
          48.3227884
        ]
      },
      "properties": {
        "id": 10936538896,
        "osm_type": "node",
        "name": "Kaviareň Mária"
      }
    },
    {
      "type": "Feature",
      "geometry": {
        "type": "Point",
        "coordinates": [
          17.5616125,
          48.3696443
        ]
      },
      "properties": {
        "id": 11033195318,
        "osm_type": "node",
        "name": "Dobrá pekáreň"
      }
    },
    {
      "type": "Feature",
      "geometry": {
        "type": "Point",
        "coordinates": [
          17.5831632,
          48.3813503
        ]
      },
      "properties": {
        "id": 11033195320,
        "osm_type": "node",
        "name": "Minit",
        "brand": "Minit",
        "opening_hours": "Mo-Fr 06:00-18:00"
      }
    },
    {
      "type": "Feature",
      "geometry": {
        "type": "Point",
        "coordinates": [
          17.586641,
          48.3736101
        ]
      },
      "properties": {
        "id": 11034250343,
        "osm_type": "node",
        "name": "Justícia",
        "outdoor_seating": "no"
      }
    },
    {
      "type": "Feature",
      "geometry": {
        "type": "Point",
        "coordinates": [
          17.5865737,
          48.3756226
        ]
      },
      "properties": {
        "id": 11034250365,
        "osm_type": "node",
        "name": "Cafeteria Danielka"
      }
    },
    {
      "type": "Feature",
      "geometry": {
        "type": "Point",
        "coordinates": [
          17.5868465,
          48.3750749
        ]
      },
      "properties": {
        "id": 11034251816,
        "osm_type": "node",
        "name": "More Than Smoke"
      }
    },
    {
      "type": "Feature",
      "geometry": {
        "type": "Point",
        "coordinates": [
          17.5699071,
          48.3885026
        ]
      },
      "properties": {
        "id": 11159278211,
        "osm_type": "node",
        "name": "OOZI",
        "outdoor_seating": "yes"
      }
    },
    {
      "type": "Feature",
      "geometry": {
        "type": "Point",
        "coordinates": [
          17.6169144,
          47.9944945
        ]
      },
      "properties": {
        "id": 11172900047,
        "osm_type": "node",
        "name": "Kaviareň Budapest",
        "opening_hours": "Mo-Th 07:00-21:00; Fr-Sa 07:00-23:00; Su 07:00-21:00",
        "outdoor_seating": "yes"
      }
    },
    {
      "type": "Feature",
      "geometry": {
        "type": "Point",
        "coordinates": [
          17.8281759,
          48.5942609
        ]
      },
      "properties": {
        "id": 11197596205,
        "osm_type": "node",
        "name": "Mlyn Marianna",
        "outdoor_seating": "yes"
      }
    },
    {
      "type": "Feature",
      "geometry": {
        "type": "Point",
        "coordinates": [
          17.771071,
          47.8568936
        ]
      },
      "properties": {
        "id": 11212664717,
        "osm_type": "node",
        "name": "Cukráreň Wagner",
        "opening_hours": "Mo-Th 09:00-19:00; Fr 09:00-20:00; Sa-Su 10:00-20:00",
        "outdoor_seating": "yes"
      }
    },
    {
      "type": "Feature",
      "geometry": {
        "type": "Point",
        "coordinates": [
          17.6435954,
          48.2053245
        ]
      },
      "properties": {
        "id": 11224967131,
        "osm_type": "node",
        "name": "Pekáreň LEMI",
        "opening_hours": "Mo-Sa 08:00-20:00"
      }
    },
    {
      "type": "Feature",
      "geometry": {
        "type": "Point",
        "coordinates": [
          17.585796,
          48.3765001
        ]
      },
      "properties": {
        "id": 11272448136,
        "osm_type": "node",
        "name": "Verdon",
        "opening_hours": "Mo-Th 09:00-20:00; Fr-Sa 09:00-21:00; Su 10:00-20:00",
        "outdoor_seating": "yes"
      }
    },
    {
      "type": "Feature",
      "geometry": {
        "type": "Point",
        "coordinates": [
          17.5862633,
          48.3753214
        ]
      },
      "properties": {
        "id": 11277553797,
        "osm_type": "node",
        "name": "Láskanka",
        "opening_hours": "Mo-Sa 10:00-20:00; Su 14:00-18:30",
        "outdoor_seating": "no"
      }
    },
    {
      "type": "Feature",
      "geometry": {
        "type": "Point",
        "coordinates": [
          17.5679207,
          48.3698484
        ]
      },
      "properties": {
        "id": 11461790675,
        "osm_type": "node",
        "name": "Framipek",
        "opening_hours": "Mo-Fr 06:00-18:00; Sa 06:00-12:00"
      }
    },
    {
      "type": "Feature",
      "geometry": {
        "type": "Point",
        "coordinates": [
          17.5306957,
          48.1763589
        ]
      },
      "properties": {
        "id": 11486581325,
        "osm_type": "node",
        "name": "Pekáreň Jánovce",
        "opening_hours": "Mo-Fr 06:00-18:00; Sa 07:00-10:30"
      }
    },
    {
      "type": "Feature",
      "geometry": {
        "type": "Point",
        "coordinates": [
          17.5847991,
          48.370538
        ]
      },
      "properties": {
        "id": 11491690546,
        "osm_type": "node",
        "name": "Pek Snack"
      }
    },
    {
      "type": "Feature",
      "geometry": {
        "type": "Point",
        "coordinates": [
          17.5845749,
          48.3705291
        ]
      },
      "properties": {
        "id": 11491690553,
        "osm_type": "node",
        "name": "Spring",
        "opening_hours": "Mo-Fr 06:00-17:00; Sa 06:30-16:00",
        "outdoor_seating": "no"
      }
    },
    {
      "type": "Feature",
      "geometry": {
        "type": "Point",
        "coordinates": [
          17.5846122,
          48.3704695
        ]
      },
      "properties": {
        "id": 11491690564,
        "osm_type": "node",
        "name": "Školuda",
        "opening_hours": "Mo-Fr 06:00-18:00; Sa-Su off"
      }
    },
    {
      "type": "Feature",
      "geometry": {
        "type": "Point",
        "coordinates": [
          17.7962166,
          48.4271922
        ]
      },
      "properties": {
        "id": 11491941215,
        "osm_type": "node"
      }
    },
    {
      "type": "Feature",
      "geometry": {
        "type": "Point",
        "coordinates": [
          17.604238,
          47.9900714
        ]
      },
      "properties": {
        "id": 11553289406,
        "osm_type": "node",
        "name": "Danubia"
      }
    },
    {
      "type": "Feature",
      "geometry": {
        "type": "Point",
        "coordinates": [
          17.0192808,
          48.6573356
        ]
      },
      "properties": {
        "id": 11617965399,
        "osm_type": "node",
        "name": "Pekáreň FAUN",
        "opening_hours": "Mo-Fr 05:00-17:00; Sa 07:00-12:00"
      }
    },
    {
      "type": "Feature",
      "geometry": {
        "type": "Point",
        "coordinates": [
          17.3662989,
          48.6812469
        ]
      },
      "properties": {
        "id": 11642006927,
        "osm_type": "node",
        "name": "Positivo",
        "opening_hours": "Mo,Tu 07:00-19:00; We,Th 07:00-20:00; Fr 07:00-24:00; Sa 09:00-24:00; Su 09:00-19:00"
      }
    },
    {
      "type": "Feature",
      "geometry": {
        "type": "Point",
        "coordinates": [
          17.3675441,
          48.6784293
        ]
      },
      "properties": {
        "id": 11766738675,
        "osm_type": "node",
        "name": "Pekáreň Školuda",
        "opening_hours": "Mo-Fr 06:00-17:30; Sa 06:00-11:30; PH off"
      }
    },
    {
      "type": "Feature",
      "geometry": {
        "type": "Point",
        "coordinates": [
          17.1160371,
          48.7183018
        ]
      },
      "properties": {
        "id": 11882993851,
        "osm_type": "node",
        "name": "Faun",
        "opening_hours": "Mo-Su 05:00-14:00"
      }
    },
    {
      "type": "Feature",
      "geometry": {
        "type": "Point",
        "coordinates": [
          17.5855042,
          48.3981347
        ]
      },
      "properties": {
        "id": 11922182697,
        "osm_type": "node",
        "name": "Corner49Cafe"
      }
    },
    {
      "type": "Feature",
      "geometry": {
        "type": "Point",
        "coordinates": [
          17.3136416,
          48.0283433
        ]
      },
      "properties": {
        "id": 12068660070,
        "osm_type": "node",
        "name": "Bajkery",
        "opening_hours": "Mo-Su 07:00-18:00"
      }
    },
    {
      "type": "Feature",
      "geometry": {
        "type": "Point",
        "coordinates": [
          17.5831185,
          48.3814049
        ]
      },
      "properties": {
        "id": 12089281738,
        "osm_type": "node",
        "name": "MňamPoint"
      }
    },
    {
      "type": "Feature",
      "geometry": {
        "type": "Point",
        "coordinates": [
          17.5856521,
          48.3779276
        ]
      },
      "properties": {
        "id": 12099355517,
        "osm_type": "node",
        "name": "Hedon",
        "opening_hours": "Mo-Th 12:00-24:00; Fr 12:00-24:00; Sa 00:00-01:30,14:00-24:00; Su 00:00-01:30,14:00-23:00",
        "outdoor_seating": "yes"
      }
    },
    {
      "type": "Feature",
      "geometry": {
        "type": "Point",
        "coordinates": [
          17.5859197,
          48.3779756
        ]
      },
      "properties": {
        "id": 12099355519,
        "osm_type": "node",
        "name": "Thalmeiner",
        "opening_hours": "Tu-Fr 8:00-18:00, Sa-Su 9:00-18:00",
        "outdoor_seating": "yes"
      }
    },
    {
      "type": "Feature",
      "geometry": {
        "type": "Point",
        "coordinates": [
          17.5861565,
          48.3780051
        ]
      },
      "properties": {
        "id": 12099355522,
        "osm_type": "node",
        "name": "Pastis",
        "opening_hours": "Mo-Th 07:30-23:45; Fr 07:30-24:00; Sa 00:00-02:00,09:30-00:00; Su 00:00-02:00,09:30-22:00",
        "outdoor_seating": "yes"
      }
    },
    {
      "type": "Feature",
      "geometry": {
        "type": "Point",
        "coordinates": [
          17.5869187,
          48.3736843
        ]
      },
      "properties": {
        "id": 12100943977,
        "osm_type": "node",
        "name": "Violeta",
        "opening_hours": "5:30-20:00"
      }
    },
    {
      "type": "Feature",
      "geometry": {
        "type": "Point",
        "coordinates": [
          17.8018836,
          48.015921
        ]
      },
      "properties": {
        "id": 12105777833,
        "osm_type": "node"
      }
    },
    {
      "type": "Feature",
      "geometry": {
        "type": "Point",
        "coordinates": [
          17.4312809,
          48.5069895
        ]
      },
      "properties": {
        "id": 12115393750,
        "osm_type": "node",
        "name": "Kaviareň Tu.",
        "opening_hours": "Mo-Th 09:00-18:00; Fr 09:00-22:00; Sa 10:00-20:00; Su 10:00-18:00",
        "outdoor_seating": "yes"
      }
    },
    {
      "type": "Feature",
      "geometry": {
        "type": "Point",
        "coordinates": [
          17.5861204,
          48.3806098
        ]
      },
      "properties": {
        "id": 12157021989,
        "osm_type": "node",
        "name": "Rokfortská klubovňa"
      }
    },
    {
      "type": "Feature",
      "geometry": {
        "type": "Point",
        "coordinates": [
          17.2285223,
          48.8458452
        ]
      },
      "properties": {
        "id": 12194198721,
        "osm_type": "node",
        "name": "Zmysly",
        "opening_hours": "Tu-Th 07:00-20:00; Fr 07:00-00:00; Sa 08:00-00:00; Su 08:00-20:00"
      }
    },
    {
      "type": "Feature",
      "geometry": {
        "type": "Point",
        "coordinates": [
          17.8349157,
          48.5885337
        ]
      },
      "properties": {
        "id": 12292481543,
        "osm_type": "node",
        "outdoor_seating": "yes"
      }
    },
    {
      "type": "Feature",
      "geometry": {
        "type": "Point",
        "coordinates": [
          17.8153101,
          48.5865679
        ]
      },
      "properties": {
        "id": 12297544898,
        "osm_type": "node",
        "name": "Locáll"
      }
    },
    {
      "type": "Feature",
      "geometry": {
        "type": "Point",
        "coordinates": [
          17.8306067,
          48.5904123
        ]
      },
      "properties": {
        "id": 12305095822,
        "osm_type": "node",
        "name": "Concept Coffee Roasters",
        "opening_hours": "Mo-Th 08:30-19:00; Fr 08:30-21:00; Sa 09:00-21:00; Su 09:00-19:00",
        "outdoor_seating": "yes"
      }
    },
    {
      "type": "Feature",
      "geometry": {
        "type": "Point",
        "coordinates": [
          17.7267053,
          48.1877509
        ]
      },
      "properties": {
        "id": 12343920718,
        "osm_type": "node",
        "name": "Kávičkáreň",
        "opening_hours": "Mo-Th 07:00-20:00; Fr 07:00-21:00; Sa 08:00-21:00; Su 08:00-20:00"
      }
    },
    {
      "type": "Feature",
      "geometry": {
        "type": "Point",
        "coordinates": [
          17.3046199,
          48.7451627
        ]
      },
      "properties": {
        "id": 12484628773,
        "osm_type": "node",
        "name": "Café Celio"
      }
    },
    {
      "type": "Feature",
      "geometry": {
        "type": "Point",
        "coordinates": [
          17.3650771,
          48.6824582
        ]
      },
      "properties": {
        "id": 12506584271,
        "osm_type": "node",
        "name": "Faun",
        "opening_hours": "Mo-Fr 05:00-14:00; PH off"
      }
    },
    {
      "type": "Feature",
      "geometry": {
        "type": "Point",
        "coordinates": [
          17.1606681,
          48.8136765
        ]
      },
      "properties": {
        "id": 12511973349,
        "osm_type": "node",
        "name": "Faun"
      }
    },
    {
      "type": "Feature",
      "geometry": {
        "type": "Point",
        "coordinates": [
          17.5286365,
          48.3687907
        ]
      },
      "properties": {
        "id": 12536240365,
        "osm_type": "node",
        "name": "Cafe Alba"
      }
    },
    {
      "type": "Feature",
      "geometry": {
        "type": "Point",
        "coordinates": [
          17.7334034,
          48.1995433
        ]
      },
      "properties": {
        "id": 12610341769,
        "osm_type": "node",
        "name": "Pekáreň Aurora"
      }
    },
    {
      "type": "Feature",
      "geometry": {
        "type": "Point",
        "coordinates": [
          17.8271922,
          48.5859522
        ]
      },
      "properties": {
        "id": 12685618165,
        "osm_type": "node",
        "name": "Óda",
        "opening_hours": "Tu-Fr 7:00-16:00; Sa 7:00-12:00"
      }
    },
    {
      "type": "Feature",
      "geometry": {
        "type": "Point",
        "coordinates": [
          17.8339501,
          48.5893409
        ]
      },
      "properties": {
        "id": 12685618166,
        "osm_type": "node",
        "name": "Poem",
        "opening_hours": "Mo-Fr 8:00-18:00; Sa 8:00-12:00"
      }
    },
    {
      "type": "Feature",
      "geometry": {
        "type": "Point",
        "coordinates": [
          17.836839,
          48.5888675
        ]
      },
      "properties": {
        "id": 12685618167,
        "osm_type": "node",
        "name": "Poem",
        "opening_hours": "Mo-Fr 8:00-18:00; Sa 8:00-12:00"
      }
    },
    {
      "type": "Feature",
      "geometry": {
        "type": "Point",
        "coordinates": [
          17.8344194,
          48.591416
        ]
      },
      "properties": {
        "id": 12696362817,
        "osm_type": "node",
        "name": "Mlynček Mulino",
        "opening_hours": "Mo-Fr 08:00-20:00, Sa 9:00-21:00",
        "outdoor_seating": "yes"
      }
    },
    {
      "type": "Feature",
      "geometry": {
        "type": "Point",
        "coordinates": [
          17.8354249,
          48.5883186
        ]
      },
      "properties": {
        "id": 12723736539,
        "osm_type": "node",
        "name": "DOT",
        "opening_hours": "Tu-Fr 09:00-19:00; Sa-Su 11:00-19:00"
      }
    },
    {
      "type": "Feature",
      "geometry": {
        "type": "Point",
        "coordinates": [
          17.6196706,
          47.9926324
        ]
      },
      "properties": {
        "id": 12757381412,
        "osm_type": "node",
        "name": "Baker House",
        "opening_hours": "Mo-Su 07:00-18:00"
      }
    },
    {
      "type": "Feature",
      "geometry": {
        "type": "Point",
        "coordinates": [
          17.6173429,
          47.9946011
        ]
      },
      "properties": {
        "id": 12757382244,
        "osm_type": "node",
        "name": "Kotyogó",
        "opening_hours": "Mo-Th 08:00-21:00, Fr 08:00-01:00, Sa 09:00-01:00"
      }
    },
    {
      "type": "Feature",
      "geometry": {
        "type": "Point",
        "coordinates": [
          17.6206902,
          47.99214
        ]
      },
      "properties": {
        "id": 12778412382,
        "osm_type": "node",
        "name": "Rock Coffee",
        "opening_hours": "Mo-Th 07:00-21:00, Fr 07:00-24:00, Sa 08:00-24:00, Su 08:00-21:00"
      }
    },
    {
      "type": "Feature",
      "geometry": {
        "type": "Point",
        "coordinates": [
          17.6216016,
          47.9921025
        ]
      },
      "properties": {
        "id": 12858143799,
        "osm_type": "node",
        "name": "Edna Brunch & Coffee",
        "opening_hours": "Mo-Fr 07:00-15:00; Sa 08:00-12:00"
      }
    },
    {
      "type": "Feature",
      "geometry": {
        "type": "Point",
        "coordinates": [
          17.5707013,
          48.3880598
        ]
      },
      "properties": {
        "id": 12870770736,
        "osm_type": "node",
        "name": "Lulus bakery"
      }
    },
    {
      "type": "Feature",
      "geometry": {
        "type": "Point",
        "coordinates": [
          17.5915364,
          48.3868018
        ]
      },
      "properties": {
        "id": 12998194241,
        "osm_type": "node",
        "name": "Dobrá Pekáreň Bezlepková",
        "opening_hours": "Mo-Fr 06:30-12:00,12:30-18:00; Sa 06:30-13:00; Su off"
      }
    },
    {
      "type": "Feature",
      "geometry": {
        "type": "Point",
        "coordinates": [
          17.4325702,
          48.513368
        ]
      },
      "properties": {
        "id": 13069446923,
        "osm_type": "node",
        "name": "Galéria na zámku",
        "opening_hours": "Sa,Su 10:00-17:00; PH 10:00-17:00"
      }
    },
    {
      "type": "Feature",
      "geometry": {
        "type": "Point",
        "coordinates": [
          17.3980512,
          48.4815724
        ]
      },
      "properties": {
        "id": 13072167544,
        "osm_type": "node",
        "name": "Karpaty Kafe",
        "opening_hours": "Mo-Fr 16:00-22:00; Sa,Su 10:00-22:00"
      }
    },
    {
      "type": "Feature",
      "geometry": {
        "type": "Point",
        "coordinates": [
          17.3067691,
          48.0275727
        ]
      },
      "properties": {
        "id": 13267383029,
        "osm_type": "node",
        "name": "Minit",
        "brand": "Minit",
        "opening_hours": "Mo-Fr 06:00-17:00"
      }
    },
    {
      "type": "Feature",
      "geometry": {
        "type": "Point",
        "coordinates": [
          17.3075192,
          48.0287234
        ]
      },
      "properties": {
        "id": 13267400265,
        "osm_type": "node",
        "name": "Angel café"
      }
    },
    {
      "type": "Feature",
      "geometry": {
        "type": "Point",
        "coordinates": [
          17.3082272,
          48.0279836
        ]
      },
      "properties": {
        "id": 13267414509,
        "osm_type": "node",
        "name": "Corner coffee",
        "opening_hours": "Mo-Th 08:00-20:00; Fr 08:00-22:00; Sa 09:00-22:00"
      }
    },
    {
      "type": "Feature",
      "geometry": {
        "type": "Point",
        "coordinates": [
          17.3489915,
          48.0697304
        ]
      },
      "properties": {
        "id": 13279545465,
        "osm_type": "node",
        "name": "Kajkine pagáčiky",
        "opening_hours": "Tu-Fr 07:00-18:00; Sa 08:00-13:00"
      }
    },
    {
      "type": "Feature",
      "geometry": {
        "type": "Point",
        "coordinates": [
          17.011833,
          48.6488326
        ]
      },
      "properties": {
        "id": 13299153370,
        "osm_type": "node",
        "name": "Fresh Corner",
        "brand": "Fresh Corner",
        "opening_hours": "Mo-Su 06:00-22:00",
        "takeaway": "yes"
      }
    },
    {
      "type": "Feature",
      "geometry": {
        "type": "Point",
        "coordinates": [
          17.7517164,
          48.2701208
        ]
      },
      "properties": {
        "id": 13316113536,
        "osm_type": "node",
        "name": "Pekáren a Potraviny"
      }
    },
    {
      "type": "Feature",
      "geometry": {
        "type": "Point",
        "coordinates": [
          17.2175542,
          48.8409937
        ]
      },
      "properties": {
        "id": 13323422406,
        "osm_type": "node",
        "name": "Fresh Corner",
        "brand": "Fresh Corner",
        "opening_hours": "24/7",
        "takeaway": "yes"
      }
    },
    {
      "type": "Feature",
      "geometry": {
        "type": "Point",
        "coordinates": [
          17.5629467,
          48.3925738
        ]
      },
      "properties": {
        "id": 13323559426,
        "osm_type": "node",
        "name": "Fajn shop café",
        "brand": "RealK",
        "opening_hours": "24/7",
        "takeaway": "yes"
      }
    },
    {
      "type": "Feature",
      "geometry": {
        "type": "Point",
        "coordinates": [
          17.3491319,
          48.6796071
        ]
      },
      "properties": {
        "id": 13323563538,
        "osm_type": "node",
        "name": "Tanker",
        "brand": "Tanker",
        "opening_hours": "24/7",
        "takeaway": "yes"
      }
    },
    {
      "type": "Feature",
      "geometry": {
        "type": "Point",
        "coordinates": [
          17.7325589,
          48.2387203
        ]
      },
      "properties": {
        "id": 13323579330,
        "osm_type": "node",
        "name": "Fajn shop café",
        "brand": "RealK",
        "opening_hours": "24/7",
        "takeaway": "yes"
      }
    },
    {
      "type": "Feature",
      "geometry": {
        "type": "Point",
        "coordinates": [
          17.7736384,
          48.435178
        ]
      },
      "properties": {
        "id": 13323584359,
        "osm_type": "node",
        "name": "Tanker",
        "brand": "Tanker",
        "opening_hours": "24/7",
        "takeaway": "yes"
      }
    },
    {
      "type": "Feature",
      "geometry": {
        "type": "Point",
        "coordinates": [
          17.7390542,
          48.1933066
        ]
      },
      "properties": {
        "id": 13323794509,
        "osm_type": "node",
        "name": "Fresh Corner",
        "brand": "Fresh Corner",
        "opening_hours": "Mo-Su 06:00-22:00",
        "takeaway": "yes"
      }
    },
    {
      "type": "Feature",
      "geometry": {
        "type": "Point",
        "coordinates": [
          17.3042736,
          48.0326347
        ]
      },
      "properties": {
        "id": 13323903009,
        "osm_type": "node",
        "name": "Fresh Corner",
        "brand": "Fresh Corner",
        "opening_hours": "Mo-Su 06:00-22:00",
        "takeaway": "yes"
      }
    },
    {
      "type": "Feature",
      "geometry": {
        "type": "Point",
        "coordinates": [
          17.7362298,
          48.6136338
        ]
      },
      "properties": {
        "id": 13323919488,
        "osm_type": "node",
        "name": "Fresh Corner",
        "brand": "Fresh Corner",
        "opening_hours": "Mo-Su 06:00-22:00",
        "takeaway": "yes"
      }
    },
    {
      "type": "Feature",
      "geometry": {
        "type": "Point",
        "coordinates": [
          17.1618395,
          48.8007875
        ]
      },
      "properties": {
        "id": 13324182679,
        "osm_type": "node",
        "name": "Fresh Corner",
        "brand": "Fresh Corner",
        "opening_hours": "24/7",
        "takeaway": "yes"
      }
    },
    {
      "type": "Feature",
      "geometry": {
        "type": "Point",
        "coordinates": [
          17.5470734,
          48.4106556
        ]
      },
      "properties": {
        "id": 13324218632,
        "osm_type": "node",
        "name": "Stop Cafe",
        "brand": "Stop Cafe",
        "opening_hours": "Mo-Su 05:00-23:00",
        "takeaway": "yes"
      }
    },
    {
      "type": "Feature",
      "geometry": {
        "type": "Point",
        "coordinates": [
          17.1475877,
          48.7998217
        ]
      },
      "properties": {
        "id": 13324391305,
        "osm_type": "node",
        "name": "Stop Cafe",
        "brand": "Stop Cafe",
        "opening_hours": "Mo-Su 06:00-21:00",
        "takeaway": "yes"
      }
    },
    {
      "type": "Feature",
      "geometry": {
        "type": "Point",
        "coordinates": [
          17.3633565,
          48.6873628
        ]
      },
      "properties": {
        "id": 13360884167,
        "osm_type": "node",
        "name": "Tanker",
        "brand": "Tanker",
        "opening_hours": "Mo-Sa 07:00-20:00; Su 07:00-19:00",
        "takeaway": "yes"
      }
    },
    {
      "type": "Feature",
      "geometry": {
        "type": "Point",
        "coordinates": [
          17.3657157,
          48.6904754
        ]
      },
      "properties": {
        "id": 13360884169,
        "osm_type": "node",
        "name": "Viva",
        "brand": "Viva",
        "opening_hours": "24/7"
      }
    },
    {
      "type": "Feature",
      "geometry": {
        "type": "Point",
        "coordinates": [
          17.8066009,
          48.425149
        ]
      },
      "properties": {
        "id": 13361669061,
        "osm_type": "node",
        "name": "Viva",
        "brand": "Viva"
      }
    },
    {
      "type": "Feature",
      "geometry": {
        "type": "Point",
        "coordinates": [
          17.7263192,
          48.2810182
        ]
      },
      "properties": {
        "id": 13361852893,
        "osm_type": "node",
        "name": "Fresh Corner",
        "brand": "Fresh Corner",
        "opening_hours": "Mo-Su 06:00-22:00",
        "takeaway": "yes"
      }
    },
    {
      "type": "Feature",
      "geometry": {
        "type": "Point",
        "coordinates": [
          17.4227361,
          48.1183556
        ]
      },
      "properties": {
        "id": 13361881053,
        "osm_type": "node",
        "name": "Pauza",
        "brand": "Pumpa",
        "opening_hours": "Mo-Sa 06:00-22:00"
      }
    },
    {
      "type": "Feature",
      "geometry": {
        "type": "Point",
        "coordinates": [
          17.3084772,
          48.0289896
        ]
      },
      "properties": {
        "id": 13367804394,
        "osm_type": "node",
        "name": "Lavazza",
        "brand": "Lavazza",
        "opening_hours": "Mo-Th 07:00-22:00; Fr,Sa 07:00-23:00; Su 09:00-21:00",
        "takeaway": "yes"
      }
    },
    {
      "type": "Feature",
      "geometry": {
        "type": "Point",
        "coordinates": [
          17.3120833,
          48.0261451
        ]
      },
      "properties": {
        "id": 13378580798,
        "osm_type": "node",
        "name": "Mimi's Bakery",
        "opening_hours": "Tu-Sa 08:00-19:00; Su 10:00-18:00"
      }
    },
    {
      "type": "Feature",
      "geometry": {
        "type": "Point",
        "coordinates": [
          17.3053986,
          48.0301181
        ]
      },
      "properties": {
        "id": 13383817691,
        "osm_type": "node",
        "name": "Pekáreň Kvetoslavov"
      }
    },
    {
      "type": "Feature",
      "geometry": {
        "type": "Point",
        "coordinates": [
          17.3091367,
          48.0274969
        ]
      },
      "properties": {
        "id": 13383826007,
        "osm_type": "node",
        "name": "Pekáreň Kvetoslavov",
        "opening_hours": "Mo-Fr 06:00-18:00; Sa 06:00-12:00"
      }
    },
    {
      "type": "Feature",
      "geometry": {
        "type": "Point",
        "coordinates": [
          17.6996358,
          47.9893975
        ]
      },
      "properties": {
        "id": 13393090233,
        "osm_type": "node",
        "name": "Cukráreň Németh",
        "outdoor_seating": "yes"
      }
    },
    {
      "type": "Feature",
      "geometry": {
        "type": "Point",
        "coordinates": [
          17.7736443,
          47.8552389
        ]
      },
      "properties": {
        "id": 13393975410,
        "osm_type": "node",
        "name": "Klass",
        "opening_hours": "Mo-Sa 05:00-20:00; Su 06:00-20:00"
      }
    },
    {
      "type": "Feature",
      "geometry": {
        "type": "Point",
        "coordinates": [
          17.5847153,
          48.3704332
        ]
      },
      "properties": {
        "id": 13430546758,
        "osm_type": "node",
        "name": "Koruna"
      }
    },
    {
      "type": "Feature",
      "geometry": {
        "type": "Point",
        "coordinates": [
          17.3154234,
          48.0269995
        ]
      },
      "properties": {
        "id": 13450806838,
        "osm_type": "node",
        "name": "Pékség"
      }
    },
    {
      "type": "Feature",
      "geometry": {
        "type": "Point",
        "coordinates": [
          17.7310871,
          48.1920928
        ]
      },
      "properties": {
        "id": 13477935409,
        "osm_type": "node",
        "name": "Michaela’s coffee&play house"
      }
    },
    {
      "type": "Feature",
      "geometry": {
        "type": "Point",
        "coordinates": [
          17.8147347,
          48.5835836
        ]
      },
      "properties": {
        "id": 13482073306,
        "osm_type": "node",
        "name": "Fresh Corner",
        "brand": "Fresh Corner",
        "opening_hours": "Mo-Su 06:00-22:00",
        "takeaway": "yes"
      }
    },
    {
      "type": "Feature",
      "geometry": {
        "type": "Point",
        "coordinates": [
          17.8357358,
          48.6145769
        ]
      },
      "properties": {
        "id": 13521280088,
        "osm_type": "node",
        "name": "Stop Cafe",
        "brand": "Stop Cafe",
        "opening_hours": "Mo-Su 06:00-21:00",
        "takeaway": "yes"
      }
    },
    {
      "type": "Feature",
      "geometry": {
        "type": "Point",
        "coordinates": [
          17.6306514,
          47.9974617
        ]
      },
      "properties": {
        "id": 13521472379,
        "osm_type": "node",
        "name": "Stop Cafe",
        "brand": "Stop Cafe",
        "opening_hours": "Mo-Su 05:00-23:00",
        "takeaway": "yes"
      }
    },
    {
      "type": "Feature",
      "geometry": {
        "type": "Point",
        "coordinates": [
          17.8408613,
          48.5868565
        ]
      },
      "properties": {
        "id": 13544459501,
        "osm_type": "node",
        "name": "Café Alexander"
      }
    },
    {
      "type": "Feature",
      "geometry": {
        "type": "Point",
        "coordinates": [
          17.844564,
          48.5870728
        ]
      },
      "properties": {
        "id": 13576303229,
        "osm_type": "node",
        "name": "Café Franz Jozef"
      }
    },
    {
      "type": "Feature",
      "geometry": {
        "type": "Point",
        "coordinates": [
          17.8462697,
          48.5905712
        ]
      },
      "properties": {
        "id": 13576303230,
        "osm_type": "node",
        "name": "Park Café"
      }
    },
    {
      "type": "Feature",
      "geometry": {
        "type": "Point",
        "coordinates": [
          17.3134193,
          48.0284401
        ]
      },
      "properties": {
        "id": 13630239171,
        "osm_type": "node",
        "name": "Coffee & Tapas"
      }
    },
    {
      "type": "Feature",
      "geometry": {
        "type": "Point",
        "coordinates": [
          17.6288577,
          47.991124
        ]
      },
      "properties": {
        "id": 13656858201,
        "osm_type": "node",
        "name": "Pekáreň Bott"
      }
    },
    {
      "type": "Feature",
      "geometry": {
        "type": "Point",
        "coordinates": [
          17.6288164,
          47.9910803
        ]
      },
      "properties": {
        "id": 13656911301,
        "osm_type": "node",
        "name": "Veronika s Free cakes - cukráreň"
      }
    },
    {
      "type": "Feature",
      "geometry": {
        "type": "Point",
        "coordinates": [
          17.6303393,
          47.997054
        ]
      },
      "properties": {
        "id": 13660955701,
        "osm_type": "node",
        "name": "Prominent cafe"
      }
    },
    {
      "type": "Feature",
      "geometry": {
        "type": "Point",
        "coordinates": [
          17.6174756,
          47.9944209
        ]
      },
      "properties": {
        "id": 13667117001,
        "osm_type": "node",
        "name": "Kotyogó",
        "opening_hours": "Mo-Th 08:00-21:00; Fr 08:00-21:00; Sa 09:00-01:00; Su 13:00-21:00",
        "outdoor_seating": "yes"
      }
    },
    {
      "type": "Feature",
      "geometry": {
        "type": "Point",
        "coordinates": [
          17.6144342,
          47.9968424
        ]
      },
      "properties": {
        "id": 13680379201,
        "osm_type": "node",
        "name": "Pekáreň Bott"
      }
    },
    {
      "type": "Feature",
      "geometry": {
        "type": "Point",
        "coordinates": [
          17.6150873,
          47.9950924
        ]
      },
      "properties": {
        "id": 13680379302,
        "osm_type": "node"
      }
    },
    {
      "type": "Feature",
      "geometry": {
        "type": "Point",
        "coordinates": [
          17.7617524,
          47.8467165
        ]
      },
      "properties": {
        "id": 13711434965,
        "osm_type": "node",
        "name": "Gelateria Amore",
        "opening_hours": "Mo-Su 08:30-21:00",
        "outdoor_seating": "yes"
      }
    },
    {
      "type": "Feature",
      "geometry": {
        "type": "Point",
        "coordinates": [
          17.6216664,
          47.9921312
        ]
      },
      "properties": {
        "id": 13723979701,
        "osm_type": "node",
        "name": "Wagner cukráreň"
      }
    },
    {
      "type": "Feature",
      "geometry": {
        "type": "Point",
        "coordinates": [
          17.8588621,
          48.6081104
        ]
      },
      "properties": {
        "id": 50493927,
        "osm_type": "way"
      }
    },
    {
      "type": "Feature",
      "geometry": {
        "type": "Point",
        "coordinates": [
          17.8346717,
          48.5926035
        ]
      },
      "properties": {
        "id": 58418311,
        "osm_type": "way",
        "name": "norma",
        "opening_hours": "Mo-Sa 09:00-18:00; Su 09:00-17:00"
      }
    },
    {
      "type": "Feature",
      "geometry": {
        "type": "Point",
        "coordinates": [
          17.8108479,
          48.4473105
        ]
      },
      "properties": {
        "id": 59371562,
        "osm_type": "way",
        "name": "Stop Cafe",
        "brand": "Stop Cafe",
        "opening_hours": "Mo-Su 06:00-21:00",
        "takeaway": "yes"
      }
    },
    {
      "type": "Feature",
      "geometry": {
        "type": "Point",
        "coordinates": [
          17.3103793,
          48.0300359
        ]
      },
      "properties": {
        "id": 61630725,
        "osm_type": "way",
        "name": "mozi.club",
        "opening_hours": "08:00-22:00",
        "outdoor_seating": "yes"
      }
    },
    {
      "type": "Feature",
      "geometry": {
        "type": "Point",
        "coordinates": [
          17.6180209,
          47.9934179
        ]
      },
      "properties": {
        "id": 61644615,
        "osm_type": "way",
        "name": "Cafe Sazón"
      }
    },
    {
      "type": "Feature",
      "geometry": {
        "type": "Point",
        "coordinates": [
          17.7159854,
          47.9392749
        ]
      },
      "properties": {
        "id": 71704455,
        "osm_type": "way",
        "name": "Espresso Zsemlye"
      }
    },
    {
      "type": "Feature",
      "geometry": {
        "type": "Point",
        "coordinates": [
          17.6034173,
          48.3742683
        ]
      },
      "properties": {
        "id": 82361735,
        "osm_type": "way",
        "name": "Takáč & Syn"
      }
    },
    {
      "type": "Feature",
      "geometry": {
        "type": "Point",
        "coordinates": [
          17.6028728,
          48.3623767
        ]
      },
      "properties": {
        "id": 163690893,
        "osm_type": "way",
        "name": "Stop Cafe",
        "brand": "Stop Cafe",
        "opening_hours": "Mo-Su 06:00-22:00",
        "takeaway": "yes"
      }
    },
    {
      "type": "Feature",
      "geometry": {
        "type": "Point",
        "coordinates": [
          17.5841583,
          48.3814358
        ]
      },
      "properties": {
        "id": 164480876,
        "osm_type": "way",
        "name": "Violeta"
      }
    },
    {
      "type": "Feature",
      "geometry": {
        "type": "Point",
        "coordinates": [
          17.5936369,
          48.3747275
        ]
      },
      "properties": {
        "id": 164481033,
        "osm_type": "way"
      }
    },
    {
      "type": "Feature",
      "geometry": {
        "type": "Point",
        "coordinates": [
          17.588458,
          48.3755963
        ]
      },
      "properties": {
        "id": 164482486,
        "osm_type": "way",
        "name": "Café Milano",
        "opening_hours": "Mo-Fr 07:30-14:00"
      }
    },
    {
      "type": "Feature",
      "geometry": {
        "type": "Point",
        "coordinates": [
          17.5828342,
          48.3804753
        ]
      },
      "properties": {
        "id": 164482735,
        "osm_type": "way",
        "name": "Leháro",
        "opening_hours": "08:00-20:00",
        "outdoor_seating": "yes"
      }
    },
    {
      "type": "Feature",
      "geometry": {
        "type": "Point",
        "coordinates": [
          17.5548573,
          48.2818558
        ]
      },
      "properties": {
        "id": 224288497,
        "osm_type": "way",
        "name": "Šťavička"
      }
    },
    {
      "type": "Feature",
      "geometry": {
        "type": "Point",
        "coordinates": [
          17.5645565,
          48.2930429
        ]
      },
      "properties": {
        "id": 392823558,
        "osm_type": "way",
        "name": "One Coffee"
      }
    },
    {
      "type": "Feature",
      "geometry": {
        "type": "Point",
        "coordinates": [
          17.4892396,
          48.0002785
        ]
      },
      "properties": {
        "id": 534064506,
        "osm_type": "way",
        "name": "Stop Cafe",
        "brand": "Stop Cafe",
        "opening_hours": "Mo-Su 05:00-23:00",
        "takeaway": "yes"
      }
    },
    {
      "type": "Feature",
      "geometry": {
        "type": "Point",
        "coordinates": [
          17.277907,
          48.0201035
        ]
      },
      "properties": {
        "id": 1001213993,
        "osm_type": "way",
        "name": "Bufet VDG Yacht Centrum"
      }
    },
    {
      "type": "Feature",
      "geometry": {
        "type": "Point",
        "coordinates": [
          17.3513607,
          48.0519517
        ]
      },
      "properties": {
        "id": 1070137446,
        "osm_type": "way",
        "name": "Cornus Café Kvetoslavov",
        "opening_hours": "Mo-Sa 08:00-19:00; Su 13:00-18:00"
      }
    },
    {
      "type": "Feature",
      "geometry": {
        "type": "Point",
        "coordinates": [
          17.594295,
          48.3814427
        ]
      },
      "properties": {
        "id": 1084252502,
        "osm_type": "way",
        "name": "KPK Trstín"
      }
    },
    {
      "type": "Feature",
      "geometry": {
        "type": "Point",
        "coordinates": [
          17.3199549,
          48.0318552
        ]
      },
      "properties": {
        "id": 1112253375,
        "osm_type": "way",
        "name": "Stop Cafe",
        "brand": "Stop Cafe",
        "opening_hours": "Mo-Su 05:00-23:00",
        "takeaway": "yes",
        "outdoor_seating": "yes"
      }
    },
    {
      "type": "Feature",
      "geometry": {
        "type": "Point",
        "coordinates": [
          17.5690557,
          48.3659471
        ]
      },
      "properties": {
        "id": 1229593225,
        "osm_type": "way",
        "name": "KPK"
      }
    },
    {
      "type": "Feature",
      "geometry": {
        "type": "Point",
        "coordinates": [
          17.5870053,
          48.376852
        ]
      },
      "properties": {
        "id": 1305282098,
        "osm_type": "way",
        "name": "Školuda"
      }
    },
    {
      "type": "Feature",
      "geometry": {
        "type": "Point",
        "coordinates": [
          17.5782436,
          48.3696777
        ]
      },
      "properties": {
        "id": 1308301689,
        "osm_type": "way",
        "outdoor_seating": "no"
      }
    },
    {
      "type": "Feature",
      "geometry": {
        "type": "Point",
        "coordinates": [
          17.5787156,
          48.3697375
        ]
      },
      "properties": {
        "id": 1308301712,
        "osm_type": "way",
        "name": "Minit",
        "brand": "Minit"
      }
    },
    {
      "type": "Feature",
      "geometry": {
        "type": "Point",
        "coordinates": [
          17.586278,
          48.3775711
        ]
      },
      "properties": {
        "id": 1313846947,
        "osm_type": "way",
        "name": "City",
        "opening_hours": "Mo-Th 07:30-19:30; Fr 07:30-21:00; Sa 08:00-21:00; Su 09:00-12:00,15:00-19:30",
        "outdoor_seating": "yes"
      }
    }
  ]
}