{
  "type": "FeatureCollection",
  "features": [
    {
      "type": "Feature",
      "geometry": {
        "type": "Point",
        "coordinates": [
          5.326515,
          60.395457
        ]
      },
      "properties": {
        "id": 29825210,
        "osm_type": "node",
        "name": "McDonald's Bryggesporen",
        "brand": "McDonald's",
        "opening_hours": "Mo-Th 11:00-24:00, Fr-Sa 00:00-24:00, Su 11:00-21:00",
        "phone": "+47 55558670",
        "brand:wikidata": "Q38076",
        "chain": "mcdonalds"
      }
    },
    {
      "type": "Feature",
      "geometry": {
        "type": "Point",
        "coordinates": [
          5.3231671,
          60.3924862
        ]
      },
      "properties": {
        "id": 309066425,
        "osm_type": "node",
        "name": "McDonald's Torgalmenningen",
        "brand": "McDonald's",
        "opening_hours": "24/7",
        "phone": "+47 55558670",
        "website": "http://www.mcdonalds.no/",
        "brand:wikidata": "Q38076",
        "chain": "mcdonalds"
      }
    },
    {
      "type": "Feature",
      "geometry": {
        "type": "Point",
        "coordinates": [
          5.1256391,
          60.3578013
        ]
      },
      "properties": {
        "id": 1236696785,
        "osm_type": "node",
        "name": "Burger King Sartor",
        "operator": "Burger King",
        "chain": "burger_king"
      }
    },
    {
      "type": "Feature",
      "geometry": {
        "type": "Point",
        "coordinates": [
          5.3239005,
          60.4650742
        ]
      },
      "properties": {
        "id": 1925268640,
        "osm_type": "node",
        "name": "McDonald's Arken",
        "brand": "McDonald's",
        "opening_hours": "Mo-Fr 08:00-23:00, Sa 09:00-22:00, Su 11:00-23:00",
        "phone": "+47 55198044",
        "brand:wikidata": "Q38076",
        "chain": "mcdonalds"
      }
    },
    {
      "type": "Feature",
      "geometry": {
        "type": "Point",
        "coordinates": [
          5.323786,
          60.393971
        ]
      },
      "properties": {
        "id": 2840313638,
        "osm_type": "node",
        "name": "Burger King",
        "brand": "Burger King",
        "opening_hours": "Mo-We 10:00-23:00; Th-Sa 10:00-04:00; Su 12:00-23:00",
        "phone": "+47 55 32 34 70",
        "website": "http://www.burgerking.no/restauranter/bergen/strandgaten/",
        "brand:wikidata": "Q177054",
        "chain": "burger_king"
      }
    },
    {
      "type": "Feature",
      "geometry": {
        "type": "Point",
        "coordinates": [
          5.3321375,
          60.3892831
        ]
      },
      "properties": {
        "id": 3975976565,
        "osm_type": "node",
        "name": "Burger King",
        "brand": "Burger King",
        "brand:wikidata": "Q177054",
        "chain": "burger_king"
      }
    },
    {
      "type": "Feature",
      "geometry": {
        "type": "Point",
        "coordinates": [
          5.2907935,
          60.348698
        ]
      },
      "properties": {
        "id": 4235820769,
        "osm_type": "node",
        "name": "McDonald's Oasen",
        "brand": "McDonald's",
        "opening_hours": "Mo-Fr 10:00-21:00, Sa 10:00-18:00, Su 11:00-21:00",
        "phone": "+47 55558670",
        "brand:wikidata": "Q38076",
        "chain": "mcdonalds"
      }
    },
    {
      "type": "Feature",
      "geometry": {
        "type": "Point",
        "coordinates": [
          5.2341357,
          60.3618475
        ]
      },
      "properties": {
        "id": 4241784697,
        "osm_type": "node",
        "name": "McDonald's Vestkanten",
        "brand": "McDonald's",
        "opening_hours": "Mo-Sa 10:00-23:00, Su 11:00-23:00",
        "phone": "+47 55558670",
        "brand:wikidata": "Q38076",
        "chain": "mcdonalds"
      }
    },
    {
      "type": "Feature",
      "geometry": {
        "type": "Point",
        "coordinates": [
          5.2270682,
          60.4089266
        ]
      },
      "properties": {
        "id": 4639757500,
        "osm_type": "node",
        "name": "Burger King",
        "brand": "Burger King",
        "brand:wikidata": "Q177054",
        "chain": "burger_king"
      }
    },
    {
      "type": "Feature",
      "geometry": {
        "type": "Point",
        "coordinates": [
          5.85088,
          61.452106
        ]
      },
      "properties": {
        "id": 6011910166,
        "osm_type": "node",
        "name": "Burger King",
        "brand": "Burger King",
        "opening_hours": "Mo-Th 10:00-23:00, Fr-Sa 10:00-03:00, Su 12:00-23:00",
        "brand:wikidata": "Q177054",
        "chain": "burger_king"
      }
    },
    {
      "type": "Feature",
      "geometry": {
        "type": "Point",
        "coordinates": [
          5.3303271,
          60.2974554
        ]
      },
      "properties": {
        "id": 6166982759,
        "osm_type": "node",
        "name": "McDonald's Lagunen",
        "brand": "McDonald's",
        "opening_hours": "Mo-Fr 10:00-21:00, Sa 10:00-18:00",
        "phone": "+47 55929920",
        "brand:wikidata": "Q38076",
        "chain": "mcdonalds"
      }
    },
    {
      "type": "Feature",
      "geometry": {
        "type": "Point",
        "coordinates": [
          5.3268494,
          60.2957407
        ]
      },
      "properties": {
        "id": 7056025835,
        "osm_type": "node",
        "name": "McDonald's Rådalen",
        "brand": "McDonald's",
        "opening_hours": "24/7",
        "phone": "+47 55136480",
        "brand:wikidata": "Q38076",
        "chain": "mcdonalds"
      }
    },
    {
      "type": "Feature",
      "geometry": {
        "type": "Point",
        "coordinates": [
          5.498903,
          59.778434
        ]
      },
      "properties": {
        "id": 9291023989,
        "osm_type": "node",
        "name": "Burger King",
        "brand": "Burger King",
        "brand:wikidata": "Q177054",
        "chain": "burger_king"
      }
    },
    {
      "type": "Feature",
      "geometry": {
        "type": "Point",
        "coordinates": [
          5.2873173,
          60.3894409
        ]
      },
      "properties": {
        "id": 12712835012,
        "osm_type": "node",
        "name": "Burger King",
        "brand": "Burger King",
        "opening_hours": "Mo-Sa 10:00-22:00; Su 12:00-22:00",
        "phone": "+4790125601",
        "website": "https://burgerking.no/restaurants/Laksev%C3%A5g",
        "brand:wikidata": "Q177054",
        "chain": "burger_king"
      }
    },
    {
      "type": "Feature",
      "geometry": {
        "type": "Point",
        "coordinates": [
          5.4515949,
          59.763327
        ]
      },
      "properties": {
        "id": 548119297,
        "osm_type": "way",
        "name": "McDonald's Stord",
        "brand": "McDonald's",
        "opening_hours": "Mo-Su 08:00-23:00",
        "phone": "+47 45974560",
        "brand:wikidata": "Q38076",
        "chain": "mcdonalds"
      }
    }
  ]
}