{
  "type": "FeatureCollection",
  "features": [
    {
      "type": "Feature",
      "geometry": {
        "type": "Point",
        "coordinates": [
          5.3550048,
          60.3870085
        ]
      },
      "properties": {
        "id": 287162347,
        "osm_type": "node",
        "name": "Snarkjøp Bellevuebakken",
        "brand": "Snarkjøp"
      }
    },
    {
      "type": "Feature",
      "geometry": {
        "type": "Point",
        "coordinates": [
          5.2652077,
          60.3351725
        ]
      },
      "properties": {
        "id": 289525262,
        "osm_type": "node",
        "name": "Bunnpris Varden"
      }
    },
    {
      "type": "Feature",
      "geometry": {
        "type": "Point",
        "coordinates": [
          5.3200343,
          60.3916926
        ]
      },
      "properties": {
        "id": 309065135,
        "osm_type": "node",
        "name": "7-Eleven Engen",
        "brand": "7-Eleven",
        "opening_hours": "Mo-We,Su 09:30-23:00; Th-Fr 09:30-03:00; Sa 09:30-03:30",
        "check_date": "2025-08-01"
      }
    },
    {
      "type": "Feature",
      "geometry": {
        "type": "Point",
        "coordinates": [
          5.3232723,
          60.3923605
        ]
      },
      "properties": {
        "id": 390408434,
        "osm_type": "node",
        "name": "Narvesen",
        "brand": "Narvesen",
        "opening_hours": "Mo-We 07:00-23:00, Fr 07:00-04:00, Sa 08:00-06:00, Su 09:00-23:00"
      }
    },
    {
      "type": "Feature",
      "geometry": {
        "type": "Point",
        "coordinates": [
          5.7983519,
          59.9233216
        ]
      },
      "properties": {
        "id": 415768194,
        "osm_type": "node"
      }
    },
    {
      "type": "Feature",
      "geometry": {
        "type": "Point",
        "coordinates": [
          5.8610455,
          59.9307065
        ]
      },
      "properties": {
        "id": 448094405,
        "osm_type": "node",
        "name": "Lises Krambu"
      }
    },
    {
      "type": "Feature",
      "geometry": {
        "type": "Point",
        "coordinates": [
          6.5457843,
          60.0693376
        ]
      },
      "properties": {
        "id": 536606014,
        "osm_type": "node",
        "name": "Narvesen",
        "brand": "Narvesen"
      }
    },
    {
      "type": "Feature",
      "geometry": {
        "type": "Point",
        "coordinates": [
          5.9317099,
          59.7330875
        ]
      },
      "properties": {
        "id": 738926896,
        "osm_type": "node",
        "name": "Krambua"
      }
    },
    {
      "type": "Feature",
      "geometry": {
        "type": "Point",
        "coordinates": [
          7.2082558,
          61.3023448
        ]
      },
      "properties": {
        "id": 761693895,
        "osm_type": "node"
      }
    },
    {
      "type": "Feature",
      "geometry": {
        "type": "Point",
        "coordinates": [
          6.4645363,
          60.9012253
        ]
      },
      "properties": {
        "id": 839077857,
        "osm_type": "node",
        "name": "Souvenier"
      }
    },
    {
      "type": "Feature",
      "geometry": {
        "type": "Point",
        "coordinates": [
          5.3581041,
          60.197646
        ]
      },
      "properties": {
        "id": 1286847250,
        "osm_type": "node",
        "name": "Drange Dagligvarer"
      }
    },
    {
      "type": "Feature",
      "geometry": {
        "type": "Point",
        "coordinates": [
          5.390389,
          60.2126324
        ]
      },
      "properties": {
        "id": 1303099755,
        "osm_type": "node"
      }
    },
    {
      "type": "Feature",
      "geometry": {
        "type": "Point",
        "coordinates": [
          5.35995,
          60.373972
        ]
      },
      "properties": {
        "id": 1384235217,
        "osm_type": "node",
        "name": "Deli de Luca",
        "opening_hours": "Mo-Fr 07:00-23:00"
      }
    },
    {
      "type": "Feature",
      "geometry": {
        "type": "Point",
        "coordinates": [
          5.32333,
          60.389398
        ]
      },
      "properties": {
        "id": 1388494334,
        "osm_type": "node",
        "name": "7-Eleven Christies gate",
        "brand": "7-Eleven",
        "opening_hours": "24/7"
      }
    },
    {
      "type": "Feature",
      "geometry": {
        "type": "Point",
        "coordinates": [
          5.0909481,
          59.8953922
        ]
      },
      "properties": {
        "id": 1487057115,
        "osm_type": "node",
        "name": "Nærbutikken E. Johnsen & Sønner"
      }
    },
    {
      "type": "Feature",
      "geometry": {
        "type": "Point",
        "coordinates": [
          5.330892,
          60.389112
        ]
      },
      "properties": {
        "id": 1652908193,
        "osm_type": "node",
        "name": "Global Food",
        "opening_hours": "Mo-Fr 10:00-20:00; Sa 10:00-19:00"
      }
    },
    {
      "type": "Feature",
      "geometry": {
        "type": "Point",
        "coordinates": [
          7.1047389,
          61.2312009
        ]
      },
      "properties": {
        "id": 1664529666,
        "osm_type": "node",
        "name": "Asiatisk mat"
      }
    },
    {
      "type": "Feature",
      "geometry": {
        "type": "Point",
        "coordinates": [
          5.3679748,
          60.3614098
        ]
      },
      "properties": {
        "id": 1730271678,
        "osm_type": "node",
        "name": "Zeugma minimarket"
      }
    },
    {
      "type": "Feature",
      "geometry": {
        "type": "Point",
        "coordinates": [
          5.3264643,
          60.3926941
        ]
      },
      "properties": {
        "id": 1741165953,
        "osm_type": "node",
        "name": "Kinsarvik Naturkost Sentrum",
        "brand": "Kinsarvik Naturkost",
        "opening_hours": "Mo-Fr 09:00-20:00; Sa 09:00-18:00"
      }
    },
    {
      "type": "Feature",
      "geometry": {
        "type": "Point",
        "coordinates": [
          5.3210906,
          60.3947787
        ]
      },
      "properties": {
        "id": 1741165956,
        "osm_type": "node",
        "name": "Reindyrka",
        "opening_hours": "Mo-Fr 09:00-19:00; Sa 09:00-18:00; Su 13:00-18:00"
      }
    },
    {
      "type": "Feature",
      "geometry": {
        "type": "Point",
        "coordinates": [
          7.1039495,
          61.2321053
        ]
      },
      "properties": {
        "id": 1818782376,
        "osm_type": "node",
        "name": "Narvesen",
        "brand": "Narvesen"
      }
    },
    {
      "type": "Feature",
      "geometry": {
        "type": "Point",
        "coordinates": [
          5.325382,
          60.400156
        ]
      },
      "properties": {
        "id": 1835515864,
        "osm_type": "node",
        "name": "7-Eleven Ladegårdsgaten",
        "brand": "7-Eleven",
        "opening_hours": "24/7"
      }
    },
    {
      "type": "Feature",
      "geometry": {
        "type": "Point",
        "coordinates": [
          5.360204,
          60.3603868
        ]
      },
      "properties": {
        "id": 1895117397,
        "osm_type": "node",
        "name": "Sletten Eksotisk Mat"
      }
    },
    {
      "type": "Feature",
      "geometry": {
        "type": "Point",
        "coordinates": [
          5.317265,
          60.38918
        ]
      },
      "properties": {
        "id": 1976400569,
        "osm_type": "node",
        "name": "Kolonialen",
        "opening_hours": "Mo-Fr 09:00-17:30; Sa 10:00-15:00; Su 12:00-16:00"
      }
    },
    {
      "type": "Feature",
      "geometry": {
        "type": "Point",
        "coordinates": [
          5.7550421,
          60.3747916
        ]
      },
      "properties": {
        "id": 2406837476,
        "osm_type": "node",
        "name": "Snarkjøp Tysse landhandel",
        "brand": "Snarkjøp"
      }
    },
    {
      "type": "Feature",
      "geometry": {
        "type": "Point",
        "coordinates": [
          6.4161599,
          60.6290808
        ]
      },
      "properties": {
        "id": 2510666493,
        "osm_type": "node",
        "name": "Alfa Mat Butikk"
      }
    },
    {
      "type": "Feature",
      "geometry": {
        "type": "Point",
        "coordinates": [
          7.284324,
          60.4117328
        ]
      },
      "properties": {
        "id": 2805504445,
        "osm_type": "node",
        "opening_hours": "Mo-Sa 09:00-19:00"
      }
    },
    {
      "type": "Feature",
      "geometry": {
        "type": "Point",
        "coordinates": [
          5.8181231,
          59.807707
        ]
      },
      "properties": {
        "id": 2826142003,
        "osm_type": "node",
        "name": "Sandvoll Handel AS"
      }
    },
    {
      "type": "Feature",
      "geometry": {
        "type": "Point",
        "coordinates": [
          5.324719,
          60.394033
        ]
      },
      "properties": {
        "id": 2839994023,
        "osm_type": "node",
        "name": "Narvesen",
        "brand": "Narvesen",
        "opening_hours": "Mo-Th 06:30-24:00, Fr 09:00-03:30, Sa 09:00-04:00, Su 09:00-23:30"
      }
    },
    {
      "type": "Feature",
      "geometry": {
        "type": "Point",
        "coordinates": [
          5.3240106,
          60.3934285
        ]
      },
      "properties": {
        "id": 2840313672,
        "osm_type": "node",
        "name": "7-Eleven Hui",
        "brand": "7-Eleven",
        "check_date": "2025-08-02"
      }
    },
    {
      "type": "Feature",
      "geometry": {
        "type": "Point",
        "coordinates": [
          5.3302213,
          60.3887832
        ]
      },
      "properties": {
        "id": 2983165268,
        "osm_type": "node",
        "name": "Taco Mat",
        "opening_hours": "Mo-Sa 09:00-21:00; PH,Su 10:00-21:00"
      }
    },
    {
      "type": "Feature",
      "geometry": {
        "type": "Point",
        "coordinates": [
          5.2658175,
          60.3778612
        ]
      },
      "properties": {
        "id": 3014610662,
        "osm_type": "node",
        "name": "Stores"
      }
    },
    {
      "type": "Feature",
      "geometry": {
        "type": "Point",
        "coordinates": [
          6.213447,
          59.803315
        ]
      },
      "properties": {
        "id": 3024836809,
        "osm_type": "node",
        "name": "Åkrafjordtunet"
      }
    },
    {
      "type": "Feature",
      "geometry": {
        "type": "Point",
        "coordinates": [
          5.360946,
          60.360468
        ]
      },
      "properties": {
        "id": 3033084365,
        "osm_type": "node",
        "name": "Sletten Butikk",
        "opening_hours": "Su-Fr 09:00-22:00, Sa 10:00-22:00"
      }
    },
    {
      "type": "Feature",
      "geometry": {
        "type": "Point",
        "coordinates": [
          5.920498,
          60.061591
        ]
      },
      "properties": {
        "id": 3119008734,
        "osm_type": "node",
        "name": "Turkiosken",
        "opening_hours": "24/7"
      }
    },
    {
      "type": "Feature",
      "geometry": {
        "type": "Point",
        "coordinates": [
          5.35037,
          60.35962
        ]
      },
      "properties": {
        "id": 3125994010,
        "osm_type": "node",
        "name": "Trimco Asiatisk mat"
      }
    },
    {
      "type": "Feature",
      "geometry": {
        "type": "Point",
        "coordinates": [
          6.4363963,
          60.6568363
        ]
      },
      "properties": {
        "id": 3570909542,
        "osm_type": "node",
        "name": "Voss Trafikksenter AS",
        "opening_hours": "Mo-Su 06:00-24:00"
      }
    },
    {
      "type": "Feature",
      "geometry": {
        "type": "Point",
        "coordinates": [
          6.4219676,
          60.6291157
        ]
      },
      "properties": {
        "id": 3677098729,
        "osm_type": "node",
        "name": "Mix G Kløve",
        "brand": "Mix",
        "opening_hours": "Mo-Sa 08:30-20:00; Su 10:00-20:00"
      }
    },
    {
      "type": "Feature",
      "geometry": {
        "type": "Point",
        "coordinates": [
          5.5202689,
          60.8962836
        ]
      },
      "properties": {
        "id": 3724893865,
        "osm_type": "node",
        "name": "Haugsvær Auto",
        "opening_hours": "Mo-Th 08:00-16:30; Fr 08:00-20:00; Su 14:00-19:00"
      }
    },
    {
      "type": "Feature",
      "geometry": {
        "type": "Point",
        "coordinates": [
          5.1250837,
          60.3587848
        ]
      },
      "properties": {
        "id": 3843535790,
        "osm_type": "node",
        "name": "Narvesen",
        "brand": "Narvesen"
      }
    },
    {
      "type": "Feature",
      "geometry": {
        "type": "Point",
        "coordinates": [
          5.1211174,
          60.359372
        ]
      },
      "properties": {
        "id": 3851596091,
        "osm_type": "node",
        "name": "MIX Straume",
        "opening_hours": "Mo-Fr 10:00-23:00, Sa-Su 11:00-23:00"
      }
    },
    {
      "type": "Feature",
      "geometry": {
        "type": "Point",
        "coordinates": [
          5.3244516,
          60.3918778
        ]
      },
      "properties": {
        "id": 3942161707,
        "osm_type": "node",
        "name": "Narvesen",
        "brand": "Narvesen",
        "opening_hours": "Mo-Th 05:30-21:00, Fr 05:30-24:00, Sa 08:00-24:00, Su 09:00-24:00"
      }
    },
    {
      "type": "Feature",
      "geometry": {
        "type": "Point",
        "coordinates": [
          5.328725,
          60.387313
        ]
      },
      "properties": {
        "id": 3946010571,
        "osm_type": "node",
        "name": "Waberi butikk"
      }
    },
    {
      "type": "Feature",
      "geometry": {
        "type": "Point",
        "coordinates": [
          5.326322,
          60.39537
        ]
      },
      "properties": {
        "id": 3946115820,
        "osm_type": "node",
        "name": "7-Eleven Torget",
        "brand": "7-Eleven",
        "opening_hours": "24/7"
      }
    },
    {
      "type": "Feature",
      "geometry": {
        "type": "Point",
        "coordinates": [
          5.331783,
          60.390885
        ]
      },
      "properties": {
        "id": 3962005377,
        "osm_type": "node",
        "name": "Lien Asiatisk Matvare",
        "opening_hours": "Mo-Fr 10:00-19:00; Sa 10:00-17:00"
      }
    },
    {
      "type": "Feature",
      "geometry": {
        "type": "Point",
        "coordinates": [
          5.322337,
          60.397612
        ]
      },
      "properties": {
        "id": 3964625319,
        "osm_type": "node",
        "name": "Mix Bryggebuen",
        "brand": "Mix",
        "opening_hours": "Mo-Fr 08:00-23:00; Sa-Su 09:00-23:00"
      }
    },
    {
      "type": "Feature",
      "geometry": {
        "type": "Point",
        "coordinates": [
          5.3317406,
          60.3891912
        ]
      },
      "properties": {
        "id": 3975976572,
        "osm_type": "node",
        "name": "Narvesen",
        "brand": "Narvesen",
        "opening_hours": "Mo-Fr 06:30-23:00; Sa 07:30-21:00; Su 09:00-23:00"
      }
    },
    {
      "type": "Feature",
      "geometry": {
        "type": "Point",
        "coordinates": [
          5.3300785,
          60.3879043
        ]
      },
      "properties": {
        "id": 3982429054,
        "osm_type": "node",
        "name": "Matmat",
        "check_date": "2025-09-04"
      }
    },
    {
      "type": "Feature",
      "geometry": {
        "type": "Point",
        "coordinates": [
          5.3228195,
          60.3894463
        ]
      },
      "properties": {
        "id": 3988515648,
        "osm_type": "node",
        "name": "Eksotisk Torg",
        "opening_hours": "Mo-Fr 10:30-19:00; Sa 10:30-18:00; Su off"
      }
    },
    {
      "type": "Feature",
      "geometry": {
        "type": "Point",
        "coordinates": [
          5.3344289,
          60.3957595
        ]
      },
      "properties": {
        "id": 4161981550,
        "osm_type": "node"
      }
    },
    {
      "type": "Feature",
      "geometry": {
        "type": "Point",
        "coordinates": [
          5.0356998,
          61.6000962
        ]
      },
      "properties": {
        "id": 4171425695,
        "osm_type": "node",
        "name": "IntroMarket"
      }
    },
    {
      "type": "Feature",
      "geometry": {
        "type": "Point",
        "coordinates": [
          5.1215211,
          60.359094
        ]
      },
      "properties": {
        "id": 4220232731,
        "osm_type": "node",
        "name": "Caesar Mat AS"
      }
    },
    {
      "type": "Feature",
      "geometry": {
        "type": "Point",
        "coordinates": [
          5.2919365,
          60.3488013
        ]
      },
      "properties": {
        "id": 4235820772,
        "osm_type": "node",
        "name": "Narvesen",
        "brand": "Narvesen"
      }
    },
    {
      "type": "Feature",
      "geometry": {
        "type": "Point",
        "coordinates": [
          5.3336096,
          60.3884543
        ]
      },
      "properties": {
        "id": 4266148086,
        "osm_type": "node",
        "name": "Narvesen",
        "brand": "Narvesen",
        "opening_hours": "Mo-Fr 05:30-22:00; Sa 07:00-21:00; Su 09:00-22:00"
      }
    },
    {
      "type": "Feature",
      "geometry": {
        "type": "Point",
        "coordinates": [
          5.1800824,
          60.3718268
        ]
      },
      "properties": {
        "id": 4273619538,
        "osm_type": "node",
        "name": "Asiaten Mat"
      }
    },
    {
      "type": "Feature",
      "geometry": {
        "type": "Point",
        "coordinates": [
          6.3776038,
          60.342348
        ]
      },
      "properties": {
        "id": 4331210191,
        "osm_type": "node",
        "name": "Snarkjøp Herand",
        "brand": "Snarkjøp",
        "opening_hours": "Mo-Su 07:00-23:00"
      }
    },
    {
      "type": "Feature",
      "geometry": {
        "type": "Point",
        "coordinates": [
          5.325884,
          60.394495
        ]
      },
      "properties": {
        "id": 4346370384,
        "osm_type": "node",
        "name": "7-Eleven Vågsalmenningen",
        "brand": "7-Eleven",
        "opening_hours": "Mo-Th 07:00-01:00; Fr-Sa 07:00-04:00; Su 07:00-01:00"
      }
    },
    {
      "type": "Feature",
      "geometry": {
        "type": "Point",
        "coordinates": [
          5.2050954,
          60.0073663
        ]
      },
      "properties": {
        "id": 4347753902,
        "osm_type": "node",
        "name": "Mørenot Fishery"
      }
    },
    {
      "type": "Feature",
      "geometry": {
        "type": "Point",
        "coordinates": [
          5.355587,
          60.312623
        ]
      },
      "properties": {
        "id": 4544996987,
        "osm_type": "node",
        "name": "Deli de Luca",
        "opening_hours": "24/7"
      }
    },
    {
      "type": "Feature",
      "geometry": {
        "type": "Point",
        "coordinates": [
          5.0495884,
          61.0248516
        ]
      },
      "properties": {
        "id": 4585940683,
        "osm_type": "node",
        "name": "Dinge Landhandel"
      }
    },
    {
      "type": "Feature",
      "geometry": {
        "type": "Point",
        "coordinates": [
          5.3303386,
          60.3924403
        ]
      },
      "properties": {
        "id": 4729080193,
        "osm_type": "node",
        "name": "Tamiya",
        "opening_hours": "Mo-Sa 10:00-21:00; Su 11:00-21:00"
      }
    },
    {
      "type": "Feature",
      "geometry": {
        "type": "Point",
        "coordinates": [
          5.32571,
          60.395495
        ]
      },
      "properties": {
        "id": 4978738297,
        "osm_type": "node",
        "name": "Narvesen",
        "brand": "Narvesen",
        "opening_hours": "Mo-Th 08:00-22:00; Fr 08:00-04:00; Sa 10:00-04:00; Su 10:00-22:00"
      }
    },
    {
      "type": "Feature",
      "geometry": {
        "type": "Point",
        "coordinates": [
          5.317182,
          60.395701
        ]
      },
      "properties": {
        "id": 5033153112,
        "osm_type": "node",
        "name": "Strandgaten dagligvarer",
        "opening_hours": "Mo-Fr 10:00-21:00; Sa 11:00-20:00"
      }
    },
    {
      "type": "Feature",
      "geometry": {
        "type": "Point",
        "coordinates": [
          5.326972,
          60.394847
        ]
      },
      "properties": {
        "id": 5196496223,
        "osm_type": "node",
        "name": "Handala",
        "opening_hours": "Mo-Fr 13:00-18:00; Sa 11:00-16:00"
      }
    },
    {
      "type": "Feature",
      "geometry": {
        "type": "Point",
        "coordinates": [
          6.7363892,
          59.8270866
        ]
      },
      "properties": {
        "id": 5338045159,
        "osm_type": "node",
        "name": "Mathjørnet"
      }
    },
    {
      "type": "Feature",
      "geometry": {
        "type": "Point",
        "coordinates": [
          6.7369233,
          59.8270544
        ]
      },
      "properties": {
        "id": 5338045160,
        "osm_type": "node",
        "name": "Smeltehytta"
      }
    },
    {
      "type": "Feature",
      "geometry": {
        "type": "Point",
        "coordinates": [
          5.322298,
          60.390875
        ]
      },
      "properties": {
        "id": 5355181099,
        "osm_type": "node",
        "name": "7-Eleven BT-hjørnet",
        "brand": "7-Eleven",
        "opening_hours": "24/7"
      }
    },
    {
      "type": "Feature",
      "geometry": {
        "type": "Point",
        "coordinates": [
          5.3156018,
          60.3925948
        ]
      },
      "properties": {
        "id": 5399627745,
        "osm_type": "node",
        "name": "V-Mart Bergen"
      }
    },
    {
      "type": "Feature",
      "geometry": {
        "type": "Point",
        "coordinates": [
          5.2251738,
          60.3410275
        ]
      },
      "properties": {
        "id": 5569777137,
        "osm_type": "node"
      }
    },
    {
      "type": "Feature",
      "geometry": {
        "type": "Point",
        "coordinates": [
          5.3026379,
          60.3990341
        ]
      },
      "properties": {
        "id": 5608101098,
        "osm_type": "node",
        "name": "Nordnes Sjøbad",
        "opening_hours": "May 07-May 31: Mo-Fr 10:00-12:00; Sa-Su 10:00-14:00; Jun 01-Sep 09: Mo-Fr 07:00-18:00; Sa-Su 10:00-17:00; Sep 10-Sep 30: Mo-Fr 07:00-12:00; Sa-Su 10:00-12:00; PH off",
        "check_date": "2024-07-27"
      }
    },
    {
      "type": "Feature",
      "geometry": {
        "type": "Point",
        "coordinates": [
          6.7577663,
          61.4232224
        ]
      },
      "properties": {
        "id": 5785179019,
        "osm_type": "node"
      }
    },
    {
      "type": "Feature",
      "geometry": {
        "type": "Point",
        "coordinates": [
          5.9894111,
          61.9068803
        ]
      },
      "properties": {
        "id": 5841529806,
        "osm_type": "node",
        "name": "Narvesen",
        "brand": "Narvesen",
        "opening_hours": "Mo-Fr 09:00-22:00; Sa 09:00-20:00; Su 11:00-22:00"
      }
    },
    {
      "type": "Feature",
      "geometry": {
        "type": "Point",
        "coordinates": [
          5.3616258,
          60.3792223
        ]
      },
      "properties": {
        "id": 6020217822,
        "osm_type": "node",
        "name": "Narvesen",
        "brand": "Narvesen"
      }
    },
    {
      "type": "Feature",
      "geometry": {
        "type": "Point",
        "coordinates": [
          5.7614574,
          61.9185261
        ]
      },
      "properties": {
        "id": 6029790888,
        "osm_type": "node",
        "name": "YX Stårheim",
        "opening_hours": "Mo-Fr 07:00-22:00; Sa 08:00-22:00; Su 10:00-22:00"
      }
    },
    {
      "type": "Feature",
      "geometry": {
        "type": "Point",
        "coordinates": [
          6.4115417,
          60.6285284
        ]
      },
      "properties": {
        "id": 6029984934,
        "osm_type": "node",
        "name": "Esso",
        "brand": "Esso",
        "opening_hours": "Mo-Fr 06:00-23:00; Sa 08:00-23:00; Su 09:00-23:00"
      }
    },
    {
      "type": "Feature",
      "geometry": {
        "type": "Point",
        "coordinates": [
          6.721684,
          61.904234
        ]
      },
      "properties": {
        "id": 6122926086,
        "osm_type": "node",
        "name": "Stryn Kiosk"
      }
    },
    {
      "type": "Feature",
      "geometry": {
        "type": "Point",
        "coordinates": [
          5.854434,
          61.452591
        ]
      },
      "properties": {
        "id": 6122926087,
        "osm_type": "node",
        "name": "Narvesen",
        "brand": "Narvesen"
      }
    },
    {
      "type": "Feature",
      "geometry": {
        "type": "Point",
        "coordinates": [
          5.2353556,
          60.3623951
        ]
      },
      "properties": {
        "id": 6122926403,
        "osm_type": "node",
        "name": "Narvesen",
        "brand": "Narvesen"
      }
    },
    {
      "type": "Feature",
      "geometry": {
        "type": "Point",
        "coordinates": [
          5.358986,
          60.35655
        ]
      },
      "properties": {
        "id": 6122926404,
        "osm_type": "node",
        "name": "Narvesen",
        "brand": "Narvesen",
        "opening_hours": "Mo-Fr 07:00-20:00; Sa 09:00-18:00; Su 11:00-17:00"
      }
    },
    {
      "type": "Feature",
      "geometry": {
        "type": "Point",
        "coordinates": [
          5.3222955,
          60.4649818
        ]
      },
      "properties": {
        "id": 6122926405,
        "osm_type": "node",
        "name": "Narvesen",
        "brand": "Narvesen"
      }
    },
    {
      "type": "Feature",
      "geometry": {
        "type": "Point",
        "coordinates": [
          5.465186,
          60.421267
        ]
      },
      "properties": {
        "id": 6122926406,
        "osm_type": "node",
        "name": "Narvesen",
        "brand": "Narvesen"
      }
    },
    {
      "type": "Feature",
      "geometry": {
        "type": "Point",
        "coordinates": [
          5.3302551,
          60.296975
        ]
      },
      "properties": {
        "id": 6122926407,
        "osm_type": "node",
        "name": "Narvesen",
        "brand": "Narvesen",
        "opening_hours": "Mo-Fr 09:00-21:00; Sa 09:00-18:00; Su off",
        "check_date": "2025-07-11"
      }
    },
    {
      "type": "Feature",
      "geometry": {
        "type": "Point",
        "coordinates": [
          5.850625,
          61.45161
        ]
      },
      "properties": {
        "id": 6122926422,
        "osm_type": "node",
        "name": "Narvesen",
        "brand": "Narvesen"
      }
    },
    {
      "type": "Feature",
      "geometry": {
        "type": "Point",
        "coordinates": [
          5.353135,
          60.375592
        ]
      },
      "properties": {
        "id": 6280775555,
        "osm_type": "node",
        "name": "Deli de Luca",
        "opening_hours": "Mo-Fr 07:00-23:00"
      }
    },
    {
      "type": "Feature",
      "geometry": {
        "type": "Point",
        "coordinates": [
          5.335605,
          60.473892
        ]
      },
      "properties": {
        "id": 6394787080,
        "osm_type": "node",
        "name": "Global food",
        "opening_hours": "Mo-Fr 10:00-20:00; Sa 10:00-19:00; Su 12:00-18:00"
      }
    },
    {
      "type": "Feature",
      "geometry": {
        "type": "Point",
        "coordinates": [
          5.2952524,
          60.3868903
        ]
      },
      "properties": {
        "id": 6432672547,
        "osm_type": "node",
        "name": "Nor Kiosk"
      }
    },
    {
      "type": "Feature",
      "geometry": {
        "type": "Point",
        "coordinates": [
          5.3324018,
          60.3860363
        ]
      },
      "properties": {
        "id": 6502636644,
        "osm_type": "node",
        "name": "Mango Supermarked",
        "opening_hours": "Mo-Su 10:30-21:00"
      }
    },
    {
      "type": "Feature",
      "geometry": {
        "type": "Point",
        "coordinates": [
          5.0950054,
          59.8922143
        ]
      },
      "properties": {
        "id": 6818068128,
        "osm_type": "node",
        "name": "Skjeret landhandel"
      }
    },
    {
      "type": "Feature",
      "geometry": {
        "type": "Point",
        "coordinates": [
          5.3536484,
          60.3098578
        ]
      },
      "properties": {
        "id": 6871205906,
        "osm_type": "node",
        "name": "Orcideija",
        "opening_hours": "Mo-Th 14:00-20:00; Fr-Su 11:00-20:00"
      }
    },
    {
      "type": "Feature",
      "geometry": {
        "type": "Point",
        "coordinates": [
          5.3228518,
          60.3936791
        ]
      },
      "properties": {
        "id": 6872857949,
        "osm_type": "node",
        "name": "Asian Food Market"
      }
    },
    {
      "type": "Feature",
      "geometry": {
        "type": "Point",
        "coordinates": [
          5.253982,
          60.284065
        ]
      },
      "properties": {
        "id": 6900232059,
        "osm_type": "node",
        "name": "Bep 250",
        "opening_hours": "Mo-Fr 10:00-20:00; Sa 10:00-18:00; Su 12:00-17:00"
      }
    },
    {
      "type": "Feature",
      "geometry": {
        "type": "Point",
        "coordinates": [
          4.8432829,
          60.5904486
        ]
      },
      "properties": {
        "id": 7141286373,
        "osm_type": "node",
        "name": "Snarkjøp Heggholmen",
        "brand": "Snarkjøp"
      }
    },
    {
      "type": "Feature",
      "geometry": {
        "type": "Point",
        "coordinates": [
          5.4766132,
          60.5761605
        ]
      },
      "properties": {
        "id": 7141286382,
        "osm_type": "node",
        "name": "Snarkjøp Mjøsvågen",
        "brand": "Snarkjøp"
      }
    },
    {
      "type": "Feature",
      "geometry": {
        "type": "Point",
        "coordinates": [
          5.9881901,
          60.377817
        ]
      },
      "properties": {
        "id": 7141308487,
        "osm_type": "node",
        "name": "Snarkjøp Kvamskogen",
        "brand": "Snarkjøp"
      }
    },
    {
      "type": "Feature",
      "geometry": {
        "type": "Point",
        "coordinates": [
          6.1154936,
          60.6485595
        ]
      },
      "properties": {
        "id": 7141308496,
        "osm_type": "node",
        "name": "Snarkjøp Evanger",
        "brand": "Snarkjøp",
        "opening_hours": "Mo-Th 10:00-18:00; Fr 10:00-20:00; Sa 10:00-18:00"
      }
    },
    {
      "type": "Feature",
      "geometry": {
        "type": "Point",
        "coordinates": [
          7.848333,
          61.080247
        ]
      },
      "properties": {
        "id": 7369015539,
        "osm_type": "node",
        "name": "Tuben Kiosk"
      }
    },
    {
      "type": "Feature",
      "geometry": {
        "type": "Point",
        "coordinates": [
          4.9916648,
          61.2542181
        ]
      },
      "properties": {
        "id": 8075422047,
        "osm_type": "node"
      }
    },
    {
      "type": "Feature",
      "geometry": {
        "type": "Point",
        "coordinates": [
          5.5576947,
          59.8898038
        ]
      },
      "properties": {
        "id": 8294121488,
        "osm_type": "node"
      }
    },
    {
      "type": "Feature",
      "geometry": {
        "type": "Point",
        "coordinates": [
          5.1163268,
          62.166761
        ]
      },
      "properties": {
        "id": 11030039909,
        "osm_type": "node",
        "name": "TÅR",
        "opening_hours": "24/7"
      }
    },
    {
      "type": "Feature",
      "geometry": {
        "type": "Point",
        "coordinates": [
          4.8172348,
          61.6203333
        ]
      },
      "properties": {
        "id": 11051102507,
        "osm_type": "node",
        "name": "Nærbutikken Batalden",
        "opening_hours": "Mo-Su 07:00-23:00"
      }
    },
    {
      "type": "Feature",
      "geometry": {
        "type": "Point",
        "coordinates": [
          5.3249117,
          60.3923447
        ]
      },
      "properties": {
        "id": 11276585011,
        "osm_type": "node",
        "name": "7-Eleven Olav Kyrres gate",
        "brand": "7-Eleven",
        "opening_hours": "Mo-Su 00:00-00:00"
      }
    },
    {
      "type": "Feature",
      "geometry": {
        "type": "Point",
        "coordinates": [
          5.4663332,
          60.1874823
        ]
      },
      "properties": {
        "id": 11276585034,
        "osm_type": "node",
        "name": "7-Eleven Os",
        "brand": "7-Eleven"
      }
    },
    {
      "type": "Feature",
      "geometry": {
        "type": "Point",
        "coordinates": [
          5.3269069,
          60.4701656
        ]
      },
      "properties": {
        "id": 11276585036,
        "osm_type": "node",
        "name": "7-Eleven Nyborg",
        "brand": "7-Eleven"
      }
    },
    {
      "type": "Feature",
      "geometry": {
        "type": "Point",
        "coordinates": [
          5.366921,
          60.3487425
        ]
      },
      "properties": {
        "id": 11276585039,
        "osm_type": "node",
        "name": "7-Eleven Natland",
        "brand": "7-Eleven"
      }
    },
    {
      "type": "Feature",
      "geometry": {
        "type": "Point",
        "coordinates": [
          5.0733348,
          60.3638695
        ]
      },
      "properties": {
        "id": 11276585051,
        "osm_type": "node",
        "name": "7-Eleven Kolltveit",
        "brand": "7-Eleven"
      }
    },
    {
      "type": "Feature",
      "geometry": {
        "type": "Point",
        "coordinates": [
          5.2285701,
          60.4087526
        ]
      },
      "properties": {
        "id": 11276585053,
        "osm_type": "node",
        "name": "7-Eleven Kleppestø",
        "brand": "7-Eleven"
      }
    },
    {
      "type": "Feature",
      "geometry": {
        "type": "Point",
        "coordinates": [
          5.1812385,
          60.3723941
        ]
      },
      "properties": {
        "id": 11276643269,
        "osm_type": "node",
        "name": "7-Eleven Drotningsvik",
        "brand": "7-Eleven"
      }
    },
    {
      "type": "Feature",
      "geometry": {
        "type": "Point",
        "coordinates": [
          5.4645211,
          60.4210323
        ]
      },
      "properties": {
        "id": 11276643281,
        "osm_type": "node",
        "name": "7-Eleven Øyrane torg",
        "brand": "7-Eleven"
      }
    },
    {
      "type": "Feature",
      "geometry": {
        "type": "Point",
        "coordinates": [
          5.4887355,
          60.2009415
        ]
      },
      "properties": {
        "id": 11337930074,
        "osm_type": "node",
        "opening_hours": "unknown"
      }
    },
    {
      "type": "Feature",
      "geometry": {
        "type": "Point",
        "coordinates": [
          5.3355502,
          60.3704397
        ]
      },
      "properties": {
        "id": 11459120258,
        "osm_type": "node",
        "name": "Snarkjøp Søndre Skogvei",
        "brand": "Snarkjøp",
        "opening_hours": "Mo-Sa 09:00-21:00; Su 10:00-21:00"
      }
    },
    {
      "type": "Feature",
      "geometry": {
        "type": "Point",
        "coordinates": [
          4.9606563,
          60.5639124
        ]
      },
      "properties": {
        "id": 11459120264,
        "osm_type": "node",
        "name": "Snarkjøp Herdla landhandel",
        "brand": "Snarkjøp"
      }
    },
    {
      "type": "Feature",
      "geometry": {
        "type": "Point",
        "coordinates": [
          6.8913509,
          60.7018363
        ]
      },
      "properties": {
        "id": 11459120266,
        "osm_type": "node",
        "name": "Snarkjøp Kårdal handel",
        "brand": "Snarkjøp"
      }
    },
    {
      "type": "Feature",
      "geometry": {
        "type": "Point",
        "coordinates": [
          7.3238032,
          60.4099924
        ]
      },
      "properties": {
        "id": 11459208069,
        "osm_type": "node",
        "name": "Snarkjøp Maurset",
        "brand": "Snarkjøp"
      }
    },
    {
      "type": "Feature",
      "geometry": {
        "type": "Point",
        "coordinates": [
          7.8146602,
          61.3085233
        ]
      },
      "properties": {
        "id": 11577989692,
        "osm_type": "node",
        "name": "Veekiosken",
        "opening_hours": "Mo-Su 09:00-21:00"
      }
    },
    {
      "type": "Feature",
      "geometry": {
        "type": "Point",
        "coordinates": [
          5.3177593,
          60.3820859
        ]
      },
      "properties": {
        "id": 11608734411,
        "osm_type": "node",
        "name": "EkoMarket",
        "opening_hours": "Mo-Fr 10:00-20:00; Sa 10:00-18:00"
      }
    },
    {
      "type": "Feature",
      "geometry": {
        "type": "Point",
        "coordinates": [
          6.4238119,
          60.6294134
        ]
      },
      "properties": {
        "id": 12020139528,
        "osm_type": "node",
        "name": "Canari dagligvare"
      }
    },
    {
      "type": "Feature",
      "geometry": {
        "type": "Point",
        "coordinates": [
          5.3249602,
          60.3891315
        ]
      },
      "properties": {
        "id": 12635329521,
        "osm_type": "node",
        "name": "Moreller"
      }
    },
    {
      "type": "Feature",
      "geometry": {
        "type": "Point",
        "coordinates": [
          6.1318562,
          61.1135237
        ]
      },
      "properties": {
        "id": 12995898202,
        "osm_type": "node"
      }
    },
    {
      "type": "Feature",
      "geometry": {
        "type": "Point",
        "coordinates": [
          7.2190445,
          61.1955759
        ]
      },
      "properties": {
        "id": 13713598717,
        "osm_type": "node",
        "name": "Mix Kaupanger",
        "brand": "Mix",
        "opening_hours": "Mo-Su 10:00-20:00"
      }
    },
    {
      "type": "Feature",
      "geometry": {
        "type": "Point",
        "coordinates": [
          7.1030126,
          61.2308611
        ]
      },
      "properties": {
        "id": 13713598727,
        "osm_type": "node",
        "name": "Mix Sogndal",
        "brand": "Mix"
      }
    },
    {
      "type": "Feature",
      "geometry": {
        "type": "Point",
        "coordinates": [
          5.3439715,
          62.0441839
        ]
      },
      "properties": {
        "id": 13713598730,
        "osm_type": "node",
        "name": "Mix Selje",
        "brand": "Mix",
        "opening_hours": "Mo-Fr 11:00-21:00; Sa-Su 11:00 - 22:00"
      }
    },
    {
      "type": "Feature",
      "geometry": {
        "type": "Point",
        "coordinates": [
          5.1146024,
          61.9349202
        ]
      },
      "properties": {
        "id": 13713598735,
        "osm_type": "node",
        "name": "Mix Måløy",
        "brand": "Mix",
        "opening_hours": "Mo-Su 10:00-22:00"
      }
    },
    {
      "type": "Feature",
      "geometry": {
        "type": "Point",
        "coordinates": [
          5.0150875,
          61.5980286
        ]
      },
      "properties": {
        "id": 13713598745,
        "osm_type": "node",
        "name": "Mix Go-Biten Florø",
        "brand": "Mix",
        "opening_hours": "Mo-Sa 10:00-22:00; Su 11:00-22:00"
      }
    },
    {
      "type": "Feature",
      "geometry": {
        "type": "Point",
        "coordinates": [
          5.7288868,
          60.4022154
        ]
      },
      "properties": {
        "id": 13713598750,
        "osm_type": "node",
        "name": "Mix Bjørkheim Kro og Motell",
        "brand": "Mix",
        "opening_hours": "Mo-Su 08:00-20:00"
      }
    },
    {
      "type": "Feature",
      "geometry": {
        "type": "Point",
        "coordinates": [
          6.5987135,
          61.2071362
        ]
      },
      "properties": {
        "id": 159589736,
        "osm_type": "way",
        "name": "Kaikroa"
      }
    },
    {
      "type": "Feature",
      "geometry": {
        "type": "Point",
        "coordinates": [
          5.5243491,
          60.045581
        ]
      },
      "properties": {
        "id": 455706780,
        "osm_type": "way",
        "name": "Turist info Kafe;Jaktseglarane"
      }
    },
    {
      "type": "Feature",
      "geometry": {
        "type": "Point",
        "coordinates": [
          5.3333188,
          60.3900449
        ]
      },
      "properties": {
        "id": 499503313,
        "osm_type": "way",
        "name": "Narvesen",
        "brand": "Narvesen",
        "opening_hours": "Mo-Fr 06:00-23:00; Sa 07:00-20:00; Su 07:00-23:00"
      }
    },
    {
      "type": "Feature",
      "geometry": {
        "type": "Point",
        "coordinates": [
          5.1782936,
          61.3026848
        ]
      },
      "properties": {
        "id": 860333950,
        "osm_type": "way",
        "name": "Hellevik Nærbutikk og Grendehus"
      }
    },
    {
      "type": "Feature",
      "geometry": {
        "type": "Point",
        "coordinates": [
          5.4269535,
          60.147558
        ]
      },
      "properties": {
        "id": 892411395,
        "osm_type": "way"
      }
    },
    {
      "type": "Feature",
      "geometry": {
        "type": "Point",
        "coordinates": [
          5.5931765,
          60.2056465
        ]
      },
      "properties": {
        "id": 924548229,
        "osm_type": "way",
        "name": "Lailas Kro og Kafé",
        "opening_hours": "Th-Su 14:00-20:00"
      }
    },
    {
      "type": "Feature",
      "geometry": {
        "type": "Point",
        "coordinates": [
          5.2392888,
          60.5177336
        ]
      },
      "properties": {
        "id": 996269239,
        "osm_type": "way",
        "name": "Erica's Favoritter",
        "opening_hours": "Mo-We 10:00-17:00; Th-Sa 10:00-20:00; Su 13:00-20:00"
      }
    },
    {
      "type": "Feature",
      "geometry": {
        "type": "Point",
        "coordinates": [
          5.4500069,
          60.1943924
        ]
      },
      "properties": {
        "id": 1004592640,
        "osm_type": "way"
      }
    },
    {
      "type": "Feature",
      "geometry": {
        "type": "Point",
        "coordinates": [
          6.4349575,
          60.6287852
        ]
      },
      "properties": {
        "id": 6659798,
        "osm_type": "relation",
        "name": "Tan Thaimat",
        "opening_hours": "Mo-Fr 10:00-19:00; Sa 10:00-18:00"
      }
    }
  ]
}