{
  "type": "FeatureCollection",
  "features": [
    {
      "type": "Feature",
      "geometry": {
        "type": "Point",
        "coordinates": [
          39.1183301,
          38.6396572
        ]
      },
      "properties": {
        "id": 1830539043,
        "osm_type": "node"
      }
    },
    {
      "type": "Feature",
      "geometry": {
        "type": "Point",
        "coordinates": [
          39.1189605,
          38.6401561
        ]
      },
      "properties": {
        "id": 1830539048,
        "osm_type": "node"
      }
    },
    {
      "type": "Feature",
      "geometry": {
        "type": "Point",
        "coordinates": [
          39.0807065,
          38.6862591
        ]
      },
      "properties": {
        "id": 1831071431,
        "osm_type": "node"
      }
    },
    {
      "type": "Feature",
      "geometry": {
        "type": "Point",
        "coordinates": [
          39.8477503,
          38.7081172
        ]
      },
      "properties": {
        "id": 1850368257,
        "osm_type": "node"
      }
    },
    {
      "type": "Feature",
      "geometry": {
        "type": "Point",
        "coordinates": [
          39.0101051,
          38.4763156
        ]
      },
      "properties": {
        "id": 2058508709,
        "osm_type": "node"
      }
    },
    {
      "type": "Feature",
      "geometry": {
        "type": "Point",
        "coordinates": [
          38.9981683,
          38.4766242
        ]
      },
      "properties": {
        "id": 2058508721,
        "osm_type": "node"
      }
    },
    {
      "type": "Feature",
      "geometry": {
        "type": "Point",
        "coordinates": [
          39.0005756,
          38.4766571
        ]
      },
      "properties": {
        "id": 2058508723,
        "osm_type": "node"
      }
    },
    {
      "type": "Feature",
      "geometry": {
        "type": "Point",
        "coordinates": [
          39.8863086,
          38.7278515
        ]
      },
      "properties": {
        "id": 2279984200,
        "osm_type": "node"
      }
    },
    {
      "type": "Feature",
      "geometry": {
        "type": "Point",
        "coordinates": [
          39.8264322,
          38.7014093
        ]
      },
      "properties": {
        "id": 2280580366,
        "osm_type": "node"
      }
    },
    {
      "type": "Feature",
      "geometry": {
        "type": "Point",
        "coordinates": [
          39.6568796,
          38.4036873
        ]
      },
      "properties": {
        "id": 2283217088,
        "osm_type": "node"
      }
    },
    {
      "type": "Feature",
      "geometry": {
        "type": "Point",
        "coordinates": [
          39.5070272,
          38.6094752
        ]
      },
      "properties": {
        "id": 2413479582,
        "osm_type": "node"
      }
    },
    {
      "type": "Feature",
      "geometry": {
        "type": "Point",
        "coordinates": [
          38.7569767,
          38.7832967
        ]
      },
      "properties": {
        "id": 2434387068,
        "osm_type": "node"
      }
    },
    {
      "type": "Feature",
      "geometry": {
        "type": "Point",
        "coordinates": [
          38.6306971,
          38.8522521
        ]
      },
      "properties": {
        "id": 2907170713,
        "osm_type": "node"
      }
    },
    {
      "type": "Feature",
      "geometry": {
        "type": "Point",
        "coordinates": [
          39.1522146,
          38.6802384
        ]
      },
      "properties": {
        "id": 3549188562,
        "osm_type": "node"
      }
    },
    {
      "type": "Feature",
      "geometry": {
        "type": "Point",
        "coordinates": [
          39.100009,
          38.616646
        ]
      },
      "properties": {
        "id": 4699018066,
        "osm_type": "node",
        "name": "Opet Elazığ Merkez"
      }
    },
    {
      "type": "Feature",
      "geometry": {
        "type": "Point",
        "coordinates": [
          39.22247,
          38.6687887
        ]
      },
      "properties": {
        "id": 4699018087,
        "osm_type": "node",
        "name": "Opet Elazığ Merkez",
        "brand": "Opet"
      }
    },
    {
      "type": "Feature",
      "geometry": {
        "type": "Point",
        "coordinates": [
          40.034216,
          38.954072
        ]
      },
      "properties": {
        "id": 4699018196,
        "osm_type": "node",
        "name": "Opet Karakoçan",
        "brand": "Opet"
      }
    },
    {
      "type": "Feature",
      "geometry": {
        "type": "Point",
        "coordinates": [
          39.2556035,
          38.6265912
        ]
      },
      "properties": {
        "id": 4699018418,
        "osm_type": "node",
        "name": "Opet Elazığ Merkez"
      }
    },
    {
      "type": "Feature",
      "geometry": {
        "type": "Point",
        "coordinates": [
          39.764225,
          38.656795
        ]
      },
      "properties": {
        "id": 4699018467,
        "osm_type": "node",
        "name": "Opet Kovancılar",
        "brand": "Opet"
      }
    },
    {
      "type": "Feature",
      "geometry": {
        "type": "Point",
        "coordinates": [
          39.1387562,
          38.6497815
        ]
      },
      "properties": {
        "id": 4699018481,
        "osm_type": "node",
        "name": "Opet Elazığ Merkez",
        "brand": "Opet"
      }
    },
    {
      "type": "Feature",
      "geometry": {
        "type": "Point",
        "coordinates": [
          39.2269577,
          38.6663153
        ]
      },
      "properties": {
        "id": 4699018955,
        "osm_type": "node",
        "name": "Opet Elazığ Merkez"
      }
    },
    {
      "type": "Feature",
      "geometry": {
        "type": "Point",
        "coordinates": [
          39.1701328,
          38.6737638
        ]
      },
      "properties": {
        "id": 4699019334,
        "osm_type": "node",
        "name": "Opet Elazığ Merkez",
        "brand": "Opet"
      }
    },
    {
      "type": "Feature",
      "geometry": {
        "type": "Point",
        "coordinates": [
          39.039248,
          38.547032
        ]
      },
      "properties": {
        "id": 4699020270,
        "osm_type": "node",
        "name": "Opet Elazığ Merkez"
      }
    },
    {
      "type": "Feature",
      "geometry": {
        "type": "Point",
        "coordinates": [
          39.291112,
          38.6166518
        ]
      },
      "properties": {
        "id": 4699022526,
        "osm_type": "node",
        "name": "Opet Elazığ Merkez"
      }
    },
    {
      "type": "Feature",
      "geometry": {
        "type": "Point",
        "coordinates": [
          39.185297,
          38.6699386
        ]
      },
      "properties": {
        "id": 4699022543,
        "osm_type": "node",
        "name": "Opet Elazığ Merkez"
      }
    },
    {
      "type": "Feature",
      "geometry": {
        "type": "Point",
        "coordinates": [
          39.254947,
          38.595709
        ]
      },
      "properties": {
        "id": 4699022546,
        "osm_type": "node",
        "name": "Opet Elazığ Merkez"
      }
    },
    {
      "type": "Feature",
      "geometry": {
        "type": "Point",
        "coordinates": [
          39.5495957,
          38.4772899
        ]
      },
      "properties": {
        "id": 4713172384,
        "osm_type": "node"
      }
    },
    {
      "type": "Feature",
      "geometry": {
        "type": "Point",
        "coordinates": [
          39.088669,
          38.6861796
        ]
      },
      "properties": {
        "id": 4715128760,
        "osm_type": "node"
      }
    },
    {
      "type": "Feature",
      "geometry": {
        "type": "Point",
        "coordinates": [
          39.1887142,
          38.6714334
        ]
      },
      "properties": {
        "id": 4715128761,
        "osm_type": "node",
        "name": "Petrol Ofisi",
        "brand": "Petrol Ofisi"
      }
    },
    {
      "type": "Feature",
      "geometry": {
        "type": "Point",
        "coordinates": [
          39.230037,
          38.6668085
        ]
      },
      "properties": {
        "id": 4715128766,
        "osm_type": "node",
        "name": "Shell",
        "brand": "Shell"
      }
    },
    {
      "type": "Feature",
      "geometry": {
        "type": "Point",
        "coordinates": [
          39.2329966,
          38.6657825
        ]
      },
      "properties": {
        "id": 4715128767,
        "osm_type": "node"
      }
    },
    {
      "type": "Feature",
      "geometry": {
        "type": "Point",
        "coordinates": [
          39.2365316,
          38.6670679
        ]
      },
      "properties": {
        "id": 4715128768,
        "osm_type": "node",
        "name": "Petrol Ofisi",
        "brand": "Petrol Ofisi"
      }
    },
    {
      "type": "Feature",
      "geometry": {
        "type": "Point",
        "coordinates": [
          39.2439427,
          38.6641608
        ]
      },
      "properties": {
        "id": 4715128769,
        "osm_type": "node"
      }
    },
    {
      "type": "Feature",
      "geometry": {
        "type": "Point",
        "coordinates": [
          39.2554026,
          38.6539407
        ]
      },
      "properties": {
        "id": 4715128770,
        "osm_type": "node"
      }
    },
    {
      "type": "Feature",
      "geometry": {
        "type": "Point",
        "coordinates": [
          39.2565052,
          38.6420869
        ]
      },
      "properties": {
        "id": 4715128771,
        "osm_type": "node"
      }
    },
    {
      "type": "Feature",
      "geometry": {
        "type": "Point",
        "coordinates": [
          39.2570656,
          38.6339961
        ]
      },
      "properties": {
        "id": 4715128772,
        "osm_type": "node"
      }
    },
    {
      "type": "Feature",
      "geometry": {
        "type": "Point",
        "coordinates": [
          39.255153,
          38.6024603
        ]
      },
      "properties": {
        "id": 4715128779,
        "osm_type": "node"
      }
    },
    {
      "type": "Feature",
      "geometry": {
        "type": "Point",
        "coordinates": [
          39.2551832,
          38.5986689
        ]
      },
      "properties": {
        "id": 4715128784,
        "osm_type": "node"
      }
    },
    {
      "type": "Feature",
      "geometry": {
        "type": "Point",
        "coordinates": [
          39.2554665,
          38.571493
        ]
      },
      "properties": {
        "id": 4715128793,
        "osm_type": "node"
      }
    },
    {
      "type": "Feature",
      "geometry": {
        "type": "Point",
        "coordinates": [
          39.2507741,
          38.5527406
        ]
      },
      "properties": {
        "id": 4715128798,
        "osm_type": "node"
      }
    },
    {
      "type": "Feature",
      "geometry": {
        "type": "Point",
        "coordinates": [
          39.4284058,
          38.5923914
        ]
      },
      "properties": {
        "id": 4833377366,
        "osm_type": "node",
        "name": "Ekin Oğlu Petrol"
      }
    },
    {
      "type": "Feature",
      "geometry": {
        "type": "Point",
        "coordinates": [
          39.4726517,
          38.5951407
        ]
      },
      "properties": {
        "id": 4833377371,
        "osm_type": "node"
      }
    },
    {
      "type": "Feature",
      "geometry": {
        "type": "Point",
        "coordinates": [
          39.4926364,
          38.6029729
        ]
      },
      "properties": {
        "id": 4833377376,
        "osm_type": "node"
      }
    },
    {
      "type": "Feature",
      "geometry": {
        "type": "Point",
        "coordinates": [
          39.5644625,
          38.6321652
        ]
      },
      "properties": {
        "id": 4833377381,
        "osm_type": "node"
      }
    },
    {
      "type": "Feature",
      "geometry": {
        "type": "Point",
        "coordinates": [
          39.7250737,
          38.6461772
        ]
      },
      "properties": {
        "id": 4833377386,
        "osm_type": "node"
      }
    },
    {
      "type": "Feature",
      "geometry": {
        "type": "Point",
        "coordinates": [
          39.7417237,
          38.651468
        ]
      },
      "properties": {
        "id": 4833377387,
        "osm_type": "node"
      }
    },
    {
      "type": "Feature",
      "geometry": {
        "type": "Point",
        "coordinates": [
          39.8486177,
          38.7093992
        ]
      },
      "properties": {
        "id": 4833377392,
        "osm_type": "node"
      }
    },
    {
      "type": "Feature",
      "geometry": {
        "type": "Point",
        "coordinates": [
          39.8585188,
          38.7140492
        ]
      },
      "properties": {
        "id": 4833377393,
        "osm_type": "node"
      }
    },
    {
      "type": "Feature",
      "geometry": {
        "type": "Point",
        "coordinates": [
          39.8598313,
          38.714102
        ]
      },
      "properties": {
        "id": 4833377398,
        "osm_type": "node"
      }
    },
    {
      "type": "Feature",
      "geometry": {
        "type": "Point",
        "coordinates": [
          39.872744,
          38.7204104
        ]
      },
      "properties": {
        "id": 4833377399,
        "osm_type": "node"
      }
    },
    {
      "type": "Feature",
      "geometry": {
        "type": "Point",
        "coordinates": [
          39.8792594,
          38.7235036
        ]
      },
      "properties": {
        "id": 4833377400,
        "osm_type": "node"
      }
    },
    {
      "type": "Feature",
      "geometry": {
        "type": "Point",
        "coordinates": [
          39.5125859,
          38.5219083
        ]
      },
      "properties": {
        "id": 4935878321,
        "osm_type": "node",
        "name": "Petrol Ofisi",
        "brand": "Petrol Ofisi"
      }
    },
    {
      "type": "Feature",
      "geometry": {
        "type": "Point",
        "coordinates": [
          39.1607727,
          38.6582814
        ]
      },
      "properties": {
        "id": 5511386607,
        "osm_type": "node"
      }
    },
    {
      "type": "Feature",
      "geometry": {
        "type": "Point",
        "coordinates": [
          39.2490877,
          38.6560261
        ]
      },
      "properties": {
        "id": 5511387530,
        "osm_type": "node"
      }
    },
    {
      "type": "Feature",
      "geometry": {
        "type": "Point",
        "coordinates": [
          39.2685021,
          38.6301822
        ]
      },
      "properties": {
        "id": 5511387531,
        "osm_type": "node"
      }
    },
    {
      "type": "Feature",
      "geometry": {
        "type": "Point",
        "coordinates": [
          39.267767,
          38.6308358
        ]
      },
      "properties": {
        "id": 5511387532,
        "osm_type": "node"
      }
    },
    {
      "type": "Feature",
      "geometry": {
        "type": "Point",
        "coordinates": [
          39.2556807,
          38.6799546
        ]
      },
      "properties": {
        "id": 5513481038,
        "osm_type": "node"
      }
    },
    {
      "type": "Feature",
      "geometry": {
        "type": "Point",
        "coordinates": [
          39.1787757,
          38.6580878
        ]
      },
      "properties": {
        "id": 5515630562,
        "osm_type": "node",
        "name": "BP",
        "brand": "BP"
      }
    },
    {
      "type": "Feature",
      "geometry": {
        "type": "Point",
        "coordinates": [
          39.0440102,
          38.5220974
        ]
      },
      "properties": {
        "id": 6092742983,
        "osm_type": "node",
        "name": "BP",
        "brand": "BP"
      }
    },
    {
      "type": "Feature",
      "geometry": {
        "type": "Point",
        "coordinates": [
          39.5656927,
          38.4793152
        ]
      },
      "properties": {
        "id": 6316180059,
        "osm_type": "node"
      }
    },
    {
      "type": "Feature",
      "geometry": {
        "type": "Point",
        "coordinates": [
          39.8744448,
          38.8087704
        ]
      },
      "properties": {
        "id": 6344822425,
        "osm_type": "node"
      }
    },
    {
      "type": "Feature",
      "geometry": {
        "type": "Point",
        "coordinates": [
          39.1857409,
          38.6693833
        ]
      },
      "properties": {
        "id": 6429900696,
        "osm_type": "node",
        "name": "Petrol Ofisi",
        "brand": "Petrol Ofisi"
      }
    },
    {
      "type": "Feature",
      "geometry": {
        "type": "Point",
        "coordinates": [
          38.7509863,
          38.7885537
        ]
      },
      "properties": {
        "id": 6479970643,
        "osm_type": "node"
      }
    },
    {
      "type": "Feature",
      "geometry": {
        "type": "Point",
        "coordinates": [
          39.1720041,
          38.6468676
        ]
      },
      "properties": {
        "id": 6588178657,
        "osm_type": "node"
      }
    },
    {
      "type": "Feature",
      "geometry": {
        "type": "Point",
        "coordinates": [
          39.2454691,
          38.6663149
        ]
      },
      "properties": {
        "id": 6588283455,
        "osm_type": "node"
      }
    },
    {
      "type": "Feature",
      "geometry": {
        "type": "Point",
        "coordinates": [
          39.2349465,
          38.6682192
        ]
      },
      "properties": {
        "id": 6588529126,
        "osm_type": "node",
        "name": "Remoil"
      }
    },
    {
      "type": "Feature",
      "geometry": {
        "type": "Point",
        "coordinates": [
          39.2248003,
          38.6858248
        ]
      },
      "properties": {
        "id": 6595852046,
        "osm_type": "node"
      }
    },
    {
      "type": "Feature",
      "geometry": {
        "type": "Point",
        "coordinates": [
          39.2124559,
          38.7965032
        ]
      },
      "properties": {
        "id": 6595852062,
        "osm_type": "node"
      }
    },
    {
      "type": "Feature",
      "geometry": {
        "type": "Point",
        "coordinates": [
          39.2562083,
          38.6745505
        ]
      },
      "properties": {
        "id": 6596307464,
        "osm_type": "node"
      }
    },
    {
      "type": "Feature",
      "geometry": {
        "type": "Point",
        "coordinates": [
          39.1357008,
          38.6477337
        ]
      },
      "properties": {
        "id": 6605089382,
        "osm_type": "node"
      }
    },
    {
      "type": "Feature",
      "geometry": {
        "type": "Point",
        "coordinates": [
          39.1172619,
          38.6381779
        ]
      },
      "properties": {
        "id": 6605093432,
        "osm_type": "node"
      }
    },
    {
      "type": "Feature",
      "geometry": {
        "type": "Point",
        "coordinates": [
          39.1115166,
          38.6313224
        ]
      },
      "properties": {
        "id": 6605093433,
        "osm_type": "node"
      }
    },
    {
      "type": "Feature",
      "geometry": {
        "type": "Point",
        "coordinates": [
          39.0632363,
          38.5802485
        ]
      },
      "properties": {
        "id": 6605093498,
        "osm_type": "node"
      }
    },
    {
      "type": "Feature",
      "geometry": {
        "type": "Point",
        "coordinates": [
          39.0400884,
          38.543343
        ]
      },
      "properties": {
        "id": 6605181032,
        "osm_type": "node"
      }
    },
    {
      "type": "Feature",
      "geometry": {
        "type": "Point",
        "coordinates": [
          39.2564719,
          38.6394363
        ]
      },
      "properties": {
        "id": 6621920260,
        "osm_type": "node"
      }
    },
    {
      "type": "Feature",
      "geometry": {
        "type": "Point",
        "coordinates": [
          39.2434462,
          38.6380354
        ]
      },
      "properties": {
        "id": 6621920271,
        "osm_type": "node"
      }
    },
    {
      "type": "Feature",
      "geometry": {
        "type": "Point",
        "coordinates": [
          39.3408264,
          38.5898721
        ]
      },
      "properties": {
        "id": 6622025405,
        "osm_type": "node"
      }
    },
    {
      "type": "Feature",
      "geometry": {
        "type": "Point",
        "coordinates": [
          39.395622,
          38.5809954
        ]
      },
      "properties": {
        "id": 6622025460,
        "osm_type": "node"
      }
    },
    {
      "type": "Feature",
      "geometry": {
        "type": "Point",
        "coordinates": [
          39.1924344,
          38.6549854
        ]
      },
      "properties": {
        "id": 6622288067,
        "osm_type": "node"
      }
    },
    {
      "type": "Feature",
      "geometry": {
        "type": "Point",
        "coordinates": [
          39.2723217,
          38.625822
        ]
      },
      "properties": {
        "id": 6659993306,
        "osm_type": "node"
      }
    },
    {
      "type": "Feature",
      "geometry": {
        "type": "Point",
        "coordinates": [
          39.2732893,
          38.6250915
        ]
      },
      "properties": {
        "id": 6659993307,
        "osm_type": "node"
      }
    },
    {
      "type": "Feature",
      "geometry": {
        "type": "Point",
        "coordinates": [
          39.2782248,
          38.6223282
        ]
      },
      "properties": {
        "id": 6659993308,
        "osm_type": "node"
      }
    },
    {
      "type": "Feature",
      "geometry": {
        "type": "Point",
        "coordinates": [
          39.2860431,
          38.618449
        ]
      },
      "properties": {
        "id": 6659993412,
        "osm_type": "node"
      }
    },
    {
      "type": "Feature",
      "geometry": {
        "type": "Point",
        "coordinates": [
          39.2948554,
          38.6145523
        ]
      },
      "properties": {
        "id": 6659993421,
        "osm_type": "node"
      }
    },
    {
      "type": "Feature",
      "geometry": {
        "type": "Point",
        "coordinates": [
          39.1971052,
          38.6696032
        ]
      },
      "properties": {
        "id": 6819749391,
        "osm_type": "node",
        "name": "Shell",
        "brand": "Shell"
      }
    },
    {
      "type": "Feature",
      "geometry": {
        "type": "Point",
        "coordinates": [
          40.0729789,
          38.9249349
        ]
      },
      "properties": {
        "id": 7255005683,
        "osm_type": "node",
        "name": "Petrol Ofisi",
        "brand": "Petrol Ofisi"
      }
    },
    {
      "type": "Feature",
      "geometry": {
        "type": "Point",
        "coordinates": [
          40.0638092,
          38.9230525
        ]
      },
      "properties": {
        "id": 7255005684,
        "osm_type": "node"
      }
    },
    {
      "type": "Feature",
      "geometry": {
        "type": "Point",
        "coordinates": [
          39.9788139,
          38.8366984
        ]
      },
      "properties": {
        "id": 7255005829,
        "osm_type": "node"
      }
    },
    {
      "type": "Feature",
      "geometry": {
        "type": "Point",
        "coordinates": [
          39.9741522,
          38.7878508
        ]
      },
      "properties": {
        "id": 7255005861,
        "osm_type": "node"
      }
    },
    {
      "type": "Feature",
      "geometry": {
        "type": "Point",
        "coordinates": [
          39.9686563,
          38.7684007
        ]
      },
      "properties": {
        "id": 7255005862,
        "osm_type": "node"
      }
    },
    {
      "type": "Feature",
      "geometry": {
        "type": "Point",
        "coordinates": [
          39.9016007,
          38.7345426
        ]
      },
      "properties": {
        "id": 7255005863,
        "osm_type": "node"
      }
    },
    {
      "type": "Feature",
      "geometry": {
        "type": "Point",
        "coordinates": [
          39.7599408,
          38.6558291
        ]
      },
      "properties": {
        "id": 7360067848,
        "osm_type": "node"
      }
    },
    {
      "type": "Feature",
      "geometry": {
        "type": "Point",
        "coordinates": [
          39.6723143,
          38.3925809
        ]
      },
      "properties": {
        "id": 7995520280,
        "osm_type": "node"
      }
    },
    {
      "type": "Feature",
      "geometry": {
        "type": "Point",
        "coordinates": [
          39.2031021,
          38.6655321
        ]
      },
      "properties": {
        "id": 8137542740,
        "osm_type": "node"
      }
    },
    {
      "type": "Feature",
      "geometry": {
        "type": "Point",
        "coordinates": [
          38.8484522,
          38.4536481
        ]
      },
      "properties": {
        "id": 8284345341,
        "osm_type": "node"
      }
    },
    {
      "type": "Feature",
      "geometry": {
        "type": "Point",
        "coordinates": [
          39.2726338,
          38.4737711
        ]
      },
      "properties": {
        "id": 9246165404,
        "osm_type": "node"
      }
    },
    {
      "type": "Feature",
      "geometry": {
        "type": "Point",
        "coordinates": [
          39.2947377,
          38.6181009
        ]
      },
      "properties": {
        "id": 9246165407,
        "osm_type": "node"
      }
    },
    {
      "type": "Feature",
      "geometry": {
        "type": "Point",
        "coordinates": [
          39.9329202,
          38.6923411
        ]
      },
      "properties": {
        "id": 9252537580,
        "osm_type": "node"
      }
    },
    {
      "type": "Feature",
      "geometry": {
        "type": "Point",
        "coordinates": [
          39.9308016,
          38.6923784
        ]
      },
      "properties": {
        "id": 9252537582,
        "osm_type": "node"
      }
    },
    {
      "type": "Feature",
      "geometry": {
        "type": "Point",
        "coordinates": [
          39.9077198,
          38.6987772
        ]
      },
      "properties": {
        "id": 9252693341,
        "osm_type": "node"
      }
    },
    {
      "type": "Feature",
      "geometry": {
        "type": "Point",
        "coordinates": [
          39.8806836,
          38.7108951
        ]
      },
      "properties": {
        "id": 9252693415,
        "osm_type": "node"
      }
    },
    {
      "type": "Feature",
      "geometry": {
        "type": "Point",
        "coordinates": [
          39.8766034,
          38.7123518
        ]
      },
      "properties": {
        "id": 9252693416,
        "osm_type": "node"
      }
    },
    {
      "type": "Feature",
      "geometry": {
        "type": "Point",
        "coordinates": [
          39.1743779,
          38.6458991
        ]
      },
      "properties": {
        "id": 9548925448,
        "osm_type": "node"
      }
    },
    {
      "type": "Feature",
      "geometry": {
        "type": "Point",
        "coordinates": [
          39.2260461,
          38.6755425
        ]
      },
      "properties": {
        "id": 10724957144,
        "osm_type": "node",
        "name": "Opet",
        "brand": "Opet"
      }
    },
    {
      "type": "Feature",
      "geometry": {
        "type": "Point",
        "coordinates": [
          39.1347407,
          38.6363469
        ]
      },
      "properties": {
        "id": 11235892397,
        "osm_type": "node"
      }
    },
    {
      "type": "Feature",
      "geometry": {
        "type": "Point",
        "coordinates": [
          39.8619693,
          38.4619864
        ]
      },
      "properties": {
        "id": 11265026962,
        "osm_type": "node"
      }
    },
    {
      "type": "Feature",
      "geometry": {
        "type": "Point",
        "coordinates": [
          40.0280148,
          38.5139557
        ]
      },
      "properties": {
        "id": 13094211125,
        "osm_type": "node"
      }
    },
    {
      "type": "Feature",
      "geometry": {
        "type": "Point",
        "coordinates": [
          39.2577764,
          38.6674925
        ]
      },
      "properties": {
        "id": 13484695522,
        "osm_type": "node"
      }
    },
    {
      "type": "Feature",
      "geometry": {
        "type": "Point",
        "coordinates": [
          39.2691094,
          38.6294947
        ]
      },
      "properties": {
        "id": 13484739259,
        "osm_type": "node"
      }
    },
    {
      "type": "Feature",
      "geometry": {
        "type": "Point",
        "coordinates": [
          39.2564411,
          38.6228622
        ]
      },
      "properties": {
        "id": 13484739272,
        "osm_type": "node"
      }
    },
    {
      "type": "Feature",
      "geometry": {
        "type": "Point",
        "coordinates": [
          39.1863645,
          38.6474565
        ]
      },
      "properties": {
        "id": 13484769494,
        "osm_type": "node"
      }
    },
    {
      "type": "Feature",
      "geometry": {
        "type": "Point",
        "coordinates": [
          39.2004352,
          38.6578783
        ]
      },
      "properties": {
        "id": 13484769499,
        "osm_type": "node"
      }
    }
  ]
}