{
  "type": "FeatureCollection",
  "features": [
    {
      "type": "Feature",
      "geometry": {
        "type": "Point",
        "coordinates": [
          21.4522528,
          42.9820794
        ]
      },
      "properties": {
        "id": 4971998482,
        "osm_type": "node"
      }
    },
    {
      "type": "Feature",
      "geometry": {
        "type": "Point",
        "coordinates": [
          21.5802513,
          43.3577712
        ]
      },
      "properties": {
        "id": 5133518182,
        "osm_type": "node",
        "name": "Česma Grebac"
      }
    },
    {
      "type": "Feature",
      "geometry": {
        "type": "Point",
        "coordinates": [
          21.5802044,
          43.3571517
        ]
      },
      "properties": {
        "id": 5133521400,
        "osm_type": "node"
      }
    },
    {
      "type": "Feature",
      "geometry": {
        "type": "Point",
        "coordinates": [
          21.1572374,
          43.034507
        ]
      },
      "properties": {
        "id": 5337561105,
        "osm_type": "node",
        "name": "Војничка вода"
      }
    },
    {
      "type": "Feature",
      "geometry": {
        "type": "Point",
        "coordinates": [
          21.1566716,
          43.0608881
        ]
      },
      "properties": {
        "id": 5337584780,
        "osm_type": "node",
        "name": "Петрова вода"
      }
    },
    {
      "type": "Feature",
      "geometry": {
        "type": "Point",
        "coordinates": [
          21.1481853,
          43.10013
        ]
      },
      "properties": {
        "id": 5337584784,
        "osm_type": "node",
        "name": "Финансијска вода"
      }
    },
    {
      "type": "Feature",
      "geometry": {
        "type": "Point",
        "coordinates": [
          21.0522366,
          43.1131861
        ]
      },
      "properties": {
        "id": 5337584796,
        "osm_type": "node",
        "name": "Црвена вода"
      }
    },
    {
      "type": "Feature",
      "geometry": {
        "type": "Point",
        "coordinates": [
          21.2730445,
          43.138822
        ]
      },
      "properties": {
        "id": 9915203009,
        "osm_type": "node",
        "access": "yes",
        "fee": "no",
        "operator": "Crkva"
      }
    },
    {
      "type": "Feature",
      "geometry": {
        "type": "Point",
        "coordinates": [
          21.2782929,
          43.1394873
        ]
      },
      "properties": {
        "id": 10007234974,
        "osm_type": "node",
        "access": "yes",
        "fee": "no"
      }
    },
    {
      "type": "Feature",
      "geometry": {
        "type": "Point",
        "coordinates": [
          21.1552121,
          43.2018463
        ]
      },
      "properties": {
        "id": 13091986263,
        "osm_type": "node"
      }
    },
    {
      "type": "Feature",
      "geometry": {
        "type": "Point",
        "coordinates": [
          21.4203981,
          43.0391737
        ]
      },
      "properties": {
        "id": 13157408669,
        "osm_type": "node"
      }
    }
  ]
}