{
  "type": "FeatureCollection",
  "features": [
    {
      "type": "Feature",
      "geometry": {
        "type": "Point",
        "coordinates": [
          21.272538,
          43.1375568
        ]
      },
      "properties": {
        "id": 11989180879,
        "osm_type": "node"
      }
    },
    {
      "type": "Feature",
      "geometry": {
        "type": "Point",
        "coordinates": [
          21.3937796,
          42.9883718
        ]
      },
      "properties": {
        "id": 507746218,
        "osm_type": "way"
      }
    }
  ]
}