{
  "type": "FeatureCollection",
  "features": [
    {
      "type": "Feature",
      "geometry": {
        "type": "Point",
        "coordinates": [
          26.9904163,
          46.0410465
        ]
      },
      "properties": {
        "id": 781267900,
        "osm_type": "node"
      }
    },
    {
      "type": "Feature",
      "geometry": {
        "type": "Point",
        "coordinates": [
          26.8403925,
          46.0220414
        ]
      },
      "properties": {
        "id": 835196979,
        "osm_type": "node"
      }
    },
    {
      "type": "Feature",
      "geometry": {
        "type": "Point",
        "coordinates": [
          27.0547543,
          46.0179385
        ]
      },
      "properties": {
        "id": 1503603203,
        "osm_type": "node"
      }
    },
    {
      "type": "Feature",
      "geometry": {
        "type": "Point",
        "coordinates": [
          26.7357269,
          45.9116825
        ]
      },
      "properties": {
        "id": 6887316574,
        "osm_type": "node"
      }
    },
    {
      "type": "Feature",
      "geometry": {
        "type": "Point",
        "coordinates": [
          26.9049909,
          46.0669082
        ]
      },
      "properties": {
        "id": 8310745917,
        "osm_type": "node",
        "name": "Mosonoaele"
      }
    },
    {
      "type": "Feature",
      "geometry": {
        "type": "Point",
        "coordinates": [
          26.6959593,
          45.922748
        ]
      },
      "properties": {
        "id": 9534427819,
        "osm_type": "node"
      }
    },
    {
      "type": "Feature",
      "geometry": {
        "type": "Point",
        "coordinates": [
          27.2143784,
          46.1790835
        ]
      },
      "properties": {
        "id": 12477106053,
        "osm_type": "node"
      }
    },
    {
      "type": "Feature",
      "geometry": {
        "type": "Point",
        "coordinates": [
          26.5752713,
          45.956893
        ]
      },
      "properties": {
        "id": 12853537033,
        "osm_type": "node"
      }
    }
  ]
}