{
  "type": "FeatureCollection",
  "features": [
    {
      "type": "Feature",
      "geometry": {
        "type": "Point",
        "coordinates": [
          19.2227968,
          44.5326148
        ]
      },
      "properties": {
        "id": 3509193480,
        "osm_type": "node"
      }
    },
    {
      "type": "Feature",
      "geometry": {
        "type": "Point",
        "coordinates": [
          19.70729,
          44.8763399
        ]
      },
      "properties": {
        "id": 4894340793,
        "osm_type": "node",
        "name": "Česma u Šumadijskoj"
      }
    },
    {
      "type": "Feature",
      "geometry": {
        "type": "Point",
        "coordinates": [
          19.7112807,
          44.8628498
        ]
      },
      "properties": {
        "id": 4894341232,
        "osm_type": "node"
      }
    },
    {
      "type": "Feature",
      "geometry": {
        "type": "Point",
        "coordinates": [
          19.9136022,
          44.6231926
        ]
      },
      "properties": {
        "id": 5757243716,
        "osm_type": "node"
      }
    },
    {
      "type": "Feature",
      "geometry": {
        "type": "Point",
        "coordinates": [
          19.1565002,
          44.5110981
        ]
      },
      "properties": {
        "id": 7154903740,
        "osm_type": "node",
        "name": "Три чесме",
        "access": "yes",
        "fee": "yes"
      }
    },
    {
      "type": "Feature",
      "geometry": {
        "type": "Point",
        "coordinates": [
          19.4304425,
          44.2709085
        ]
      },
      "properties": {
        "id": 7756095797,
        "osm_type": "node"
      }
    },
    {
      "type": "Feature",
      "geometry": {
        "type": "Point",
        "coordinates": [
          19.4265165,
          44.2690661
        ]
      },
      "properties": {
        "id": 7756096206,
        "osm_type": "node"
      }
    },
    {
      "type": "Feature",
      "geometry": {
        "type": "Point",
        "coordinates": [
          19.499971,
          44.6003769
        ]
      },
      "properties": {
        "id": 7839324100,
        "osm_type": "node",
        "name": "Izvor česma (slabo ima vode)"
      }
    },
    {
      "type": "Feature",
      "geometry": {
        "type": "Point",
        "coordinates": [
          19.4022112,
          44.3203734
        ]
      },
      "properties": {
        "id": 7974846180,
        "osm_type": "node"
      }
    },
    {
      "type": "Feature",
      "geometry": {
        "type": "Point",
        "coordinates": [
          19.1658016,
          44.5135559
        ]
      },
      "properties": {
        "id": 8946619711,
        "osm_type": "node",
        "name": "Чесма Илиџа",
        "access": "yes",
        "fee": "no"
      }
    },
    {
      "type": "Feature",
      "geometry": {
        "type": "Point",
        "coordinates": [
          19.1603852,
          44.5111273
        ]
      },
      "properties": {
        "id": 8956943250,
        "osm_type": "node",
        "name": "Ракина чесма",
        "access": "yes",
        "fee": "no"
      }
    },
    {
      "type": "Feature",
      "geometry": {
        "type": "Point",
        "coordinates": [
          19.6551758,
          44.770505
        ]
      },
      "properties": {
        "id": 10109809900,
        "osm_type": "node",
        "name": "Ђачка чесма",
        "access": "yes",
        "fee": "no",
        "operator": "Месна заједница „Мајур‟",
        "indoor": "no"
      }
    },
    {
      "type": "Feature",
      "geometry": {
        "type": "Point",
        "coordinates": [
          19.6070811,
          44.7710302
        ]
      },
      "properties": {
        "id": 10673563743,
        "osm_type": "node",
        "access": "yes",
        "fee": "no",
        "indoor": "no"
      }
    },
    {
      "type": "Feature",
      "geometry": {
        "type": "Point",
        "coordinates": [
          19.6196651,
          44.7742465
        ]
      },
      "properties": {
        "id": 10860446197,
        "osm_type": "node",
        "access": "yes",
        "fee": "no",
        "operator": "Месна заједнцица „Мајур”",
        "indoor": "no"
      }
    },
    {
      "type": "Feature",
      "geometry": {
        "type": "Point",
        "coordinates": [
          19.2836089,
          44.4607242
        ]
      },
      "properties": {
        "id": 11718035765,
        "osm_type": "node"
      }
    }
  ]
}