{
  "type": "FeatureCollection",
  "features": [
    {
      "type": "Feature",
      "geometry": {
        "type": "Point",
        "coordinates": [
          -3.7020813,
          51.4894561
        ]
      },
      "properties": {
        "id": 1751120529,
        "osm_type": "node",
        "shelter_type": "lean_to"
      }
    },
    {
      "type": "Feature",
      "geometry": {
        "type": "Point",
        "coordinates": [
          -4.1584167,
          53.097047
        ]
      },
      "properties": {
        "id": 2075090342,
        "osm_type": "node",
        "name": "Moel Eilio Windbreak",
        "shelter_type": "weather_shelter"
      }
    },
    {
      "type": "Feature",
      "geometry": {
        "type": "Point",
        "coordinates": [
          -4.2422846,
          51.5451588
        ]
      },
      "properties": {
        "id": 2336858492,
        "osm_type": "node",
        "shelter_type": "weather_shelter"
      }
    },
    {
      "type": "Feature",
      "geometry": {
        "type": "Point",
        "coordinates": [
          -4.1016123,
          52.9934577
        ]
      },
      "properties": {
        "id": 3048117403,
        "osm_type": "node",
        "shelter_type": "weather_shelter"
      }
    },
    {
      "type": "Feature",
      "geometry": {
        "type": "Point",
        "coordinates": [
          -3.7356011,
          52.9944954
        ]
      },
      "properties": {
        "id": 3235304823,
        "osm_type": "node",
        "name": "Cefn Gwyn"
      }
    },
    {
      "type": "Feature",
      "geometry": {
        "type": "Point",
        "coordinates": [
          -3.9501856,
          53.1948024
        ]
      },
      "properties": {
        "id": 5279968821,
        "osm_type": "node",
        "shelter_type": "lean_to",
        "description": "Basic dry stone shelter with room for 1 or 2 people."
      }
    },
    {
      "type": "Feature",
      "geometry": {
        "type": "Point",
        "coordinates": [
          -3.8298457,
          51.8456878
        ]
      },
      "properties": {
        "id": 9671749031,
        "osm_type": "node",
        "shelter_type": "weather_shelter",
        "bench": "yes"
      }
    },
    {
      "type": "Feature",
      "geometry": {
        "type": "Point",
        "coordinates": [
          -3.8611968,
          52.3282718
        ]
      },
      "properties": {
        "id": 12049068059,
        "osm_type": "node",
        "shelter_type": "weather_shelter"
      }
    },
    {
      "type": "Feature",
      "geometry": {
        "type": "Point",
        "coordinates": [
          -3.8564962,
          52.3996111
        ]
      },
      "properties": {
        "id": 12298119381,
        "osm_type": "node",
        "name": "Yurtopia LTD"
      }
    },
    {
      "type": "Feature",
      "geometry": {
        "type": "Point",
        "coordinates": [
          -3.2008016,
          53.0625263
        ]
      },
      "properties": {
        "id": 12857256371,
        "osm_type": "node",
        "shelter_type": "weather_shelter"
      }
    },
    {
      "type": "Feature",
      "geometry": {
        "type": "Point",
        "coordinates": [
          -3.2625819,
          51.4834554
        ]
      },
      "properties": {
        "id": 12897858467,
        "osm_type": "node",
        "name": "Wooden shelter",
        "shelter_type": "weather_shelter",
        "bench": "yes"
      }
    },
    {
      "type": "Feature",
      "geometry": {
        "type": "Point",
        "coordinates": [
          -3.1210816,
          53.1152204
        ]
      },
      "properties": {
        "id": 13112884048,
        "osm_type": "node",
        "shelter_type": "weather_shelter",
        "bench": "yes"
      }
    },
    {
      "type": "Feature",
      "geometry": {
        "type": "Point",
        "coordinates": [
          -3.7399486,
          51.8836561
        ]
      },
      "properties": {
        "id": 107956648,
        "osm_type": "way",
        "shelter_type": "weather_shelter",
        "bench": "yes"
      }
    },
    {
      "type": "Feature",
      "geometry": {
        "type": "Point",
        "coordinates": [
          -3.8382461,
          53.299503
        ]
      },
      "properties": {
        "id": 166630492,
        "osm_type": "way",
        "shelter_type": "weather_shelter",
        "bench": "yes"
      }
    },
    {
      "type": "Feature",
      "geometry": {
        "type": "Point",
        "coordinates": [
          -3.1286091,
          51.9743626
        ]
      },
      "properties": {
        "id": 223456728,
        "osm_type": "way",
        "name": "Grwyne Fawr",
        "access": "permissive",
        "operator": "Mountain Bothies Association"
      }
    },
    {
      "type": "Feature",
      "geometry": {
        "type": "Point",
        "coordinates": [
          -4.0389443,
          53.0146152
        ]
      },
      "properties": {
        "id": 272046474,
        "osm_type": "way",
        "name": "Nantmor Mountain Centre"
      }
    },
    {
      "type": "Feature",
      "geometry": {
        "type": "Point",
        "coordinates": [
          -3.7498264,
          52.2353105
        ]
      },
      "properties": {
        "id": 377637084,
        "osm_type": "way",
        "name": "Moel Prysgau",
        "access": "permissive",
        "operator": "Mountain Bothies Association"
      }
    },
    {
      "type": "Feature",
      "geometry": {
        "type": "Point",
        "coordinates": [
          -3.8736688,
          52.7976094
        ]
      },
      "properties": {
        "id": 384027842,
        "osm_type": "way",
        "name": "Penrhos Isaf",
        "access": "permissive",
        "fee": "no",
        "operator": "Mountain Bothies Association"
      }
    },
    {
      "type": "Feature",
      "geometry": {
        "type": "Point",
        "coordinates": [
          -3.614327,
          52.3214223
        ]
      },
      "properties": {
        "id": 388394995,
        "osm_type": "way",
        "name": "Lluest Cwmbach Bothy",
        "access": "permissive",
        "operator": "Mountain Bothies Association"
      }
    },
    {
      "type": "Feature",
      "geometry": {
        "type": "Point",
        "coordinates": [
          -3.4877806,
          53.3176831
        ]
      },
      "properties": {
        "id": 434863034,
        "osm_type": "way",
        "shelter_type": "weather_shelter"
      }
    },
    {
      "type": "Feature",
      "geometry": {
        "type": "Point",
        "coordinates": [
          -4.1589236,
          53.0582609
        ]
      },
      "properties": {
        "id": 477914783,
        "osm_type": "way",
        "name": "Bwlchgylfin Shelter",
        "shelter_type": "weather_shelter",
        "covered": "no"
      }
    },
    {
      "type": "Feature",
      "geometry": {
        "type": "Point",
        "coordinates": [
          -4.2108356,
          52.9861284
        ]
      },
      "properties": {
        "id": 515199370,
        "osm_type": "way",
        "name": "Cae Amos Bothy",
        "access": "permissive",
        "fee": "no",
        "operator": "Mountain Bothies Association"
      }
    },
    {
      "type": "Feature",
      "geometry": {
        "type": "Point",
        "coordinates": [
          -3.8470929,
          53.3234025
        ]
      },
      "properties": {
        "id": 520296110,
        "osm_type": "way",
        "shelter_type": "weather_shelter",
        "bench": "yes"
      }
    },
    {
      "type": "Feature",
      "geometry": {
        "type": "Point",
        "coordinates": [
          -4.661338,
          52.0820345
        ]
      },
      "properties": {
        "id": 525195944,
        "osm_type": "way",
        "shelter_type": "lean_to",
        "bench": "yes"
      }
    },
    {
      "type": "Feature",
      "geometry": {
        "type": "Point",
        "coordinates": [
          -4.6614364,
          52.0820344
        ]
      },
      "properties": {
        "id": 545855435,
        "osm_type": "way",
        "shelter_type": "lean_to"
      }
    },
    {
      "type": "Feature",
      "geometry": {
        "type": "Point",
        "coordinates": [
          -3.200755,
          51.6300449
        ]
      },
      "properties": {
        "id": 549576864,
        "osm_type": "way",
        "shelter_type": "weather_shelter"
      }
    },
    {
      "type": "Feature",
      "geometry": {
        "type": "Point",
        "coordinates": [
          -3.711641,
          52.9262126
        ]
      },
      "properties": {
        "id": 597070979,
        "osm_type": "way",
        "name": "Arenig Fawr",
        "access": "permissive",
        "operator": "Mountain Bothies Association"
      }
    },
    {
      "type": "Feature",
      "geometry": {
        "type": "Point",
        "coordinates": [
          -3.9387445,
          53.1788531
        ]
      },
      "properties": {
        "id": 604057741,
        "osm_type": "way",
        "name": "Dulyn",
        "access": "permissive",
        "operator": "Mountain Bothies Association"
      }
    },
    {
      "type": "Feature",
      "geometry": {
        "type": "Point",
        "coordinates": [
          -4.6456456,
          52.0740816
        ]
      },
      "properties": {
        "id": 607987291,
        "osm_type": "way",
        "shelter_type": "weather_shelter"
      }
    },
    {
      "type": "Feature",
      "geometry": {
        "type": "Point",
        "coordinates": [
          -4.5839326,
          52.0252195
        ]
      },
      "properties": {
        "id": 617812519,
        "osm_type": "way",
        "shelter_type": "weather_shelter",
        "bench": "yes",
        "operator": "Ffynnone Arms"
      }
    },
    {
      "type": "Feature",
      "geometry": {
        "type": "Point",
        "coordinates": [
          -3.7110848,
          52.3990595
        ]
      },
      "properties": {
        "id": 666782632,
        "osm_type": "way",
        "name": "Nant-Rhys",
        "access": "permissive",
        "operator": "Mountain Bothies Association"
      }
    },
    {
      "type": "Feature",
      "geometry": {
        "type": "Point",
        "coordinates": [
          -4.6395707,
          52.1346495
        ]
      },
      "properties": {
        "id": 685240291,
        "osm_type": "way",
        "shelter_type": "weather_shelter"
      }
    },
    {
      "type": "Feature",
      "geometry": {
        "type": "Point",
        "coordinates": [
          -4.6578551,
          52.0871319
        ]
      },
      "properties": {
        "id": 716758985,
        "osm_type": "way",
        "shelter_type": "weather_shelter",
        "bench": "no",
        "description": "Shelter for smokers."
      }
    },
    {
      "type": "Feature",
      "geometry": {
        "type": "Point",
        "coordinates": [
          -3.9676788,
          51.6211437
        ]
      },
      "properties": {
        "id": 821994816,
        "osm_type": "way",
        "name": "Cysgodfa Dylan Thomas / The Dylan Thomas Shelter",
        "shelter_type": "lean_to"
      }
    },
    {
      "type": "Feature",
      "geometry": {
        "type": "Point",
        "coordinates": [
          -3.314285,
          53.1824951
        ]
      },
      "properties": {
        "id": 830421680,
        "osm_type": "way",
        "shelter_type": "weather_shelter",
        "bench": "yes",
        "description": "Plaque is inscribed: \"This shelter the property of the sanatorium is provided for the use of the staff and visitors. W. N. M. A. 1843"
      }
    },
    {
      "type": "Feature",
      "geometry": {
        "type": "Point",
        "coordinates": [
          -3.7717913,
          52.302809
        ]
      },
      "properties": {
        "id": 839116918,
        "osm_type": "way",
        "name": "Bothi Claerddu",
        "access": "permissive",
        "operator": "Elan Valley Trust"
      }
    },
    {
      "type": "Feature",
      "geometry": {
        "type": "Point",
        "coordinates": [
          -3.3102203,
          52.1683975
        ]
      },
      "properties": {
        "id": 851831032,
        "osm_type": "way",
        "shelter_type": "weather_shelter",
        "bench": "yes"
      }
    },
    {
      "type": "Feature",
      "geometry": {
        "type": "Point",
        "coordinates": [
          -3.3184486,
          52.1686714
        ]
      },
      "properties": {
        "id": 853200962,
        "osm_type": "way",
        "shelter_type": "weather_shelter",
        "bench": "yes"
      }
    },
    {
      "type": "Feature",
      "geometry": {
        "type": "Point",
        "coordinates": [
          -3.3175679,
          52.1718954
        ]
      },
      "properties": {
        "id": 853254413,
        "osm_type": "way",
        "shelter_type": "weather_shelter",
        "bench": "yes"
      }
    },
    {
      "type": "Feature",
      "geometry": {
        "type": "Point",
        "coordinates": [
          -3.3189414,
          52.1740834
        ]
      },
      "properties": {
        "id": 853254414,
        "osm_type": "way",
        "shelter_type": "weather_shelter",
        "bench": "yes"
      }
    },
    {
      "type": "Feature",
      "geometry": {
        "type": "Point",
        "coordinates": [
          -3.3179089,
          52.1729246
        ]
      },
      "properties": {
        "id": 853254415,
        "osm_type": "way",
        "shelter_type": "weather_shelter",
        "bench": "yes"
      }
    },
    {
      "type": "Feature",
      "geometry": {
        "type": "Point",
        "coordinates": [
          -3.645112,
          51.529962
        ]
      },
      "properties": {
        "id": 916944646,
        "osm_type": "way",
        "shelter_type": "basic_hut"
      }
    },
    {
      "type": "Feature",
      "geometry": {
        "type": "Point",
        "coordinates": [
          -2.9997757,
          53.0536693
        ]
      },
      "properties": {
        "id": 942230856,
        "osm_type": "way",
        "shelter_type": "weather_shelter"
      }
    },
    {
      "type": "Feature",
      "geometry": {
        "type": "Point",
        "coordinates": [
          -3.6675658,
          52.854476
        ]
      },
      "properties": {
        "id": 1052204146,
        "osm_type": "way",
        "shelter_type": "weather_shelter"
      }
    },
    {
      "type": "Feature",
      "geometry": {
        "type": "Point",
        "coordinates": [
          -4.0886377,
          53.0197201
        ]
      },
      "properties": {
        "id": 1054282610,
        "osm_type": "way",
        "shelter_type": "lean_to"
      }
    },
    {
      "type": "Feature",
      "geometry": {
        "type": "Point",
        "coordinates": [
          -3.8041532,
          52.3958078
        ]
      },
      "properties": {
        "id": 1076213537,
        "osm_type": "way",
        "name": "Nant Syddion",
        "access": "permissive",
        "operator": "Mountain Bothies Association"
      }
    },
    {
      "type": "Feature",
      "geometry": {
        "type": "Point",
        "coordinates": [
          -3.5930022,
          51.5508574
        ]
      },
      "properties": {
        "id": 1077636555,
        "osm_type": "way",
        "shelter_type": "weather_shelter"
      }
    },
    {
      "type": "Feature",
      "geometry": {
        "type": "Point",
        "coordinates": [
          -3.53115,
          52.9412928
        ]
      },
      "properties": {
        "id": 1233853641,
        "osm_type": "way",
        "shelter_type": "weather_shelter"
      }
    },
    {
      "type": "Feature",
      "geometry": {
        "type": "Point",
        "coordinates": [
          -3.6624847,
          52.8705456
        ]
      },
      "properties": {
        "id": 1256028222,
        "osm_type": "way",
        "shelter_type": "weather_shelter"
      }
    },
    {
      "type": "Feature",
      "geometry": {
        "type": "Point",
        "coordinates": [
          -3.6740476,
          52.8892494
        ]
      },
      "properties": {
        "id": 1263480695,
        "osm_type": "way",
        "shelter_type": "weather_shelter"
      }
    },
    {
      "type": "Feature",
      "geometry": {
        "type": "Point",
        "coordinates": [
          -3.8622844,
          52.3257718
        ]
      },
      "properties": {
        "id": 1300886549,
        "osm_type": "way",
        "shelter_type": "weather_shelter"
      }
    },
    {
      "type": "Feature",
      "geometry": {
        "type": "Point",
        "coordinates": [
          -3.6611554,
          51.7282399
        ]
      },
      "properties": {
        "id": 1303524192,
        "osm_type": "way",
        "name": "Spring Valley Lodges"
      }
    },
    {
      "type": "Feature",
      "geometry": {
        "type": "Point",
        "coordinates": [
          -3.0053384,
          53.0259011
        ]
      },
      "properties": {
        "id": 1305828314,
        "osm_type": "way",
        "shelter_type": "weather_shelter",
        "operator": "Guntersville Electric Board"
      }
    },
    {
      "type": "Feature",
      "geometry": {
        "type": "Point",
        "coordinates": [
          -3.6413589,
          52.5870266
        ]
      },
      "properties": {
        "id": 1372596828,
        "osm_type": "way",
        "shelter_type": "lean_to"
      }
    },
    {
      "type": "Feature",
      "geometry": {
        "type": "Point",
        "coordinates": [
          -4.0479626,
          53.008509
        ]
      },
      "properties": {
        "id": 1442090404,
        "osm_type": "way",
        "name": "Tan Y Coed Bothy",
        "access": "customers",
        "capacity": "8",
        "fee": "yes",
        "operator": "National Trust"
      }
    }
  ]
}