{
  "type": "FeatureCollection",
  "features": [
    {
      "type": "Feature",
      "geometry": {
        "type": "Point",
        "coordinates": [
          23.3248853,
          42.6886133
        ]
      },
      "properties": {
        "id": 4557792836,
        "osm_type": "node",
        "vending": "food;drinks",
        "operator": "Иновaтив Вендинг Солюшънс ООД"
      }
    },
    {
      "type": "Feature",
      "geometry": {
        "type": "Point",
        "coordinates": [
          23.2810258,
          42.6641508
        ]
      },
      "properties": {
        "id": 5545076513,
        "osm_type": "node",
        "vending": "coffee"
      }
    },
    {
      "type": "Feature",
      "geometry": {
        "type": "Point",
        "coordinates": [
          23.3732066,
          42.6437159
        ]
      },
      "properties": {
        "id": 5624020278,
        "osm_type": "node",
        "vending": "coffee",
        "check_date": "2023-07-20"
      }
    },
    {
      "type": "Feature",
      "geometry": {
        "type": "Point",
        "coordinates": [
          23.3049202,
          42.7062434
        ]
      },
      "properties": {
        "id": 5893065587,
        "osm_type": "node",
        "vending": "drinks"
      }
    },
    {
      "type": "Feature",
      "geometry": {
        "type": "Point",
        "coordinates": [
          23.3185933,
          42.7010688
        ]
      },
      "properties": {
        "id": 6540476451,
        "osm_type": "node",
        "vending": "drinks",
        "check_date": "2025-03-15"
      }
    },
    {
      "type": "Feature",
      "geometry": {
        "type": "Point",
        "coordinates": [
          23.2925516,
          42.7101653
        ]
      },
      "properties": {
        "id": 6567538359,
        "osm_type": "node",
        "vending": "drinks"
      }
    },
    {
      "type": "Feature",
      "geometry": {
        "type": "Point",
        "coordinates": [
          23.3057919,
          42.7089033
        ]
      },
      "properties": {
        "id": 6588421616,
        "osm_type": "node",
        "vending": "drinks"
      }
    },
    {
      "type": "Feature",
      "geometry": {
        "type": "Point",
        "coordinates": [
          23.3505278,
          42.6715472
        ]
      },
      "properties": {
        "id": 6618229971,
        "osm_type": "node",
        "vending": "drinks",
        "check_date": "2025-03-16"
      }
    },
    {
      "type": "Feature",
      "geometry": {
        "type": "Point",
        "coordinates": [
          23.3102608,
          42.7011315
        ]
      },
      "properties": {
        "id": 6695265978,
        "osm_type": "node",
        "vending": "drinks"
      }
    },
    {
      "type": "Feature",
      "geometry": {
        "type": "Point",
        "coordinates": [
          23.2480255,
          42.7267936
        ]
      },
      "properties": {
        "id": 7166715943,
        "osm_type": "node",
        "vending": "coffee"
      }
    },
    {
      "type": "Feature",
      "geometry": {
        "type": "Point",
        "coordinates": [
          23.3117705,
          42.7150316
        ]
      },
      "properties": {
        "id": 7256615785,
        "osm_type": "node",
        "vending": "drinks",
        "check_date": "2025-08-29"
      }
    },
    {
      "type": "Feature",
      "geometry": {
        "type": "Point",
        "coordinates": [
          23.2509224,
          42.7162471
        ]
      },
      "properties": {
        "id": 7257233530,
        "osm_type": "node",
        "vending": "coffee"
      }
    },
    {
      "type": "Feature",
      "geometry": {
        "type": "Point",
        "coordinates": [
          23.3085026,
          42.7099614
        ]
      },
      "properties": {
        "id": 7294281963,
        "osm_type": "node",
        "vending": "drinks"
      }
    },
    {
      "type": "Feature",
      "geometry": {
        "type": "Point",
        "coordinates": [
          23.3021169,
          42.7112634
        ]
      },
      "properties": {
        "id": 8455335977,
        "osm_type": "node",
        "name": "Coffee Corner",
        "vending": "drinks"
      }
    },
    {
      "type": "Feature",
      "geometry": {
        "type": "Point",
        "coordinates": [
          23.3006159,
          42.7125869
        ]
      },
      "properties": {
        "id": 8594163982,
        "osm_type": "node",
        "vending": "drinks"
      }
    },
    {
      "type": "Feature",
      "geometry": {
        "type": "Point",
        "coordinates": [
          23.3007523,
          42.6800785
        ]
      },
      "properties": {
        "id": 8608021332,
        "osm_type": "node",
        "opening_hours": "Mo-Fr 08:30-20:30; Sa 09:00-16:00; Su,PH off",
        "vending": "coffee",
        "check_date": "2024-04-26"
      }
    },
    {
      "type": "Feature",
      "geometry": {
        "type": "Point",
        "coordinates": [
          23.2970708,
          42.6774726
        ]
      },
      "properties": {
        "id": 8611100086,
        "osm_type": "node",
        "vending": "coffee",
        "check_date": "2025-06-26"
      }
    },
    {
      "type": "Feature",
      "geometry": {
        "type": "Point",
        "coordinates": [
          23.310836,
          42.7041418
        ]
      },
      "properties": {
        "id": 8729321200,
        "osm_type": "node",
        "vending": "drinks"
      }
    },
    {
      "type": "Feature",
      "geometry": {
        "type": "Point",
        "coordinates": [
          23.3132988,
          42.7111254
        ]
      },
      "properties": {
        "id": 9620289399,
        "osm_type": "node",
        "vending": "drinks"
      }
    },
    {
      "type": "Feature",
      "geometry": {
        "type": "Point",
        "coordinates": [
          23.393523,
          42.6467885
        ]
      },
      "properties": {
        "id": 9668273594,
        "osm_type": "node",
        "vending": "drinks"
      }
    },
    {
      "type": "Feature",
      "geometry": {
        "type": "Point",
        "coordinates": [
          23.3072242,
          42.6963207
        ]
      },
      "properties": {
        "id": 9812070080,
        "osm_type": "node",
        "vending": "ice_cream"
      }
    },
    {
      "type": "Feature",
      "geometry": {
        "type": "Point",
        "coordinates": [
          23.3032458,
          42.7332626
        ]
      },
      "properties": {
        "id": 10066669042,
        "osm_type": "node",
        "vending": "drinks",
        "check_date": "2025-12-22"
      }
    },
    {
      "type": "Feature",
      "geometry": {
        "type": "Point",
        "coordinates": [
          23.3056585,
          42.7248353
        ]
      },
      "properties": {
        "id": 10067682481,
        "osm_type": "node",
        "vending": "coffee"
      }
    },
    {
      "type": "Feature",
      "geometry": {
        "type": "Point",
        "coordinates": [
          23.2684369,
          42.7160019
        ]
      },
      "properties": {
        "id": 10233304166,
        "osm_type": "node",
        "vending": "coffee"
      }
    },
    {
      "type": "Feature",
      "geometry": {
        "type": "Point",
        "coordinates": [
          23.3224846,
          42.6938867
        ]
      },
      "properties": {
        "id": 10726818700,
        "osm_type": "node",
        "vending": "drinks",
        "check_date": "2025-09-09"
      }
    },
    {
      "type": "Feature",
      "geometry": {
        "type": "Point",
        "coordinates": [
          23.3191724,
          42.6872671
        ]
      },
      "properties": {
        "id": 10734557249,
        "osm_type": "node",
        "vending": "drinks"
      }
    },
    {
      "type": "Feature",
      "geometry": {
        "type": "Point",
        "coordinates": [
          23.3191711,
          42.6872795
        ]
      },
      "properties": {
        "id": 10734557250,
        "osm_type": "node",
        "vending": "coffee"
      }
    },
    {
      "type": "Feature",
      "geometry": {
        "type": "Point",
        "coordinates": [
          23.3055364,
          42.7360282
        ]
      },
      "properties": {
        "id": 10760183589,
        "osm_type": "node",
        "vending": "coffee"
      }
    },
    {
      "type": "Feature",
      "geometry": {
        "type": "Point",
        "coordinates": [
          23.2846579,
          42.677787
        ]
      },
      "properties": {
        "id": 10760974972,
        "osm_type": "node",
        "vending": "coffee"
      }
    },
    {
      "type": "Feature",
      "geometry": {
        "type": "Point",
        "coordinates": [
          23.303339,
          42.6768156
        ]
      },
      "properties": {
        "id": 10815108275,
        "osm_type": "node",
        "vending": "coffee",
        "check_date": "2025-12-13"
      }
    },
    {
      "type": "Feature",
      "geometry": {
        "type": "Point",
        "coordinates": [
          23.4095509,
          42.6406511
        ]
      },
      "properties": {
        "id": 10815888838,
        "osm_type": "node",
        "vending": "coffee",
        "check_date": "2026-04-03"
      }
    },
    {
      "type": "Feature",
      "geometry": {
        "type": "Point",
        "coordinates": [
          23.3352032,
          42.6916404
        ]
      },
      "properties": {
        "id": 10858294106,
        "osm_type": "node",
        "vending": "coffee"
      }
    },
    {
      "type": "Feature",
      "geometry": {
        "type": "Point",
        "coordinates": [
          23.3209723,
          42.683209
        ]
      },
      "properties": {
        "id": 10914224594,
        "osm_type": "node",
        "vending": "coffee"
      }
    },
    {
      "type": "Feature",
      "geometry": {
        "type": "Point",
        "coordinates": [
          23.2917929,
          42.693083
        ]
      },
      "properties": {
        "id": 10945550357,
        "osm_type": "node",
        "vending": "drinks"
      }
    },
    {
      "type": "Feature",
      "geometry": {
        "type": "Point",
        "coordinates": [
          23.3149828,
          42.7128614
        ]
      },
      "properties": {
        "id": 10958841062,
        "osm_type": "node",
        "vending": "drinks"
      }
    },
    {
      "type": "Feature",
      "geometry": {
        "type": "Point",
        "coordinates": [
          23.3155512,
          42.7125037
        ]
      },
      "properties": {
        "id": 10958841064,
        "osm_type": "node",
        "vending": "drinks"
      }
    },
    {
      "type": "Feature",
      "geometry": {
        "type": "Point",
        "coordinates": [
          23.27973,
          42.6689937
        ]
      },
      "properties": {
        "id": 10977240662,
        "osm_type": "node",
        "vending": "coffee;drinks;water",
        "check_date": "2025-10-30"
      }
    },
    {
      "type": "Feature",
      "geometry": {
        "type": "Point",
        "coordinates": [
          23.312703,
          42.7121739
        ]
      },
      "properties": {
        "id": 11173430508,
        "osm_type": "node",
        "vending": "drinks"
      }
    },
    {
      "type": "Feature",
      "geometry": {
        "type": "Point",
        "coordinates": [
          23.2854896,
          42.6785498
        ]
      },
      "properties": {
        "id": 11185670219,
        "osm_type": "node",
        "name": "Vending",
        "vending": "drinks;food;coffee"
      }
    },
    {
      "type": "Feature",
      "geometry": {
        "type": "Point",
        "coordinates": [
          23.2731918,
          42.6707968
        ]
      },
      "properties": {
        "id": 11428709822,
        "osm_type": "node",
        "vending": "food",
        "operator": "Детска кухня Ян Бибиян"
      }
    },
    {
      "type": "Feature",
      "geometry": {
        "type": "Point",
        "coordinates": [
          23.2758522,
          42.6633766
        ]
      },
      "properties": {
        "id": 11479210489,
        "osm_type": "node",
        "vending": "coffee;drinks;sweets",
        "check_date": "2026-04-02"
      }
    },
    {
      "type": "Feature",
      "geometry": {
        "type": "Point",
        "coordinates": [
          23.2836753,
          42.6714525
        ]
      },
      "properties": {
        "id": 11653913366,
        "osm_type": "node",
        "vending": "coffee",
        "check_date": "2026-02-08"
      }
    },
    {
      "type": "Feature",
      "geometry": {
        "type": "Point",
        "coordinates": [
          23.3181912,
          42.7004096
        ]
      },
      "properties": {
        "id": 11724090523,
        "osm_type": "node",
        "vending": "drinks;food"
      }
    },
    {
      "type": "Feature",
      "geometry": {
        "type": "Point",
        "coordinates": [
          23.3181741,
          42.7003967
        ]
      },
      "properties": {
        "id": 11724090524,
        "osm_type": "node",
        "vending": "coffee"
      }
    },
    {
      "type": "Feature",
      "geometry": {
        "type": "Point",
        "coordinates": [
          23.3940396,
          42.6384214
        ]
      },
      "properties": {
        "id": 11782569356,
        "osm_type": "node",
        "vending": "coffee",
        "check_date": "2024-04-03"
      }
    },
    {
      "type": "Feature",
      "geometry": {
        "type": "Point",
        "coordinates": [
          23.3936891,
          42.6383135
        ]
      },
      "properties": {
        "id": 11782584347,
        "osm_type": "node",
        "vending": "coffee",
        "check_date": "2024-04-03"
      }
    },
    {
      "type": "Feature",
      "geometry": {
        "type": "Point",
        "coordinates": [
          23.3936956,
          42.638505
        ]
      },
      "properties": {
        "id": 11782584348,
        "osm_type": "node",
        "vending": "coffee",
        "check_date": "2024-04-03"
      }
    },
    {
      "type": "Feature",
      "geometry": {
        "type": "Point",
        "coordinates": [
          23.3322024,
          42.6863062
        ]
      },
      "properties": {
        "id": 11809201213,
        "osm_type": "node",
        "vending": "coffee",
        "check_date": "2025-07-30"
      }
    },
    {
      "type": "Feature",
      "geometry": {
        "type": "Point",
        "coordinates": [
          23.3706431,
          42.7095368
        ]
      },
      "properties": {
        "id": 11812191658,
        "osm_type": "node",
        "vending": "food"
      }
    },
    {
      "type": "Feature",
      "geometry": {
        "type": "Point",
        "coordinates": [
          23.3707008,
          42.7095461
        ]
      },
      "properties": {
        "id": 11812201644,
        "osm_type": "node",
        "vending": "drinks"
      }
    },
    {
      "type": "Feature",
      "geometry": {
        "type": "Point",
        "coordinates": [
          23.3706762,
          42.7095425
        ]
      },
      "properties": {
        "id": 11812206832,
        "osm_type": "node",
        "vending": "coffee"
      }
    },
    {
      "type": "Feature",
      "geometry": {
        "type": "Point",
        "coordinates": [
          23.3165221,
          42.7265603
        ]
      },
      "properties": {
        "id": 11869833693,
        "osm_type": "node",
        "vending": "coffee"
      }
    },
    {
      "type": "Feature",
      "geometry": {
        "type": "Point",
        "coordinates": [
          23.3333957,
          42.6739142
        ]
      },
      "properties": {
        "id": 11900579873,
        "osm_type": "node",
        "vending": "coffee",
        "check_date": "2025-06-21"
      }
    },
    {
      "type": "Feature",
      "geometry": {
        "type": "Point",
        "coordinates": [
          23.3364891,
          42.6420727
        ]
      },
      "properties": {
        "id": 11901193680,
        "osm_type": "node",
        "vending": "coffee"
      }
    },
    {
      "type": "Feature",
      "geometry": {
        "type": "Point",
        "coordinates": [
          23.322975,
          42.6998891
        ]
      },
      "properties": {
        "id": 11938932565,
        "osm_type": "node",
        "vending": "coffee"
      }
    },
    {
      "type": "Feature",
      "geometry": {
        "type": "Point",
        "coordinates": [
          23.3417909,
          42.6544318
        ]
      },
      "properties": {
        "id": 11968505942,
        "osm_type": "node",
        "vending": "coffee"
      }
    },
    {
      "type": "Feature",
      "geometry": {
        "type": "Point",
        "coordinates": [
          23.3418012,
          42.6544298
        ]
      },
      "properties": {
        "id": 11968517907,
        "osm_type": "node",
        "vending": "food"
      }
    },
    {
      "type": "Feature",
      "geometry": {
        "type": "Point",
        "coordinates": [
          23.3659682,
          42.6394106
        ]
      },
      "properties": {
        "id": 11982667114,
        "osm_type": "node",
        "vending": "coffee"
      }
    },
    {
      "type": "Feature",
      "geometry": {
        "type": "Point",
        "coordinates": [
          23.5180585,
          42.7810758
        ]
      },
      "properties": {
        "id": 12051886849,
        "osm_type": "node",
        "vending": "coffee"
      }
    },
    {
      "type": "Feature",
      "geometry": {
        "type": "Point",
        "coordinates": [
          23.3198497,
          42.7027438
        ]
      },
      "properties": {
        "id": 12096522404,
        "osm_type": "node",
        "vending": "coffee"
      }
    },
    {
      "type": "Feature",
      "geometry": {
        "type": "Point",
        "coordinates": [
          23.3597308,
          42.6761996
        ]
      },
      "properties": {
        "id": 12107772311,
        "osm_type": "node",
        "vending": "food"
      }
    },
    {
      "type": "Feature",
      "geometry": {
        "type": "Point",
        "coordinates": [
          23.3597464,
          42.6762164
        ]
      },
      "properties": {
        "id": 12107774210,
        "osm_type": "node",
        "vending": "coffee"
      }
    },
    {
      "type": "Feature",
      "geometry": {
        "type": "Point",
        "coordinates": [
          23.3180851,
          42.6405733
        ]
      },
      "properties": {
        "id": 12116842471,
        "osm_type": "node",
        "vending": "coffee;drinks;food;water"
      }
    },
    {
      "type": "Feature",
      "geometry": {
        "type": "Point",
        "coordinates": [
          23.3290973,
          42.6921633
        ]
      },
      "properties": {
        "id": 12180397258,
        "osm_type": "node",
        "vending": "coffee"
      }
    },
    {
      "type": "Feature",
      "geometry": {
        "type": "Point",
        "coordinates": [
          23.320699,
          42.6707104
        ]
      },
      "properties": {
        "id": 12234868095,
        "osm_type": "node",
        "vending": "food"
      }
    },
    {
      "type": "Feature",
      "geometry": {
        "type": "Point",
        "coordinates": [
          23.3206844,
          42.6707237
        ]
      },
      "properties": {
        "id": 12234888375,
        "osm_type": "node",
        "vending": "coffee"
      }
    },
    {
      "type": "Feature",
      "geometry": {
        "type": "Point",
        "coordinates": [
          23.3206922,
          42.6706965
        ]
      },
      "properties": {
        "id": 12234890416,
        "osm_type": "node",
        "vending": "coffee"
      }
    },
    {
      "type": "Feature",
      "geometry": {
        "type": "Point",
        "coordinates": [
          23.3301144,
          42.6980971
        ]
      },
      "properties": {
        "id": 12238417728,
        "osm_type": "node",
        "vending": "coffee"
      }
    },
    {
      "type": "Feature",
      "geometry": {
        "type": "Point",
        "coordinates": [
          23.3397295,
          42.6432698
        ]
      },
      "properties": {
        "id": 12250317789,
        "osm_type": "node",
        "vending": "coffee"
      }
    },
    {
      "type": "Feature",
      "geometry": {
        "type": "Point",
        "coordinates": [
          23.321774,
          42.6985409
        ]
      },
      "properties": {
        "id": 12269926042,
        "osm_type": "node",
        "name": "VB Trading",
        "vending": "pizza",
        "check_date": "2025-10-30"
      }
    },
    {
      "type": "Feature",
      "geometry": {
        "type": "Point",
        "coordinates": [
          23.3370991,
          42.6572751
        ]
      },
      "properties": {
        "id": 12271686055,
        "osm_type": "node",
        "vending": "coffee"
      }
    },
    {
      "type": "Feature",
      "geometry": {
        "type": "Point",
        "coordinates": [
          23.3164716,
          42.6617709
        ]
      },
      "properties": {
        "id": 12273618826,
        "osm_type": "node",
        "vending": "coffee"
      }
    },
    {
      "type": "Feature",
      "geometry": {
        "type": "Point",
        "coordinates": [
          23.3151439,
          42.6560141
        ]
      },
      "properties": {
        "id": 12273618916,
        "osm_type": "node",
        "vending": "coffee"
      }
    },
    {
      "type": "Feature",
      "geometry": {
        "type": "Point",
        "coordinates": [
          23.3101387,
          42.7098705
        ]
      },
      "properties": {
        "id": 12291836523,
        "osm_type": "node",
        "vending": "drinks"
      }
    },
    {
      "type": "Feature",
      "geometry": {
        "type": "Point",
        "coordinates": [
          23.3341419,
          42.6569312
        ]
      },
      "properties": {
        "id": 12299536789,
        "osm_type": "node",
        "vending": "coffee"
      }
    },
    {
      "type": "Feature",
      "geometry": {
        "type": "Point",
        "coordinates": [
          23.4133332,
          42.6916424
        ]
      },
      "properties": {
        "id": 12314124810,
        "osm_type": "node",
        "vending": "drinks"
      }
    },
    {
      "type": "Feature",
      "geometry": {
        "type": "Point",
        "coordinates": [
          23.4133727,
          42.6916542
        ]
      },
      "properties": {
        "id": 12314134107,
        "osm_type": "node",
        "vending": "food"
      }
    },
    {
      "type": "Feature",
      "geometry": {
        "type": "Point",
        "coordinates": [
          23.2737445,
          42.6705919
        ]
      },
      "properties": {
        "id": 12636326991,
        "osm_type": "node",
        "name": "Coffee corner",
        "vending": "coffee",
        "check_date": "2025-03-04"
      }
    },
    {
      "type": "Feature",
      "geometry": {
        "type": "Point",
        "coordinates": [
          23.3194345,
          42.698167
        ]
      },
      "properties": {
        "id": 12652428841,
        "osm_type": "node",
        "vending": "drinks"
      }
    },
    {
      "type": "Feature",
      "geometry": {
        "type": "Point",
        "coordinates": [
          23.3194376,
          42.6981764
        ]
      },
      "properties": {
        "id": 12652447610,
        "osm_type": "node",
        "vending": "coffee"
      }
    },
    {
      "type": "Feature",
      "geometry": {
        "type": "Point",
        "coordinates": [
          23.3198841,
          42.7024559
        ]
      },
      "properties": {
        "id": 12666714496,
        "osm_type": "node",
        "vending": "food"
      }
    },
    {
      "type": "Feature",
      "geometry": {
        "type": "Point",
        "coordinates": [
          23.3198737,
          42.7024378
        ]
      },
      "properties": {
        "id": 12666753920,
        "osm_type": "node",
        "vending": "coffee"
      }
    },
    {
      "type": "Feature",
      "geometry": {
        "type": "Point",
        "coordinates": [
          23.3198792,
          42.7024475
        ]
      },
      "properties": {
        "id": 12666760852,
        "osm_type": "node",
        "vending": "coffee"
      }
    },
    {
      "type": "Feature",
      "geometry": {
        "type": "Point",
        "coordinates": [
          23.3198681,
          42.7016626
        ]
      },
      "properties": {
        "id": 12676578882,
        "osm_type": "node",
        "vending": "coffee"
      }
    },
    {
      "type": "Feature",
      "geometry": {
        "type": "Point",
        "coordinates": [
          23.3198759,
          42.7016615
        ]
      },
      "properties": {
        "id": 12676586327,
        "osm_type": "node",
        "vending": "food"
      }
    },
    {
      "type": "Feature",
      "geometry": {
        "type": "Point",
        "coordinates": [
          23.384134,
          42.6239957
        ]
      },
      "properties": {
        "id": 12733427742,
        "osm_type": "node",
        "vending": "pizza",
        "operator": "Pizzata Italiana"
      }
    },
    {
      "type": "Feature",
      "geometry": {
        "type": "Point",
        "coordinates": [
          23.3608376,
          42.6791643
        ]
      },
      "properties": {
        "id": 12806265361,
        "osm_type": "node",
        "vending": "pizza",
        "brand": "Pizzatta Italiana"
      }
    },
    {
      "type": "Feature",
      "geometry": {
        "type": "Point",
        "coordinates": [
          23.317616,
          42.7046233
        ]
      },
      "properties": {
        "id": 12840202260,
        "osm_type": "node",
        "vending": "coffee"
      }
    },
    {
      "type": "Feature",
      "geometry": {
        "type": "Point",
        "coordinates": [
          23.3176166,
          42.7046313
        ]
      },
      "properties": {
        "id": 12840207419,
        "osm_type": "node",
        "vending": "food"
      }
    },
    {
      "type": "Feature",
      "geometry": {
        "type": "Point",
        "coordinates": [
          23.28625,
          42.7284331
        ]
      },
      "properties": {
        "id": 12879048799,
        "osm_type": "node",
        "vending": "coffee",
        "check_date": "2025-08-16"
      }
    },
    {
      "type": "Feature",
      "geometry": {
        "type": "Point",
        "coordinates": [
          23.2862735,
          42.7284233
        ]
      },
      "properties": {
        "id": 12879048800,
        "osm_type": "node",
        "vending": "coffee",
        "check_date": "2025-08-16"
      }
    },
    {
      "type": "Feature",
      "geometry": {
        "type": "Point",
        "coordinates": [
          23.3209687,
          42.6832207
        ]
      },
      "properties": {
        "id": 13070522918,
        "osm_type": "node",
        "vending": "food"
      }
    },
    {
      "type": "Feature",
      "geometry": {
        "type": "Point",
        "coordinates": [
          23.3209702,
          42.6832149
        ]
      },
      "properties": {
        "id": 13070528473,
        "osm_type": "node",
        "vending": "drinks"
      }
    },
    {
      "type": "Feature",
      "geometry": {
        "type": "Point",
        "coordinates": [
          23.3194019,
          42.6683422
        ]
      },
      "properties": {
        "id": 13072083482,
        "osm_type": "node",
        "vending": "food;milk",
        "brand": "Мандра Равно поле",
        "operator": "Милк Шоп Еоод"
      }
    },
    {
      "type": "Feature",
      "geometry": {
        "type": "Point",
        "coordinates": [
          23.3194071,
          42.6683542
        ]
      },
      "properties": {
        "id": 13072087577,
        "osm_type": "node",
        "vending": "coffee"
      }
    },
    {
      "type": "Feature",
      "geometry": {
        "type": "Point",
        "coordinates": [
          23.3194105,
          42.6683656
        ]
      },
      "properties": {
        "id": 13072088106,
        "osm_type": "node",
        "vending": "food;drinks"
      }
    },
    {
      "type": "Feature",
      "geometry": {
        "type": "Point",
        "coordinates": [
          23.3188658,
          42.7103365
        ]
      },
      "properties": {
        "id": 13084119993,
        "osm_type": "node",
        "vending": "coffee"
      }
    },
    {
      "type": "Feature",
      "geometry": {
        "type": "Point",
        "coordinates": [
          23.2818167,
          42.6797836
        ]
      },
      "properties": {
        "id": 13108129290,
        "osm_type": "node",
        "vending": "coffee",
        "check_date": "2025-08-25"
      }
    },
    {
      "type": "Feature",
      "geometry": {
        "type": "Point",
        "coordinates": [
          23.3004864,
          42.6666874
        ]
      },
      "properties": {
        "id": 13114649030,
        "osm_type": "node",
        "vending": "coffee",
        "check_date": "2025-09-02"
      }
    },
    {
      "type": "Feature",
      "geometry": {
        "type": "Point",
        "coordinates": [
          23.3726275,
          42.6682105
        ]
      },
      "properties": {
        "id": 13130444967,
        "osm_type": "node",
        "vending": "food"
      }
    },
    {
      "type": "Feature",
      "geometry": {
        "type": "Point",
        "coordinates": [
          23.3726064,
          42.6682252
        ]
      },
      "properties": {
        "id": 13130457551,
        "osm_type": "node",
        "vending": "drinks"
      }
    },
    {
      "type": "Feature",
      "geometry": {
        "type": "Point",
        "coordinates": [
          23.2862585,
          42.6776104
        ]
      },
      "properties": {
        "id": 13207145481,
        "osm_type": "node",
        "vending": "coffee"
      }
    },
    {
      "type": "Feature",
      "geometry": {
        "type": "Point",
        "coordinates": [
          23.3217853,
          42.6985656
        ]
      },
      "properties": {
        "id": 13270643427,
        "osm_type": "node",
        "vending": "coffee",
        "check_date": "2025-10-30"
      }
    },
    {
      "type": "Feature",
      "geometry": {
        "type": "Point",
        "coordinates": [
          23.2429527,
          42.6831855
        ]
      },
      "properties": {
        "id": 13287697939,
        "osm_type": "node",
        "vending": "coffee",
        "check_date": "2025-11-07"
      }
    },
    {
      "type": "Feature",
      "geometry": {
        "type": "Point",
        "coordinates": [
          23.242964,
          42.6831805
        ]
      },
      "properties": {
        "id": 13287697940,
        "osm_type": "node",
        "vending": "food",
        "check_date": "2025-11-07"
      }
    },
    {
      "type": "Feature",
      "geometry": {
        "type": "Point",
        "coordinates": [
          23.2904426,
          42.6663957
        ]
      },
      "properties": {
        "id": 13289195031,
        "osm_type": "node",
        "vending": "coffee",
        "brand": "Lucaffe",
        "check_date": "2025-11-08"
      }
    },
    {
      "type": "Feature",
      "geometry": {
        "type": "Point",
        "coordinates": [
          23.3169904,
          42.6694142
        ]
      },
      "properties": {
        "id": 13307709368,
        "osm_type": "node",
        "vending": "coffee"
      }
    },
    {
      "type": "Feature",
      "geometry": {
        "type": "Point",
        "coordinates": [
          23.3210877,
          42.670658
        ]
      },
      "properties": {
        "id": 13308200656,
        "osm_type": "node",
        "vending": "food;milk",
        "brand": "Мандра Равно поле",
        "operator": "Милк Шоп Еоод"
      }
    },
    {
      "type": "Feature",
      "geometry": {
        "type": "Point",
        "coordinates": [
          23.3033614,
          42.676867
        ]
      },
      "properties": {
        "id": 13374286888,
        "osm_type": "node",
        "vending": "coffee"
      }
    },
    {
      "type": "Feature",
      "geometry": {
        "type": "Point",
        "coordinates": [
          23.378954,
          42.6454924
        ]
      },
      "properties": {
        "id": 13385770546,
        "osm_type": "node",
        "vending": "coffee"
      }
    },
    {
      "type": "Feature",
      "geometry": {
        "type": "Point",
        "coordinates": [
          23.2580862,
          42.71067
        ]
      },
      "properties": {
        "id": 13619522101,
        "osm_type": "node",
        "vending": "coffee",
        "operator": "Kaufland",
        "check_date": "2026-03-05"
      }
    },
    {
      "type": "Feature",
      "geometry": {
        "type": "Point",
        "coordinates": [
          23.3519475,
          42.6992026
        ]
      },
      "properties": {
        "id": 13659387974,
        "osm_type": "node",
        "vending": "coffee"
      }
    },
    {
      "type": "Feature",
      "geometry": {
        "type": "Point",
        "coordinates": [
          23.3460544,
          42.656691
        ]
      },
      "properties": {
        "id": 13682193866,
        "osm_type": "node",
        "vending": "coffee"
      }
    },
    {
      "type": "Feature",
      "geometry": {
        "type": "Point",
        "coordinates": [
          23.3407432,
          42.648288
        ]
      },
      "properties": {
        "id": 13682194319,
        "osm_type": "node",
        "vending": "coffee"
      }
    }
  ]
}