{
  "type": "FeatureCollection",
  "features": [
    {
      "type": "Feature",
      "geometry": {
        "type": "Point",
        "coordinates": [
          19.4878547,
          68.2584814
        ]
      },
      "properties": {
        "id": 332024983,
        "osm_type": "node"
      }
    },
    {
      "type": "Feature",
      "geometry": {
        "type": "Point",
        "coordinates": [
          19.7771522,
          68.1540518
        ]
      },
      "properties": {
        "id": 332025703,
        "osm_type": "node"
      }
    },
    {
      "type": "Feature",
      "geometry": {
        "type": "Point",
        "coordinates": [
          20.6625457,
          67.1337017
        ]
      },
      "properties": {
        "id": 470895447,
        "osm_type": "node"
      }
    },
    {
      "type": "Feature",
      "geometry": {
        "type": "Point",
        "coordinates": [
          20.6781014,
          67.1301582
        ]
      },
      "properties": {
        "id": 470938643,
        "osm_type": "node"
      }
    },
    {
      "type": "Feature",
      "geometry": {
        "type": "Point",
        "coordinates": [
          20.3647173,
          66.6795079
        ]
      },
      "properties": {
        "id": 842469929,
        "osm_type": "node"
      }
    },
    {
      "type": "Feature",
      "geometry": {
        "type": "Point",
        "coordinates": [
          19.013678,
          67.8509729
        ]
      },
      "properties": {
        "id": 884939378,
        "osm_type": "node"
      }
    },
    {
      "type": "Feature",
      "geometry": {
        "type": "Point",
        "coordinates": [
          19.1955774,
          65.5815226
        ]
      },
      "properties": {
        "id": 1370519271,
        "osm_type": "node"
      }
    },
    {
      "type": "Feature",
      "geometry": {
        "type": "Point",
        "coordinates": [
          21.1201973,
          67.4905285
        ]
      },
      "properties": {
        "id": 1420476298,
        "osm_type": "node",
        "access": "yes"
      }
    },
    {
      "type": "Feature",
      "geometry": {
        "type": "Point",
        "coordinates": [
          16.9740668,
          66.3875373
        ]
      },
      "properties": {
        "id": 1512577155,
        "osm_type": "node"
      }
    },
    {
      "type": "Feature",
      "geometry": {
        "type": "Point",
        "coordinates": [
          19.7081546,
          68.2219288
        ]
      },
      "properties": {
        "id": 1515010362,
        "osm_type": "node"
      }
    },
    {
      "type": "Feature",
      "geometry": {
        "type": "Point",
        "coordinates": [
          21.4053385,
          67.6693029
        ]
      },
      "properties": {
        "id": 1700229908,
        "osm_type": "node",
        "access": "yes"
      }
    },
    {
      "type": "Feature",
      "geometry": {
        "type": "Point",
        "coordinates": [
          17.4676995,
          67.7228652
        ]
      },
      "properties": {
        "id": 1894702551,
        "osm_type": "node"
      }
    },
    {
      "type": "Feature",
      "geometry": {
        "type": "Point",
        "coordinates": [
          15.9897393,
          66.7417589
        ]
      },
      "properties": {
        "id": 1935975155,
        "osm_type": "node"
      }
    },
    {
      "type": "Feature",
      "geometry": {
        "type": "Point",
        "coordinates": [
          22.1663969,
          65.7398829
        ]
      },
      "properties": {
        "id": 2314469084,
        "osm_type": "node"
      }
    },
    {
      "type": "Feature",
      "geometry": {
        "type": "Point",
        "coordinates": [
          18.7849206,
          68.3581377
        ]
      },
      "properties": {
        "id": 2367135003,
        "osm_type": "node"
      }
    },
    {
      "type": "Feature",
      "geometry": {
        "type": "Point",
        "coordinates": [
          18.6827415,
          68.4062204
        ]
      },
      "properties": {
        "id": 2367135517,
        "osm_type": "node",
        "access": "customers"
      }
    },
    {
      "type": "Feature",
      "geometry": {
        "type": "Point",
        "coordinates": [
          23.7561666,
          65.7124751
        ]
      },
      "properties": {
        "id": 2407213316,
        "osm_type": "node",
        "access": "permissive"
      }
    },
    {
      "type": "Feature",
      "geometry": {
        "type": "Point",
        "coordinates": [
          22.0938003,
          65.6332595
        ]
      },
      "properties": {
        "id": 2590733118,
        "osm_type": "node",
        "access": "yes"
      }
    },
    {
      "type": "Feature",
      "geometry": {
        "type": "Point",
        "coordinates": [
          21.0222242,
          65.6764334
        ]
      },
      "properties": {
        "id": 2592193174,
        "osm_type": "node",
        "access": "customers"
      }
    },
    {
      "type": "Feature",
      "geometry": {
        "type": "Point",
        "coordinates": [
          18.671175,
          68.4321165
        ]
      },
      "properties": {
        "id": 2648967301,
        "osm_type": "node",
        "access": "yes"
      }
    },
    {
      "type": "Feature",
      "geometry": {
        "type": "Point",
        "coordinates": [
          20.5770761,
          65.522429
        ]
      },
      "properties": {
        "id": 2741362514,
        "osm_type": "node"
      }
    },
    {
      "type": "Feature",
      "geometry": {
        "type": "Point",
        "coordinates": [
          20.4020337,
          65.8519343
        ]
      },
      "properties": {
        "id": 2741858051,
        "osm_type": "node"
      }
    },
    {
      "type": "Feature",
      "geometry": {
        "type": "Point",
        "coordinates": [
          19.7643881,
          66.5506517
        ]
      },
      "properties": {
        "id": 2742157264,
        "osm_type": "node"
      }
    },
    {
      "type": "Feature",
      "geometry": {
        "type": "Point",
        "coordinates": [
          19.8079795,
          66.9568958
        ]
      },
      "properties": {
        "id": 2742157410,
        "osm_type": "node"
      }
    },
    {
      "type": "Feature",
      "geometry": {
        "type": "Point",
        "coordinates": [
          19.5212712,
          65.9547628
        ]
      },
      "properties": {
        "id": 2940583032,
        "osm_type": "node"
      }
    },
    {
      "type": "Feature",
      "geometry": {
        "type": "Point",
        "coordinates": [
          19.49261,
          65.7814077
        ]
      },
      "properties": {
        "id": 2985806473,
        "osm_type": "node",
        "access": "yes"
      }
    },
    {
      "type": "Feature",
      "geometry": {
        "type": "Point",
        "coordinates": [
          21.5146336,
          65.3462262
        ]
      },
      "properties": {
        "id": 3020456905,
        "osm_type": "node"
      }
    },
    {
      "type": "Feature",
      "geometry": {
        "type": "Point",
        "coordinates": [
          21.5071423,
          65.3476963
        ]
      },
      "properties": {
        "id": 3020457050,
        "osm_type": "node"
      }
    },
    {
      "type": "Feature",
      "geometry": {
        "type": "Point",
        "coordinates": [
          21.4950606,
          65.3502212
        ]
      },
      "properties": {
        "id": 3020457113,
        "osm_type": "node"
      }
    },
    {
      "type": "Feature",
      "geometry": {
        "type": "Point",
        "coordinates": [
          18.5055902,
          68.1942415
        ]
      },
      "properties": {
        "id": 3399331394,
        "osm_type": "node"
      }
    },
    {
      "type": "Feature",
      "geometry": {
        "type": "Point",
        "coordinates": [
          24.0381157,
          65.9636728
        ]
      },
      "properties": {
        "id": 3589561475,
        "osm_type": "node"
      }
    },
    {
      "type": "Feature",
      "geometry": {
        "type": "Point",
        "coordinates": [
          23.6591996,
          67.0896554
        ]
      },
      "properties": {
        "id": 3600756962,
        "osm_type": "node"
      }
    },
    {
      "type": "Feature",
      "geometry": {
        "type": "Point",
        "coordinates": [
          19.5196992,
          65.9521804
        ]
      },
      "properties": {
        "id": 3602661812,
        "osm_type": "node",
        "access": "yes"
      }
    },
    {
      "type": "Feature",
      "geometry": {
        "type": "Point",
        "coordinates": [
          17.7279386,
          66.9528191
        ]
      },
      "properties": {
        "id": 3607904560,
        "osm_type": "node",
        "access": "customers"
      }
    },
    {
      "type": "Feature",
      "geometry": {
        "type": "Point",
        "coordinates": [
          18.1631605,
          65.5887053
        ]
      },
      "properties": {
        "id": 3627297601,
        "osm_type": "node"
      }
    },
    {
      "type": "Feature",
      "geometry": {
        "type": "Point",
        "coordinates": [
          20.6164117,
          66.4472246
        ]
      },
      "properties": {
        "id": 3633159536,
        "osm_type": "node"
      }
    },
    {
      "type": "Feature",
      "geometry": {
        "type": "Point",
        "coordinates": [
          21.2932531,
          65.2321224
        ]
      },
      "properties": {
        "id": 3702152589,
        "osm_type": "node"
      }
    },
    {
      "type": "Feature",
      "geometry": {
        "type": "Point",
        "coordinates": [
          23.7244664,
          65.9629361
        ]
      },
      "properties": {
        "id": 3702967976,
        "osm_type": "node"
      }
    },
    {
      "type": "Feature",
      "geometry": {
        "type": "Point",
        "coordinates": [
          17.9672475,
          67.9358949
        ]
      },
      "properties": {
        "id": 3711752550,
        "osm_type": "node"
      }
    },
    {
      "type": "Feature",
      "geometry": {
        "type": "Point",
        "coordinates": [
          18.3944768,
          68.0171033
        ]
      },
      "properties": {
        "id": 3711826627,
        "osm_type": "node"
      }
    },
    {
      "type": "Feature",
      "geometry": {
        "type": "Point",
        "coordinates": [
          18.5965915,
          68.0317082
        ]
      },
      "properties": {
        "id": 3711918238,
        "osm_type": "node"
      }
    },
    {
      "type": "Feature",
      "geometry": {
        "type": "Point",
        "coordinates": [
          21.5090168,
          65.1432796
        ]
      },
      "properties": {
        "id": 4159657196,
        "osm_type": "node"
      }
    },
    {
      "type": "Feature",
      "geometry": {
        "type": "Point",
        "coordinates": [
          19.7389495,
          67.1005976
        ]
      },
      "properties": {
        "id": 4268814862,
        "osm_type": "node",
        "access": "yes"
      }
    },
    {
      "type": "Feature",
      "geometry": {
        "type": "Point",
        "coordinates": [
          18.1094122,
          68.4297218
        ]
      },
      "properties": {
        "id": 4301746295,
        "osm_type": "node",
        "access": "yes"
      }
    },
    {
      "type": "Feature",
      "geometry": {
        "type": "Point",
        "coordinates": [
          17.911675,
          66.0872638
        ]
      },
      "properties": {
        "id": 4304839385,
        "osm_type": "node"
      }
    },
    {
      "type": "Feature",
      "geometry": {
        "type": "Point",
        "coordinates": [
          19.8543192,
          66.5887004
        ]
      },
      "properties": {
        "id": 4305855394,
        "osm_type": "node"
      }
    },
    {
      "type": "Feature",
      "geometry": {
        "type": "Point",
        "coordinates": [
          17.9440917,
          66.1137734
        ]
      },
      "properties": {
        "id": 4305953767,
        "osm_type": "node"
      }
    },
    {
      "type": "Feature",
      "geometry": {
        "type": "Point",
        "coordinates": [
          18.2589095,
          68.4295995
        ]
      },
      "properties": {
        "id": 4307032220,
        "osm_type": "node"
      }
    },
    {
      "type": "Feature",
      "geometry": {
        "type": "Point",
        "coordinates": [
          18.3544478,
          68.4242864
        ]
      },
      "properties": {
        "id": 4307032405,
        "osm_type": "node",
        "access": "yes"
      }
    },
    {
      "type": "Feature",
      "geometry": {
        "type": "Point",
        "coordinates": [
          18.185185,
          68.4202364
        ]
      },
      "properties": {
        "id": 4307032597,
        "osm_type": "node",
        "access": "yes"
      }
    },
    {
      "type": "Feature",
      "geometry": {
        "type": "Point",
        "coordinates": [
          18.1842766,
          68.2042978
        ]
      },
      "properties": {
        "id": 4310331694,
        "osm_type": "node",
        "access": "yes"
      }
    },
    {
      "type": "Feature",
      "geometry": {
        "type": "Point",
        "coordinates": [
          23.8980666,
          66.8034073
        ]
      },
      "properties": {
        "id": 4332811012,
        "osm_type": "node"
      }
    },
    {
      "type": "Feature",
      "geometry": {
        "type": "Point",
        "coordinates": [
          19.1992953,
          65.5836504
        ]
      },
      "properties": {
        "id": 4332833530,
        "osm_type": "node"
      }
    },
    {
      "type": "Feature",
      "geometry": {
        "type": "Point",
        "coordinates": [
          18.5845686,
          68.2626702
        ]
      },
      "properties": {
        "id": 4341560648,
        "osm_type": "node",
        "access": "yes"
      }
    },
    {
      "type": "Feature",
      "geometry": {
        "type": "Point",
        "coordinates": [
          18.6792936,
          68.3102089
        ]
      },
      "properties": {
        "id": 4341597514,
        "osm_type": "node",
        "access": "yes"
      }
    },
    {
      "type": "Feature",
      "geometry": {
        "type": "Point",
        "coordinates": [
          18.6497681,
          67.8688517
        ]
      },
      "properties": {
        "id": 4344500796,
        "osm_type": "node",
        "access": "yes"
      }
    },
    {
      "type": "Feature",
      "geometry": {
        "type": "Point",
        "coordinates": [
          18.599628,
          67.9191368
        ]
      },
      "properties": {
        "id": 4344571253,
        "osm_type": "node",
        "access": "yes"
      }
    },
    {
      "type": "Feature",
      "geometry": {
        "type": "Point",
        "coordinates": [
          18.7651451,
          68.0957339
        ]
      },
      "properties": {
        "id": 4347554217,
        "osm_type": "node",
        "access": "yes"
      }
    },
    {
      "type": "Feature",
      "geometry": {
        "type": "Point",
        "coordinates": [
          18.8363323,
          68.1402139
        ]
      },
      "properties": {
        "id": 4347726892,
        "osm_type": "node",
        "access": "yes"
      }
    },
    {
      "type": "Feature",
      "geometry": {
        "type": "Point",
        "coordinates": [
          18.7920909,
          68.3578246
        ]
      },
      "properties": {
        "id": 4348431889,
        "osm_type": "node",
        "access": "yes"
      }
    },
    {
      "type": "Feature",
      "geometry": {
        "type": "Point",
        "coordinates": [
          19.2308601,
          68.3029202
        ]
      },
      "properties": {
        "id": 4348456290,
        "osm_type": "node",
        "access": "yes"
      }
    },
    {
      "type": "Feature",
      "geometry": {
        "type": "Point",
        "coordinates": [
          18.787993,
          67.8531483
        ]
      },
      "properties": {
        "id": 4353281384,
        "osm_type": "node",
        "access": "yes"
      }
    },
    {
      "type": "Feature",
      "geometry": {
        "type": "Point",
        "coordinates": [
          20.703572,
          67.1400384
        ]
      },
      "properties": {
        "id": 4355756493,
        "osm_type": "node",
        "access": "yes"
      }
    },
    {
      "type": "Feature",
      "geometry": {
        "type": "Point",
        "coordinates": [
          20.6177873,
          67.101781
        ]
      },
      "properties": {
        "id": 4359224645,
        "osm_type": "node",
        "access": "yes"
      }
    },
    {
      "type": "Feature",
      "geometry": {
        "type": "Point",
        "coordinates": [
          20.332607,
          66.8511892
        ]
      },
      "properties": {
        "id": 4367831996,
        "osm_type": "node",
        "access": "yes"
      }
    },
    {
      "type": "Feature",
      "geometry": {
        "type": "Point",
        "coordinates": [
          20.2358452,
          66.8722142
        ]
      },
      "properties": {
        "id": 4367832008,
        "osm_type": "node",
        "access": "yes"
      }
    },
    {
      "type": "Feature",
      "geometry": {
        "type": "Point",
        "coordinates": [
          20.1962398,
          66.7500499
        ]
      },
      "properties": {
        "id": 4367877693,
        "osm_type": "node",
        "access": "yes"
      }
    },
    {
      "type": "Feature",
      "geometry": {
        "type": "Point",
        "coordinates": [
          20.1255354,
          66.7659577
        ]
      },
      "properties": {
        "id": 4367877895,
        "osm_type": "node",
        "access": "yes"
      }
    },
    {
      "type": "Feature",
      "geometry": {
        "type": "Point",
        "coordinates": [
          20.3245183,
          66.8017833
        ]
      },
      "properties": {
        "id": 4367877902,
        "osm_type": "node",
        "access": "yes"
      }
    },
    {
      "type": "Feature",
      "geometry": {
        "type": "Point",
        "coordinates": [
          20.1533074,
          66.8185141
        ]
      },
      "properties": {
        "id": 4367877916,
        "osm_type": "node",
        "access": "yes"
      }
    },
    {
      "type": "Feature",
      "geometry": {
        "type": "Point",
        "coordinates": [
          20.160134,
          66.8213826
        ]
      },
      "properties": {
        "id": 4367894498,
        "osm_type": "node",
        "access": "yes"
      }
    },
    {
      "type": "Feature",
      "geometry": {
        "type": "Point",
        "coordinates": [
          20.1451168,
          66.8083248
        ]
      },
      "properties": {
        "id": 4367911905,
        "osm_type": "node",
        "access": "yes"
      }
    },
    {
      "type": "Feature",
      "geometry": {
        "type": "Point",
        "coordinates": [
          20.1492178,
          66.8144536
        ]
      },
      "properties": {
        "id": 4367928904,
        "osm_type": "node",
        "access": "yes"
      }
    },
    {
      "type": "Feature",
      "geometry": {
        "type": "Point",
        "coordinates": [
          20.619864,
          67.8463577
        ]
      },
      "properties": {
        "id": 4721848709,
        "osm_type": "node",
        "access": "yes"
      }
    },
    {
      "type": "Feature",
      "geometry": {
        "type": "Point",
        "coordinates": [
          21.6128674,
          67.8107964
        ]
      },
      "properties": {
        "id": 4971157761,
        "osm_type": "node"
      }
    },
    {
      "type": "Feature",
      "geometry": {
        "type": "Point",
        "coordinates": [
          17.7913366,
          66.9979288
        ]
      },
      "properties": {
        "id": 5060085775,
        "osm_type": "node",
        "access": "yes"
      }
    },
    {
      "type": "Feature",
      "geometry": {
        "type": "Point",
        "coordinates": [
          20.4246675,
          65.8591158
        ]
      },
      "properties": {
        "id": 5079937897,
        "osm_type": "node",
        "access": "yes"
      }
    },
    {
      "type": "Feature",
      "geometry": {
        "type": "Point",
        "coordinates": [
          23.7820611,
          66.5321889
        ]
      },
      "properties": {
        "id": 5119102668,
        "osm_type": "node"
      }
    },
    {
      "type": "Feature",
      "geometry": {
        "type": "Point",
        "coordinates": [
          22.6456878,
          65.8339607
        ]
      },
      "properties": {
        "id": 5122679137,
        "osm_type": "node"
      }
    },
    {
      "type": "Feature",
      "geometry": {
        "type": "Point",
        "coordinates": [
          20.1127321,
          66.7702857
        ]
      },
      "properties": {
        "id": 5390795600,
        "osm_type": "node",
        "access": "yes"
      }
    },
    {
      "type": "Feature",
      "geometry": {
        "type": "Point",
        "coordinates": [
          18.7860337,
          68.3587491
        ]
      },
      "properties": {
        "id": 5484997229,
        "osm_type": "node",
        "access": "customers"
      }
    },
    {
      "type": "Feature",
      "geometry": {
        "type": "Point",
        "coordinates": [
          18.7857775,
          68.35876
        ]
      },
      "properties": {
        "id": 5484997230,
        "osm_type": "node",
        "access": "customers"
      }
    },
    {
      "type": "Feature",
      "geometry": {
        "type": "Point",
        "coordinates": [
          18.2470569,
          68.0196383
        ]
      },
      "properties": {
        "id": 5746664824,
        "osm_type": "node"
      }
    },
    {
      "type": "Feature",
      "geometry": {
        "type": "Point",
        "coordinates": [
          22.1730554,
          65.5973782
        ]
      },
      "properties": {
        "id": 5758105284,
        "osm_type": "node"
      }
    },
    {
      "type": "Feature",
      "geometry": {
        "type": "Point",
        "coordinates": [
          22.786191,
          66.9150281
        ]
      },
      "properties": {
        "id": 5768955797,
        "osm_type": "node"
      }
    },
    {
      "type": "Feature",
      "geometry": {
        "type": "Point",
        "coordinates": [
          22.7862216,
          66.914998
        ]
      },
      "properties": {
        "id": 5768955799,
        "osm_type": "node"
      }
    },
    {
      "type": "Feature",
      "geometry": {
        "type": "Point",
        "coordinates": [
          21.5265117,
          65.442698
        ]
      },
      "properties": {
        "id": 5776568035,
        "osm_type": "node"
      }
    },
    {
      "type": "Feature",
      "geometry": {
        "type": "Point",
        "coordinates": [
          21.5263497,
          65.4426392
        ]
      },
      "properties": {
        "id": 5776568036,
        "osm_type": "node"
      }
    },
    {
      "type": "Feature",
      "geometry": {
        "type": "Point",
        "coordinates": [
          18.6574336,
          68.4326626
        ]
      },
      "properties": {
        "id": 5892838702,
        "osm_type": "node"
      }
    },
    {
      "type": "Feature",
      "geometry": {
        "type": "Point",
        "coordinates": [
          20.868737,
          66.2331584
        ]
      },
      "properties": {
        "id": 6553169987,
        "osm_type": "node"
      }
    },
    {
      "type": "Feature",
      "geometry": {
        "type": "Point",
        "coordinates": [
          21.665572,
          65.8007478
        ]
      },
      "properties": {
        "id": 6553171585,
        "osm_type": "node"
      }
    },
    {
      "type": "Feature",
      "geometry": {
        "type": "Point",
        "coordinates": [
          18.7871188,
          67.4024427
        ]
      },
      "properties": {
        "id": 6561667885,
        "osm_type": "node"
      }
    },
    {
      "type": "Feature",
      "geometry": {
        "type": "Point",
        "coordinates": [
          19.8805056,
          66.8176574
        ]
      },
      "properties": {
        "id": 6561708185,
        "osm_type": "node"
      }
    },
    {
      "type": "Feature",
      "geometry": {
        "type": "Point",
        "coordinates": [
          22.6353371,
          67.1629515
        ]
      },
      "properties": {
        "id": 6573082186,
        "osm_type": "node"
      }
    },
    {
      "type": "Feature",
      "geometry": {
        "type": "Point",
        "coordinates": [
          23.860551,
          66.6543104
        ]
      },
      "properties": {
        "id": 6576728086,
        "osm_type": "node"
      }
    },
    {
      "type": "Feature",
      "geometry": {
        "type": "Point",
        "coordinates": [
          23.1405859,
          66.9209369
        ]
      },
      "properties": {
        "id": 6585799842,
        "osm_type": "node"
      }
    },
    {
      "type": "Feature",
      "geometry": {
        "type": "Point",
        "coordinates": [
          21.9513992,
          66.0105581
        ]
      },
      "properties": {
        "id": 6586419587,
        "osm_type": "node"
      }
    },
    {
      "type": "Feature",
      "geometry": {
        "type": "Point",
        "coordinates": [
          22.0274524,
          65.6449162
        ]
      },
      "properties": {
        "id": 6588162882,
        "osm_type": "node"
      }
    },
    {
      "type": "Feature",
      "geometry": {
        "type": "Point",
        "coordinates": [
          21.580176,
          65.2450036
        ]
      },
      "properties": {
        "id": 6588204427,
        "osm_type": "node"
      }
    },
    {
      "type": "Feature",
      "geometry": {
        "type": "Point",
        "coordinates": [
          21.0543238,
          65.6832916
        ]
      },
      "properties": {
        "id": 6594618429,
        "osm_type": "node"
      }
    },
    {
      "type": "Feature",
      "geometry": {
        "type": "Point",
        "coordinates": [
          18.5197836,
          67.3935051
        ]
      },
      "properties": {
        "id": 6644196527,
        "osm_type": "node"
      }
    },
    {
      "type": "Feature",
      "geometry": {
        "type": "Point",
        "coordinates": [
          23.2193202,
          66.4398153
        ]
      },
      "properties": {
        "id": 6661614024,
        "osm_type": "node",
        "access": "yes"
      }
    },
    {
      "type": "Feature",
      "geometry": {
        "type": "Point",
        "coordinates": [
          16.3344678,
          66.549369
        ]
      },
      "properties": {
        "id": 6698973185,
        "osm_type": "node"
      }
    },
    {
      "type": "Feature",
      "geometry": {
        "type": "Point",
        "coordinates": [
          19.460949,
          65.9207855
        ]
      },
      "properties": {
        "id": 6720504228,
        "osm_type": "node"
      }
    },
    {
      "type": "Feature",
      "geometry": {
        "type": "Point",
        "coordinates": [
          18.8012997,
          68.3616283
        ]
      },
      "properties": {
        "id": 6746281886,
        "osm_type": "node",
        "opening_hours": "24/7"
      }
    },
    {
      "type": "Feature",
      "geometry": {
        "type": "Point",
        "coordinates": [
          20.5600834,
          67.1161913
        ]
      },
      "properties": {
        "id": 6779358649,
        "osm_type": "node"
      }
    },
    {
      "type": "Feature",
      "geometry": {
        "type": "Point",
        "coordinates": [
          20.5602005,
          67.065701
        ]
      },
      "properties": {
        "id": 7292116094,
        "osm_type": "node"
      }
    },
    {
      "type": "Feature",
      "geometry": {
        "type": "Point",
        "coordinates": [
          23.8586734,
          66.5719491
        ]
      },
      "properties": {
        "id": 7733936822,
        "osm_type": "node"
      }
    },
    {
      "type": "Feature",
      "geometry": {
        "type": "Point",
        "coordinates": [
          21.9250269,
          68.2179247
        ]
      },
      "properties": {
        "id": 7738466107,
        "osm_type": "node"
      }
    },
    {
      "type": "Feature",
      "geometry": {
        "type": "Point",
        "coordinates": [
          18.5882858,
          65.7429703
        ]
      },
      "properties": {
        "id": 7772295712,
        "osm_type": "node"
      }
    },
    {
      "type": "Feature",
      "geometry": {
        "type": "Point",
        "coordinates": [
          19.1993651,
          65.583692
        ]
      },
      "properties": {
        "id": 7772732635,
        "osm_type": "node"
      }
    },
    {
      "type": "Feature",
      "geometry": {
        "type": "Point",
        "coordinates": [
          19.1989788,
          65.583845
        ]
      },
      "properties": {
        "id": 7772751918,
        "osm_type": "node"
      }
    },
    {
      "type": "Feature",
      "geometry": {
        "type": "Point",
        "coordinates": [
          15.8379537,
          66.7553481
        ]
      },
      "properties": {
        "id": 7774353580,
        "osm_type": "node"
      }
    },
    {
      "type": "Feature",
      "geometry": {
        "type": "Point",
        "coordinates": [
          16.217667,
          66.6265159
        ]
      },
      "properties": {
        "id": 7775886754,
        "osm_type": "node",
        "access": "yes"
      }
    },
    {
      "type": "Feature",
      "geometry": {
        "type": "Point",
        "coordinates": [
          21.6554047,
          65.7927424
        ]
      },
      "properties": {
        "id": 7776120993,
        "osm_type": "node"
      }
    },
    {
      "type": "Feature",
      "geometry": {
        "type": "Point",
        "coordinates": [
          15.8379212,
          66.7553636
        ]
      },
      "properties": {
        "id": 7792313432,
        "osm_type": "node"
      }
    },
    {
      "type": "Feature",
      "geometry": {
        "type": "Point",
        "coordinates": [
          21.4884628,
          65.1272
        ]
      },
      "properties": {
        "id": 7807707433,
        "osm_type": "node"
      }
    },
    {
      "type": "Feature",
      "geometry": {
        "type": "Point",
        "coordinates": [
          22.399505,
          65.9501567
        ]
      },
      "properties": {
        "id": 7824040378,
        "osm_type": "node"
      }
    },
    {
      "type": "Feature",
      "geometry": {
        "type": "Point",
        "coordinates": [
          19.271021,
          66.0257208
        ]
      },
      "properties": {
        "id": 7883740484,
        "osm_type": "node"
      }
    },
    {
      "type": "Feature",
      "geometry": {
        "type": "Point",
        "coordinates": [
          20.7682693,
          65.7766551
        ]
      },
      "properties": {
        "id": 8992073228,
        "osm_type": "node"
      }
    },
    {
      "type": "Feature",
      "geometry": {
        "type": "Point",
        "coordinates": [
          20.7764742,
          65.7762996
        ]
      },
      "properties": {
        "id": 8992073235,
        "osm_type": "node"
      }
    },
    {
      "type": "Feature",
      "geometry": {
        "type": "Point",
        "coordinates": [
          21.3566092,
          65.3543418
        ]
      },
      "properties": {
        "id": 8992073263,
        "osm_type": "node"
      }
    },
    {
      "type": "Feature",
      "geometry": {
        "type": "Point",
        "coordinates": [
          20.1254499,
          66.7835661
        ]
      },
      "properties": {
        "id": 9024634607,
        "osm_type": "node",
        "name": "Toilett"
      }
    },
    {
      "type": "Feature",
      "geometry": {
        "type": "Point",
        "coordinates": [
          16.3347921,
          66.5493837
        ]
      },
      "properties": {
        "id": 9037396156,
        "osm_type": "node",
        "access": "yes"
      }
    },
    {
      "type": "Feature",
      "geometry": {
        "type": "Point",
        "coordinates": [
          18.8317243,
          68.3503035
        ]
      },
      "properties": {
        "id": 9048747645,
        "osm_type": "node",
        "opening_hours": "Mo-Su 09:00-21:00",
        "access": "customers"
      }
    },
    {
      "type": "Feature",
      "geometry": {
        "type": "Point",
        "coordinates": [
          18.8290458,
          68.3488993
        ]
      },
      "properties": {
        "id": 9048747646,
        "osm_type": "node",
        "opening_hours": "Mo-Su,PH 00:00-24:00"
      }
    },
    {
      "type": "Feature",
      "geometry": {
        "type": "Point",
        "coordinates": [
          22.3695213,
          65.8410042
        ]
      },
      "properties": {
        "id": 9779977236,
        "osm_type": "node"
      }
    },
    {
      "type": "Feature",
      "geometry": {
        "type": "Point",
        "coordinates": [
          18.1786492,
          65.5832221
        ]
      },
      "properties": {
        "id": 9864435492,
        "osm_type": "node",
        "opening_hours": "24/7"
      }
    },
    {
      "type": "Feature",
      "geometry": {
        "type": "Point",
        "coordinates": [
          19.2514073,
          66.0288318
        ]
      },
      "properties": {
        "id": 9864480493,
        "osm_type": "node",
        "opening_hours": "24/7"
      }
    },
    {
      "type": "Feature",
      "geometry": {
        "type": "Point",
        "coordinates": [
          19.2297105,
          66.034964
        ]
      },
      "properties": {
        "id": 9864492002,
        "osm_type": "node",
        "opening_hours": "24/7"
      }
    },
    {
      "type": "Feature",
      "geometry": {
        "type": "Point",
        "coordinates": [
          18.1051341,
          67.0817334
        ]
      },
      "properties": {
        "id": 9864492003,
        "osm_type": "node"
      }
    },
    {
      "type": "Feature",
      "geometry": {
        "type": "Point",
        "coordinates": [
          18.2881441,
          67.1168432
        ]
      },
      "properties": {
        "id": 9864500706,
        "osm_type": "node"
      }
    },
    {
      "type": "Feature",
      "geometry": {
        "type": "Point",
        "coordinates": [
          18.5815522,
          67.0782017
        ]
      },
      "properties": {
        "id": 9864502179,
        "osm_type": "node"
      }
    },
    {
      "type": "Feature",
      "geometry": {
        "type": "Point",
        "coordinates": [
          19.9225748,
          67.9915365
        ]
      },
      "properties": {
        "id": 9871859654,
        "osm_type": "node"
      }
    },
    {
      "type": "Feature",
      "geometry": {
        "type": "Point",
        "coordinates": [
          18.6185792,
          68.4355836
        ]
      },
      "properties": {
        "id": 9874474285,
        "osm_type": "node"
      }
    },
    {
      "type": "Feature",
      "geometry": {
        "type": "Point",
        "coordinates": [
          21.1184866,
          67.4517079
        ]
      },
      "properties": {
        "id": 9951092236,
        "osm_type": "node"
      }
    },
    {
      "type": "Feature",
      "geometry": {
        "type": "Point",
        "coordinates": [
          24.138355,
          65.8432117
        ]
      },
      "properties": {
        "id": 9991843149,
        "osm_type": "node",
        "opening_hours": "Mo-Fr 04:00-19:00; Sa,Su 07:00-19:00"
      }
    },
    {
      "type": "Feature",
      "geometry": {
        "type": "Point",
        "coordinates": [
          23.2529064,
          65.8668351
        ]
      },
      "properties": {
        "id": 10058068617,
        "osm_type": "node",
        "opening_hours": "24/7"
      }
    },
    {
      "type": "Feature",
      "geometry": {
        "type": "Point",
        "coordinates": [
          23.2525158,
          65.8669305
        ]
      },
      "properties": {
        "id": 10058068718,
        "osm_type": "node"
      }
    },
    {
      "type": "Feature",
      "geometry": {
        "type": "Point",
        "coordinates": [
          22.1628845,
          66.8099123
        ]
      },
      "properties": {
        "id": 10059404618,
        "osm_type": "node",
        "opening_hours": "24/7"
      }
    },
    {
      "type": "Feature",
      "geometry": {
        "type": "Point",
        "coordinates": [
          21.5040344,
          66.9331881
        ]
      },
      "properties": {
        "id": 10060588717,
        "osm_type": "node",
        "opening_hours": "24/7"
      }
    },
    {
      "type": "Feature",
      "geometry": {
        "type": "Point",
        "coordinates": [
          20.7523061,
          66.96606
        ]
      },
      "properties": {
        "id": 10067413529,
        "osm_type": "node",
        "access": "yes"
      }
    },
    {
      "type": "Feature",
      "geometry": {
        "type": "Point",
        "coordinates": [
          19.1181857,
          65.7553681
        ]
      },
      "properties": {
        "id": 10068063917,
        "osm_type": "node",
        "opening_hours": "24/7"
      }
    },
    {
      "type": "Feature",
      "geometry": {
        "type": "Point",
        "coordinates": [
          21.8568366,
          66.1100956
        ]
      },
      "properties": {
        "id": 10674535435,
        "osm_type": "node",
        "name": "Utedass",
        "access": "yes"
      }
    },
    {
      "type": "Feature",
      "geometry": {
        "type": "Point",
        "coordinates": [
          18.6792846,
          68.4013156
        ]
      },
      "properties": {
        "id": 10702033210,
        "osm_type": "node"
      }
    },
    {
      "type": "Feature",
      "geometry": {
        "type": "Point",
        "coordinates": [
          22.8472638,
          66.322945
        ]
      },
      "properties": {
        "id": 10781410304,
        "osm_type": "node",
        "access": "customers"
      }
    },
    {
      "type": "Feature",
      "geometry": {
        "type": "Point",
        "coordinates": [
          21.7487472,
          66.1197577
        ]
      },
      "properties": {
        "id": 10896017327,
        "osm_type": "node",
        "name": "Torrtoalett",
        "access": "yes"
      }
    },
    {
      "type": "Feature",
      "geometry": {
        "type": "Point",
        "coordinates": [
          16.9605478,
          66.3835964
        ]
      },
      "properties": {
        "id": 11011978105,
        "osm_type": "node"
      }
    },
    {
      "type": "Feature",
      "geometry": {
        "type": "Point",
        "coordinates": [
          21.5556796,
          65.4236267
        ]
      },
      "properties": {
        "id": 11018141076,
        "osm_type": "node",
        "access": "yes"
      }
    },
    {
      "type": "Feature",
      "geometry": {
        "type": "Point",
        "coordinates": [
          22.6573258,
          65.9111243
        ]
      },
      "properties": {
        "id": 11019630111,
        "osm_type": "node"
      }
    },
    {
      "type": "Feature",
      "geometry": {
        "type": "Point",
        "coordinates": [
          16.8016628,
          67.3741731
        ]
      },
      "properties": {
        "id": 11051004232,
        "osm_type": "node"
      }
    },
    {
      "type": "Feature",
      "geometry": {
        "type": "Point",
        "coordinates": [
          17.0313907,
          67.5857858
        ]
      },
      "properties": {
        "id": 11051009063,
        "osm_type": "node",
        "access": "yes"
      }
    },
    {
      "type": "Feature",
      "geometry": {
        "type": "Point",
        "coordinates": [
          16.9010413,
          67.4639029
        ]
      },
      "properties": {
        "id": 11051027427,
        "osm_type": "node",
        "access": "yes"
      }
    },
    {
      "type": "Feature",
      "geometry": {
        "type": "Point",
        "coordinates": [
          16.6853729,
          67.3173445
        ]
      },
      "properties": {
        "id": 11051032252,
        "osm_type": "node",
        "access": "yes"
      }
    },
    {
      "type": "Feature",
      "geometry": {
        "type": "Point",
        "coordinates": [
          16.5933201,
          67.240449
        ]
      },
      "properties": {
        "id": 11051035284,
        "osm_type": "node"
      }
    },
    {
      "type": "Feature",
      "geometry": {
        "type": "Point",
        "coordinates": [
          17.2501148,
          67.6886086
        ]
      },
      "properties": {
        "id": 11051035286,
        "osm_type": "node",
        "access": "yes"
      }
    },
    {
      "type": "Feature",
      "geometry": {
        "type": "Point",
        "coordinates": [
          23.0543375,
          66.8532092
        ]
      },
      "properties": {
        "id": 11053737237,
        "osm_type": "node",
        "opening_hours": "Jun-Aug: 11:00-17:00",
        "access": "customers"
      }
    },
    {
      "type": "Feature",
      "geometry": {
        "type": "Point",
        "coordinates": [
          23.6820871,
          66.7043403
        ]
      },
      "properties": {
        "id": 11055525204,
        "osm_type": "node"
      }
    },
    {
      "type": "Feature",
      "geometry": {
        "type": "Point",
        "coordinates": [
          23.8827417,
          65.9608836
        ]
      },
      "properties": {
        "id": 11076851305,
        "osm_type": "node"
      }
    },
    {
      "type": "Feature",
      "geometry": {
        "type": "Point",
        "coordinates": [
          23.5358897,
          65.9419307
        ]
      },
      "properties": {
        "id": 11077202205,
        "osm_type": "node"
      }
    },
    {
      "type": "Feature",
      "geometry": {
        "type": "Point",
        "coordinates": [
          22.6064348,
          67.3040268
        ]
      },
      "properties": {
        "id": 11109523604,
        "osm_type": "node"
      }
    },
    {
      "type": "Feature",
      "geometry": {
        "type": "Point",
        "coordinates": [
          22.6137036,
          67.3516263
        ]
      },
      "properties": {
        "id": 11109930668,
        "osm_type": "node"
      }
    },
    {
      "type": "Feature",
      "geometry": {
        "type": "Point",
        "coordinates": [
          20.0016942,
          66.136853
        ]
      },
      "properties": {
        "id": 11117179196,
        "osm_type": "node"
      }
    },
    {
      "type": "Feature",
      "geometry": {
        "type": "Point",
        "coordinates": [
          17.3489749,
          66.7179764
        ]
      },
      "properties": {
        "id": 11206281713,
        "osm_type": "node"
      }
    },
    {
      "type": "Feature",
      "geometry": {
        "type": "Point",
        "coordinates": [
          17.3413544,
          66.7163123
        ]
      },
      "properties": {
        "id": 11206281715,
        "osm_type": "node"
      }
    },
    {
      "type": "Feature",
      "geometry": {
        "type": "Point",
        "coordinates": [
          19.107863,
          65.9062249
        ]
      },
      "properties": {
        "id": 11208540738,
        "osm_type": "node"
      }
    },
    {
      "type": "Feature",
      "geometry": {
        "type": "Point",
        "coordinates": [
          21.4284816,
          67.6902577
        ]
      },
      "properties": {
        "id": 11300431546,
        "osm_type": "node"
      }
    },
    {
      "type": "Feature",
      "geometry": {
        "type": "Point",
        "coordinates": [
          22.8415086,
          65.9971148
        ]
      },
      "properties": {
        "id": 11300585912,
        "osm_type": "node"
      }
    },
    {
      "type": "Feature",
      "geometry": {
        "type": "Point",
        "coordinates": [
          21.5092004,
          65.1441455
        ]
      },
      "properties": {
        "id": 11898970618,
        "osm_type": "node",
        "opening_hours": "May-Oct"
      }
    },
    {
      "type": "Feature",
      "geometry": {
        "type": "Point",
        "coordinates": [
          20.6756033,
          67.1274551
        ]
      },
      "properties": {
        "id": 11904566414,
        "osm_type": "node",
        "opening_hours": "24/7",
        "access": "customers"
      }
    },
    {
      "type": "Feature",
      "geometry": {
        "type": "Point",
        "coordinates": [
          20.6754245,
          67.1275568
        ]
      },
      "properties": {
        "id": 11904567883,
        "osm_type": "node",
        "opening_hours": "24/7",
        "access": "customers"
      }
    },
    {
      "type": "Feature",
      "geometry": {
        "type": "Point",
        "coordinates": [
          20.6514078,
          67.1336567
        ]
      },
      "properties": {
        "id": 11904569198,
        "osm_type": "node",
        "opening_hours": "06:00-22:00",
        "access": "yes"
      }
    },
    {
      "type": "Feature",
      "geometry": {
        "type": "Point",
        "coordinates": [
          23.6570565,
          66.3901672
        ]
      },
      "properties": {
        "id": 11921456326,
        "osm_type": "node",
        "opening_hours": "Mo-Fr 06:00-08:00, 11:00-14:00, 15:00-18:30, 22:00-22:30; Sa 09:00-12:30; Su 11:45-12:30, 16:30-17:00"
      }
    },
    {
      "type": "Feature",
      "geometry": {
        "type": "Point",
        "coordinates": [
          24.1315467,
          65.8281305
        ]
      },
      "properties": {
        "id": 11922186627,
        "osm_type": "node"
      }
    },
    {
      "type": "Feature",
      "geometry": {
        "type": "Point",
        "coordinates": [
          22.1522841,
          65.5805666
        ]
      },
      "properties": {
        "id": 11991974834,
        "osm_type": "node"
      }
    },
    {
      "type": "Feature",
      "geometry": {
        "type": "Point",
        "coordinates": [
          21.6025019,
          65.5134906
        ]
      },
      "properties": {
        "id": 12000905469,
        "osm_type": "node"
      }
    },
    {
      "type": "Feature",
      "geometry": {
        "type": "Point",
        "coordinates": [
          22.2539929,
          66.1557389
        ]
      },
      "properties": {
        "id": 12002763549,
        "osm_type": "node"
      }
    },
    {
      "type": "Feature",
      "geometry": {
        "type": "Point",
        "coordinates": [
          23.5185199,
          67.4476018
        ]
      },
      "properties": {
        "id": 12009172999,
        "osm_type": "node"
      }
    },
    {
      "type": "Feature",
      "geometry": {
        "type": "Point",
        "coordinates": [
          23.4308722,
          67.458245
        ]
      },
      "properties": {
        "id": 12009313457,
        "osm_type": "node"
      }
    },
    {
      "type": "Feature",
      "geometry": {
        "type": "Point",
        "coordinates": [
          23.3970267,
          67.4804128
        ]
      },
      "properties": {
        "id": 12009317662,
        "osm_type": "node"
      }
    },
    {
      "type": "Feature",
      "geometry": {
        "type": "Point",
        "coordinates": [
          23.1882568,
          67.8379614
        ]
      },
      "properties": {
        "id": 12009836249,
        "osm_type": "node"
      }
    },
    {
      "type": "Feature",
      "geometry": {
        "type": "Point",
        "coordinates": [
          23.1078003,
          68.1304501
        ]
      },
      "properties": {
        "id": 12009884127,
        "osm_type": "node"
      }
    },
    {
      "type": "Feature",
      "geometry": {
        "type": "Point",
        "coordinates": [
          23.0136395,
          68.1841396
        ]
      },
      "properties": {
        "id": 12011942495,
        "osm_type": "node",
        "access": "yes"
      }
    },
    {
      "type": "Feature",
      "geometry": {
        "type": "Point",
        "coordinates": [
          22.8153775,
          68.3031818
        ]
      },
      "properties": {
        "id": 12012056610,
        "osm_type": "node"
      }
    },
    {
      "type": "Feature",
      "geometry": {
        "type": "Point",
        "coordinates": [
          22.1822939,
          68.3647275
        ]
      },
      "properties": {
        "id": 12012377469,
        "osm_type": "node"
      }
    },
    {
      "type": "Feature",
      "geometry": {
        "type": "Point",
        "coordinates": [
          22.1127795,
          68.3004815
        ]
      },
      "properties": {
        "id": 12012962669,
        "osm_type": "node"
      }
    },
    {
      "type": "Feature",
      "geometry": {
        "type": "Point",
        "coordinates": [
          22.1072998,
          68.3007682
        ]
      },
      "properties": {
        "id": 12012982169,
        "osm_type": "node"
      }
    },
    {
      "type": "Feature",
      "geometry": {
        "type": "Point",
        "coordinates": [
          22.1597367,
          68.2814627
        ]
      },
      "properties": {
        "id": 12014658871,
        "osm_type": "node"
      }
    },
    {
      "type": "Feature",
      "geometry": {
        "type": "Point",
        "coordinates": [
          20.8805732,
          66.4842492
        ]
      },
      "properties": {
        "id": 12018184259,
        "osm_type": "node"
      }
    },
    {
      "type": "Feature",
      "geometry": {
        "type": "Point",
        "coordinates": [
          20.8805739,
          66.4842465
        ]
      },
      "properties": {
        "id": 12018237399,
        "osm_type": "node"
      }
    },
    {
      "type": "Feature",
      "geometry": {
        "type": "Point",
        "coordinates": [
          18.1013359,
          67.5818988
        ]
      },
      "properties": {
        "id": 12031624400,
        "osm_type": "node"
      }
    },
    {
      "type": "Feature",
      "geometry": {
        "type": "Point",
        "coordinates": [
          21.5199379,
          65.1277779
        ]
      },
      "properties": {
        "id": 12036574069,
        "osm_type": "node"
      }
    },
    {
      "type": "Feature",
      "geometry": {
        "type": "Point",
        "coordinates": [
          18.1411797,
          67.6884277
        ]
      },
      "properties": {
        "id": 12043191762,
        "osm_type": "node"
      }
    },
    {
      "type": "Feature",
      "geometry": {
        "type": "Point",
        "coordinates": [
          18.2953136,
          67.7461219
        ]
      },
      "properties": {
        "id": 12043196090,
        "osm_type": "node"
      }
    },
    {
      "type": "Feature",
      "geometry": {
        "type": "Point",
        "coordinates": [
          18.3230504,
          67.8915161
        ]
      },
      "properties": {
        "id": 12043205584,
        "osm_type": "node"
      }
    },
    {
      "type": "Feature",
      "geometry": {
        "type": "Point",
        "coordinates": [
          19.1758566,
          65.5922202
        ]
      },
      "properties": {
        "id": 12061337745,
        "osm_type": "node",
        "access": "yes"
      }
    },
    {
      "type": "Feature",
      "geometry": {
        "type": "Point",
        "coordinates": [
          18.5002605,
          67.3231002
        ]
      },
      "properties": {
        "id": 12067998667,
        "osm_type": "node"
      }
    },
    {
      "type": "Feature",
      "geometry": {
        "type": "Point",
        "coordinates": [
          18.3256607,
          68.3950094
        ]
      },
      "properties": {
        "id": 12072039839,
        "osm_type": "node"
      }
    },
    {
      "type": "Feature",
      "geometry": {
        "type": "Point",
        "coordinates": [
          18.4600516,
          68.4285115
        ]
      },
      "properties": {
        "id": 12073685197,
        "osm_type": "node"
      }
    },
    {
      "type": "Feature",
      "geometry": {
        "type": "Point",
        "coordinates": [
          17.8663524,
          66.0505638
        ]
      },
      "properties": {
        "id": 12087941190,
        "osm_type": "node",
        "access": "customers"
      }
    },
    {
      "type": "Feature",
      "geometry": {
        "type": "Point",
        "coordinates": [
          21.0095823,
          65.671223
        ]
      },
      "properties": {
        "id": 12110113219,
        "osm_type": "node",
        "access": "customers"
      }
    },
    {
      "type": "Feature",
      "geometry": {
        "type": "Point",
        "coordinates": [
          19.2072428,
          65.580264
        ]
      },
      "properties": {
        "id": 12110113221,
        "osm_type": "node",
        "access": "customers"
      }
    },
    {
      "type": "Feature",
      "geometry": {
        "type": "Point",
        "coordinates": [
          23.140818,
          65.8546008
        ]
      },
      "properties": {
        "id": 12120426901,
        "osm_type": "node"
      }
    },
    {
      "type": "Feature",
      "geometry": {
        "type": "Point",
        "coordinates": [
          18.888918,
          67.8451682
        ]
      },
      "properties": {
        "id": 12146256277,
        "osm_type": "node"
      }
    },
    {
      "type": "Feature",
      "geometry": {
        "type": "Point",
        "coordinates": [
          18.7530098,
          68.3266957
        ]
      },
      "properties": {
        "id": 12146329348,
        "osm_type": "node"
      }
    },
    {
      "type": "Feature",
      "geometry": {
        "type": "Point",
        "coordinates": [
          21.8054849,
          65.5060299
        ]
      },
      "properties": {
        "id": 12207576612,
        "osm_type": "node",
        "access": "yes"
      }
    },
    {
      "type": "Feature",
      "geometry": {
        "type": "Point",
        "coordinates": [
          21.2874162,
          66.3803325
        ]
      },
      "properties": {
        "id": 12207633054,
        "osm_type": "node",
        "access": "yes"
      }
    },
    {
      "type": "Feature",
      "geometry": {
        "type": "Point",
        "coordinates": [
          18.3521877,
          67.4767285
        ]
      },
      "properties": {
        "id": 12213991846,
        "osm_type": "node",
        "access": "yes"
      }
    },
    {
      "type": "Feature",
      "geometry": {
        "type": "Point",
        "coordinates": [
          23.1417395,
          65.8545303
        ]
      },
      "properties": {
        "id": 12396977958,
        "osm_type": "node"
      }
    },
    {
      "type": "Feature",
      "geometry": {
        "type": "Point",
        "coordinates": [
          20.3872069,
          65.6697954
        ]
      },
      "properties": {
        "id": 12397789435,
        "osm_type": "node"
      }
    },
    {
      "type": "Feature",
      "geometry": {
        "type": "Point",
        "coordinates": [
          21.7076833,
          65.8287589
        ]
      },
      "properties": {
        "id": 12704172136,
        "osm_type": "node",
        "access": "yes"
      }
    },
    {
      "type": "Feature",
      "geometry": {
        "type": "Point",
        "coordinates": [
          22.3095266,
          65.5804895
        ]
      },
      "properties": {
        "id": 12760109978,
        "osm_type": "node"
      }
    },
    {
      "type": "Feature",
      "geometry": {
        "type": "Point",
        "coordinates": [
          23.8279501,
          66.9600777
        ]
      },
      "properties": {
        "id": 12823281848,
        "osm_type": "node"
      }
    },
    {
      "type": "Feature",
      "geometry": {
        "type": "Point",
        "coordinates": [
          22.6465849,
          65.9128151
        ]
      },
      "properties": {
        "id": 12943924894,
        "osm_type": "node",
        "access": "yes"
      }
    },
    {
      "type": "Feature",
      "geometry": {
        "type": "Point",
        "coordinates": [
          22.4771833,
          68.441652
        ]
      },
      "properties": {
        "id": 12995517365,
        "osm_type": "node",
        "access": "permissive"
      }
    },
    {
      "type": "Feature",
      "geometry": {
        "type": "Point",
        "coordinates": [
          23.9726105,
          66.045185
        ]
      },
      "properties": {
        "id": 13004895082,
        "osm_type": "node"
      }
    },
    {
      "type": "Feature",
      "geometry": {
        "type": "Point",
        "coordinates": [
          23.4620671,
          65.9201234
        ]
      },
      "properties": {
        "id": 13004909141,
        "osm_type": "node"
      }
    },
    {
      "type": "Feature",
      "geometry": {
        "type": "Point",
        "coordinates": [
          23.5717815,
          66.0561971
        ]
      },
      "properties": {
        "id": 13004920122,
        "osm_type": "node"
      }
    },
    {
      "type": "Feature",
      "geometry": {
        "type": "Point",
        "coordinates": [
          21.6994014,
          65.8266764
        ]
      },
      "properties": {
        "id": 13011583519,
        "osm_type": "node"
      }
    },
    {
      "type": "Feature",
      "geometry": {
        "type": "Point",
        "coordinates": [
          22.0355938,
          65.6490157
        ]
      },
      "properties": {
        "id": 13013905965,
        "osm_type": "node"
      }
    },
    {
      "type": "Feature",
      "geometry": {
        "type": "Point",
        "coordinates": [
          22.2423604,
          65.5898437
        ]
      },
      "properties": {
        "id": 13014158053,
        "osm_type": "node"
      }
    },
    {
      "type": "Feature",
      "geometry": {
        "type": "Point",
        "coordinates": [
          22.152134,
          65.5856407
        ]
      },
      "properties": {
        "id": 13015368149,
        "osm_type": "node"
      }
    },
    {
      "type": "Feature",
      "geometry": {
        "type": "Point",
        "coordinates": [
          20.3463631,
          65.6774876
        ]
      },
      "properties": {
        "id": 13018547388,
        "osm_type": "node"
      }
    },
    {
      "type": "Feature",
      "geometry": {
        "type": "Point",
        "coordinates": [
          22.1282322,
          65.5863541
        ]
      },
      "properties": {
        "id": 13018902576,
        "osm_type": "node"
      }
    },
    {
      "type": "Feature",
      "geometry": {
        "type": "Point",
        "coordinates": [
          21.474393,
          65.3166634
        ]
      },
      "properties": {
        "id": 13021470000,
        "osm_type": "node"
      }
    },
    {
      "type": "Feature",
      "geometry": {
        "type": "Point",
        "coordinates": [
          21.4899011,
          65.313432
        ]
      },
      "properties": {
        "id": 13021477171,
        "osm_type": "node",
        "access": "yes"
      }
    },
    {
      "type": "Feature",
      "geometry": {
        "type": "Point",
        "coordinates": [
          16.7608267,
          66.3137048
        ]
      },
      "properties": {
        "id": 13031036164,
        "osm_type": "node"
      }
    },
    {
      "type": "Feature",
      "geometry": {
        "type": "Point",
        "coordinates": [
          16.6585622,
          66.2838732
        ]
      },
      "properties": {
        "id": 13031060622,
        "osm_type": "node"
      }
    },
    {
      "type": "Feature",
      "geometry": {
        "type": "Point",
        "coordinates": [
          16.8332374,
          66.3510938
        ]
      },
      "properties": {
        "id": 13031063874,
        "osm_type": "node"
      }
    },
    {
      "type": "Feature",
      "geometry": {
        "type": "Point",
        "coordinates": [
          21.6413132,
          65.784981
        ]
      },
      "properties": {
        "id": 13052248262,
        "osm_type": "node"
      }
    },
    {
      "type": "Feature",
      "geometry": {
        "type": "Point",
        "coordinates": [
          23.9680308,
          66.0455767
        ]
      },
      "properties": {
        "id": 13056229953,
        "osm_type": "node"
      }
    },
    {
      "type": "Feature",
      "geometry": {
        "type": "Point",
        "coordinates": [
          22.1649249,
          65.5840348
        ]
      },
      "properties": {
        "id": 13095931054,
        "osm_type": "node",
        "opening_hours": "Mo-Su 04:45-21:35"
      }
    },
    {
      "type": "Feature",
      "geometry": {
        "type": "Point",
        "coordinates": [
          18.2571979,
          68.4309704
        ]
      },
      "properties": {
        "id": 13147645402,
        "osm_type": "node"
      }
    },
    {
      "type": "Feature",
      "geometry": {
        "type": "Point",
        "coordinates": [
          21.4777599,
          65.3245362
        ]
      },
      "properties": {
        "id": 13165021945,
        "osm_type": "node",
        "access": "yes"
      }
    },
    {
      "type": "Feature",
      "geometry": {
        "type": "Point",
        "coordinates": [
          22.07785,
          67.4497975
        ]
      },
      "properties": {
        "id": 13171950583,
        "osm_type": "node",
        "access": "yes"
      }
    },
    {
      "type": "Feature",
      "geometry": {
        "type": "Point",
        "coordinates": [
          22.0284251,
          65.6477913
        ]
      },
      "properties": {
        "id": 13194499863,
        "osm_type": "node"
      }
    },
    {
      "type": "Feature",
      "geometry": {
        "type": "Point",
        "coordinates": [
          21.4781699,
          65.3240503
        ]
      },
      "properties": {
        "id": 13395693404,
        "osm_type": "node",
        "access": "yes"
      }
    },
    {
      "type": "Feature",
      "geometry": {
        "type": "Point",
        "coordinates": [
          21.4898731,
          65.3134136
        ]
      },
      "properties": {
        "id": 13395819733,
        "osm_type": "node",
        "access": "yes"
      }
    },
    {
      "type": "Feature",
      "geometry": {
        "type": "Point",
        "coordinates": [
          21.4898517,
          65.313399
        ]
      },
      "properties": {
        "id": 13395819734,
        "osm_type": "node",
        "access": "yes"
      }
    },
    {
      "type": "Feature",
      "geometry": {
        "type": "Point",
        "coordinates": [
          21.4751654,
          65.2881432
        ]
      },
      "properties": {
        "id": 13588762453,
        "osm_type": "node"
      }
    },
    {
      "type": "Feature",
      "geometry": {
        "type": "Point",
        "coordinates": [
          21.4697336,
          65.2906747
        ]
      },
      "properties": {
        "id": 13588762455,
        "osm_type": "node"
      }
    },
    {
      "type": "Feature",
      "geometry": {
        "type": "Point",
        "coordinates": [
          22.434081,
          66.5795013
        ]
      },
      "properties": {
        "id": 13595238808,
        "osm_type": "node"
      }
    },
    {
      "type": "Feature",
      "geometry": {
        "type": "Point",
        "coordinates": [
          18.3638244,
          67.4753
        ]
      },
      "properties": {
        "id": 13661249977,
        "osm_type": "node",
        "access": "unknown"
      }
    },
    {
      "type": "Feature",
      "geometry": {
        "type": "Point",
        "coordinates": [
          20.5256584,
          67.8559476
        ]
      },
      "properties": {
        "id": 13661393688,
        "osm_type": "node",
        "access": "yes"
      }
    },
    {
      "type": "Feature",
      "geometry": {
        "type": "Point",
        "coordinates": [
          20.2472646,
          67.8603981
        ]
      },
      "properties": {
        "id": 74568244,
        "osm_type": "way"
      }
    },
    {
      "type": "Feature",
      "geometry": {
        "type": "Point",
        "coordinates": [
          18.7220332,
          68.3616392
        ]
      },
      "properties": {
        "id": 150291461,
        "osm_type": "way"
      }
    },
    {
      "type": "Feature",
      "geometry": {
        "type": "Point",
        "coordinates": [
          20.1112422,
          66.7712525
        ]
      },
      "properties": {
        "id": 241929121,
        "osm_type": "way",
        "name": "Skaite",
        "access": "yes"
      }
    },
    {
      "type": "Feature",
      "geometry": {
        "type": "Point",
        "coordinates": [
          18.3944785,
          68.0170994
        ]
      },
      "properties": {
        "id": 262596278,
        "osm_type": "way"
      }
    },
    {
      "type": "Feature",
      "geometry": {
        "type": "Point",
        "coordinates": [
          19.5107983,
          65.9305069
        ]
      },
      "properties": {
        "id": 294937918,
        "osm_type": "way"
      }
    },
    {
      "type": "Feature",
      "geometry": {
        "type": "Point",
        "coordinates": [
          21.54993,
          65.4232776
        ]
      },
      "properties": {
        "id": 298129366,
        "osm_type": "way"
      }
    },
    {
      "type": "Feature",
      "geometry": {
        "type": "Point",
        "coordinates": [
          22.1469015,
          65.5834854
        ]
      },
      "properties": {
        "id": 310654008,
        "osm_type": "way"
      }
    },
    {
      "type": "Feature",
      "geometry": {
        "type": "Point",
        "coordinates": [
          19.0543944,
          65.5790609
        ]
      },
      "properties": {
        "id": 319160061,
        "osm_type": "way",
        "name": "Service House",
        "access": "customers"
      }
    },
    {
      "type": "Feature",
      "geometry": {
        "type": "Point",
        "coordinates": [
          18.2832372,
          67.9453512
        ]
      },
      "properties": {
        "id": 328358923,
        "osm_type": "way",
        "access": "customers"
      }
    },
    {
      "type": "Feature",
      "geometry": {
        "type": "Point",
        "coordinates": [
          18.2416173,
          68.0517964
        ]
      },
      "properties": {
        "id": 328358924,
        "osm_type": "way"
      }
    },
    {
      "type": "Feature",
      "geometry": {
        "type": "Point",
        "coordinates": [
          20.2639881,
          66.7702865
        ]
      },
      "properties": {
        "id": 328616021,
        "osm_type": "way"
      }
    },
    {
      "type": "Feature",
      "geometry": {
        "type": "Point",
        "coordinates": [
          24.0390295,
          65.9617255
        ]
      },
      "properties": {
        "id": 353189843,
        "osm_type": "way",
        "access": "customers"
      }
    },
    {
      "type": "Feature",
      "geometry": {
        "type": "Point",
        "coordinates": [
          22.6553072,
          65.9073087
        ]
      },
      "properties": {
        "id": 354657308,
        "osm_type": "way",
        "access": "yes"
      }
    },
    {
      "type": "Feature",
      "geometry": {
        "type": "Point",
        "coordinates": [
          20.5673671,
          67.0910852
        ]
      },
      "properties": {
        "id": 354952424,
        "osm_type": "way",
        "access": "yes"
      }
    },
    {
      "type": "Feature",
      "geometry": {
        "type": "Point",
        "coordinates": [
          22.4412343,
          68.3080386
        ]
      },
      "properties": {
        "id": 372469163,
        "osm_type": "way",
        "name": "Utedass/Vedbod",
        "access": "yes"
      }
    },
    {
      "type": "Feature",
      "geometry": {
        "type": "Point",
        "coordinates": [
          20.8993676,
          67.1049679
        ]
      },
      "properties": {
        "id": 424506902,
        "osm_type": "way",
        "access": "yes"
      }
    },
    {
      "type": "Feature",
      "geometry": {
        "type": "Point",
        "coordinates": [
          19.8221196,
          67.8038851
        ]
      },
      "properties": {
        "id": 488626737,
        "osm_type": "way"
      }
    },
    {
      "type": "Feature",
      "geometry": {
        "type": "Point",
        "coordinates": [
          17.0323283,
          67.2682856
        ]
      },
      "properties": {
        "id": 622411596,
        "osm_type": "way"
      }
    },
    {
      "type": "Feature",
      "geometry": {
        "type": "Point",
        "coordinates": [
          18.3152616,
          67.8499736
        ]
      },
      "properties": {
        "id": 714616756,
        "osm_type": "way",
        "access": "customers"
      }
    },
    {
      "type": "Feature",
      "geometry": {
        "type": "Point",
        "coordinates": [
          18.3148232,
          67.8516642
        ]
      },
      "properties": {
        "id": 714616757,
        "osm_type": "way",
        "access": "customers"
      }
    },
    {
      "type": "Feature",
      "geometry": {
        "type": "Point",
        "coordinates": [
          18.4147483,
          68.1370354
        ]
      },
      "properties": {
        "id": 714617932,
        "osm_type": "way"
      }
    },
    {
      "type": "Feature",
      "geometry": {
        "type": "Point",
        "coordinates": [
          18.412276,
          68.1366245
        ]
      },
      "properties": {
        "id": 714617934,
        "osm_type": "way"
      }
    },
    {
      "type": "Feature",
      "geometry": {
        "type": "Point",
        "coordinates": [
          18.5895275,
          68.285829
        ]
      },
      "properties": {
        "id": 714618193,
        "osm_type": "way",
        "access": "customers"
      }
    },
    {
      "type": "Feature",
      "geometry": {
        "type": "Point",
        "coordinates": [
          21.0659442,
          67.6375173
        ]
      },
      "properties": {
        "id": 838076471,
        "osm_type": "way",
        "access": "no"
      }
    },
    {
      "type": "Feature",
      "geometry": {
        "type": "Point",
        "coordinates": [
          18.322992,
          67.8914996
        ]
      },
      "properties": {
        "id": 840319798,
        "osm_type": "way"
      }
    },
    {
      "type": "Feature",
      "geometry": {
        "type": "Point",
        "coordinates": [
          17.6441109,
          67.3776494
        ]
      },
      "properties": {
        "id": 987054131,
        "osm_type": "way",
        "access": "yes"
      }
    },
    {
      "type": "Feature",
      "geometry": {
        "type": "Point",
        "coordinates": [
          18.1563556,
          67.6947702
        ]
      },
      "properties": {
        "id": 1038825119,
        "osm_type": "way"
      }
    },
    {
      "type": "Feature",
      "geometry": {
        "type": "Point",
        "coordinates": [
          17.8063776,
          66.9501258
        ]
      },
      "properties": {
        "id": 1080720497,
        "osm_type": "way",
        "access": "yes"
      }
    },
    {
      "type": "Feature",
      "geometry": {
        "type": "Point",
        "coordinates": [
          17.1223788,
          67.1927499
        ]
      },
      "properties": {
        "id": 1112453059,
        "osm_type": "way"
      }
    },
    {
      "type": "Feature",
      "geometry": {
        "type": "Point",
        "coordinates": [
          19.8438836,
          66.5997587
        ]
      },
      "properties": {
        "id": 1302320092,
        "osm_type": "way",
        "access": "yes"
      }
    },
    {
      "type": "Feature",
      "geometry": {
        "type": "Point",
        "coordinates": [
          22.1410309,
          65.5856445
        ]
      },
      "properties": {
        "id": 1303326327,
        "osm_type": "way",
        "opening_hours": "Mo-Su 06:00-22:00",
        "access": "yes"
      }
    },
    {
      "type": "Feature",
      "geometry": {
        "type": "Point",
        "coordinates": [
          22.167496,
          67.5620631
        ]
      },
      "properties": {
        "id": 1312048631,
        "osm_type": "way"
      }
    },
    {
      "type": "Feature",
      "geometry": {
        "type": "Point",
        "coordinates": [
          18.2006305,
          68.385814
        ]
      },
      "properties": {
        "id": 1321432933,
        "osm_type": "way"
      }
    },
    {
      "type": "Feature",
      "geometry": {
        "type": "Point",
        "coordinates": [
          18.1268168,
          68.3334122
        ]
      },
      "properties": {
        "id": 1321456286,
        "osm_type": "way"
      }
    },
    {
      "type": "Feature",
      "geometry": {
        "type": "Point",
        "coordinates": [
          23.9329109,
          65.8103484
        ]
      },
      "properties": {
        "id": 1354279729,
        "osm_type": "way",
        "access": "yes"
      }
    },
    {
      "type": "Feature",
      "geometry": {
        "type": "Point",
        "coordinates": [
          23.8278921,
          65.818045
        ]
      },
      "properties": {
        "id": 1354279735,
        "osm_type": "way"
      }
    },
    {
      "type": "Feature",
      "geometry": {
        "type": "Point",
        "coordinates": [
          21.5049978,
          65.14164
        ]
      },
      "properties": {
        "id": 1354284341,
        "osm_type": "way"
      }
    },
    {
      "type": "Feature",
      "geometry": {
        "type": "Point",
        "coordinates": [
          21.5090303,
          65.1432713
        ]
      },
      "properties": {
        "id": 1354284352,
        "osm_type": "way"
      }
    },
    {
      "type": "Feature",
      "geometry": {
        "type": "Point",
        "coordinates": [
          17.9672542,
          67.9352191
        ]
      },
      "properties": {
        "id": 1377019801,
        "osm_type": "way"
      }
    },
    {
      "type": "Feature",
      "geometry": {
        "type": "Point",
        "coordinates": [
          22.9989147,
          65.8790408
        ]
      },
      "properties": {
        "id": 1428144926,
        "osm_type": "way"
      }
    },
    {
      "type": "Feature",
      "geometry": {
        "type": "Point",
        "coordinates": [
          20.6233984,
          65.5748236
        ]
      },
      "properties": {
        "id": 1474471891,
        "osm_type": "way"
      }
    },
    {
      "type": "Feature",
      "geometry": {
        "type": "Point",
        "coordinates": [
          19.4107615,
          66.5930354
        ]
      },
      "properties": {
        "id": 1485771199,
        "osm_type": "way",
        "opening_hours": "24/7"
      }
    }
  ]
}