{
  "type": "FeatureCollection",
  "features": [
    {
      "type": "Feature",
      "geometry": {
        "type": "Point",
        "coordinates": [
          17.2470652,
          49.0532359
        ]
      },
      "properties": {
        "id": 5599873925,
        "osm_type": "node",
        "name": "EuroOil",
        "brand": "EuroOil",
        "opening_hours": "Mo-Su 06:00-18:00"
      }
    },
    {
      "type": "Feature",
      "geometry": {
        "type": "Point",
        "coordinates": [
          17.3537958,
          49.0221858
        ]
      },
      "properties": {
        "id": 7580864019,
        "osm_type": "node",
        "name": "MOL Polešovice",
        "brand": "MOL",
        "opening_hours": "Mo-Fr 05:00-20:00; Sa-Su 07:00-20:00"
      }
    },
    {
      "type": "Feature",
      "geometry": {
        "type": "Point",
        "coordinates": [
          17.3364811,
          49.0808322
        ]
      },
      "properties": {
        "id": 5614174790,
        "osm_type": "node",
        "name": "EuroOil",
        "brand": "EuroOil",
        "opening_hours": "Mo-Su 06:00-20:00"
      }
    },
    {
      "type": "Feature",
      "geometry": {
        "type": "Point",
        "coordinates": [
          17.3362213,
          49.0805503
        ]
      },
      "properties": {
        "id": 7515333249,
        "osm_type": "node",
        "name": "Vena-Trade",
        "brand": "Vena-Trade",
        "opening_hours": "Mo-Su,PH 08:00-19:00"
      }
    },
    {
      "type": "Feature",
      "geometry": {
        "type": "Point",
        "coordinates": [
          17.5436878,
          48.9829932
        ]
      },
      "properties": {
        "id": 448117998,
        "osm_type": "node",
        "name": "EuroOil Hluk",
        "brand": "EuroOil",
        "opening_hours": "Mo-Su 06:00-18:00"
      }
    },
    {
      "type": "Feature",
      "geometry": {
        "type": "Point",
        "coordinates": [
          17.4177722,
          48.9911546
        ]
      },
      "properties": {
        "id": 7609103860,
        "osm_type": "node",
        "name": "Shell",
        "brand": "Shell",
        "opening_hours": "24/7"
      }
    },
    {
      "type": "Feature",
      "geometry": {
        "type": "Point",
        "coordinates": [
          17.4565733,
          49.0367369
        ]
      },
      "properties": {
        "id": 7237290315,
        "osm_type": "node",
        "name": "Letecký petrolej"
      }
    },
    {
      "type": "Feature",
      "geometry": {
        "type": "Point",
        "coordinates": [
          17.4217067,
          49.0742689
        ]
      },
      "properties": {
        "id": 388140708,
        "osm_type": "node",
        "name": "Benzina - Staré Město",
        "brand": "Benzina",
        "opening_hours": "24/7"
      }
    },
    {
      "type": "Feature",
      "geometry": {
        "type": "Point",
        "coordinates": [
          17.4538596,
          49.0757049
        ]
      },
      "properties": {
        "id": 385862279,
        "osm_type": "node",
        "name": "Shell",
        "brand": "Shell"
      }
    },
    {
      "type": "Feature",
      "geometry": {
        "type": "Point",
        "coordinates": [
          17.4652453,
          49.0500334
        ]
      },
      "properties": {
        "id": 1421758498,
        "osm_type": "node",
        "name": "EuroOil",
        "brand": "EuroOil"
      }
    },
    {
      "type": "Feature",
      "geometry": {
        "type": "Point",
        "coordinates": [
          17.4659878,
          49.0502848
        ]
      },
      "properties": {
        "id": 1389635907,
        "osm_type": "node",
        "name": "MOL",
        "brand": "MOL",
        "opening_hours": "24/7"
      }
    },
    {
      "type": "Feature",
      "geometry": {
        "type": "Point",
        "coordinates": [
          17.4671121,
          49.0562859
        ]
      },
      "properties": {
        "id": 4960532910,
        "osm_type": "node",
        "name": "OMV",
        "brand": "OMV",
        "opening_hours": "24/7"
      }
    },
    {
      "type": "Feature",
      "geometry": {
        "type": "Point",
        "coordinates": [
          17.4681936,
          49.0560413
        ]
      },
      "properties": {
        "id": 5961045918,
        "osm_type": "node",
        "name": "Autospol",
        "brand": "Autospol"
      }
    },
    {
      "type": "Feature",
      "geometry": {
        "type": "Point",
        "coordinates": [
          17.4681494,
          49.0563739
        ]
      },
      "properties": {
        "id": 5961045920,
        "osm_type": "node",
        "name": "Hunsgas",
        "brand": "Hunsgas"
      }
    },
    {
      "type": "Feature",
      "geometry": {
        "type": "Point",
        "coordinates": [
          17.4682656,
          49.0562639
        ]
      },
      "properties": {
        "id": 5961045921,
        "osm_type": "node",
        "name": "Prim",
        "brand": "Prim",
        "opening_hours": "05:30-20:00"
      }
    },
    {
      "type": "Feature",
      "geometry": {
        "type": "Point",
        "coordinates": [
          17.4660839,
          49.058847
        ]
      },
      "properties": {
        "id": 3930024763,
        "osm_type": "node",
        "name": "Orlen",
        "brand": "Orlen",
        "opening_hours": "24/7"
      }
    },
    {
      "type": "Feature",
      "geometry": {
        "type": "Point",
        "coordinates": [
          17.4829554,
          49.0763819
        ]
      },
      "properties": {
        "id": 595913788,
        "osm_type": "node",
        "name": "Orlen - Uherské Hradiště, Sokolovská",
        "brand": "Orlen",
        "opening_hours": "24/7"
      }
    },
    {
      "type": "Feature",
      "geometry": {
        "type": "Point",
        "coordinates": [
          17.5562108,
          49.0370926
        ]
      },
      "properties": {
        "id": 1301757917,
        "osm_type": "node",
        "name": "První Autosprint s.r.o., Veletiny"
      }
    },
    {
      "type": "Feature",
      "geometry": {
        "type": "Point",
        "coordinates": [
          17.5921125,
          49.0414004
        ]
      },
      "properties": {
        "id": 1029346433,
        "osm_type": "node",
        "name": "Orlen - Drslavice",
        "brand": "Benzina",
        "opening_hours": "24/7"
      }
    },
    {
      "type": "Feature",
      "geometry": {
        "type": "Point",
        "coordinates": [
          17.7105141,
          48.8948467
        ]
      },
      "properties": {
        "id": 482742586,
        "osm_type": "node",
        "name": "Limitoo Strání",
        "opening_hours": "Mo-Fr 06:00-19:00; Sa,Su 07:00-19:00"
      }
    },
    {
      "type": "Feature",
      "geometry": {
        "type": "Point",
        "coordinates": [
          17.6400776,
          49.0239052
        ]
      },
      "properties": {
        "id": 1033773265,
        "osm_type": "node",
        "name": "Tempex"
      }
    },
    {
      "type": "Feature",
      "geometry": {
        "type": "Point",
        "coordinates": [
          17.6374875,
          49.0226967
        ]
      },
      "properties": {
        "id": 2313632141,
        "osm_type": "node",
        "name": "Tempex"
      }
    },
    {
      "type": "Feature",
      "geometry": {
        "type": "Point",
        "coordinates": [
          17.6602009,
          49.0182185
        ]
      },
      "properties": {
        "id": 428870798,
        "osm_type": "node",
        "name": "OMV",
        "brand": "OMV",
        "opening_hours": "24/7"
      }
    },
    {
      "type": "Feature",
      "geometry": {
        "type": "Point",
        "coordinates": [
          17.7984631,
          49.03711
        ]
      },
      "properties": {
        "id": 2196117167,
        "osm_type": "node",
        "name": "Alitron Bojkovice",
        "opening_hours": "Mo-Fr 06:30-19:00; Sa 07:00-12:00"
      }
    },
    {
      "type": "Feature",
      "geometry": {
        "type": "Point",
        "coordinates": [
          17.8005658,
          49.0371276
        ]
      },
      "properties": {
        "id": 2196117162,
        "osm_type": "node",
        "name": "Blok Bojkovice",
        "opening_hours": "Mo-Sa 06:30-21:00; Su 07:30-12:00"
      }
    },
    {
      "type": "Feature",
      "geometry": {
        "type": "Point",
        "coordinates": [
          17.8832026,
          48.9589317
        ]
      },
      "properties": {
        "id": 206170392,
        "osm_type": "node",
        "name": "OMV",
        "brand": "OMV",
        "opening_hours": "24/7"
      }
    },
    {
      "type": "Feature",
      "geometry": {
        "type": "Point",
        "coordinates": [
          17.8831737,
          48.9588794
        ]
      },
      "properties": {
        "id": 8978069494,
        "osm_type": "node",
        "name": "HUNSGAS, s.r.o."
      }
    },
    {
      "type": "Feature",
      "geometry": {
        "type": "Point",
        "coordinates": [
          17.8578529,
          49.0873374
        ]
      },
      "properties": {
        "id": 1493737151,
        "osm_type": "node",
        "name": "EuroOil Slavičín",
        "brand": "EuroOil",
        "opening_hours": "Mo-Su 06:00-21:00"
      }
    },
    {
      "type": "Feature",
      "geometry": {
        "type": "Point",
        "coordinates": [
          17.9821135,
          49.0678217
        ]
      },
      "properties": {
        "id": 4724173332,
        "osm_type": "node",
        "name": "čerpací stanice"
      }
    },
    {
      "type": "Feature",
      "geometry": {
        "type": "Point",
        "coordinates": [
          17.1793449,
          49.1151567
        ]
      },
      "properties": {
        "id": 11066585734,
        "osm_type": "node",
        "name": "ČS Koryčany",
        "opening_hours": "24/7"
      }
    },
    {
      "type": "Feature",
      "geometry": {
        "type": "Point",
        "coordinates": [
          17.3222653,
          49.2284005
        ]
      },
      "properties": {
        "id": 2477985257,
        "osm_type": "node",
        "name": "APH IN"
      }
    },
    {
      "type": "Feature",
      "geometry": {
        "type": "Point",
        "coordinates": [
          17.4013065,
          49.2776424
        ]
      },
      "properties": {
        "id": 330723022,
        "osm_type": "node",
        "name": "Benzina Kotojedy",
        "brand": "Benzina",
        "opening_hours": "05:00-22:00"
      }
    },
    {
      "type": "Feature",
      "geometry": {
        "type": "Point",
        "coordinates": [
          17.5109526,
          49.0903899
        ]
      },
      "properties": {
        "id": 975594726,
        "osm_type": "node"
      }
    },
    {
      "type": "Feature",
      "geometry": {
        "type": "Point",
        "coordinates": [
          17.511122,
          49.090429
        ]
      },
      "properties": {
        "id": 10120898355,
        "osm_type": "node",
        "name": "Eurobit"
      }
    },
    {
      "type": "Feature",
      "geometry": {
        "type": "Point",
        "coordinates": [
          17.4752127,
          49.1229142
        ]
      },
      "properties": {
        "id": 7529740438,
        "osm_type": "node",
        "name": "Eurobit, Babice",
        "opening_hours": "05:00-22:00"
      }
    },
    {
      "type": "Feature",
      "geometry": {
        "type": "Point",
        "coordinates": [
          17.4879425,
          49.1346126
        ]
      },
      "properties": {
        "id": 2066148922,
        "osm_type": "node",
        "name": "Tank Ono - ČS Spytihněv",
        "brand": "Tank Ono",
        "opening_hours": "24/7"
      }
    },
    {
      "type": "Feature",
      "geometry": {
        "type": "Point",
        "coordinates": [
          17.5580436,
          49.1059601
        ]
      },
      "properties": {
        "id": 10120952774,
        "osm_type": "node",
        "name": "Avia",
        "brand": "Avia"
      }
    },
    {
      "type": "Feature",
      "geometry": {
        "type": "Point",
        "coordinates": [
          17.524199,
          49.1887197
        ]
      },
      "properties": {
        "id": 2207978607,
        "osm_type": "node",
        "name": "OMV",
        "brand": "OMV",
        "opening_hours": "24/7"
      }
    },
    {
      "type": "Feature",
      "geometry": {
        "type": "Point",
        "coordinates": [
          17.5286818,
          49.1908473
        ]
      },
      "properties": {
        "id": 5614142954,
        "osm_type": "node",
        "name": "EuroOil",
        "brand": "EuroOil",
        "opening_hours": "Mo-Su 06:00-20:00"
      }
    },
    {
      "type": "Feature",
      "geometry": {
        "type": "Point",
        "coordinates": [
          17.5289569,
          49.1908806
        ]
      },
      "properties": {
        "id": 13609434876,
        "osm_type": "node",
        "name": "Kralupol",
        "brand": "Kralupol",
        "opening_hours": "Mo-Su 06:00-20:00"
      }
    },
    {
      "type": "Feature",
      "geometry": {
        "type": "Point",
        "coordinates": [
          17.5316006,
          49.1933844
        ]
      },
      "properties": {
        "id": 2207970352,
        "osm_type": "node",
        "name": "Shell",
        "brand": "Shell"
      }
    },
    {
      "type": "Feature",
      "geometry": {
        "type": "Point",
        "coordinates": [
          17.4690853,
          49.243744
        ]
      },
      "properties": {
        "id": 1775132237,
        "osm_type": "node"
      }
    },
    {
      "type": "Feature",
      "geometry": {
        "type": "Point",
        "coordinates": [
          17.4953478,
          49.2615055
        ]
      },
      "properties": {
        "id": 4592858859,
        "osm_type": "node",
        "name": "Prim Tlumačov",
        "opening_hours": "06:00-21:00"
      }
    },
    {
      "type": "Feature",
      "geometry": {
        "type": "Point",
        "coordinates": [
          17.5168429,
          49.2054923
        ]
      },
      "properties": {
        "id": 3714850681,
        "osm_type": "node",
        "name": "LPG"
      }
    },
    {
      "type": "Feature",
      "geometry": {
        "type": "Point",
        "coordinates": [
          17.5172574,
          49.2105262
        ]
      },
      "properties": {
        "id": 7529740474,
        "osm_type": "node",
        "name": "Benzina - Otrokovice",
        "brand": "Benzina",
        "opening_hours": "24/7"
      }
    },
    {
      "type": "Feature",
      "geometry": {
        "type": "Point",
        "coordinates": [
          17.5634958,
          49.2037171
        ]
      },
      "properties": {
        "id": 393881597,
        "osm_type": "node",
        "name": "Makro",
        "opening_hours": "Mo-Sa 06:00-21:00; Su 07:00-21:00"
      }
    },
    {
      "type": "Feature",
      "geometry": {
        "type": "Point",
        "coordinates": [
          17.5202431,
          49.2299551
        ]
      },
      "properties": {
        "id": 919363951,
        "osm_type": "node",
        "name": "RoBiN OIL Tlumačov",
        "opening_hours": "24/7"
      }
    },
    {
      "type": "Feature",
      "geometry": {
        "type": "Point",
        "coordinates": [
          17.520141,
          49.2298113
        ]
      },
      "properties": {
        "id": 7578441132,
        "osm_type": "node",
        "name": "LPG",
        "opening_hours": "06:00-22:00"
      }
    },
    {
      "type": "Feature",
      "geometry": {
        "type": "Point",
        "coordinates": [
          17.5865471,
          49.2144434
        ]
      },
      "properties": {
        "id": 1159098967,
        "osm_type": "node",
        "name": "Jiří Matouš - MAT Servis",
        "opening_hours": "Mo-Fr 7:00-17:00;Sa-Su 9:00-17:00"
      }
    },
    {
      "type": "Feature",
      "geometry": {
        "type": "Point",
        "coordinates": [
          17.385704,
          49.3014421
        ]
      },
      "properties": {
        "id": 330723328,
        "osm_type": "node",
        "name": "RoBiN OIL Kroměříž",
        "opening_hours": "24/7"
      }
    },
    {
      "type": "Feature",
      "geometry": {
        "type": "Point",
        "coordinates": [
          17.4054649,
          49.3061205
        ]
      },
      "properties": {
        "id": 13002050494,
        "osm_type": "node",
        "name": "OMV",
        "brand": "OMV",
        "opening_hours": "24/7"
      }
    },
    {
      "type": "Feature",
      "geometry": {
        "type": "Point",
        "coordinates": [
          17.3764981,
          49.3622451
        ]
      },
      "properties": {
        "id": 5599873933,
        "osm_type": "node",
        "name": "EuroOil Chropyně",
        "brand": "EuroOil",
        "opening_hours": "Mo-Su 06:00-21:00"
      }
    },
    {
      "type": "Feature",
      "geometry": {
        "type": "Point",
        "coordinates": [
          17.4104823,
          49.3094246
        ]
      },
      "properties": {
        "id": 336670921,
        "osm_type": "node",
        "name": "Duba"
      }
    },
    {
      "type": "Feature",
      "geometry": {
        "type": "Point",
        "coordinates": [
          17.4520772,
          49.3157005
        ]
      },
      "properties": {
        "id": 5922622199,
        "osm_type": "node",
        "name": "Benzina - Hulín",
        "brand": "Benzina",
        "opening_hours": "05:00-22:00"
      }
    },
    {
      "type": "Feature",
      "geometry": {
        "type": "Point",
        "coordinates": [
          17.4469384,
          49.3478177
        ]
      },
      "properties": {
        "id": 2410571495,
        "osm_type": "node",
        "name": "Tank ONO - ČS Břest",
        "brand": "ONO",
        "opening_hours": "24/7"
      }
    },
    {
      "type": "Feature",
      "geometry": {
        "type": "Point",
        "coordinates": [
          17.4802607,
          49.3038008
        ]
      },
      "properties": {
        "id": 5736217370,
        "osm_type": "node",
        "name": "Shell Hulín",
        "brand": "Shell"
      }
    },
    {
      "type": "Feature",
      "geometry": {
        "type": "Point",
        "coordinates": [
          17.4605831,
          49.319528
        ]
      },
      "properties": {
        "id": 5599873926,
        "osm_type": "node",
        "name": "EuroOil",
        "brand": "EuroOil",
        "opening_hours": "Mo-Su 06:00-20:00"
      }
    },
    {
      "type": "Feature",
      "geometry": {
        "type": "Point",
        "coordinates": [
          17.5428193,
          49.3256829
        ]
      },
      "properties": {
        "id": 2316911085,
        "osm_type": "node",
        "name": "Q1"
      }
    },
    {
      "type": "Feature",
      "geometry": {
        "type": "Point",
        "coordinates": [
          17.5521514,
          49.3253856
        ]
      },
      "properties": {
        "id": 428927356,
        "osm_type": "node",
        "name": "Orlen",
        "brand": "Orlen",
        "opening_hours": "Mo-Su 05:00-22:00"
      }
    },
    {
      "type": "Feature",
      "geometry": {
        "type": "Point",
        "coordinates": [
          17.5529717,
          49.3255426
        ]
      },
      "properties": {
        "id": 4319180929,
        "osm_type": "node",
        "name": "AUTOCORRECT, s.r.o.",
        "opening_hours": "Mo-Su 08:00-17:00"
      }
    },
    {
      "type": "Feature",
      "geometry": {
        "type": "Point",
        "coordinates": [
          17.5836796,
          49.3228493
        ]
      },
      "properties": {
        "id": 5696832000,
        "osm_type": "node",
        "name": "KRODOS SERVIS, a.s."
      }
    },
    {
      "type": "Feature",
      "geometry": {
        "type": "Point",
        "coordinates": [
          17.5900351,
          49.3224895
        ]
      },
      "properties": {
        "id": 2645263023,
        "osm_type": "node",
        "name": "Orlen",
        "brand": "Orlen",
        "opening_hours": "Mo-Su 05:00-22:00"
      }
    },
    {
      "type": "Feature",
      "geometry": {
        "type": "Point",
        "coordinates": [
          17.7434899,
          49.0935931
        ]
      },
      "properties": {
        "id": 5314964460,
        "osm_type": "node",
        "name": "Benzina - Luhačovice",
        "brand": "Benzina",
        "opening_hours": "05:00-22:00"
      }
    },
    {
      "type": "Feature",
      "geometry": {
        "type": "Point",
        "coordinates": [
          17.8035403,
          49.1464255
        ]
      },
      "properties": {
        "id": 9993705057,
        "osm_type": "node",
        "name": "MOL",
        "brand": "MOL"
      }
    },
    {
      "type": "Feature",
      "geometry": {
        "type": "Point",
        "coordinates": [
          17.6264128,
          49.2152003
        ]
      },
      "properties": {
        "id": 7598396627,
        "osm_type": "node",
        "name": "Z-Group Zlín",
        "opening_hours": "24/7"
      }
    },
    {
      "type": "Feature",
      "geometry": {
        "type": "Point",
        "coordinates": [
          17.6575268,
          49.2005172
        ]
      },
      "properties": {
        "id": 7575515030,
        "osm_type": "node",
        "name": "Alitron Zlín - SÚS",
        "opening_hours": "Mo-Fr 06:00-20:00; Sa 07:00-12:00"
      }
    },
    {
      "type": "Feature",
      "geometry": {
        "type": "Point",
        "coordinates": [
          17.6428457,
          49.219879
        ]
      },
      "properties": {
        "id": 7580864012,
        "osm_type": "node",
        "name": "MOL, Zlín",
        "brand": "MOL",
        "opening_hours": "24/7"
      }
    },
    {
      "type": "Feature",
      "geometry": {
        "type": "Point",
        "coordinates": [
          17.6476685,
          49.2257526
        ]
      },
      "properties": {
        "id": 7575515031,
        "osm_type": "node",
        "name": "Alitron Zlín",
        "opening_hours": "Mo-Fr 06:00-19:00; Sa 07:00-12:00"
      }
    },
    {
      "type": "Feature",
      "geometry": {
        "type": "Point",
        "coordinates": [
          17.6602167,
          49.2294316
        ]
      },
      "properties": {
        "id": 4753604221,
        "osm_type": "node",
        "name": "Prim",
        "opening_hours": "Mo-Su 06:00-22:00"
      }
    },
    {
      "type": "Feature",
      "geometry": {
        "type": "Point",
        "coordinates": [
          17.6669265,
          49.2364343
        ]
      },
      "properties": {
        "id": 3946570661,
        "osm_type": "node",
        "name": "Benzina - Zlín, Jižní Svahy",
        "brand": "Benzina",
        "opening_hours": "05:00-23:00"
      }
    },
    {
      "type": "Feature",
      "geometry": {
        "type": "Point",
        "coordinates": [
          17.7078995,
          49.2207228
        ]
      },
      "properties": {
        "id": 325818554,
        "osm_type": "node",
        "name": "Benzina - Zlín, Příluky",
        "brand": "Benzina",
        "opening_hours": "24/7"
      }
    },
    {
      "type": "Feature",
      "geometry": {
        "type": "Point",
        "coordinates": [
          17.6927137,
          49.2258873
        ]
      },
      "properties": {
        "id": 11383026995,
        "osm_type": "node",
        "name": "Robin Oil",
        "brand": "Robin Oil",
        "opening_hours": "24/7"
      }
    },
    {
      "type": "Feature",
      "geometry": {
        "type": "Point",
        "coordinates": [
          17.706299,
          49.2212411
        ]
      },
      "properties": {
        "id": 9220708457,
        "osm_type": "node",
        "name": "LPG"
      }
    },
    {
      "type": "Feature",
      "geometry": {
        "type": "Point",
        "coordinates": [
          17.7186293,
          49.2223942
        ]
      },
      "properties": {
        "id": 2160046442,
        "osm_type": "node"
      }
    },
    {
      "type": "Feature",
      "geometry": {
        "type": "Point",
        "coordinates": [
          17.6896291,
          49.2482284
        ]
      },
      "properties": {
        "id": 450200606,
        "osm_type": "node",
        "brand": "Shell"
      }
    },
    {
      "type": "Feature",
      "geometry": {
        "type": "Point",
        "coordinates": [
          17.6852959,
          49.2788153
        ]
      },
      "properties": {
        "id": 448897597,
        "osm_type": "node"
      }
    },
    {
      "type": "Feature",
      "geometry": {
        "type": "Point",
        "coordinates": [
          17.682262,
          49.2850377
        ]
      },
      "properties": {
        "id": 665532886,
        "osm_type": "node",
        "opening_hours": "Mo-Fr 7:30-18:00; Sa 7:30-15:00"
      }
    },
    {
      "type": "Feature",
      "geometry": {
        "type": "Point",
        "coordinates": [
          17.7413439,
          49.2124732
        ]
      },
      "properties": {
        "id": 7575515032,
        "osm_type": "node",
        "name": "Alitron Želechovice",
        "opening_hours": "Mo-Sa 06:00-18:00; Su 08:00-14:00"
      }
    },
    {
      "type": "Feature",
      "geometry": {
        "type": "Point",
        "coordinates": [
          17.7605675,
          49.2152069
        ]
      },
      "properties": {
        "id": 11082738080,
        "osm_type": "node",
        "name": "Avia Lípa",
        "brand": "Avia",
        "opening_hours": "05:00-22:00"
      }
    },
    {
      "type": "Feature",
      "geometry": {
        "type": "Point",
        "coordinates": [
          17.7768405,
          49.2161272
        ]
      },
      "properties": {
        "id": 7575515039,
        "osm_type": "node",
        "name": "Alitron Lípa",
        "opening_hours": "Mo-Fr 06:00-18:00; Sa 07:00-12:00"
      }
    },
    {
      "type": "Feature",
      "geometry": {
        "type": "Point",
        "coordinates": [
          17.8089425,
          49.2125795
        ]
      },
      "properties": {
        "id": 3261694493,
        "osm_type": "node",
        "name": "Tank Ono - ČS Zádveřice u Zlína",
        "brand": "Tank Ono",
        "opening_hours": "24/7"
      }
    },
    {
      "type": "Feature",
      "geometry": {
        "type": "Point",
        "coordinates": [
          17.7690647,
          49.2974599
        ]
      },
      "properties": {
        "id": 3049299974,
        "osm_type": "node"
      }
    },
    {
      "type": "Feature",
      "geometry": {
        "type": "Point",
        "coordinates": [
          17.8104834,
          49.2494056
        ]
      },
      "properties": {
        "id": 7598396642,
        "osm_type": "node",
        "name": "Benzina - Slušovice",
        "brand": "Benzina",
        "opening_hours": "05:00-21:00"
      }
    },
    {
      "type": "Feature",
      "geometry": {
        "type": "Point",
        "coordinates": [
          17.8210654,
          49.2544917
        ]
      },
      "properties": {
        "id": 9859911771,
        "osm_type": "node",
        "name": "ALITRON CZ, s.r.o."
      }
    },
    {
      "type": "Feature",
      "geometry": {
        "type": "Point",
        "coordinates": [
          18.0259165,
          49.1024805
        ]
      },
      "properties": {
        "id": 8619289788,
        "osm_type": "node"
      }
    },
    {
      "type": "Feature",
      "geometry": {
        "type": "Point",
        "coordinates": [
          18.0221009,
          49.1476961
        ]
      },
      "properties": {
        "id": 431054718,
        "osm_type": "node",
        "name": "Benzina - Valašské Klobouky",
        "brand": "Benzina",
        "opening_hours": "05:00-22:00"
      }
    },
    {
      "type": "Feature",
      "geometry": {
        "type": "Point",
        "coordinates": [
          18.0212471,
          49.1466906
        ]
      },
      "properties": {
        "id": 652640488,
        "osm_type": "node",
        "name": "EuroOil Valašské Klobouky",
        "brand": "EuroOil",
        "opening_hours": "Mo-Su 06:00-21:00"
      }
    },
    {
      "type": "Feature",
      "geometry": {
        "type": "Point",
        "coordinates": [
          18.0199445,
          49.1464258
        ]
      },
      "properties": {
        "id": 7598396629,
        "osm_type": "node",
        "name": "Z-Group Valašské Klobouky",
        "opening_hours": "24/7"
      }
    },
    {
      "type": "Feature",
      "geometry": {
        "type": "Point",
        "coordinates": [
          17.833294,
          49.212681
        ]
      },
      "properties": {
        "id": 7575515033,
        "osm_type": "node",
        "name": "Alitron Vizovice",
        "opening_hours": "Mo-Fr 06:00-18:00; Sa 07:00-12:00"
      }
    },
    {
      "type": "Feature",
      "geometry": {
        "type": "Point",
        "coordinates": [
          17.8470956,
          49.2182539
        ]
      },
      "properties": {
        "id": 8488480474,
        "osm_type": "node",
        "name": "Benzina - Vizovice",
        "brand": "Benzina",
        "opening_hours": "Mo-Fr 05:30-22:30; Sa-Su 06:30-22:30"
      }
    },
    {
      "type": "Feature",
      "geometry": {
        "type": "Point",
        "coordinates": [
          17.8789736,
          49.2388349
        ]
      },
      "properties": {
        "id": 11206953299,
        "osm_type": "node",
        "name": "Shell",
        "brand": "Shell",
        "opening_hours": "Mo-Fr 05:00-22:00; Sa,Su 06:00-22:00"
      }
    },
    {
      "type": "Feature",
      "geometry": {
        "type": "Point",
        "coordinates": [
          17.9353932,
          49.2937973
        ]
      },
      "properties": {
        "id": 7608305737,
        "osm_type": "node",
        "name": "Valatrans Liptál",
        "opening_hours": "06:00-22:00"
      }
    },
    {
      "type": "Feature",
      "geometry": {
        "type": "Point",
        "coordinates": [
          18.0008506,
          49.2496312
        ]
      },
      "properties": {
        "id": 3575467253,
        "osm_type": "node",
        "name": "MOL Valašská Polanka",
        "brand": "MOL",
        "opening_hours": "06:00-20:00"
      }
    },
    {
      "type": "Feature",
      "geometry": {
        "type": "Point",
        "coordinates": [
          17.6175131,
          49.299959
        ]
      },
      "properties": {
        "id": 2372905623,
        "osm_type": "node"
      }
    },
    {
      "type": "Feature",
      "geometry": {
        "type": "Point",
        "coordinates": [
          17.6592653,
          49.3964199
        ]
      },
      "properties": {
        "id": 2272299837,
        "osm_type": "node",
        "name": "EuroOil Bystřice pod Hostýnem",
        "brand": "EuroOil",
        "opening_hours": "Mo-Su 06:00-21:00"
      }
    },
    {
      "type": "Feature",
      "geometry": {
        "type": "Point",
        "coordinates": [
          17.779925,
          49.3196831
        ]
      },
      "properties": {
        "id": 4948750443,
        "osm_type": "node",
        "name": "Alitron Držková",
        "opening_hours": "Mo-Fr 06:00-19:00; Sa 07:00-17:00"
      }
    },
    {
      "type": "Feature",
      "geometry": {
        "type": "Point",
        "coordinates": [
          17.6794901,
          49.4071608
        ]
      },
      "properties": {
        "id": 2239457700,
        "osm_type": "node"
      }
    },
    {
      "type": "Feature",
      "geometry": {
        "type": "Point",
        "coordinates": [
          17.8183298,
          49.4791275
        ]
      },
      "properties": {
        "id": 635890673,
        "osm_type": "node",
        "name": "Benzina",
        "brand": "ORLEN Benzina",
        "opening_hours": "05:00-21:00"
      }
    },
    {
      "type": "Feature",
      "geometry": {
        "type": "Point",
        "coordinates": [
          17.974817,
          49.3164774
        ]
      },
      "properties": {
        "id": 3623861322,
        "osm_type": "node",
        "name": "Unicorn"
      }
    },
    {
      "type": "Feature",
      "geometry": {
        "type": "Point",
        "coordinates": [
          17.9727899,
          49.3518363
        ]
      },
      "properties": {
        "id": 3766847171,
        "osm_type": "node",
        "name": "Gemini Petrol"
      }
    },
    {
      "type": "Feature",
      "geometry": {
        "type": "Point",
        "coordinates": [
          18.0014687,
          49.3290017
        ]
      },
      "properties": {
        "id": 3623830831,
        "osm_type": "node",
        "name": "Orlen",
        "brand": "Orlen",
        "opening_hours": "24/7"
      }
    },
    {
      "type": "Feature",
      "geometry": {
        "type": "Point",
        "coordinates": [
          18.0012479,
          49.3289999
        ]
      },
      "properties": {
        "id": 3766847170,
        "osm_type": "node",
        "name": "Z-Group",
        "opening_hours": "24/7"
      }
    },
    {
      "type": "Feature",
      "geometry": {
        "type": "Point",
        "coordinates": [
          17.9933527,
          49.3420872
        ]
      },
      "properties": {
        "id": 3733662284,
        "osm_type": "node",
        "name": "EuroOil Vsetín",
        "brand": "EuroOil",
        "opening_hours": "Mo-Su 06:00-20:00"
      }
    },
    {
      "type": "Feature",
      "geometry": {
        "type": "Point",
        "coordinates": [
          17.9567767,
          49.3624134
        ]
      },
      "properties": {
        "id": 457698830,
        "osm_type": "node",
        "name": "Autoservis Bobrky, a.s.",
        "opening_hours": "06:00-22:00"
      }
    },
    {
      "type": "Feature",
      "geometry": {
        "type": "Point",
        "coordinates": [
          17.9588846,
          49.3631921
        ]
      },
      "properties": {
        "id": 457698829,
        "osm_type": "node",
        "name": "UNION ROAD, s.r.o.",
        "opening_hours": "6:00-22:00"
      }
    },
    {
      "type": "Feature",
      "geometry": {
        "type": "Point",
        "coordinates": [
          17.9452715,
          49.3788141
        ]
      },
      "properties": {
        "id": 457698828,
        "osm_type": "node"
      }
    },
    {
      "type": "Feature",
      "geometry": {
        "type": "Point",
        "coordinates": [
          17.9505227,
          49.3837835
        ]
      },
      "properties": {
        "id": 13566574024,
        "osm_type": "node",
        "name": "BENZINA BENZINA BENZINA",
        "brand": "Orlen"
      }
    },
    {
      "type": "Feature",
      "geometry": {
        "type": "Point",
        "coordinates": [
          17.9564394,
          49.4172695
        ]
      },
      "properties": {
        "id": 1366518480,
        "osm_type": "node",
        "name": "Limitoo, Bystřička 2",
        "opening_hours": "Mo-Fr 05:00-20:00; Sa,Su 06:00-20:00"
      }
    },
    {
      "type": "Feature",
      "geometry": {
        "type": "Point",
        "coordinates": [
          17.9542256,
          49.4175258
        ]
      },
      "properties": {
        "id": 457698827,
        "osm_type": "node",
        "name": "Limitoo, Bystřička",
        "opening_hours": "Mo-Fr 05:30-21:00; Sa,Su 06:00-21:00"
      }
    },
    {
      "type": "Feature",
      "geometry": {
        "type": "Point",
        "coordinates": [
          17.9755751,
          49.4517283
        ]
      },
      "properties": {
        "id": 1492997088,
        "osm_type": "node"
      }
    },
    {
      "type": "Feature",
      "geometry": {
        "type": "Point",
        "coordinates": [
          17.953071,
          49.4670695
        ]
      },
      "properties": {
        "id": 2075273118,
        "osm_type": "node",
        "name": "CAFRO PLUS",
        "brand": "CAFRO PLUS, spol. s r.o."
      }
    },
    {
      "type": "Feature",
      "geometry": {
        "type": "Point",
        "coordinates": [
          17.9652375,
          49.4642142
        ]
      },
      "properties": {
        "id": 7598396628,
        "osm_type": "node",
        "name": "Z-Group Valašské Meziříčí",
        "opening_hours": "24/7"
      }
    },
    {
      "type": "Feature",
      "geometry": {
        "type": "Point",
        "coordinates": [
          17.9500133,
          49.4910403
        ]
      },
      "properties": {
        "id": 7526786950,
        "osm_type": "node",
        "name": "Limitoo Valašské Meziříčí",
        "opening_hours": "Mo-Fr 06:00-17:00; Sa 07:00-12:00"
      }
    },
    {
      "type": "Feature",
      "geometry": {
        "type": "Point",
        "coordinates": [
          17.9641672,
          49.4850117
        ]
      },
      "properties": {
        "id": 457698821,
        "osm_type": "node",
        "name": "Tesco Valašské Meziříčí",
        "brand": "Tesco",
        "opening_hours": "06:00-22:00"
      }
    },
    {
      "type": "Feature",
      "geometry": {
        "type": "Point",
        "coordinates": [
          17.966723,
          49.4837938
        ]
      },
      "properties": {
        "id": 2066621947,
        "osm_type": "node",
        "name": "Shell",
        "brand": "Shell"
      }
    },
    {
      "type": "Feature",
      "geometry": {
        "type": "Point",
        "coordinates": [
          17.962278,
          49.4969995
        ]
      },
      "properties": {
        "id": 457679391,
        "osm_type": "node",
        "name": "Orlen - Valašské Meziříčí, Hřbitovní",
        "brand": "Orlen"
      }
    },
    {
      "type": "Feature",
      "geometry": {
        "type": "Point",
        "coordinates": [
          17.9832248,
          49.4664136
        ]
      },
      "properties": {
        "id": 1341039848,
        "osm_type": "node",
        "name": "Vena-Trade Valašské Meziříčí"
      }
    },
    {
      "type": "Feature",
      "geometry": {
        "type": "Point",
        "coordinates": [
          18.0663472,
          49.1806861
        ]
      },
      "properties": {
        "id": 5614142949,
        "osm_type": "node",
        "name": "EuroOil Horní Lideč",
        "brand": "EuroOil",
        "opening_hours": "Mo-Su 06:00-20:00"
      }
    },
    {
      "type": "Feature",
      "geometry": {
        "type": "Point",
        "coordinates": [
          18.0493531,
          49.2156258
        ]
      },
      "properties": {
        "id": 457705724,
        "osm_type": "node",
        "name": "Silmet Lidečko",
        "opening_hours": "Mo-Fr 05:00-22:00;Sa-Su 07:00-20:00"
      }
    },
    {
      "type": "Feature",
      "geometry": {
        "type": "Point",
        "coordinates": [
          18.0409116,
          49.3411221
        ]
      },
      "properties": {
        "id": 12630335366,
        "osm_type": "node",
        "name": "TM Stav",
        "opening_hours": "Mo-Su 05:00-22:00"
      }
    },
    {
      "type": "Feature",
      "geometry": {
        "type": "Point",
        "coordinates": [
          18.0978785,
          49.3047373
        ]
      },
      "properties": {
        "id": 2684731814,
        "osm_type": "node",
        "name": "ELKO-OIL",
        "opening_hours": "24/7"
      }
    },
    {
      "type": "Feature",
      "geometry": {
        "type": "Point",
        "coordinates": [
          18.2266229,
          49.3504214
        ]
      },
      "properties": {
        "id": 2334231178,
        "osm_type": "node",
        "name": "Silmet Karolinka"
      }
    },
    {
      "type": "Feature",
      "geometry": {
        "type": "Point",
        "coordinates": [
          18.1175201,
          49.4221759
        ]
      },
      "properties": {
        "id": 5725116491,
        "osm_type": "node",
        "name": "Čerpací stanice AH"
      }
    },
    {
      "type": "Feature",
      "geometry": {
        "type": "Point",
        "coordinates": [
          18.1287337,
          49.4601543
        ]
      },
      "properties": {
        "id": 457713628,
        "osm_type": "node",
        "name": "OMV",
        "brand": "OMV",
        "opening_hours": "24/7"
      }
    },
    {
      "type": "Feature",
      "geometry": {
        "type": "Point",
        "coordinates": [
          18.1287534,
          49.4622306
        ]
      },
      "properties": {
        "id": 2050517155,
        "osm_type": "node",
        "name": "Orlen - Rožnov, 1. máje",
        "brand": "Orlen",
        "opening_hours": "24/7"
      }
    },
    {
      "type": "Feature",
      "geometry": {
        "type": "Point",
        "coordinates": [
          18.1830928,
          49.4448695
        ]
      },
      "properties": {
        "id": 6023388279,
        "osm_type": "node",
        "name": "Limitoo, Vigantice",
        "opening_hours": "Mo-Fr 06:00-18:00; Sa 07:00-16:00; Su 08:00-12:00"
      }
    },
    {
      "type": "Feature",
      "geometry": {
        "type": "Point",
        "coordinates": [
          18.2066175,
          49.4499764
        ]
      },
      "properties": {
        "id": 7554183201,
        "osm_type": "node",
        "name": "Limitoo Dolní Bečva",
        "opening_hours": "Mo-Fr 06:00-19:00; Sa,Su 07:00-18:00"
      }
    },
    {
      "type": "Feature",
      "geometry": {
        "type": "Point",
        "coordinates": [
          18.1554038,
          49.4658368
        ]
      },
      "properties": {
        "id": 2073945420,
        "osm_type": "node"
      }
    },
    {
      "type": "Feature",
      "geometry": {
        "type": "Point",
        "coordinates": [
          18.162168,
          49.4658573
        ]
      },
      "properties": {
        "id": 304095583,
        "osm_type": "node",
        "name": "Orlen - Rožnov pod Radhoštěm, Horní Paseky",
        "brand": "Orlen",
        "opening_hours": "24/7"
      }
    },
    {
      "type": "Feature",
      "geometry": {
        "type": "Point",
        "coordinates": [
          17.6604228,
          49.0254858
        ]
      },
      "properties": {
        "id": 1450326650,
        "osm_type": "way",
        "name": "ORLEN"
      }
    },
    {
      "type": "Feature",
      "geometry": {
        "type": "Point",
        "coordinates": [
          17.8867908,
          49.0802257
        ]
      },
      "properties": {
        "id": 106807761,
        "osm_type": "way",
        "name": "TRAKO, spol. s r.o."
      }
    },
    {
      "type": "Feature",
      "geometry": {
        "type": "Point",
        "coordinates": [
          17.2194563,
          49.1506671
        ]
      },
      "properties": {
        "id": 69567519,
        "osm_type": "way",
        "name": "MOTRANS Střílky, s.r.o."
      }
    },
    {
      "type": "Feature",
      "geometry": {
        "type": "Point",
        "coordinates": [
          17.2196022,
          49.1507977
        ]
      },
      "properties": {
        "id": 635674230,
        "osm_type": "way",
        "name": "Motrans"
      }
    },
    {
      "type": "Feature",
      "geometry": {
        "type": "Point",
        "coordinates": [
          17.2903023,
          49.1897654
        ]
      },
      "properties": {
        "id": 555946850,
        "osm_type": "way",
        "brand": "COOP 24",
        "opening_hours": "24/7"
      }
    },
    {
      "type": "Feature",
      "geometry": {
        "type": "Point",
        "coordinates": [
          17.2134224,
          49.257271
        ]
      },
      "properties": {
        "id": 254499623,
        "osm_type": "way",
        "name": "Čerpací stanice Morkovice",
        "brand": "Mars"
      }
    },
    {
      "type": "Feature",
      "geometry": {
        "type": "Point",
        "coordinates": [
          17.5053732,
          49.1606826
        ]
      },
      "properties": {
        "id": 69567517,
        "osm_type": "way",
        "name": "Benzina Napajedla",
        "brand": "Benzina",
        "opening_hours": "24/7"
      }
    },
    {
      "type": "Feature",
      "geometry": {
        "type": "Point",
        "coordinates": [
          17.5054077,
          49.1606125
        ]
      },
      "properties": {
        "id": 627400780,
        "osm_type": "way",
        "name": "Benzina",
        "brand": "Benzina",
        "opening_hours": "05:00-21:00"
      }
    },
    {
      "type": "Feature",
      "geometry": {
        "type": "Point",
        "coordinates": [
          17.5201483,
          49.179713
        ]
      },
      "properties": {
        "id": 42729535,
        "osm_type": "way",
        "name": "MOL",
        "brand": "MOL"
      }
    },
    {
      "type": "Feature",
      "geometry": {
        "type": "Point",
        "coordinates": [
          17.5325756,
          49.192709
        ]
      },
      "properties": {
        "id": 123493861,
        "osm_type": "way"
      }
    },
    {
      "type": "Feature",
      "geometry": {
        "type": "Point",
        "coordinates": [
          17.4693247,
          49.2437714
        ]
      },
      "properties": {
        "id": 255027077,
        "osm_type": "way",
        "name": "sp Servis S.r.o."
      }
    },
    {
      "type": "Feature",
      "geometry": {
        "type": "Point",
        "coordinates": [
          17.561846,
          49.2036788
        ]
      },
      "properties": {
        "id": 1111092315,
        "osm_type": "way",
        "name": "Unicorn"
      }
    },
    {
      "type": "Feature",
      "geometry": {
        "type": "Point",
        "coordinates": [
          17.4063307,
          49.3069752
        ]
      },
      "properties": {
        "id": 264421803,
        "osm_type": "way"
      }
    },
    {
      "type": "Feature",
      "geometry": {
        "type": "Point",
        "coordinates": [
          17.5983377,
          49.3395305
        ]
      },
      "properties": {
        "id": 257366210,
        "osm_type": "way",
        "name": "Gabi"
      }
    },
    {
      "type": "Feature",
      "geometry": {
        "type": "Point",
        "coordinates": [
          17.6396249,
          49.1714494
        ]
      },
      "properties": {
        "id": 75228514,
        "osm_type": "way"
      }
    },
    {
      "type": "Feature",
      "geometry": {
        "type": "Point",
        "coordinates": [
          17.6223784,
          49.2158038
        ]
      },
      "properties": {
        "id": 59384219,
        "osm_type": "way",
        "name": "OMV",
        "brand": "OMV",
        "opening_hours": "Mo-Su 00:00-24:00"
      }
    },
    {
      "type": "Feature",
      "geometry": {
        "type": "Point",
        "coordinates": [
          17.6267052,
          49.2162714
        ]
      },
      "properties": {
        "id": 65643980,
        "osm_type": "way",
        "name": "Shell",
        "brand": "Shell"
      }
    },
    {
      "type": "Feature",
      "geometry": {
        "type": "Point",
        "coordinates": [
          17.6568083,
          49.2276331
        ]
      },
      "properties": {
        "id": 40429360,
        "osm_type": "way",
        "name": "OMV",
        "brand": "OMV"
      }
    },
    {
      "type": "Feature",
      "geometry": {
        "type": "Point",
        "coordinates": [
          17.7413295,
          49.2124292
        ]
      },
      "properties": {
        "id": 1354947178,
        "osm_type": "way"
      }
    },
    {
      "type": "Feature",
      "geometry": {
        "type": "Point",
        "coordinates": [
          18.0259535,
          49.1025009
        ]
      },
      "properties": {
        "id": 460497271,
        "osm_type": "way"
      }
    },
    {
      "type": "Feature",
      "geometry": {
        "type": "Point",
        "coordinates": [
          17.9433874,
          49.176978
        ]
      },
      "properties": {
        "id": 255929290,
        "osm_type": "way",
        "name": "Václav Častulík"
      }
    },
    {
      "type": "Feature",
      "geometry": {
        "type": "Point",
        "coordinates": [
          17.7376348,
          49.4168631
        ]
      },
      "properties": {
        "id": 227741183,
        "osm_type": "way",
        "name": "EuroOil Loukov"
      }
    },
    {
      "type": "Feature",
      "geometry": {
        "type": "Point",
        "coordinates": [
          17.9872828,
          49.3346835
        ]
      },
      "properties": {
        "id": 361637336,
        "osm_type": "way",
        "name": "Shell",
        "brand": "Shell",
        "opening_hours": "24/7"
      }
    },
    {
      "type": "Feature",
      "geometry": {
        "type": "Point",
        "coordinates": [
          17.9602455,
          49.4769464
        ]
      },
      "properties": {
        "id": 58109660,
        "osm_type": "way"
      }
    },
    {
      "type": "Feature",
      "geometry": {
        "type": "Point",
        "coordinates": [
          18.319404,
          49.369479
        ]
      },
      "properties": {
        "id": 437244876,
        "osm_type": "way",
        "name": "František Podešva"
      }
    },
    {
      "type": "Feature",
      "geometry": {
        "type": "Point",
        "coordinates": [
          18.2753876,
          49.4347074
        ]
      },
      "properties": {
        "id": 36969086,
        "osm_type": "way",
        "name": "Gold Horní Bečva",
        "opening_hours": "24/7"
      }
    }
  ]
}