{
  "type": "FeatureCollection",
  "features": [
    {
      "type": "Feature",
      "geometry": {
        "type": "Point",
        "coordinates": [
          18.8065586,
          45.2878789
        ]
      },
      "properties": {
        "id": 670440318,
        "osm_type": "node",
        "name": "Cibalia",
        "opening_hours": "Mo-Sa 05:30-20:30; Su 06:00-13:00;PH off"
      }
    },
    {
      "type": "Feature",
      "geometry": {
        "type": "Point",
        "coordinates": [
          18.8166661,
          45.2825252
        ]
      },
      "properties": {
        "id": 670440336,
        "osm_type": "node",
        "name": "Cibalia"
      }
    },
    {
      "type": "Feature",
      "geometry": {
        "type": "Point",
        "coordinates": [
          18.8107714,
          45.2954835
        ]
      },
      "properties": {
        "id": 676246861,
        "osm_type": "node",
        "name": "Pekara Lapovci"
      }
    },
    {
      "type": "Feature",
      "geometry": {
        "type": "Point",
        "coordinates": [
          18.8057297,
          45.2895135
        ]
      },
      "properties": {
        "id": 676796601,
        "osm_type": "node",
        "name": "Amareto"
      }
    },
    {
      "type": "Feature",
      "geometry": {
        "type": "Point",
        "coordinates": [
          18.9115774,
          44.9196609
        ]
      },
      "properties": {
        "id": 866368303,
        "osm_type": "node"
      }
    },
    {
      "type": "Feature",
      "geometry": {
        "type": "Point",
        "coordinates": [
          18.9138249,
          44.919221
        ]
      },
      "properties": {
        "id": 866368319,
        "osm_type": "node",
        "name": "J&B"
      }
    },
    {
      "type": "Feature",
      "geometry": {
        "type": "Point",
        "coordinates": [
          18.9112516,
          44.9198675
        ]
      },
      "properties": {
        "id": 866832177,
        "osm_type": "node",
        "name": "Bonus"
      }
    },
    {
      "type": "Feature",
      "geometry": {
        "type": "Point",
        "coordinates": [
          18.9120904,
          44.9201037
        ]
      },
      "properties": {
        "id": 866832180,
        "osm_type": "node",
        "name": "Pekara Drenovci"
      }
    },
    {
      "type": "Feature",
      "geometry": {
        "type": "Point",
        "coordinates": [
          18.7970691,
          45.2795861
        ]
      },
      "properties": {
        "id": 904031844,
        "osm_type": "node",
        "name": "WWW"
      }
    },
    {
      "type": "Feature",
      "geometry": {
        "type": "Point",
        "coordinates": [
          18.8295272,
          45.2944118
        ]
      },
      "properties": {
        "id": 905758743,
        "osm_type": "node",
        "name": "PLUS - Mala bosna"
      }
    },
    {
      "type": "Feature",
      "geometry": {
        "type": "Point",
        "coordinates": [
          18.8037063,
          45.2880683
        ]
      },
      "properties": {
        "id": 956209842,
        "osm_type": "node",
        "name": "Gradska kavana"
      }
    },
    {
      "type": "Feature",
      "geometry": {
        "type": "Point",
        "coordinates": [
          18.8037543,
          45.2893678
        ]
      },
      "properties": {
        "id": 956209876,
        "osm_type": "node",
        "name": "Coffee house Charlie"
      }
    },
    {
      "type": "Feature",
      "geometry": {
        "type": "Point",
        "coordinates": [
          18.8962301,
          45.23964
        ]
      },
      "properties": {
        "id": 1141237690,
        "osm_type": "node",
        "name": "Caffebar Ćošak"
      }
    },
    {
      "type": "Feature",
      "geometry": {
        "type": "Point",
        "coordinates": [
          18.9580232,
          45.3761192
        ]
      },
      "properties": {
        "id": 1280192831,
        "osm_type": "node"
      }
    },
    {
      "type": "Feature",
      "geometry": {
        "type": "Point",
        "coordinates": [
          18.9573311,
          45.3705174
        ]
      },
      "properties": {
        "id": 1280195233,
        "osm_type": "node",
        "name": "Pekarnica Luka"
      }
    },
    {
      "type": "Feature",
      "geometry": {
        "type": "Point",
        "coordinates": [
          19.0688294,
          44.9137166
        ]
      },
      "properties": {
        "id": 1494204402,
        "osm_type": "node",
        "name": "Pekara Šen"
      }
    },
    {
      "type": "Feature",
      "geometry": {
        "type": "Point",
        "coordinates": [
          19.0678293,
          44.9149485
        ]
      },
      "properties": {
        "id": 1893275801,
        "osm_type": "node",
        "name": "Happy Day"
      }
    },
    {
      "type": "Feature",
      "geometry": {
        "type": "Point",
        "coordinates": [
          19.006634,
          45.3501847
        ]
      },
      "properties": {
        "id": 1940410195,
        "osm_type": "node",
        "name": "P.J."
      }
    },
    {
      "type": "Feature",
      "geometry": {
        "type": "Point",
        "coordinates": [
          19.3745261,
          45.2226052
        ]
      },
      "properties": {
        "id": 2091917038,
        "osm_type": "node",
        "name": "Caffe bar Remix",
        "check_date": "2025-03-24"
      }
    },
    {
      "type": "Feature",
      "geometry": {
        "type": "Point",
        "coordinates": [
          18.8062464,
          45.2783843
        ]
      },
      "properties": {
        "id": 2424463780,
        "osm_type": "node",
        "name": "Pekarna"
      }
    },
    {
      "type": "Feature",
      "geometry": {
        "type": "Point",
        "coordinates": [
          19.001523,
          45.3504469
        ]
      },
      "properties": {
        "id": 3022143429,
        "osm_type": "node",
        "name": "Bears Bar"
      }
    },
    {
      "type": "Feature",
      "geometry": {
        "type": "Point",
        "coordinates": [
          19.15078,
          45.1652295
        ]
      },
      "properties": {
        "id": 3114697359,
        "osm_type": "node",
        "name": "Pekara Enis d.o.o"
      }
    },
    {
      "type": "Feature",
      "geometry": {
        "type": "Point",
        "coordinates": [
          18.9670101,
          45.2520976
        ]
      },
      "properties": {
        "id": 3186726285,
        "osm_type": "node"
      }
    },
    {
      "type": "Feature",
      "geometry": {
        "type": "Point",
        "coordinates": [
          18.910639,
          45.2595377
        ]
      },
      "properties": {
        "id": 3198621856,
        "osm_type": "node",
        "name": "Deni"
      }
    },
    {
      "type": "Feature",
      "geometry": {
        "type": "Point",
        "coordinates": [
          18.7390014,
          45.2248055
        ]
      },
      "properties": {
        "id": 3623786893,
        "osm_type": "node",
        "name": "Cibalia",
        "opening_hours": "Mo-Sa 05:00-20:00; Su 06:00-13:00"
      }
    },
    {
      "type": "Feature",
      "geometry": {
        "type": "Point",
        "coordinates": [
          18.7390014,
          45.2248055
        ]
      },
      "properties": {
        "id": 3623786894,
        "osm_type": "node",
        "name": "Genci"
      }
    },
    {
      "type": "Feature",
      "geometry": {
        "type": "Point",
        "coordinates": [
          18.741895,
          45.2287033
        ]
      },
      "properties": {
        "id": 3623796034,
        "osm_type": "node",
        "name": "Genci"
      }
    },
    {
      "type": "Feature",
      "geometry": {
        "type": "Point",
        "coordinates": [
          19.0019561,
          45.3514667
        ]
      },
      "properties": {
        "id": 4041111230,
        "osm_type": "node",
        "name": "In Flumen",
        "takeaway": "no",
        "outdoor_seating": "yes"
      }
    },
    {
      "type": "Feature",
      "geometry": {
        "type": "Point",
        "coordinates": [
          19.0020988,
          45.3515361
        ]
      },
      "properties": {
        "id": 4041111231,
        "osm_type": "node",
        "name": "Mlinar",
        "brand": "Mlinar"
      }
    },
    {
      "type": "Feature",
      "geometry": {
        "type": "Point",
        "coordinates": [
          19.0021862,
          45.3518584
        ]
      },
      "properties": {
        "id": 4041111234,
        "osm_type": "node",
        "name": "El Maritimo",
        "outdoor_seating": "yes"
      }
    },
    {
      "type": "Feature",
      "geometry": {
        "type": "Point",
        "coordinates": [
          19.0023228,
          45.3518749
        ]
      },
      "properties": {
        "id": 4198051548,
        "osm_type": "node",
        "name": "Congo",
        "outdoor_seating": "yes"
      }
    },
    {
      "type": "Feature",
      "geometry": {
        "type": "Point",
        "coordinates": [
          19.1683606,
          45.2264071
        ]
      },
      "properties": {
        "id": 4568351306,
        "osm_type": "node",
        "name": "Caffe bar BIM",
        "outdoor_seating": "yes"
      }
    },
    {
      "type": "Feature",
      "geometry": {
        "type": "Point",
        "coordinates": [
          18.8099671,
          45.2807555
        ]
      },
      "properties": {
        "id": 4749502046,
        "osm_type": "node"
      }
    },
    {
      "type": "Feature",
      "geometry": {
        "type": "Point",
        "coordinates": [
          19.1004117,
          45.2926152
        ]
      },
      "properties": {
        "id": 4923775221,
        "osm_type": "node",
        "name": "Gondola",
        "outdoor_seating": "yes"
      }
    },
    {
      "type": "Feature",
      "geometry": {
        "type": "Point",
        "coordinates": [
          19.0014689,
          45.3522377
        ]
      },
      "properties": {
        "id": 5002521922,
        "osm_type": "node",
        "name": "Navis",
        "opening_hours": "Mo-Su 07:00-23:00"
      }
    },
    {
      "type": "Feature",
      "geometry": {
        "type": "Point",
        "coordinates": [
          19.0011275,
          45.3524492
        ]
      },
      "properties": {
        "id": 5002527921,
        "osm_type": "node"
      }
    },
    {
      "type": "Feature",
      "geometry": {
        "type": "Point",
        "coordinates": [
          19.1510725,
          45.1651624
        ]
      },
      "properties": {
        "id": 5036255721,
        "osm_type": "node",
        "name": "Caffe & Lounge Bar Notturno"
      }
    },
    {
      "type": "Feature",
      "geometry": {
        "type": "Point",
        "coordinates": [
          18.6841057,
          45.2879677
        ]
      },
      "properties": {
        "id": 5235728289,
        "osm_type": "node",
        "name": "Boraskino"
      }
    },
    {
      "type": "Feature",
      "geometry": {
        "type": "Point",
        "coordinates": [
          18.8012921,
          45.2945296
        ]
      },
      "properties": {
        "id": 5235729358,
        "osm_type": "node",
        "name": "Četiri asa"
      }
    },
    {
      "type": "Feature",
      "geometry": {
        "type": "Point",
        "coordinates": [
          18.941793,
          45.376715
        ]
      },
      "properties": {
        "id": 5235730022,
        "osm_type": "node",
        "name": "Mustang"
      }
    },
    {
      "type": "Feature",
      "geometry": {
        "type": "Point",
        "coordinates": [
          18.8023799,
          45.2891
        ]
      },
      "properties": {
        "id": 5764507904,
        "osm_type": "node",
        "name": "Marabú",
        "outdoor_seating": "yes"
      }
    },
    {
      "type": "Feature",
      "geometry": {
        "type": "Point",
        "coordinates": [
          18.8564733,
          45.3114227
        ]
      },
      "properties": {
        "id": 5775482825,
        "osm_type": "node"
      }
    },
    {
      "type": "Feature",
      "geometry": {
        "type": "Point",
        "coordinates": [
          18.826012,
          45.2820235
        ]
      },
      "properties": {
        "id": 5805853235,
        "osm_type": "node"
      }
    },
    {
      "type": "Feature",
      "geometry": {
        "type": "Point",
        "coordinates": [
          18.8480102,
          45.2718871
        ]
      },
      "properties": {
        "id": 5805853248,
        "osm_type": "node"
      }
    },
    {
      "type": "Feature",
      "geometry": {
        "type": "Point",
        "coordinates": [
          18.8052977,
          45.2891096
        ]
      },
      "properties": {
        "id": 6235956137,
        "osm_type": "node",
        "name": "Gymnasium Caffe & Lounge bar",
        "opening_hours": "Mo-Su 07:00-24:00",
        "outdoor_seating": "yes"
      }
    },
    {
      "type": "Feature",
      "geometry": {
        "type": "Point",
        "coordinates": [
          18.8055113,
          45.2894919
        ]
      },
      "properties": {
        "id": 6235956138,
        "osm_type": "node",
        "name": "Caffe bar Rubirosa",
        "outdoor_seating": "yes"
      }
    },
    {
      "type": "Feature",
      "geometry": {
        "type": "Point",
        "coordinates": [
          18.805286,
          45.2898127
        ]
      },
      "properties": {
        "id": 6235956139,
        "osm_type": "node",
        "name": "Caffe bar Palace",
        "outdoor_seating": "yes"
      }
    },
    {
      "type": "Feature",
      "geometry": {
        "type": "Point",
        "coordinates": [
          19.00427,
          45.3491339
        ]
      },
      "properties": {
        "id": 7683016302,
        "osm_type": "node",
        "name": "Pekarnica Luka"
      }
    },
    {
      "type": "Feature",
      "geometry": {
        "type": "Point",
        "coordinates": [
          19.0038461,
          45.3497704
        ]
      },
      "properties": {
        "id": 8088705644,
        "osm_type": "node",
        "name": "Caffe bar ''The Best''"
      }
    },
    {
      "type": "Feature",
      "geometry": {
        "type": "Point",
        "coordinates": [
          19.0351506,
          45.1402654
        ]
      },
      "properties": {
        "id": 8350165657,
        "osm_type": "node",
        "name": "Casablanca bar",
        "outdoor_seating": "yes"
      }
    },
    {
      "type": "Feature",
      "geometry": {
        "type": "Point",
        "coordinates": [
          19.0356106,
          45.1398302
        ]
      },
      "properties": {
        "id": 8350165681,
        "osm_type": "node",
        "name": "Besi"
      }
    },
    {
      "type": "Feature",
      "geometry": {
        "type": "Point",
        "coordinates": [
          19.0358345,
          45.1397915
        ]
      },
      "properties": {
        "id": 8350165691,
        "osm_type": "node",
        "name": "Kralj Tomislav"
      }
    },
    {
      "type": "Feature",
      "geometry": {
        "type": "Point",
        "coordinates": [
          19.3688428,
          45.2235245
        ]
      },
      "properties": {
        "id": 8355516146,
        "osm_type": "node",
        "name": "Klas"
      }
    },
    {
      "type": "Feature",
      "geometry": {
        "type": "Point",
        "coordinates": [
          19.3690789,
          45.2234716
        ]
      },
      "properties": {
        "id": 8355516147,
        "osm_type": "node",
        "name": "Prestige",
        "outdoor_seating": "yes"
      }
    },
    {
      "type": "Feature",
      "geometry": {
        "type": "Point",
        "coordinates": [
          19.3782574,
          45.2224429
        ]
      },
      "properties": {
        "id": 8356196503,
        "osm_type": "node",
        "name": "Laura"
      }
    },
    {
      "type": "Feature",
      "geometry": {
        "type": "Point",
        "coordinates": [
          18.9313893,
          45.3382527
        ]
      },
      "properties": {
        "id": 8522683696,
        "osm_type": "node",
        "name": "Rio",
        "outdoor_seating": "yes"
      }
    },
    {
      "type": "Feature",
      "geometry": {
        "type": "Point",
        "coordinates": [
          18.9307295,
          45.3380999
        ]
      },
      "properties": {
        "id": 8522704426,
        "osm_type": "node",
        "name": "Luka"
      }
    },
    {
      "type": "Feature",
      "geometry": {
        "type": "Point",
        "coordinates": [
          18.7055048,
          45.1443611
        ]
      },
      "properties": {
        "id": 8899255359,
        "osm_type": "node",
        "name": "Pekara Paštrik 2",
        "opening_hours": "Mo-Fr 06:00-13:00; Sa 7:00-12:00"
      }
    },
    {
      "type": "Feature",
      "geometry": {
        "type": "Point",
        "coordinates": [
          18.8031475,
          45.2918961
        ]
      },
      "properties": {
        "id": 9739101956,
        "osm_type": "node",
        "name": "Merkur",
        "opening_hours": "Mo-Fr 06:00-21:00; Sa 06:00-20:00; PH,Su 07:00-12:00"
      }
    },
    {
      "type": "Feature",
      "geometry": {
        "type": "Point",
        "coordinates": [
          18.801855,
          45.287116
        ]
      },
      "properties": {
        "id": 9739651827,
        "osm_type": "node",
        "name": "Medusa"
      }
    },
    {
      "type": "Feature",
      "geometry": {
        "type": "Point",
        "coordinates": [
          18.6836993,
          45.2884058
        ]
      },
      "properties": {
        "id": 9739912604,
        "osm_type": "node",
        "name": "Klas",
        "opening_hours": "Mo-Sa 05:00-22:00; Su off; PH 07:00-14:00"
      }
    },
    {
      "type": "Feature",
      "geometry": {
        "type": "Point",
        "coordinates": [
          18.5349969,
          45.270204
        ]
      },
      "properties": {
        "id": 9741199134,
        "osm_type": "node",
        "name": "Sidro"
      }
    },
    {
      "type": "Feature",
      "geometry": {
        "type": "Point",
        "coordinates": [
          18.5541636,
          45.2848548
        ]
      },
      "properties": {
        "id": 9741215179,
        "osm_type": "node"
      }
    },
    {
      "type": "Feature",
      "geometry": {
        "type": "Point",
        "coordinates": [
          18.5556779,
          45.2851926
        ]
      },
      "properties": {
        "id": 9741237645,
        "osm_type": "node"
      }
    },
    {
      "type": "Feature",
      "geometry": {
        "type": "Point",
        "coordinates": [
          18.7535926,
          45.2870856
        ]
      },
      "properties": {
        "id": 10858010796,
        "osm_type": "node",
        "name": "Caffe bar Yes"
      }
    },
    {
      "type": "Feature",
      "geometry": {
        "type": "Point",
        "coordinates": [
          18.9968087,
          45.3579247
        ]
      },
      "properties": {
        "id": 11125583088,
        "osm_type": "node",
        "name": "Cafe Bar Donau"
      }
    },
    {
      "type": "Feature",
      "geometry": {
        "type": "Point",
        "coordinates": [
          19.1705015,
          45.2624596
        ]
      },
      "properties": {
        "id": 11199152484,
        "osm_type": "node",
        "name": "Caffe bar Ćipa"
      }
    },
    {
      "type": "Feature",
      "geometry": {
        "type": "Point",
        "coordinates": [
          18.970792,
          45.3690048
        ]
      },
      "properties": {
        "id": 11267648295,
        "osm_type": "node"
      }
    },
    {
      "type": "Feature",
      "geometry": {
        "type": "Point",
        "coordinates": [
          19.0657002,
          44.9159731
        ]
      },
      "properties": {
        "id": 11687711221,
        "osm_type": "node",
        "name": "Caffe Bar London"
      }
    },
    {
      "type": "Feature",
      "geometry": {
        "type": "Point",
        "coordinates": [
          18.9945195,
          45.3456963
        ]
      },
      "properties": {
        "id": 11740671689,
        "osm_type": "node",
        "name": "Dora"
      }
    },
    {
      "type": "Feature",
      "geometry": {
        "type": "Point",
        "coordinates": [
          19.0023726,
          45.3429593
        ]
      },
      "properties": {
        "id": 11740953258,
        "osm_type": "node"
      }
    },
    {
      "type": "Feature",
      "geometry": {
        "type": "Point",
        "coordinates": [
          19.0023968,
          45.3427953
        ]
      },
      "properties": {
        "id": 11740953261,
        "osm_type": "node",
        "name": "D&D",
        "outdoor_seating": "yes"
      }
    },
    {
      "type": "Feature",
      "geometry": {
        "type": "Point",
        "coordinates": [
          19.0029547,
          45.3426935
        ]
      },
      "properties": {
        "id": 11740953262,
        "osm_type": "node",
        "name": "Pink",
        "outdoor_seating": "yes"
      }
    },
    {
      "type": "Feature",
      "geometry": {
        "type": "Point",
        "coordinates": [
          18.8010583,
          45.2986733
        ]
      },
      "properties": {
        "id": 11843431613,
        "osm_type": "node",
        "name": "Atrium",
        "outdoor_seating": "yes"
      }
    },
    {
      "type": "Feature",
      "geometry": {
        "type": "Point",
        "coordinates": [
          19.0234862,
          45.3395323
        ]
      },
      "properties": {
        "id": 11931094571,
        "osm_type": "node"
      }
    },
    {
      "type": "Feature",
      "geometry": {
        "type": "Point",
        "coordinates": [
          18.5357412,
          45.1142877
        ]
      },
      "properties": {
        "id": 11965890316,
        "osm_type": "node",
        "name": "Kod Vereša",
        "outdoor_seating": "yes"
      }
    },
    {
      "type": "Feature",
      "geometry": {
        "type": "Point",
        "coordinates": [
          18.8029021,
          45.2998042
        ]
      },
      "properties": {
        "id": 11983841141,
        "osm_type": "node",
        "name": "Superior",
        "outdoor_seating": "yes"
      }
    },
    {
      "type": "Feature",
      "geometry": {
        "type": "Point",
        "coordinates": [
          18.8073891,
          45.2929893
        ]
      },
      "properties": {
        "id": 11983853407,
        "osm_type": "node",
        "name": "Europa"
      }
    },
    {
      "type": "Feature",
      "geometry": {
        "type": "Point",
        "coordinates": [
          18.7058652,
          45.1471907
        ]
      },
      "properties": {
        "id": 12211475483,
        "osm_type": "node",
        "name": "Pekara Šnajder"
      }
    },
    {
      "type": "Feature",
      "geometry": {
        "type": "Point",
        "coordinates": [
          19.093861,
          45.1822569
        ]
      },
      "properties": {
        "id": 12287944402,
        "osm_type": "node"
      }
    },
    {
      "type": "Feature",
      "geometry": {
        "type": "Point",
        "coordinates": [
          18.652777,
          45.2335837
        ]
      },
      "properties": {
        "id": 311557470,
        "osm_type": "way"
      }
    },
    {
      "type": "Feature",
      "geometry": {
        "type": "Point",
        "coordinates": [
          18.6540531,
          45.2339447
        ]
      },
      "properties": {
        "id": 311561087,
        "osm_type": "way"
      }
    },
    {
      "type": "Feature",
      "geometry": {
        "type": "Point",
        "coordinates": [
          18.8838821,
          45.1471421
        ]
      },
      "properties": {
        "id": 313830523,
        "osm_type": "way",
        "name": "Kavana Otok"
      }
    },
    {
      "type": "Feature",
      "geometry": {
        "type": "Point",
        "coordinates": [
          18.6492755,
          45.1985097
        ]
      },
      "properties": {
        "id": 313834630,
        "osm_type": "way",
        "name": "Kafić"
      }
    },
    {
      "type": "Feature",
      "geometry": {
        "type": "Point",
        "coordinates": [
          19.0122051,
          45.1822483
        ]
      },
      "properties": {
        "id": 315904542,
        "osm_type": "way"
      }
    },
    {
      "type": "Feature",
      "geometry": {
        "type": "Point",
        "coordinates": [
          18.8855503,
          45.1489758
        ]
      },
      "properties": {
        "id": 325432774,
        "osm_type": "way",
        "name": "Lana"
      }
    },
    {
      "type": "Feature",
      "geometry": {
        "type": "Point",
        "coordinates": [
          19.0023209,
          45.3517033
        ]
      },
      "properties": {
        "id": 392622346,
        "osm_type": "way",
        "name": "Đani",
        "outdoor_seating": "yes"
      }
    },
    {
      "type": "Feature",
      "geometry": {
        "type": "Point",
        "coordinates": [
          19.0024049,
          45.3520147
        ]
      },
      "properties": {
        "id": 401697669,
        "osm_type": "way",
        "name": "032",
        "outdoor_seating": "yes"
      }
    },
    {
      "type": "Feature",
      "geometry": {
        "type": "Point",
        "coordinates": [
          18.9950904,
          45.3567421
        ]
      },
      "properties": {
        "id": 401955450,
        "osm_type": "way",
        "name": "Cafe Bar Monet"
      }
    },
    {
      "type": "Feature",
      "geometry": {
        "type": "Point",
        "coordinates": [
          18.9946755,
          45.3562772
        ]
      },
      "properties": {
        "id": 419360171,
        "osm_type": "way",
        "name": "Pekara Dora",
        "opening_hours": "07:00-21:00"
      }
    },
    {
      "type": "Feature",
      "geometry": {
        "type": "Point",
        "coordinates": [
          18.7847464,
          45.2875187
        ]
      },
      "properties": {
        "id": 734607825,
        "osm_type": "way",
        "name": "Banjafe",
        "outdoor_seating": "yes"
      }
    },
    {
      "type": "Feature",
      "geometry": {
        "type": "Point",
        "coordinates": [
          19.0125758,
          45.3398052
        ]
      },
      "properties": {
        "id": 866399532,
        "osm_type": "way",
        "name": "Z. Mostar"
      }
    },
    {
      "type": "Feature",
      "geometry": {
        "type": "Point",
        "coordinates": [
          19.0117051,
          45.3398327
        ]
      },
      "properties": {
        "id": 866400657,
        "osm_type": "way",
        "name": "Bon Voyage"
      }
    },
    {
      "type": "Feature",
      "geometry": {
        "type": "Point",
        "coordinates": [
          19.0179955,
          45.3408027
        ]
      },
      "properties": {
        "id": 866405308,
        "osm_type": "way",
        "name": "Mali Kraj"
      }
    },
    {
      "type": "Feature",
      "geometry": {
        "type": "Point",
        "coordinates": [
          19.0088958,
          45.3444857
        ]
      },
      "properties": {
        "id": 867816654,
        "osm_type": "way"
      }
    },
    {
      "type": "Feature",
      "geometry": {
        "type": "Point",
        "coordinates": [
          18.9504288,
          45.3736467
        ]
      },
      "properties": {
        "id": 1434676853,
        "osm_type": "way",
        "name": "Mali raj"
      }
    },
    {
      "type": "Feature",
      "geometry": {
        "type": "Point",
        "coordinates": [
          18.952152,
          45.3743511
        ]
      },
      "properties": {
        "id": 1434676867,
        "osm_type": "way",
        "name": "Malibu"
      }
    }
  ]
}