{
  "type": "FeatureCollection",
  "features": [
    {
      "type": "Feature",
      "geometry": {
        "type": "Point",
        "coordinates": [
          5.7671042,
          52.3107649
        ]
      },
      "properties": {
        "id": 1976351378,
        "osm_type": "node",
        "shelter_type": "weather_shelter"
      }
    },
    {
      "type": "Feature",
      "geometry": {
        "type": "Point",
        "coordinates": [
          6.3542254,
          52.2329607
        ]
      },
      "properties": {
        "id": 3655987211,
        "osm_type": "node",
        "shelter_type": "weather_shelter"
      }
    },
    {
      "type": "Feature",
      "geometry": {
        "type": "Point",
        "coordinates": [
          6.6673302,
          52.0440113
        ]
      },
      "properties": {
        "id": 4222833113,
        "osm_type": "node",
        "name": "Wetterpilz",
        "shelter_type": "basic_hut"
      }
    },
    {
      "type": "Feature",
      "geometry": {
        "type": "Point",
        "coordinates": [
          6.0497488,
          52.4208849
        ]
      },
      "properties": {
        "id": 4394502809,
        "osm_type": "node",
        "shelter_type": "weather_shelter",
        "bench": "yes"
      }
    },
    {
      "type": "Feature",
      "geometry": {
        "type": "Point",
        "coordinates": [
          5.8604594,
          52.0188396
        ]
      },
      "properties": {
        "id": 4737657702,
        "osm_type": "node",
        "shelter_type": "weather_shelter"
      }
    },
    {
      "type": "Feature",
      "geometry": {
        "type": "Point",
        "coordinates": [
          5.9428103,
          52.2370198
        ]
      },
      "properties": {
        "id": 5807151908,
        "osm_type": "node",
        "shelter_type": "weather_shelter"
      }
    },
    {
      "type": "Feature",
      "geometry": {
        "type": "Point",
        "coordinates": [
          5.981743,
          52.3894202
        ]
      },
      "properties": {
        "id": 7573362813,
        "osm_type": "node",
        "name": "De Paraplu",
        "shelter_type": "weather_shelter",
        "covered": "yes",
        "bench": "yes"
      }
    },
    {
      "type": "Feature",
      "geometry": {
        "type": "Point",
        "coordinates": [
          5.7969363,
          52.0069927
        ]
      },
      "properties": {
        "id": 9854378784,
        "osm_type": "node",
        "name": "Het Luifeltje",
        "shelter_type": "lean_to"
      }
    },
    {
      "type": "Feature",
      "geometry": {
        "type": "Point",
        "coordinates": [
          5.7969645,
          52.0073988
        ]
      },
      "properties": {
        "id": 9854396243,
        "osm_type": "node",
        "name": "De Oase",
        "shelter_type": "weather_shelter"
      }
    },
    {
      "type": "Feature",
      "geometry": {
        "type": "Point",
        "coordinates": [
          6.0104133,
          52.109397
        ]
      },
      "properties": {
        "id": 11019588748,
        "osm_type": "node",
        "access": "customers",
        "shelter_type": "weather_shelter",
        "operator": "Natuurkampeerterrein Zegenoord"
      }
    },
    {
      "type": "Feature",
      "geometry": {
        "type": "Point",
        "coordinates": [
          6.5908469,
          51.9765124
        ]
      },
      "properties": {
        "id": 11729911854,
        "osm_type": "node",
        "shelter_type": "weather_shelter"
      }
    },
    {
      "type": "Feature",
      "geometry": {
        "type": "Point",
        "coordinates": [
          6.0397746,
          52.4644381
        ]
      },
      "properties": {
        "id": 13110074760,
        "osm_type": "node",
        "shelter_type": "weather_shelter",
        "bench": "yes"
      }
    },
    {
      "type": "Feature",
      "geometry": {
        "type": "Point",
        "coordinates": [
          6.0710359,
          52.3655552
        ]
      },
      "properties": {
        "id": 13374693265,
        "osm_type": "node",
        "name": "Schuilhut Villa Bakhuis",
        "access": "permissive",
        "shelter_type": "weather_shelter",
        "bench": "yes"
      }
    },
    {
      "type": "Feature",
      "geometry": {
        "type": "Point",
        "coordinates": [
          5.940196,
          52.2392584
        ]
      },
      "properties": {
        "id": 262815495,
        "osm_type": "way",
        "shelter_type": "weather_shelter",
        "bench": "yes"
      }
    },
    {
      "type": "Feature",
      "geometry": {
        "type": "Point",
        "coordinates": [
          5.9075835,
          51.9557233
        ]
      },
      "properties": {
        "id": 270079704,
        "osm_type": "way",
        "shelter_type": "weather_shelter"
      }
    },
    {
      "type": "Feature",
      "geometry": {
        "type": "Point",
        "coordinates": [
          5.9069259,
          51.9538078
        ]
      },
      "properties": {
        "id": 270079713,
        "osm_type": "way",
        "shelter_type": "weather_shelter"
      }
    },
    {
      "type": "Feature",
      "geometry": {
        "type": "Point",
        "coordinates": [
          6.2912536,
          52.1529462
        ]
      },
      "properties": {
        "id": 372752382,
        "osm_type": "way",
        "shelter_type": "weather_shelter"
      }
    },
    {
      "type": "Feature",
      "geometry": {
        "type": "Point",
        "coordinates": [
          5.4938804,
          52.222177
        ]
      },
      "properties": {
        "id": 580565586,
        "osm_type": "way",
        "shelter_type": "weather_shelter"
      }
    },
    {
      "type": "Feature",
      "geometry": {
        "type": "Point",
        "coordinates": [
          5.5898128,
          52.1402408
        ]
      },
      "properties": {
        "id": 605369419,
        "osm_type": "way",
        "shelter_type": "weather_shelter",
        "bench": "yes"
      }
    },
    {
      "type": "Feature",
      "geometry": {
        "type": "Point",
        "coordinates": [
          6.1102795,
          52.268474
        ]
      },
      "properties": {
        "id": 1065211522,
        "osm_type": "way",
        "shelter_type": "weather_shelter"
      }
    },
    {
      "type": "Feature",
      "geometry": {
        "type": "Point",
        "coordinates": [
          6.6791721,
          52.004457
        ]
      },
      "properties": {
        "id": 1087925037,
        "osm_type": "way",
        "shelter_type": "weather_shelter"
      }
    },
    {
      "type": "Feature",
      "geometry": {
        "type": "Point",
        "coordinates": [
          5.8684963,
          51.8300248
        ]
      },
      "properties": {
        "id": 1118601120,
        "osm_type": "way",
        "shelter_type": "weather_shelter"
      }
    },
    {
      "type": "Feature",
      "geometry": {
        "type": "Point",
        "coordinates": [
          5.7957706,
          51.8270523
        ]
      },
      "properties": {
        "id": 1118753991,
        "osm_type": "way",
        "shelter_type": "weather_shelter",
        "bench": "yes"
      }
    },
    {
      "type": "Feature",
      "geometry": {
        "type": "Point",
        "coordinates": [
          5.7940186,
          51.83856
        ]
      },
      "properties": {
        "id": 1186642842,
        "osm_type": "way",
        "shelter_type": "lean_to"
      }
    },
    {
      "type": "Feature",
      "geometry": {
        "type": "Point",
        "coordinates": [
          5.7939219,
          51.8385728
        ]
      },
      "properties": {
        "id": 1186642843,
        "osm_type": "way",
        "shelter_type": "lean_to"
      }
    },
    {
      "type": "Feature",
      "geometry": {
        "type": "Point",
        "coordinates": [
          6.2279694,
          52.1352463
        ]
      },
      "properties": {
        "id": 1209066690,
        "osm_type": "way",
        "shelter_type": "weather_shelter"
      }
    },
    {
      "type": "Feature",
      "geometry": {
        "type": "Point",
        "coordinates": [
          6.6442406,
          52.0885264
        ]
      },
      "properties": {
        "id": 1213273141,
        "osm_type": "way",
        "shelter_type": "weather_shelter",
        "bench": "no"
      }
    }
  ]
}