{
  "type": "FeatureCollection",
  "features": [
    {
      "type": "Feature",
      "geometry": {
        "type": "Point",
        "coordinates": [
          25.5240787,
          61.1790229
        ]
      },
      "properties": {
        "id": 11348849603,
        "osm_type": "node",
        "vending": "coffee",
        "brand": "Cafe Break",
        "operator": "Asikkalan kirjasto",
        "check_date": "2023-11-22"
      }
    },
    {
      "type": "Feature",
      "geometry": {
        "type": "Point",
        "coordinates": [
          25.6584466,
          60.9683345
        ]
      },
      "properties": {
        "id": 13075629868,
        "osm_type": "node",
        "vending": "drinks",
        "check_date": "2025-08-17"
      }
    },
    {
      "type": "Feature",
      "geometry": {
        "type": "Point",
        "coordinates": [
          26.3356173,
          60.8935974
        ]
      },
      "properties": {
        "id": 13252314793,
        "osm_type": "node",
        "name": "Fizza Kausala",
        "opening_hours": "24/7",
        "vending": "pizza",
        "brand": "Fizza",
        "check_date": "2025-10-23"
      }
    },
    {
      "type": "Feature",
      "geometry": {
        "type": "Point",
        "coordinates": [
          25.6854961,
          60.9790182
        ]
      },
      "properties": {
        "id": 13479036802,
        "osm_type": "node",
        "name": "Fizza Lahti",
        "opening_hours": "24/7",
        "vending": "pizza",
        "brand": "Fizza",
        "check_date": "2026-01-23"
      }
    }
  ]
}