{
  "type": "FeatureCollection",
  "features": [
    {
      "type": "Feature",
      "geometry": {
        "type": "Point",
        "coordinates": [
          37.6655866,
          37.422674
        ]
      },
      "properties": {
        "id": 1062717524,
        "osm_type": "node"
      }
    },
    {
      "type": "Feature",
      "geometry": {
        "type": "Point",
        "coordinates": [
          37.1868315,
          37.176927
        ]
      },
      "properties": {
        "id": 1065704000,
        "osm_type": "node",
        "name": "7 Kıta"
      }
    },
    {
      "type": "Feature",
      "geometry": {
        "type": "Point",
        "coordinates": [
          37.6488952,
          36.8821222
        ]
      },
      "properties": {
        "id": 1067456901,
        "osm_type": "node"
      }
    },
    {
      "type": "Feature",
      "geometry": {
        "type": "Point",
        "coordinates": [
          37.5784323,
          36.7866406
        ]
      },
      "properties": {
        "id": 1067818590,
        "osm_type": "node"
      }
    },
    {
      "type": "Feature",
      "geometry": {
        "type": "Point",
        "coordinates": [
          37.8097155,
          36.8234354
        ]
      },
      "properties": {
        "id": 1069444420,
        "osm_type": "node"
      }
    },
    {
      "type": "Feature",
      "geometry": {
        "type": "Point",
        "coordinates": [
          37.8502994,
          37.0094796
        ]
      },
      "properties": {
        "id": 2294743412,
        "osm_type": "node",
        "name": "Shell"
      }
    },
    {
      "type": "Feature",
      "geometry": {
        "type": "Point",
        "coordinates": [
          37.7201659,
          36.9781746
        ]
      },
      "properties": {
        "id": 2321988887,
        "osm_type": "node"
      }
    },
    {
      "type": "Feature",
      "geometry": {
        "type": "Point",
        "coordinates": [
          37.7395368,
          36.9781746
        ]
      },
      "properties": {
        "id": 2321991318,
        "osm_type": "node",
        "name": "Sunpet"
      }
    },
    {
      "type": "Feature",
      "geometry": {
        "type": "Point",
        "coordinates": [
          36.7648921,
          37.1948117
        ]
      },
      "properties": {
        "id": 2388128226,
        "osm_type": "node"
      }
    },
    {
      "type": "Feature",
      "geometry": {
        "type": "Point",
        "coordinates": [
          36.8961869,
          37.1605699
        ]
      },
      "properties": {
        "id": 2397241551,
        "osm_type": "node",
        "name": "Sunpet"
      }
    },
    {
      "type": "Feature",
      "geometry": {
        "type": "Point",
        "coordinates": [
          36.9333066,
          37.1734744
        ]
      },
      "properties": {
        "id": 2397242296,
        "osm_type": "node",
        "name": "Arslan Petrol"
      }
    },
    {
      "type": "Feature",
      "geometry": {
        "type": "Point",
        "coordinates": [
          37.9358707,
          37.0268064
        ]
      },
      "properties": {
        "id": 2522974488,
        "osm_type": "node",
        "name": "United Petrol"
      }
    },
    {
      "type": "Feature",
      "geometry": {
        "type": "Point",
        "coordinates": [
          37.858425,
          36.8856283
        ]
      },
      "properties": {
        "id": 2523112649,
        "osm_type": "node"
      }
    },
    {
      "type": "Feature",
      "geometry": {
        "type": "Point",
        "coordinates": [
          37.7782848,
          36.9921294
        ]
      },
      "properties": {
        "id": 2523135633,
        "osm_type": "node"
      }
    },
    {
      "type": "Feature",
      "geometry": {
        "type": "Point",
        "coordinates": [
          37.7772966,
          36.9919059
        ]
      },
      "properties": {
        "id": 2523135634,
        "osm_type": "node"
      }
    },
    {
      "type": "Feature",
      "geometry": {
        "type": "Point",
        "coordinates": [
          37.7745858,
          36.991573
        ]
      },
      "properties": {
        "id": 2523135635,
        "osm_type": "node",
        "name": "Petrol Ofisi",
        "brand": "Petrol Ofisi"
      }
    },
    {
      "type": "Feature",
      "geometry": {
        "type": "Point",
        "coordinates": [
          37.7717263,
          36.9905486
        ]
      },
      "properties": {
        "id": 2523135636,
        "osm_type": "node",
        "name": "Bpet"
      }
    },
    {
      "type": "Feature",
      "geometry": {
        "type": "Point",
        "coordinates": [
          37.7702127,
          36.9898556
        ]
      },
      "properties": {
        "id": 2523135637,
        "osm_type": "node",
        "name": "Aytemiz",
        "brand": "Aytemiz"
      }
    },
    {
      "type": "Feature",
      "geometry": {
        "type": "Point",
        "coordinates": [
          37.7607531,
          36.9863694
        ]
      },
      "properties": {
        "id": 2523135644,
        "osm_type": "node",
        "name": "Energy"
      }
    },
    {
      "type": "Feature",
      "geometry": {
        "type": "Point",
        "coordinates": [
          37.7550369,
          36.9841295
        ]
      },
      "properties": {
        "id": 2523135645,
        "osm_type": "node",
        "name": "Alpet",
        "brand": "Alpet"
      }
    },
    {
      "type": "Feature",
      "geometry": {
        "type": "Point",
        "coordinates": [
          37.6855173,
          36.9833672
        ]
      },
      "properties": {
        "id": 2523135656,
        "osm_type": "node"
      }
    },
    {
      "type": "Feature",
      "geometry": {
        "type": "Point",
        "coordinates": [
          37.6761744,
          36.9873867
        ]
      },
      "properties": {
        "id": 2523135662,
        "osm_type": "node"
      }
    },
    {
      "type": "Feature",
      "geometry": {
        "type": "Point",
        "coordinates": [
          37.6753177,
          36.9866977
        ]
      },
      "properties": {
        "id": 2523135669,
        "osm_type": "node"
      }
    },
    {
      "type": "Feature",
      "geometry": {
        "type": "Point",
        "coordinates": [
          37.6579213,
          36.9928059
        ]
      },
      "properties": {
        "id": 2523135676,
        "osm_type": "node"
      }
    },
    {
      "type": "Feature",
      "geometry": {
        "type": "Point",
        "coordinates": [
          37.6487495,
          37.00061
        ]
      },
      "properties": {
        "id": 2523135682,
        "osm_type": "node",
        "name": "Memoil"
      }
    },
    {
      "type": "Feature",
      "geometry": {
        "type": "Point",
        "coordinates": [
          37.6368169,
          37.0116793
        ]
      },
      "properties": {
        "id": 2523135692,
        "osm_type": "node",
        "name": "Hemoil"
      }
    },
    {
      "type": "Feature",
      "geometry": {
        "type": "Point",
        "coordinates": [
          37.601712,
          37.037765
        ]
      },
      "properties": {
        "id": 2523135699,
        "osm_type": "node",
        "name": "Welloil"
      }
    },
    {
      "type": "Feature",
      "geometry": {
        "type": "Point",
        "coordinates": [
          37.5076779,
          37.0549377
        ]
      },
      "properties": {
        "id": 2523145581,
        "osm_type": "node",
        "name": "Aytemiz",
        "brand": "Aytemiz"
      }
    },
    {
      "type": "Feature",
      "geometry": {
        "type": "Point",
        "coordinates": [
          37.5038669,
          37.0555725
        ]
      },
      "properties": {
        "id": 2523145588,
        "osm_type": "node"
      }
    },
    {
      "type": "Feature",
      "geometry": {
        "type": "Point",
        "coordinates": [
          37.4241434,
          37.03122
        ]
      },
      "properties": {
        "id": 2527695128,
        "osm_type": "node"
      }
    },
    {
      "type": "Feature",
      "geometry": {
        "type": "Point",
        "coordinates": [
          37.4311667,
          37.0089506
        ]
      },
      "properties": {
        "id": 2527812517,
        "osm_type": "node"
      }
    },
    {
      "type": "Feature",
      "geometry": {
        "type": "Point",
        "coordinates": [
          36.5692267,
          36.9015709
        ]
      },
      "properties": {
        "id": 2940065844,
        "osm_type": "node"
      }
    },
    {
      "type": "Feature",
      "geometry": {
        "type": "Point",
        "coordinates": [
          37.495399,
          36.8781284
        ]
      },
      "properties": {
        "id": 3086381033,
        "osm_type": "node"
      }
    },
    {
      "type": "Feature",
      "geometry": {
        "type": "Point",
        "coordinates": [
          37.2670125,
          37.2295221
        ]
      },
      "properties": {
        "id": 3264761334,
        "osm_type": "node",
        "name": "Welloil"
      }
    },
    {
      "type": "Feature",
      "geometry": {
        "type": "Point",
        "coordinates": [
          36.7032102,
          37.0190112
        ]
      },
      "properties": {
        "id": 3425141059,
        "osm_type": "node"
      }
    },
    {
      "type": "Feature",
      "geometry": {
        "type": "Point",
        "coordinates": [
          36.9281192,
          37.1792905
        ]
      },
      "properties": {
        "id": 3425141487,
        "osm_type": "node"
      }
    },
    {
      "type": "Feature",
      "geometry": {
        "type": "Point",
        "coordinates": [
          37.4389775,
          37.1698718
        ]
      },
      "properties": {
        "id": 3687788838,
        "osm_type": "node"
      }
    },
    {
      "type": "Feature",
      "geometry": {
        "type": "Point",
        "coordinates": [
          37.7362226,
          36.9785126
        ]
      },
      "properties": {
        "id": 3984127498,
        "osm_type": "node"
      }
    },
    {
      "type": "Feature",
      "geometry": {
        "type": "Point",
        "coordinates": [
          37.77764,
          36.992904
        ]
      },
      "properties": {
        "id": 4352159892,
        "osm_type": "node",
        "name": "Opet",
        "brand": "Opet"
      }
    },
    {
      "type": "Feature",
      "geometry": {
        "type": "Point",
        "coordinates": [
          36.622999,
          37.004944
        ]
      },
      "properties": {
        "id": 4699018081,
        "osm_type": "node",
        "name": "Opet İslahiye"
      }
    },
    {
      "type": "Feature",
      "geometry": {
        "type": "Point",
        "coordinates": [
          37.965705,
          37.029323
        ]
      },
      "properties": {
        "id": 4699018266,
        "osm_type": "node",
        "name": "Opet Birecik",
        "brand": "Opet"
      }
    },
    {
      "type": "Feature",
      "geometry": {
        "type": "Point",
        "coordinates": [
          37.375312,
          37.0723267
        ]
      },
      "properties": {
        "id": 4699018270,
        "osm_type": "node",
        "name": "Opet Şehitkamil",
        "brand": "Opet"
      }
    },
    {
      "type": "Feature",
      "geometry": {
        "type": "Point",
        "coordinates": [
          37.3202394,
          37.0385478
        ]
      },
      "properties": {
        "id": 4699018287,
        "osm_type": "node",
        "name": "Opet Şehitkamil",
        "brand": "Opet"
      }
    },
    {
      "type": "Feature",
      "geometry": {
        "type": "Point",
        "coordinates": [
          37.410185,
          37.052942
        ]
      },
      "properties": {
        "id": 4699018389,
        "osm_type": "node",
        "name": "Opet Şahinbey"
      }
    },
    {
      "type": "Feature",
      "geometry": {
        "type": "Point",
        "coordinates": [
          36.8898883,
          37.2284592
        ]
      },
      "properties": {
        "id": 4699018429,
        "osm_type": "node",
        "name": "Opet Nurdağı",
        "brand": "Opet"
      }
    },
    {
      "type": "Feature",
      "geometry": {
        "type": "Point",
        "coordinates": [
          37.3755681,
          37.0149333
        ]
      },
      "properties": {
        "id": 4699018456,
        "osm_type": "node",
        "name": "Opet Şahinbey",
        "brand": "Opet"
      }
    },
    {
      "type": "Feature",
      "geometry": {
        "type": "Point",
        "coordinates": [
          37.3802811,
          36.9569082
        ]
      },
      "properties": {
        "id": 4699018458,
        "osm_type": "node",
        "name": "Opet Oğuzeli"
      }
    },
    {
      "type": "Feature",
      "geometry": {
        "type": "Point",
        "coordinates": [
          37.3819245,
          37.1124757
        ]
      },
      "properties": {
        "id": 4699018470,
        "osm_type": "node",
        "name": "Opet Şehitkamil",
        "brand": "Opet"
      }
    },
    {
      "type": "Feature",
      "geometry": {
        "type": "Point",
        "coordinates": [
          37.3108504,
          37.0241226
        ]
      },
      "properties": {
        "id": 4699018900,
        "osm_type": "node",
        "name": "Opet Şahinbey",
        "brand": "Opet"
      }
    },
    {
      "type": "Feature",
      "geometry": {
        "type": "Point",
        "coordinates": [
          37.416518,
          37.155928
        ]
      },
      "properties": {
        "id": 4699018948,
        "osm_type": "node",
        "name": "Opet Şehitkamil",
        "brand": "Opet"
      }
    },
    {
      "type": "Feature",
      "geometry": {
        "type": "Point",
        "coordinates": [
          37.34266,
          37.09356
        ]
      },
      "properties": {
        "id": 4699019960,
        "osm_type": "node",
        "name": "Opet Şehitkamil",
        "brand": "Opet"
      }
    },
    {
      "type": "Feature",
      "geometry": {
        "type": "Point",
        "coordinates": [
          36.6304023,
          37.043211
        ]
      },
      "properties": {
        "id": 4699020244,
        "osm_type": "node",
        "name": "Opet İslahiye"
      }
    },
    {
      "type": "Feature",
      "geometry": {
        "type": "Point",
        "coordinates": [
          37.4201773,
          37.0828825
        ]
      },
      "properties": {
        "id": 4699020260,
        "osm_type": "node",
        "name": "Opet Şehitkamil",
        "brand": "Opet"
      }
    },
    {
      "type": "Feature",
      "geometry": {
        "type": "Point",
        "coordinates": [
          36.736617,
          37.178467
        ]
      },
      "properties": {
        "id": 4699022535,
        "osm_type": "node",
        "name": "Opet Nurdağı",
        "brand": "Opet"
      }
    },
    {
      "type": "Feature",
      "geometry": {
        "type": "Point",
        "coordinates": [
          37.35201,
          37.01598
        ]
      },
      "properties": {
        "id": 4699022561,
        "osm_type": "node",
        "name": "Petrol ofisi (PO)",
        "brand": "Petrol Ofisi"
      }
    },
    {
      "type": "Feature",
      "geometry": {
        "type": "Point",
        "coordinates": [
          37.2698869,
          37.191696
        ]
      },
      "properties": {
        "id": 4699022562,
        "osm_type": "node",
        "name": "Opet Şehitkamil",
        "brand": "Opet"
      }
    },
    {
      "type": "Feature",
      "geometry": {
        "type": "Point",
        "coordinates": [
          37.3958242,
          37.1198667
        ]
      },
      "properties": {
        "id": 4699022564,
        "osm_type": "node",
        "name": "Opet Şehitkamil",
        "brand": "Opet"
      }
    },
    {
      "type": "Feature",
      "geometry": {
        "type": "Point",
        "coordinates": [
          37.4139814,
          37.0812782
        ]
      },
      "properties": {
        "id": 4699022565,
        "osm_type": "node",
        "name": "Opet Şehitkamil",
        "brand": "Opet"
      }
    },
    {
      "type": "Feature",
      "geometry": {
        "type": "Point",
        "coordinates": [
          36.8929744,
          37.2306759
        ]
      },
      "properties": {
        "id": 4699022566,
        "osm_type": "node",
        "name": "Opet Nurdağı",
        "brand": "Opet"
      }
    },
    {
      "type": "Feature",
      "geometry": {
        "type": "Point",
        "coordinates": [
          37.3988252,
          37.1036361
        ]
      },
      "properties": {
        "id": 4699022567,
        "osm_type": "node",
        "name": "Petrol Ofisi",
        "brand": "Petrol Ofisi"
      }
    },
    {
      "type": "Feature",
      "geometry": {
        "type": "Point",
        "coordinates": [
          37.304548,
          37.130885
        ]
      },
      "properties": {
        "id": 4699022569,
        "osm_type": "node",
        "name": "Opet Şehitkamil"
      }
    },
    {
      "type": "Feature",
      "geometry": {
        "type": "Point",
        "coordinates": [
          37.4606398,
          36.9795658
        ]
      },
      "properties": {
        "id": 4699022571,
        "osm_type": "node",
        "name": "Opet Oğuzeli"
      }
    },
    {
      "type": "Feature",
      "geometry": {
        "type": "Point",
        "coordinates": [
          37.4498383,
          37.0912173
        ]
      },
      "properties": {
        "id": 4699022573,
        "osm_type": "node",
        "name": "Opet Şehitkamil",
        "brand": "Opet"
      }
    },
    {
      "type": "Feature",
      "geometry": {
        "type": "Point",
        "coordinates": [
          37.461246,
          36.9721403
        ]
      },
      "properties": {
        "id": 4699023923,
        "osm_type": "node",
        "name": "Opet Oğuzeli"
      }
    },
    {
      "type": "Feature",
      "geometry": {
        "type": "Point",
        "coordinates": [
          37.3378258,
          37.0235433
        ]
      },
      "properties": {
        "id": 4723658521,
        "osm_type": "node",
        "name": "Kadoil"
      }
    },
    {
      "type": "Feature",
      "geometry": {
        "type": "Point",
        "coordinates": [
          37.3527721,
          37.0201808
        ]
      },
      "properties": {
        "id": 4723658528,
        "osm_type": "node",
        "name": "Alpet",
        "brand": "Alpet"
      }
    },
    {
      "type": "Feature",
      "geometry": {
        "type": "Point",
        "coordinates": [
          37.4479812,
          36.9926883
        ]
      },
      "properties": {
        "id": 4723658564,
        "osm_type": "node"
      }
    },
    {
      "type": "Feature",
      "geometry": {
        "type": "Point",
        "coordinates": [
          37.4594947,
          36.9861116
        ]
      },
      "properties": {
        "id": 4723658565,
        "osm_type": "node"
      }
    },
    {
      "type": "Feature",
      "geometry": {
        "type": "Point",
        "coordinates": [
          37.4573315,
          36.9542173
        ]
      },
      "properties": {
        "id": 4723658570,
        "osm_type": "node"
      }
    },
    {
      "type": "Feature",
      "geometry": {
        "type": "Point",
        "coordinates": [
          37.4246329,
          37.0417222
        ]
      },
      "properties": {
        "id": 4839084829,
        "osm_type": "node"
      }
    },
    {
      "type": "Feature",
      "geometry": {
        "type": "Point",
        "coordinates": [
          37.4208598,
          37.0527925
        ]
      },
      "properties": {
        "id": 4839084831,
        "osm_type": "node"
      }
    },
    {
      "type": "Feature",
      "geometry": {
        "type": "Point",
        "coordinates": [
          37.4144761,
          37.0683987
        ]
      },
      "properties": {
        "id": 4839084867,
        "osm_type": "node",
        "name": "Shell",
        "brand": "Shell"
      }
    },
    {
      "type": "Feature",
      "geometry": {
        "type": "Point",
        "coordinates": [
          37.4037386,
          37.0915102
        ]
      },
      "properties": {
        "id": 4839084868,
        "osm_type": "node",
        "name": "Alpet",
        "brand": "Alpet"
      }
    },
    {
      "type": "Feature",
      "geometry": {
        "type": "Point",
        "coordinates": [
          37.4005197,
          37.0909646
        ]
      },
      "properties": {
        "id": 4839084869,
        "osm_type": "node",
        "name": "Alpet",
        "brand": "Alpet"
      }
    },
    {
      "type": "Feature",
      "geometry": {
        "type": "Point",
        "coordinates": [
          37.3955809,
          37.0731448
        ]
      },
      "properties": {
        "id": 4839084870,
        "osm_type": "node"
      }
    },
    {
      "type": "Feature",
      "geometry": {
        "type": "Point",
        "coordinates": [
          37.3756585,
          37.0750986
        ]
      },
      "properties": {
        "id": 4839084871,
        "osm_type": "node"
      }
    },
    {
      "type": "Feature",
      "geometry": {
        "type": "Point",
        "coordinates": [
          37.4182586,
          37.0951047
        ]
      },
      "properties": {
        "id": 4845837224,
        "osm_type": "node",
        "name": "Opet",
        "brand": "Opet"
      }
    },
    {
      "type": "Feature",
      "geometry": {
        "type": "Point",
        "coordinates": [
          37.3954007,
          37.120566
        ]
      },
      "properties": {
        "id": 4845837225,
        "osm_type": "node",
        "name": "TP",
        "brand": "Türkiye Petrolleri"
      }
    },
    {
      "type": "Feature",
      "geometry": {
        "type": "Point",
        "coordinates": [
          37.6997403,
          37.4376641
        ]
      },
      "properties": {
        "id": 4875812041,
        "osm_type": "node"
      }
    },
    {
      "type": "Feature",
      "geometry": {
        "type": "Point",
        "coordinates": [
          37.690404,
          37.4305439
        ]
      },
      "properties": {
        "id": 4875812042,
        "osm_type": "node"
      }
    },
    {
      "type": "Feature",
      "geometry": {
        "type": "Point",
        "coordinates": [
          37.6719837,
          37.4231304
        ]
      },
      "properties": {
        "id": 4875812043,
        "osm_type": "node"
      }
    },
    {
      "type": "Feature",
      "geometry": {
        "type": "Point",
        "coordinates": [
          37.6720701,
          37.4239751
        ]
      },
      "properties": {
        "id": 4875812048,
        "osm_type": "node"
      }
    },
    {
      "type": "Feature",
      "geometry": {
        "type": "Point",
        "coordinates": [
          37.6480477,
          37.4238677
        ]
      },
      "properties": {
        "id": 4875812051,
        "osm_type": "node"
      }
    },
    {
      "type": "Feature",
      "geometry": {
        "type": "Point",
        "coordinates": [
          37.542549,
          37.0540137
        ]
      },
      "properties": {
        "id": 4884925136,
        "osm_type": "node",
        "name": "TP",
        "brand": "Türkiye Petrolleri"
      }
    },
    {
      "type": "Feature",
      "geometry": {
        "type": "Point",
        "coordinates": [
          37.5412133,
          37.0567622
        ]
      },
      "properties": {
        "id": 4884925137,
        "osm_type": "node",
        "name": "TP",
        "brand": "Türkiye Petrolleri"
      }
    },
    {
      "type": "Feature",
      "geometry": {
        "type": "Point",
        "coordinates": [
          37.519184,
          37.0535984
        ]
      },
      "properties": {
        "id": 4884925138,
        "osm_type": "node",
        "name": "Europet"
      }
    },
    {
      "type": "Feature",
      "geometry": {
        "type": "Point",
        "coordinates": [
          37.5148076,
          37.0536759
        ]
      },
      "properties": {
        "id": 4884925140,
        "osm_type": "node"
      }
    },
    {
      "type": "Feature",
      "geometry": {
        "type": "Point",
        "coordinates": [
          37.4585112,
          37.0851212
        ]
      },
      "properties": {
        "id": 4884925141,
        "osm_type": "node",
        "name": "Moil",
        "brand": "Moil"
      }
    },
    {
      "type": "Feature",
      "geometry": {
        "type": "Point",
        "coordinates": [
          37.3809917,
          36.9536877
        ]
      },
      "properties": {
        "id": 4887861378,
        "osm_type": "node",
        "name": "Lukoil",
        "brand": "Lukoil",
        "opening_hours": "24/7"
      }
    },
    {
      "type": "Feature",
      "geometry": {
        "type": "Point",
        "coordinates": [
          37.3913005,
          37.1422346
        ]
      },
      "properties": {
        "id": 4964327243,
        "osm_type": "node"
      }
    },
    {
      "type": "Feature",
      "geometry": {
        "type": "Point",
        "coordinates": [
          37.3894439,
          37.134607
        ]
      },
      "properties": {
        "id": 4964327244,
        "osm_type": "node",
        "name": "Hypco"
      }
    },
    {
      "type": "Feature",
      "geometry": {
        "type": "Point",
        "coordinates": [
          37.4026842,
          37.1039009
        ]
      },
      "properties": {
        "id": 4964327245,
        "osm_type": "node"
      }
    },
    {
      "type": "Feature",
      "geometry": {
        "type": "Point",
        "coordinates": [
          37.4030785,
          37.1021316
        ]
      },
      "properties": {
        "id": 4964327246,
        "osm_type": "node",
        "name": "Shell",
        "brand": "Shell"
      }
    },
    {
      "type": "Feature",
      "geometry": {
        "type": "Point",
        "coordinates": [
          37.3942005,
          37.1029879
        ]
      },
      "properties": {
        "id": 4964344253,
        "osm_type": "node"
      }
    },
    {
      "type": "Feature",
      "geometry": {
        "type": "Point",
        "coordinates": [
          37.4338118,
          37.0874094
        ]
      },
      "properties": {
        "id": 4982121399,
        "osm_type": "node",
        "name": "Petrol Ofisi",
        "brand": "Petrol Ofisi"
      }
    },
    {
      "type": "Feature",
      "geometry": {
        "type": "Point",
        "coordinates": [
          37.4175572,
          37.0912638
        ]
      },
      "properties": {
        "id": 4982121456,
        "osm_type": "node",
        "name": "TP",
        "brand": "Türkiye Petrolleri"
      }
    },
    {
      "type": "Feature",
      "geometry": {
        "type": "Point",
        "coordinates": [
          37.8043995,
          36.9991024
        ]
      },
      "properties": {
        "id": 5034415753,
        "osm_type": "node"
      }
    },
    {
      "type": "Feature",
      "geometry": {
        "type": "Point",
        "coordinates": [
          37.8056134,
          37.0002443
        ]
      },
      "properties": {
        "id": 5034415758,
        "osm_type": "node",
        "name": "Türkiye Petrolleri"
      }
    },
    {
      "type": "Feature",
      "geometry": {
        "type": "Point",
        "coordinates": [
          37.8595202,
          37.0102424
        ]
      },
      "properties": {
        "id": 5034415759,
        "osm_type": "node"
      }
    },
    {
      "type": "Feature",
      "geometry": {
        "type": "Point",
        "coordinates": [
          37.9263014,
          37.0251271
        ]
      },
      "properties": {
        "id": 5034415764,
        "osm_type": "node"
      }
    },
    {
      "type": "Feature",
      "geometry": {
        "type": "Point",
        "coordinates": [
          37.9312517,
          37.0249632
        ]
      },
      "properties": {
        "id": 5034415774,
        "osm_type": "node"
      }
    },
    {
      "type": "Feature",
      "geometry": {
        "type": "Point",
        "coordinates": [
          37.9328169,
          37.0255262
        ]
      },
      "properties": {
        "id": 5034415779,
        "osm_type": "node"
      }
    },
    {
      "type": "Feature",
      "geometry": {
        "type": "Point",
        "coordinates": [
          37.9323955,
          37.026282
        ]
      },
      "properties": {
        "id": 5034415784,
        "osm_type": "node"
      }
    },
    {
      "type": "Feature",
      "geometry": {
        "type": "Point",
        "coordinates": [
          37.9463976,
          37.0282036
        ]
      },
      "properties": {
        "id": 5034415789,
        "osm_type": "node"
      }
    },
    {
      "type": "Feature",
      "geometry": {
        "type": "Point",
        "coordinates": [
          37.9503363,
          37.0290755
        ]
      },
      "properties": {
        "id": 5034415794,
        "osm_type": "node"
      }
    },
    {
      "type": "Feature",
      "geometry": {
        "type": "Point",
        "coordinates": [
          37.9528537,
          37.0292657
        ]
      },
      "properties": {
        "id": 5034415799,
        "osm_type": "node"
      }
    },
    {
      "type": "Feature",
      "geometry": {
        "type": "Point",
        "coordinates": [
          37.9540109,
          37.0306278
        ]
      },
      "properties": {
        "id": 5034415804,
        "osm_type": "node"
      }
    },
    {
      "type": "Feature",
      "geometry": {
        "type": "Point",
        "coordinates": [
          37.9649636,
          37.0295601
        ]
      },
      "properties": {
        "id": 5034415809,
        "osm_type": "node"
      }
    },
    {
      "type": "Feature",
      "geometry": {
        "type": "Point",
        "coordinates": [
          37.9684495,
          37.0285617
        ]
      },
      "properties": {
        "id": 5034415922,
        "osm_type": "node",
        "name": "Petrol Ofisi",
        "brand": "Petrol Ofisi"
      }
    },
    {
      "type": "Feature",
      "geometry": {
        "type": "Point",
        "coordinates": [
          37.3603421,
          37.0837971
        ]
      },
      "properties": {
        "id": 5137487170,
        "osm_type": "node"
      }
    },
    {
      "type": "Feature",
      "geometry": {
        "type": "Point",
        "coordinates": [
          37.3666695,
          37.0797303
        ]
      },
      "properties": {
        "id": 5137487175,
        "osm_type": "node"
      }
    },
    {
      "type": "Feature",
      "geometry": {
        "type": "Point",
        "coordinates": [
          37.8927897,
          37.0178563
        ]
      },
      "properties": {
        "id": 5411712322,
        "osm_type": "node"
      }
    },
    {
      "type": "Feature",
      "geometry": {
        "type": "Point",
        "coordinates": [
          37.9142524,
          37.0224647
        ]
      },
      "properties": {
        "id": 5411712324,
        "osm_type": "node"
      }
    },
    {
      "type": "Feature",
      "geometry": {
        "type": "Point",
        "coordinates": [
          37.9226128,
          37.0242678
        ]
      },
      "properties": {
        "id": 5411712325,
        "osm_type": "node"
      }
    },
    {
      "type": "Feature",
      "geometry": {
        "type": "Point",
        "coordinates": [
          37.5126912,
          36.9549288
        ]
      },
      "properties": {
        "id": 5422126900,
        "osm_type": "node"
      }
    },
    {
      "type": "Feature",
      "geometry": {
        "type": "Point",
        "coordinates": [
          37.512398,
          36.9537227
        ]
      },
      "properties": {
        "id": 5422126913,
        "osm_type": "node"
      }
    },
    {
      "type": "Feature",
      "geometry": {
        "type": "Point",
        "coordinates": [
          37.5159834,
          36.9474799
        ]
      },
      "properties": {
        "id": 5422126918,
        "osm_type": "node"
      }
    },
    {
      "type": "Feature",
      "geometry": {
        "type": "Point",
        "coordinates": [
          37.50682,
          36.9687379
        ]
      },
      "properties": {
        "id": 5422161252,
        "osm_type": "node"
      }
    },
    {
      "type": "Feature",
      "geometry": {
        "type": "Point",
        "coordinates": [
          37.5439744,
          36.8943348
        ]
      },
      "properties": {
        "id": 5422438828,
        "osm_type": "node"
      }
    },
    {
      "type": "Feature",
      "geometry": {
        "type": "Point",
        "coordinates": [
          37.693135,
          36.9827709
        ]
      },
      "properties": {
        "id": 5422438904,
        "osm_type": "node"
      }
    },
    {
      "type": "Feature",
      "geometry": {
        "type": "Point",
        "coordinates": [
          37.8843423,
          37.0160519
        ]
      },
      "properties": {
        "id": 5422438907,
        "osm_type": "node"
      }
    },
    {
      "type": "Feature",
      "geometry": {
        "type": "Point",
        "coordinates": [
          37.989262,
          36.838331
        ]
      },
      "properties": {
        "id": 5424073978,
        "osm_type": "node"
      }
    },
    {
      "type": "Feature",
      "geometry": {
        "type": "Point",
        "coordinates": [
          37.3213383,
          37.0551116
        ]
      },
      "properties": {
        "id": 5446041167,
        "osm_type": "node"
      }
    },
    {
      "type": "Feature",
      "geometry": {
        "type": "Point",
        "coordinates": [
          37.7809972,
          36.9933839
        ]
      },
      "properties": {
        "id": 5465065827,
        "osm_type": "node",
        "name": "Petrol Ofisi",
        "brand": "Petrol Ofisi"
      }
    },
    {
      "type": "Feature",
      "geometry": {
        "type": "Point",
        "coordinates": [
          37.3243976,
          37.0459735
        ]
      },
      "properties": {
        "id": 5482674301,
        "osm_type": "node",
        "name": "Shell",
        "brand": "Shell"
      }
    },
    {
      "type": "Feature",
      "geometry": {
        "type": "Point",
        "coordinates": [
          36.6225891,
          36.9946091
        ]
      },
      "properties": {
        "id": 5482794542,
        "osm_type": "node"
      }
    },
    {
      "type": "Feature",
      "geometry": {
        "type": "Point",
        "coordinates": [
          36.6316361,
          37.0427098
        ]
      },
      "properties": {
        "id": 5483302001,
        "osm_type": "node"
      }
    },
    {
      "type": "Feature",
      "geometry": {
        "type": "Point",
        "coordinates": [
          36.9356259,
          37.1736377
        ]
      },
      "properties": {
        "id": 5483392641,
        "osm_type": "node"
      }
    },
    {
      "type": "Feature",
      "geometry": {
        "type": "Point",
        "coordinates": [
          36.9295274,
          37.1731289
        ]
      },
      "properties": {
        "id": 5483392646,
        "osm_type": "node"
      }
    },
    {
      "type": "Feature",
      "geometry": {
        "type": "Point",
        "coordinates": [
          36.9189817,
          37.1672887
        ]
      },
      "properties": {
        "id": 5483392648,
        "osm_type": "node"
      }
    },
    {
      "type": "Feature",
      "geometry": {
        "type": "Point",
        "coordinates": [
          36.7425318,
          37.1757116
        ]
      },
      "properties": {
        "id": 5483392651,
        "osm_type": "node"
      }
    },
    {
      "type": "Feature",
      "geometry": {
        "type": "Point",
        "coordinates": [
          36.7302955,
          37.1838579
        ]
      },
      "properties": {
        "id": 5483392653,
        "osm_type": "node"
      }
    },
    {
      "type": "Feature",
      "geometry": {
        "type": "Point",
        "coordinates": [
          36.7335524,
          37.1736022
        ]
      },
      "properties": {
        "id": 5483392654,
        "osm_type": "node"
      }
    },
    {
      "type": "Feature",
      "geometry": {
        "type": "Point",
        "coordinates": [
          37.7956003,
          36.9969112
        ]
      },
      "properties": {
        "id": 5517171080,
        "osm_type": "node"
      }
    },
    {
      "type": "Feature",
      "geometry": {
        "type": "Point",
        "coordinates": [
          37.7816922,
          37.0284323
        ]
      },
      "properties": {
        "id": 5517171081,
        "osm_type": "node"
      }
    },
    {
      "type": "Feature",
      "geometry": {
        "type": "Point",
        "coordinates": [
          37.3695146,
          37.0723107
        ]
      },
      "properties": {
        "id": 5532579642,
        "osm_type": "node",
        "name": "Opet",
        "brand": "Opet"
      }
    },
    {
      "type": "Feature",
      "geometry": {
        "type": "Point",
        "coordinates": [
          37.3602123,
          37.0155549
        ]
      },
      "properties": {
        "id": 5558588023,
        "osm_type": "node"
      }
    },
    {
      "type": "Feature",
      "geometry": {
        "type": "Point",
        "coordinates": [
          37.3913465,
          37.1028764
        ]
      },
      "properties": {
        "id": 5582543057,
        "osm_type": "node",
        "name": "Total",
        "brand": "TotalEnergies"
      }
    },
    {
      "type": "Feature",
      "geometry": {
        "type": "Point",
        "coordinates": [
          36.7423327,
          37.1744308
        ]
      },
      "properties": {
        "id": 5584052527,
        "osm_type": "node",
        "name": "Petrol Ofisi",
        "brand": "Petrol Ofisi"
      }
    },
    {
      "type": "Feature",
      "geometry": {
        "type": "Point",
        "coordinates": [
          36.7713825,
          37.1634602
        ]
      },
      "properties": {
        "id": 5584108825,
        "osm_type": "node",
        "name": "Soil"
      }
    },
    {
      "type": "Feature",
      "geometry": {
        "type": "Point",
        "coordinates": [
          36.8354795,
          37.1631239
        ]
      },
      "properties": {
        "id": 5584108826,
        "osm_type": "node",
        "name": "Welloil"
      }
    },
    {
      "type": "Feature",
      "geometry": {
        "type": "Point",
        "coordinates": [
          37.2634568,
          37.1632678
        ]
      },
      "properties": {
        "id": 5584108830,
        "osm_type": "node",
        "name": "Energy"
      }
    },
    {
      "type": "Feature",
      "geometry": {
        "type": "Point",
        "coordinates": [
          37.2370128,
          37.1758091
        ]
      },
      "properties": {
        "id": 5584131322,
        "osm_type": "node",
        "name": "Energy"
      }
    },
    {
      "type": "Feature",
      "geometry": {
        "type": "Point",
        "coordinates": [
          37.2672058,
          37.1611297
        ]
      },
      "properties": {
        "id": 5584131323,
        "osm_type": "node",
        "name": "Tco"
      }
    },
    {
      "type": "Feature",
      "geometry": {
        "type": "Point",
        "coordinates": [
          36.8668237,
          37.1605293
        ]
      },
      "properties": {
        "id": 5584144221,
        "osm_type": "node",
        "name": "Turkuaz"
      }
    },
    {
      "type": "Feature",
      "geometry": {
        "type": "Point",
        "coordinates": [
          37.1293438,
          37.1801687
        ]
      },
      "properties": {
        "id": 5584144223,
        "osm_type": "node",
        "name": "Petrol Ofisi",
        "brand": "Petrol Ofisi"
      }
    },
    {
      "type": "Feature",
      "geometry": {
        "type": "Point",
        "coordinates": [
          37.3979566,
          37.1043221
        ]
      },
      "properties": {
        "id": 5587539659,
        "osm_type": "node",
        "name": "TP",
        "brand": "Türkiye Petrolleri"
      }
    },
    {
      "type": "Feature",
      "geometry": {
        "type": "Point",
        "coordinates": [
          37.3226594,
          37.0266673
        ]
      },
      "properties": {
        "id": 5588036379,
        "osm_type": "node",
        "name": "Euroil"
      }
    },
    {
      "type": "Feature",
      "geometry": {
        "type": "Point",
        "coordinates": [
          37.2835067,
          37.1580424
        ]
      },
      "properties": {
        "id": 5588456121,
        "osm_type": "node"
      }
    },
    {
      "type": "Feature",
      "geometry": {
        "type": "Point",
        "coordinates": [
          37.5639892,
          37.316861
        ]
      },
      "properties": {
        "id": 5649052940,
        "osm_type": "node"
      }
    },
    {
      "type": "Feature",
      "geometry": {
        "type": "Point",
        "coordinates": [
          37.5655819,
          37.3043424
        ]
      },
      "properties": {
        "id": 5649052959,
        "osm_type": "node"
      }
    },
    {
      "type": "Feature",
      "geometry": {
        "type": "Point",
        "coordinates": [
          37.5669014,
          37.3019668
        ]
      },
      "properties": {
        "id": 5649052960,
        "osm_type": "node"
      }
    },
    {
      "type": "Feature",
      "geometry": {
        "type": "Point",
        "coordinates": [
          37.5628031,
          37.3072106
        ]
      },
      "properties": {
        "id": 5649052961,
        "osm_type": "node"
      }
    },
    {
      "type": "Feature",
      "geometry": {
        "type": "Point",
        "coordinates": [
          37.495357,
          36.9761601
        ]
      },
      "properties": {
        "id": 5651959963,
        "osm_type": "node"
      }
    },
    {
      "type": "Feature",
      "geometry": {
        "type": "Point",
        "coordinates": [
          37.4109554,
          37.0560761
        ]
      },
      "properties": {
        "id": 5651991327,
        "osm_type": "node"
      }
    },
    {
      "type": "Feature",
      "geometry": {
        "type": "Point",
        "coordinates": [
          37.4045435,
          37.0575631
        ]
      },
      "properties": {
        "id": 5651991332,
        "osm_type": "node"
      }
    },
    {
      "type": "Feature",
      "geometry": {
        "type": "Point",
        "coordinates": [
          37.3948794,
          37.0639042
        ]
      },
      "properties": {
        "id": 5651991337,
        "osm_type": "node"
      }
    },
    {
      "type": "Feature",
      "geometry": {
        "type": "Point",
        "coordinates": [
          37.3178562,
          37.0343978
        ]
      },
      "properties": {
        "id": 5652367321,
        "osm_type": "node",
        "name": "Petrol Ofisi",
        "brand": "Petrol Ofisi"
      }
    },
    {
      "type": "Feature",
      "geometry": {
        "type": "Point",
        "coordinates": [
          37.3255842,
          37.0555463
        ]
      },
      "properties": {
        "id": 5779263999,
        "osm_type": "node"
      }
    },
    {
      "type": "Feature",
      "geometry": {
        "type": "Point",
        "coordinates": [
          37.3357752,
          37.0692947
        ]
      },
      "properties": {
        "id": 5779297099,
        "osm_type": "node",
        "name": "Petrol Ofisi",
        "brand": "Petrol Ofisi"
      }
    },
    {
      "type": "Feature",
      "geometry": {
        "type": "Point",
        "coordinates": [
          37.3851469,
          37.0705856
        ]
      },
      "properties": {
        "id": 5799274092,
        "osm_type": "node"
      }
    },
    {
      "type": "Feature",
      "geometry": {
        "type": "Point",
        "coordinates": [
          37.3875426,
          37.0710625
        ]
      },
      "properties": {
        "id": 5799274093,
        "osm_type": "node"
      }
    },
    {
      "type": "Feature",
      "geometry": {
        "type": "Point",
        "coordinates": [
          37.3937143,
          37.0722048
        ]
      },
      "properties": {
        "id": 5799274094,
        "osm_type": "node"
      }
    },
    {
      "type": "Feature",
      "geometry": {
        "type": "Point",
        "coordinates": [
          37.395048,
          37.1180235
        ]
      },
      "properties": {
        "id": 6186192609,
        "osm_type": "node",
        "name": "BP",
        "brand": "BP"
      }
    },
    {
      "type": "Feature",
      "geometry": {
        "type": "Point",
        "coordinates": [
          37.335183,
          37.0630116
        ]
      },
      "properties": {
        "id": 6573824650,
        "osm_type": "node",
        "name": "Shell",
        "brand": "Shell"
      }
    },
    {
      "type": "Feature",
      "geometry": {
        "type": "Point",
        "coordinates": [
          37.4461385,
          37.0912564
        ]
      },
      "properties": {
        "id": 6573834696,
        "osm_type": "node",
        "name": "Kadoil"
      }
    },
    {
      "type": "Feature",
      "geometry": {
        "type": "Point",
        "coordinates": [
          37.4224853,
          37.0370425
        ]
      },
      "properties": {
        "id": 6649102566,
        "osm_type": "node"
      }
    },
    {
      "type": "Feature",
      "geometry": {
        "type": "Point",
        "coordinates": [
          37.4028799,
          37.1486105
        ]
      },
      "properties": {
        "id": 6649243145,
        "osm_type": "node"
      }
    },
    {
      "type": "Feature",
      "geometry": {
        "type": "Point",
        "coordinates": [
          37.3273723,
          37.0938948
        ]
      },
      "properties": {
        "id": 6649385875,
        "osm_type": "node",
        "name": "Shell",
        "brand": "Shell"
      }
    },
    {
      "type": "Feature",
      "geometry": {
        "type": "Point",
        "coordinates": [
          37.4371631,
          37.0842402
        ]
      },
      "properties": {
        "id": 6711810212,
        "osm_type": "node"
      }
    },
    {
      "type": "Feature",
      "geometry": {
        "type": "Point",
        "coordinates": [
          37.3977118,
          37.0869545
        ]
      },
      "properties": {
        "id": 6711810221,
        "osm_type": "node"
      }
    },
    {
      "type": "Feature",
      "geometry": {
        "type": "Point",
        "coordinates": [
          37.3268349,
          37.0831172
        ]
      },
      "properties": {
        "id": 6777123827,
        "osm_type": "node"
      }
    },
    {
      "type": "Feature",
      "geometry": {
        "type": "Point",
        "coordinates": [
          37.3008877,
          37.1394952
        ]
      },
      "properties": {
        "id": 6877902748,
        "osm_type": "node",
        "name": "Petrol Ofisi",
        "brand": "Petrol Ofisi"
      }
    },
    {
      "type": "Feature",
      "geometry": {
        "type": "Point",
        "coordinates": [
          37.3004693,
          37.1400147
        ]
      },
      "properties": {
        "id": 6877902749,
        "osm_type": "node",
        "name": "Shell",
        "brand": "Shell"
      }
    },
    {
      "type": "Feature",
      "geometry": {
        "type": "Point",
        "coordinates": [
          36.6070991,
          36.9788189
        ]
      },
      "properties": {
        "id": 7577764988,
        "osm_type": "node"
      }
    },
    {
      "type": "Feature",
      "geometry": {
        "type": "Point",
        "coordinates": [
          36.6305303,
          37.0249326
        ]
      },
      "properties": {
        "id": 7577765002,
        "osm_type": "node"
      }
    },
    {
      "type": "Feature",
      "geometry": {
        "type": "Point",
        "coordinates": [
          36.6314699,
          37.0269771
        ]
      },
      "properties": {
        "id": 7577765010,
        "osm_type": "node"
      }
    },
    {
      "type": "Feature",
      "geometry": {
        "type": "Point",
        "coordinates": [
          37.328866,
          37.0412791
        ]
      },
      "properties": {
        "id": 7995372741,
        "osm_type": "node"
      }
    },
    {
      "type": "Feature",
      "geometry": {
        "type": "Point",
        "coordinates": [
          37.4406952,
          36.9968293
        ]
      },
      "properties": {
        "id": 8224178394,
        "osm_type": "node"
      }
    },
    {
      "type": "Feature",
      "geometry": {
        "type": "Point",
        "coordinates": [
          37.3454045,
          37.0569112
        ]
      },
      "properties": {
        "id": 8242558046,
        "osm_type": "node"
      }
    },
    {
      "type": "Feature",
      "geometry": {
        "type": "Point",
        "coordinates": [
          37.1081421,
          37.0522248
        ]
      },
      "properties": {
        "id": 8396721570,
        "osm_type": "node"
      }
    },
    {
      "type": "Feature",
      "geometry": {
        "type": "Point",
        "coordinates": [
          37.2827728,
          37.162741
        ]
      },
      "properties": {
        "id": 8396959748,
        "osm_type": "node"
      }
    },
    {
      "type": "Feature",
      "geometry": {
        "type": "Point",
        "coordinates": [
          37.2986636,
          37.140672
        ]
      },
      "properties": {
        "id": 9112750648,
        "osm_type": "node"
      }
    },
    {
      "type": "Feature",
      "geometry": {
        "type": "Point",
        "coordinates": [
          37.3020278,
          37.1377975
        ]
      },
      "properties": {
        "id": 9112750650,
        "osm_type": "node"
      }
    },
    {
      "type": "Feature",
      "geometry": {
        "type": "Point",
        "coordinates": [
          37.302968,
          37.1362635
        ]
      },
      "properties": {
        "id": 9112750651,
        "osm_type": "node"
      }
    },
    {
      "type": "Feature",
      "geometry": {
        "type": "Point",
        "coordinates": [
          37.3436447,
          37.0499793
        ]
      },
      "properties": {
        "id": 9252366390,
        "osm_type": "node"
      }
    },
    {
      "type": "Feature",
      "geometry": {
        "type": "Point",
        "coordinates": [
          37.3434874,
          37.0502742
        ]
      },
      "properties": {
        "id": 9252366391,
        "osm_type": "node"
      }
    },
    {
      "type": "Feature",
      "geometry": {
        "type": "Point",
        "coordinates": [
          37.3640074,
          37.0470169
        ]
      },
      "properties": {
        "id": 9252457162,
        "osm_type": "node"
      }
    },
    {
      "type": "Feature",
      "geometry": {
        "type": "Point",
        "coordinates": [
          37.36976,
          37.0572007
        ]
      },
      "properties": {
        "id": 9252457173,
        "osm_type": "node",
        "name": "Arslanlar Petrol"
      }
    },
    {
      "type": "Feature",
      "geometry": {
        "type": "Point",
        "coordinates": [
          37.3686268,
          37.0585085
        ]
      },
      "properties": {
        "id": 9252457174,
        "osm_type": "node"
      }
    },
    {
      "type": "Feature",
      "geometry": {
        "type": "Point",
        "coordinates": [
          37.368111,
          37.0587623
        ]
      },
      "properties": {
        "id": 9252457175,
        "osm_type": "node"
      }
    },
    {
      "type": "Feature",
      "geometry": {
        "type": "Point",
        "coordinates": [
          37.3604328,
          37.0678403
        ]
      },
      "properties": {
        "id": 9252457176,
        "osm_type": "node",
        "name": "istasyon"
      }
    },
    {
      "type": "Feature",
      "geometry": {
        "type": "Point",
        "coordinates": [
          37.3689191,
          37.0690787
        ]
      },
      "properties": {
        "id": 9252457177,
        "osm_type": "node"
      }
    },
    {
      "type": "Feature",
      "geometry": {
        "type": "Point",
        "coordinates": [
          37.3727271,
          37.070447
        ]
      },
      "properties": {
        "id": 9252457178,
        "osm_type": "node"
      }
    },
    {
      "type": "Feature",
      "geometry": {
        "type": "Point",
        "coordinates": [
          37.3481713,
          37.0723238
        ]
      },
      "properties": {
        "id": 9252457180,
        "osm_type": "node"
      }
    },
    {
      "type": "Feature",
      "geometry": {
        "type": "Point",
        "coordinates": [
          37.4089198,
          37.0590785
        ]
      },
      "properties": {
        "id": 9252459764,
        "osm_type": "node"
      }
    },
    {
      "type": "Feature",
      "geometry": {
        "type": "Point",
        "coordinates": [
          37.4093301,
          37.0603309
        ]
      },
      "properties": {
        "id": 9252459765,
        "osm_type": "node"
      }
    },
    {
      "type": "Feature",
      "geometry": {
        "type": "Point",
        "coordinates": [
          37.4138628,
          37.1528263
        ]
      },
      "properties": {
        "id": 9252459770,
        "osm_type": "node"
      }
    },
    {
      "type": "Feature",
      "geometry": {
        "type": "Point",
        "coordinates": [
          37.2792875,
          37.1749105
        ]
      },
      "properties": {
        "id": 9252471992,
        "osm_type": "node"
      }
    },
    {
      "type": "Feature",
      "geometry": {
        "type": "Point",
        "coordinates": [
          37.2772042,
          37.1790601
        ]
      },
      "properties": {
        "id": 9252471997,
        "osm_type": "node"
      }
    },
    {
      "type": "Feature",
      "geometry": {
        "type": "Point",
        "coordinates": [
          37.2764922,
          37.1801837
        ]
      },
      "properties": {
        "id": 9252471998,
        "osm_type": "node"
      }
    },
    {
      "type": "Feature",
      "geometry": {
        "type": "Point",
        "coordinates": [
          37.2753868,
          37.1803409
        ]
      },
      "properties": {
        "id": 9252471999,
        "osm_type": "node"
      }
    },
    {
      "type": "Feature",
      "geometry": {
        "type": "Point",
        "coordinates": [
          37.2758625,
          37.1812215
        ]
      },
      "properties": {
        "id": 9252472000,
        "osm_type": "node"
      }
    },
    {
      "type": "Feature",
      "geometry": {
        "type": "Point",
        "coordinates": [
          37.2715325,
          37.1868066
        ]
      },
      "properties": {
        "id": 9252472001,
        "osm_type": "node"
      }
    },
    {
      "type": "Feature",
      "geometry": {
        "type": "Point",
        "coordinates": [
          37.2713302,
          37.1890341
        ]
      },
      "properties": {
        "id": 9252472003,
        "osm_type": "node"
      }
    },
    {
      "type": "Feature",
      "geometry": {
        "type": "Point",
        "coordinates": [
          37.268956,
          37.1930824
        ]
      },
      "properties": {
        "id": 9252472004,
        "osm_type": "node"
      }
    },
    {
      "type": "Feature",
      "geometry": {
        "type": "Point",
        "coordinates": [
          37.1974464,
          37.0180826
        ]
      },
      "properties": {
        "id": 9252475290,
        "osm_type": "node"
      }
    },
    {
      "type": "Feature",
      "geometry": {
        "type": "Point",
        "coordinates": [
          37.1228385,
          36.9408114
        ]
      },
      "properties": {
        "id": 9808900779,
        "osm_type": "node"
      }
    },
    {
      "type": "Feature",
      "geometry": {
        "type": "Point",
        "coordinates": [
          37.354184,
          36.8879179
        ]
      },
      "properties": {
        "id": 10044723354,
        "osm_type": "node"
      }
    },
    {
      "type": "Feature",
      "geometry": {
        "type": "Point",
        "coordinates": [
          37.9107825,
          37.020881
        ]
      },
      "properties": {
        "id": 10044780634,
        "osm_type": "node"
      }
    },
    {
      "type": "Feature",
      "geometry": {
        "type": "Point",
        "coordinates": [
          37.5800296,
          36.8370183
        ]
      },
      "properties": {
        "id": 10044949791,
        "osm_type": "node"
      }
    },
    {
      "type": "Feature",
      "geometry": {
        "type": "Point",
        "coordinates": [
          37.3703033,
          37.0926226
        ]
      },
      "properties": {
        "id": 10055949947,
        "osm_type": "node"
      }
    },
    {
      "type": "Feature",
      "geometry": {
        "type": "Point",
        "coordinates": [
          37.7986076,
          37.0101446
        ]
      },
      "properties": {
        "id": 10057691148,
        "osm_type": "node"
      }
    },
    {
      "type": "Feature",
      "geometry": {
        "type": "Point",
        "coordinates": [
          36.6491792,
          37.1028558
        ]
      },
      "properties": {
        "id": 10678564478,
        "osm_type": "node"
      }
    },
    {
      "type": "Feature",
      "geometry": {
        "type": "Point",
        "coordinates": [
          36.767591,
          37.2002389
        ]
      },
      "properties": {
        "id": 10690645232,
        "osm_type": "node"
      }
    },
    {
      "type": "Feature",
      "geometry": {
        "type": "Point",
        "coordinates": [
          37.776567,
          36.8312738
        ]
      },
      "properties": {
        "id": 10692639281,
        "osm_type": "node",
        "brand": "As Otogaz"
      }
    },
    {
      "type": "Feature",
      "geometry": {
        "type": "Point",
        "coordinates": [
          37.7734718,
          36.8310033
        ]
      },
      "properties": {
        "id": 10692639282,
        "osm_type": "node",
        "brand": "Teco"
      }
    },
    {
      "type": "Feature",
      "geometry": {
        "type": "Point",
        "coordinates": [
          36.9264716,
          37.1712135
        ]
      },
      "properties": {
        "id": 10734875167,
        "osm_type": "node",
        "name": "Welloil"
      }
    },
    {
      "type": "Feature",
      "geometry": {
        "type": "Point",
        "coordinates": [
          37.413535,
          37.097588
        ]
      },
      "properties": {
        "id": 11383347862,
        "osm_type": "node",
        "name": "Shell",
        "brand": "Shell"
      }
    },
    {
      "type": "Feature",
      "geometry": {
        "type": "Point",
        "coordinates": [
          37.4258079,
          37.0839645
        ]
      },
      "properties": {
        "id": 11383347864,
        "osm_type": "node",
        "name": "Shell",
        "brand": "Shell"
      }
    },
    {
      "type": "Feature",
      "geometry": {
        "type": "Point",
        "coordinates": [
          37.9283532,
          37.0254843
        ]
      },
      "properties": {
        "id": 11505611162,
        "osm_type": "node"
      }
    },
    {
      "type": "Feature",
      "geometry": {
        "type": "Point",
        "coordinates": [
          37.6559002,
          36.8792973
        ]
      },
      "properties": {
        "id": 12753679684,
        "osm_type": "node"
      }
    },
    {
      "type": "Feature",
      "geometry": {
        "type": "Point",
        "coordinates": [
          37.1270732,
          37.1788377
        ]
      },
      "properties": {
        "id": 12837419800,
        "osm_type": "node"
      }
    },
    {
      "type": "Feature",
      "geometry": {
        "type": "Point",
        "coordinates": [
          37.4140382,
          37.0926001
        ]
      },
      "properties": {
        "id": 13161564845,
        "osm_type": "node"
      }
    },
    {
      "type": "Feature",
      "geometry": {
        "type": "Point",
        "coordinates": [
          36.735108,
          37.1797049
        ]
      },
      "properties": {
        "id": 13342396492,
        "osm_type": "node"
      }
    }
  ]
}