{
  "type": "FeatureCollection",
  "features": [
    {
      "type": "Feature",
      "geometry": {
        "type": "Point",
        "coordinates": [
          -3.9699803,
          43.1190154
        ]
      },
      "properties": {
        "id": 1905973819,
        "osm_type": "node",
        "name": "Refugio Canales"
      }
    },
    {
      "type": "Feature",
      "geometry": {
        "type": "Point",
        "coordinates": [
          -4.1922464,
          42.8993967
        ]
      },
      "properties": {
        "id": 3523346643,
        "osm_type": "node",
        "shelter_type": "weather_shelter"
      }
    },
    {
      "type": "Feature",
      "geometry": {
        "type": "Point",
        "coordinates": [
          -4.0404035,
          42.8063961
        ]
      },
      "properties": {
        "id": 5486251358,
        "osm_type": "node",
        "shelter_type": "lean_to"
      }
    },
    {
      "type": "Feature",
      "geometry": {
        "type": "Point",
        "coordinates": [
          -4.8069462,
          43.1297521
        ]
      },
      "properties": {
        "id": 7242685582,
        "osm_type": "node",
        "name": "Refugio Pidio",
        "shelter_type": "basic_hut"
      }
    },
    {
      "type": "Feature",
      "geometry": {
        "type": "Point",
        "coordinates": [
          -3.4443562,
          43.2799676
        ]
      },
      "properties": {
        "id": 12096772701,
        "osm_type": "node",
        "name": "Refugio de Pescadores N° 6"
      }
    },
    {
      "type": "Feature",
      "geometry": {
        "type": "Point",
        "coordinates": [
          -4.6394936,
          43.2549847
        ]
      },
      "properties": {
        "id": 12240970132,
        "osm_type": "node",
        "shelter_type": "basic_hut"
      }
    },
    {
      "type": "Feature",
      "geometry": {
        "type": "Point",
        "coordinates": [
          -4.1603511,
          43.1978459
        ]
      },
      "properties": {
        "id": 46423126,
        "osm_type": "way",
        "name": "Refugio del Tornillo",
        "shelter_type": "basic_hut"
      }
    },
    {
      "type": "Feature",
      "geometry": {
        "type": "Point",
        "coordinates": [
          -4.301846,
          43.0615384
        ]
      },
      "properties": {
        "id": 53274025,
        "osm_type": "way",
        "name": "Cabaña de Cotera la Fuente",
        "shelter_type": "basic_hut"
      }
    },
    {
      "type": "Feature",
      "geometry": {
        "type": "Point",
        "coordinates": [
          -4.285208,
          43.0825957
        ]
      },
      "properties": {
        "id": 53274032,
        "osm_type": "way",
        "name": "Cabaña de Reburdiajos",
        "shelter_type": "basic_hut"
      }
    },
    {
      "type": "Feature",
      "geometry": {
        "type": "Point",
        "coordinates": [
          -4.3175572,
          43.0652707
        ]
      },
      "properties": {
        "id": 53276165,
        "osm_type": "way",
        "name": "Cabaña de La Pinilla",
        "shelter_type": "basic_hut",
        "description": "Cabaña de Saja"
      }
    },
    {
      "type": "Feature",
      "geometry": {
        "type": "Point",
        "coordinates": [
          -4.3133831,
          43.0625718
        ]
      },
      "properties": {
        "id": 53276169,
        "osm_type": "way",
        "name": "Refugio de los Guardas",
        "shelter_type": "basic_hut"
      }
    },
    {
      "type": "Feature",
      "geometry": {
        "type": "Point",
        "coordinates": [
          -4.3197561,
          43.070257
        ]
      },
      "properties": {
        "id": 53277388,
        "osm_type": "way",
        "name": "Refugio del Campanario",
        "shelter_type": "basic_hut"
      }
    },
    {
      "type": "Feature",
      "geometry": {
        "type": "Point",
        "coordinates": [
          -4.3362667,
          43.0695731
        ]
      },
      "properties": {
        "id": 53277724,
        "osm_type": "way",
        "name": "Cabaña de Barcena",
        "shelter_type": "basic_hut"
      }
    },
    {
      "type": "Feature",
      "geometry": {
        "type": "Point",
        "coordinates": [
          -4.3466559,
          43.0759439
        ]
      },
      "properties": {
        "id": 53278411,
        "osm_type": "way",
        "name": "Cabaña de los Cantos",
        "shelter_type": "basic_hut",
        "description": "Cabaña en el sel del pueblo de Valle."
      }
    },
    {
      "type": "Feature",
      "geometry": {
        "type": "Point",
        "coordinates": [
          -4.2894926,
          42.9741655
        ]
      },
      "properties": {
        "id": 238333096,
        "osm_type": "way",
        "name": "Cabaña de Cuenca Bucer",
        "shelter_type": "weather_shelter"
      }
    },
    {
      "type": "Feature",
      "geometry": {
        "type": "Point",
        "coordinates": [
          -4.251094,
          42.9728082
        ]
      },
      "properties": {
        "id": 238333097,
        "osm_type": "way",
        "name": "Cabaña de Suano",
        "shelter_type": "weather_shelter"
      }
    },
    {
      "type": "Feature",
      "geometry": {
        "type": "Point",
        "coordinates": [
          -4.2785201,
          42.9777801
        ]
      },
      "properties": {
        "id": 238334613,
        "osm_type": "way",
        "name": "Cabaña de Cuenca Vitor",
        "shelter_type": "weather_shelter"
      }
    },
    {
      "type": "Feature",
      "geometry": {
        "type": "Point",
        "coordinates": [
          -4.2404628,
          43.0886709
        ]
      },
      "properties": {
        "id": 255526117,
        "osm_type": "way",
        "name": "Refugio de Ozcaba 2",
        "shelter_type": "basic_hut"
      }
    },
    {
      "type": "Feature",
      "geometry": {
        "type": "Point",
        "coordinates": [
          -4.2337694,
          43.0884785
        ]
      },
      "properties": {
        "id": 255526118,
        "osm_type": "way",
        "name": "Refugio de Ozcaba",
        "shelter_type": "basic_hut"
      }
    },
    {
      "type": "Feature",
      "geometry": {
        "type": "Point",
        "coordinates": [
          -4.1952943,
          43.0606636
        ]
      },
      "properties": {
        "id": 255527809,
        "osm_type": "way",
        "name": "Cabañas de Fuentes",
        "shelter_type": "weather_shelter"
      }
    },
    {
      "type": "Feature",
      "geometry": {
        "type": "Point",
        "coordinates": [
          -4.2419836,
          43.0875383
        ]
      },
      "properties": {
        "id": 285959757,
        "osm_type": "way",
        "name": "Cabaña de Terán",
        "shelter_type": "basic_hut"
      }
    },
    {
      "type": "Feature",
      "geometry": {
        "type": "Point",
        "coordinates": [
          -4.3281561,
          43.0338512
        ]
      },
      "properties": {
        "id": 287893837,
        "osm_type": "way",
        "access": "yes",
        "shelter_type": "weather_shelter"
      }
    },
    {
      "type": "Feature",
      "geometry": {
        "type": "Point",
        "coordinates": [
          -4.3721836,
          43.0200497
        ]
      },
      "properties": {
        "id": 288231774,
        "osm_type": "way",
        "name": "Cabaña de Guzmerones",
        "access": "yes",
        "shelter_type": "weather_shelter"
      }
    },
    {
      "type": "Feature",
      "geometry": {
        "type": "Point",
        "coordinates": [
          -4.3650484,
          43.0234818
        ]
      },
      "properties": {
        "id": 288231775,
        "osm_type": "way",
        "name": "Refugio de Cirezos",
        "shelter_type": "weather_shelter"
      }
    },
    {
      "type": "Feature",
      "geometry": {
        "type": "Point",
        "coordinates": [
          -4.781216,
          43.1682272
        ]
      },
      "properties": {
        "id": 293523825,
        "osm_type": "way",
        "shelter_type": "basic_hut"
      }
    },
    {
      "type": "Feature",
      "geometry": {
        "type": "Point",
        "coordinates": [
          -4.7672662,
          43.1636548
        ]
      },
      "properties": {
        "id": 295731131,
        "osm_type": "way",
        "shelter_type": "basic_hut"
      }
    },
    {
      "type": "Feature",
      "geometry": {
        "type": "Point",
        "coordinates": [
          -3.9332947,
          42.8911424
        ]
      },
      "properties": {
        "id": 323049621,
        "osm_type": "way",
        "name": "Refugio de La Corva",
        "shelter_type": "basic_hut"
      }
    },
    {
      "type": "Feature",
      "geometry": {
        "type": "Point",
        "coordinates": [
          -4.7630966,
          43.1875123
        ]
      },
      "properties": {
        "id": 330074188,
        "osm_type": "way",
        "name": "Casa de la Llomba",
        "shelter_type": "basic_hut"
      }
    },
    {
      "type": "Feature",
      "geometry": {
        "type": "Point",
        "coordinates": [
          -4.2741619,
          43.0542304
        ]
      },
      "properties": {
        "id": 354299020,
        "osm_type": "way",
        "name": "Cabaña de la Cuenca",
        "shelter_type": "weather_shelter"
      }
    },
    {
      "type": "Feature",
      "geometry": {
        "type": "Point",
        "coordinates": [
          -4.1843476,
          43.0635586
        ]
      },
      "properties": {
        "id": 355560625,
        "osm_type": "way",
        "name": "Cabaña de Argüeso",
        "shelter_type": "weather_shelter"
      }
    },
    {
      "type": "Feature",
      "geometry": {
        "type": "Point",
        "coordinates": [
          -4.1804637,
          43.0612152
        ]
      },
      "properties": {
        "id": 355560627,
        "osm_type": "way",
        "name": "Cabaña de Salces",
        "access": "yes",
        "shelter_type": "weather_shelter"
      }
    },
    {
      "type": "Feature",
      "geometry": {
        "type": "Point",
        "coordinates": [
          -4.1863906,
          43.0680915
        ]
      },
      "properties": {
        "id": 355560628,
        "osm_type": "way",
        "name": "Cabaña de Villacantid",
        "shelter_type": "weather_shelter"
      }
    },
    {
      "type": "Feature",
      "geometry": {
        "type": "Point",
        "coordinates": [
          -4.1855857,
          43.0494643
        ]
      },
      "properties": {
        "id": 355560631,
        "osm_type": "way",
        "access": "yes",
        "shelter_type": "weather_shelter"
      }
    },
    {
      "type": "Feature",
      "geometry": {
        "type": "Point",
        "coordinates": [
          -4.1763109,
          43.0607241
        ]
      },
      "properties": {
        "id": 355560636,
        "osm_type": "way",
        "shelter_type": "weather_shelter"
      }
    },
    {
      "type": "Feature",
      "geometry": {
        "type": "Point",
        "coordinates": [
          -4.2457988,
          43.104907
        ]
      },
      "properties": {
        "id": 385681045,
        "osm_type": "way",
        "name": "Refugio de Brañas de Espina",
        "shelter_type": "basic_hut"
      }
    },
    {
      "type": "Feature",
      "geometry": {
        "type": "Point",
        "coordinates": [
          -4.3195504,
          43.0694826
        ]
      },
      "properties": {
        "id": 390249619,
        "osm_type": "way",
        "name": "Cabaña del ICONA",
        "shelter_type": "basic_hut"
      }
    },
    {
      "type": "Feature",
      "geometry": {
        "type": "Point",
        "coordinates": [
          -4.4946411,
          43.1495563
        ]
      },
      "properties": {
        "id": 397506115,
        "osm_type": "way",
        "name": "Refugio Montañeros de Liébana",
        "capacity": "15",
        "description": "LLave de acceso en el Bar de Somaniezo"
      }
    },
    {
      "type": "Feature",
      "geometry": {
        "type": "Point",
        "coordinates": [
          -4.1734146,
          43.2615808
        ]
      },
      "properties": {
        "id": 399077080,
        "osm_type": "way",
        "name": "Refugio Braña Silla Oso",
        "shelter_type": "basic_hut"
      }
    },
    {
      "type": "Feature",
      "geometry": {
        "type": "Point",
        "coordinates": [
          -4.1627543,
          43.2490127
        ]
      },
      "properties": {
        "id": 399077387,
        "osm_type": "way",
        "name": "Refugio Portillo Toral",
        "shelter_type": "basic_hut"
      }
    },
    {
      "type": "Feature",
      "geometry": {
        "type": "Point",
        "coordinates": [
          -4.0454796,
          43.2250833
        ]
      },
      "properties": {
        "id": 399078189,
        "osm_type": "way",
        "name": "Refugio de Montaña del Monte Brazo",
        "capacity": "12",
        "fee": "yes",
        "operator": "Grupo de montaña ORZA"
      }
    },
    {
      "type": "Feature",
      "geometry": {
        "type": "Point",
        "coordinates": [
          -4.411984,
          43.1664504
        ]
      },
      "properties": {
        "id": 399080075,
        "osm_type": "way",
        "name": "Refugio de Prado del Concejo la Lastra"
      }
    },
    {
      "type": "Feature",
      "geometry": {
        "type": "Point",
        "coordinates": [
          -4.8052173,
          43.1537995
        ]
      },
      "properties": {
        "id": 399082432,
        "osm_type": "way",
        "capacity": "18",
        "description": "Petición de acceso en la cafetería El Cable"
      }
    },
    {
      "type": "Feature",
      "geometry": {
        "type": "Point",
        "coordinates": [
          -4.7474056,
          43.0769074
        ]
      },
      "properties": {
        "id": 399083395,
        "osm_type": "way",
        "name": "Refugio Collado de Llesba"
      }
    },
    {
      "type": "Feature",
      "geometry": {
        "type": "Point",
        "coordinates": [
          -4.3250582,
          43.0129991
        ]
      },
      "properties": {
        "id": 399084660,
        "osm_type": "way",
        "name": "Cabaña de Monte del Cabezo",
        "shelter_type": "basic_hut"
      }
    },
    {
      "type": "Feature",
      "geometry": {
        "type": "Point",
        "coordinates": [
          -3.2198849,
          43.3282022
        ]
      },
      "properties": {
        "id": 401975100,
        "osm_type": "way"
      }
    },
    {
      "type": "Feature",
      "geometry": {
        "type": "Point",
        "coordinates": [
          -4.1806432,
          43.2193761
        ]
      },
      "properties": {
        "id": 432420150,
        "osm_type": "way",
        "name": "Cabaña de Brañamarza",
        "shelter_type": "weather_shelter"
      }
    },
    {
      "type": "Feature",
      "geometry": {
        "type": "Point",
        "coordinates": [
          -4.1835239,
          43.2440426
        ]
      },
      "properties": {
        "id": 432420151,
        "osm_type": "way",
        "name": "Refugio Urizosas",
        "shelter_type": "weather_shelter"
      }
    },
    {
      "type": "Feature",
      "geometry": {
        "type": "Point",
        "coordinates": [
          -4.3331175,
          42.9941189
        ]
      },
      "properties": {
        "id": 590840299,
        "osm_type": "way",
        "shelter_type": "basic_hut"
      }
    },
    {
      "type": "Feature",
      "geometry": {
        "type": "Point",
        "coordinates": [
          -3.5836113,
          43.1614768
        ]
      },
      "properties": {
        "id": 652814151,
        "osm_type": "way",
        "name": "Refugio El Rellano",
        "operator": "Club Alpino de Sestao"
      }
    },
    {
      "type": "Feature",
      "geometry": {
        "type": "Point",
        "coordinates": [
          -3.4617952,
          43.2501168
        ]
      },
      "properties": {
        "id": 747836391,
        "osm_type": "way",
        "shelter_type": "lean_to"
      }
    },
    {
      "type": "Feature",
      "geometry": {
        "type": "Point",
        "coordinates": [
          -3.4540917,
          43.2628103
        ]
      },
      "properties": {
        "id": 757019943,
        "osm_type": "way",
        "shelter_type": "lean_to"
      }
    },
    {
      "type": "Feature",
      "geometry": {
        "type": "Point",
        "coordinates": [
          -3.4542971,
          43.2627441
        ]
      },
      "properties": {
        "id": 757019944,
        "osm_type": "way",
        "shelter_type": "lean_to"
      }
    },
    {
      "type": "Feature",
      "geometry": {
        "type": "Point",
        "coordinates": [
          -3.8552279,
          42.8223792
        ]
      },
      "properties": {
        "id": 758363840,
        "osm_type": "way",
        "name": "Cabaña de Tez",
        "shelter_type": "basic_hut"
      }
    },
    {
      "type": "Feature",
      "geometry": {
        "type": "Point",
        "coordinates": [
          -3.423038,
          43.2670084
        ]
      },
      "properties": {
        "id": 760736515,
        "osm_type": "way",
        "shelter_type": "lean_to"
      }
    },
    {
      "type": "Feature",
      "geometry": {
        "type": "Point",
        "coordinates": [
          -3.8344609,
          42.8311054
        ]
      },
      "properties": {
        "id": 848000471,
        "osm_type": "way",
        "shelter_type": "basic_hut"
      }
    },
    {
      "type": "Feature",
      "geometry": {
        "type": "Point",
        "coordinates": [
          -3.5731706,
          43.1531777
        ]
      },
      "properties": {
        "id": 1021882197,
        "osm_type": "way",
        "name": "Refugio del Portilla de la Sía",
        "shelter_type": "weather_shelter"
      }
    },
    {
      "type": "Feature",
      "geometry": {
        "type": "Point",
        "coordinates": [
          -4.3149527,
          43.1173926
        ]
      },
      "properties": {
        "id": 1023931013,
        "osm_type": "way",
        "name": "Refugio Bucierca",
        "shelter_type": "basic_hut"
      }
    },
    {
      "type": "Feature",
      "geometry": {
        "type": "Point",
        "coordinates": [
          -4.3359938,
          43.1229124
        ]
      },
      "properties": {
        "id": 1023931014,
        "osm_type": "way",
        "name": "Cabaña del ICONA",
        "shelter_type": "basic_hut"
      }
    },
    {
      "type": "Feature",
      "geometry": {
        "type": "Point",
        "coordinates": [
          -4.1099144,
          43.0880374
        ]
      },
      "properties": {
        "id": 1029311339,
        "osm_type": "way",
        "name": "Cabaña \"La Acebosa\"",
        "operator": "Junta vecinal de Rioseco"
      }
    },
    {
      "type": "Feature",
      "geometry": {
        "type": "Point",
        "coordinates": [
          -4.115455,
          42.9837574
        ]
      },
      "properties": {
        "id": 1077111533,
        "osm_type": "way",
        "shelter_type": "lean_to"
      }
    },
    {
      "type": "Feature",
      "geometry": {
        "type": "Point",
        "coordinates": [
          -4.2493381,
          43.121044
        ]
      },
      "properties": {
        "id": 1153024051,
        "osm_type": "way",
        "name": "Refugio de Venta Vieja",
        "shelter_type": "basic_hut"
      }
    },
    {
      "type": "Feature",
      "geometry": {
        "type": "Point",
        "coordinates": [
          -4.2478554,
          43.0940811
        ]
      },
      "properties": {
        "id": 1210718433,
        "osm_type": "way",
        "name": "Refugio La Cardosa",
        "shelter_type": "basic_hut"
      }
    },
    {
      "type": "Feature",
      "geometry": {
        "type": "Point",
        "coordinates": [
          -4.1226291,
          43.0462639
        ]
      },
      "properties": {
        "id": 1251077995,
        "osm_type": "way"
      }
    },
    {
      "type": "Feature",
      "geometry": {
        "type": "Point",
        "coordinates": [
          -4.3527953,
          43.0064592
        ]
      },
      "properties": {
        "id": 1265773203,
        "osm_type": "way",
        "name": "Cabaña de Peñalrostro",
        "shelter_type": "basic_hut",
        "description": "Reconstruida en 2016. Banco para colchonetas y chimenea."
      }
    },
    {
      "type": "Feature",
      "geometry": {
        "type": "Point",
        "coordinates": [
          -4.3155981,
          42.9969391
        ]
      },
      "properties": {
        "id": 1265774151,
        "osm_type": "way",
        "name": "Cabaña del Portillo",
        "shelter_type": "basic_hut"
      }
    },
    {
      "type": "Feature",
      "geometry": {
        "type": "Point",
        "coordinates": [
          -4.4726244,
          43.1399378
        ]
      },
      "properties": {
        "id": 1265778108,
        "osm_type": "way",
        "name": "Las invernadillas",
        "shelter_type": "basic_hut"
      }
    },
    {
      "type": "Feature",
      "geometry": {
        "type": "Point",
        "coordinates": [
          -4.330758,
          42.9792473
        ]
      },
      "properties": {
        "id": 1265780440,
        "osm_type": "way",
        "shelter_type": "basic_hut"
      }
    },
    {
      "type": "Feature",
      "geometry": {
        "type": "Point",
        "coordinates": [
          -4.5073424,
          43.3297793
        ]
      },
      "properties": {
        "id": 1376122922,
        "osm_type": "way",
        "shelter_type": "lean_to"
      }
    },
    {
      "type": "Feature",
      "geometry": {
        "type": "Point",
        "coordinates": [
          -3.5048104,
          43.3557504
        ]
      },
      "properties": {
        "id": 1428097320,
        "osm_type": "way",
        "shelter_type": "lean_to"
      }
    },
    {
      "type": "Feature",
      "geometry": {
        "type": "Point",
        "coordinates": [
          -4.3510978,
          43.0238746
        ]
      },
      "properties": {
        "id": 1429928777,
        "osm_type": "way",
        "shelter_type": "weather_shelter"
      }
    },
    {
      "type": "Feature",
      "geometry": {
        "type": "Point",
        "coordinates": [
          -4.1531587,
          43.3528454
        ]
      },
      "properties": {
        "id": 1488546480,
        "osm_type": "way"
      }
    }
  ]
}