{
  "type": "FeatureCollection",
  "features": [
    {
      "type": "Feature",
      "geometry": {
        "type": "Point",
        "coordinates": [
          -6.3644901,
          43.3752527
        ]
      },
      "properties": {
        "id": 2855703251,
        "osm_type": "node",
        "vending": "drinks;snacks"
      }
    },
    {
      "type": "Feature",
      "geometry": {
        "type": "Point",
        "coordinates": [
          -5.8671557,
          43.3603036
        ]
      },
      "properties": {
        "id": 3360008496,
        "osm_type": "node",
        "name": "Vending La Ería",
        "vending": "condoms;sweets;drinks"
      }
    },
    {
      "type": "Feature",
      "geometry": {
        "type": "Point",
        "coordinates": [
          -5.6654793,
          43.522038
        ]
      },
      "properties": {
        "id": 5178924652,
        "osm_type": "node",
        "vending": "drinks"
      }
    },
    {
      "type": "Feature",
      "geometry": {
        "type": "Point",
        "coordinates": [
          -4.9781479,
          43.4509122
        ]
      },
      "properties": {
        "id": 7787676743,
        "osm_type": "node",
        "vending": "food"
      }
    },
    {
      "type": "Feature",
      "geometry": {
        "type": "Point",
        "coordinates": [
          -4.7834421,
          43.4294772
        ]
      },
      "properties": {
        "id": 7791669392,
        "osm_type": "node",
        "vending": "drinks"
      }
    },
    {
      "type": "Feature",
      "geometry": {
        "type": "Point",
        "coordinates": [
          -4.7834618,
          43.4294762
        ]
      },
      "properties": {
        "id": 7791669395,
        "osm_type": "node",
        "vending": "food"
      }
    },
    {
      "type": "Feature",
      "geometry": {
        "type": "Point",
        "coordinates": [
          -5.8427302,
          43.3662316
        ]
      },
      "properties": {
        "id": 8211494783,
        "osm_type": "node",
        "name": "Japon Market 24h",
        "vending": "food"
      }
    },
    {
      "type": "Feature",
      "geometry": {
        "type": "Point",
        "coordinates": [
          -5.6753652,
          43.537713
        ]
      },
      "properties": {
        "id": 8421326502,
        "osm_type": "node",
        "vending": "water;food;drinks"
      }
    },
    {
      "type": "Feature",
      "geometry": {
        "type": "Point",
        "coordinates": [
          -4.81422,
          43.4340142
        ]
      },
      "properties": {
        "id": 9964514112,
        "osm_type": "node",
        "vending": "drinks"
      }
    },
    {
      "type": "Feature",
      "geometry": {
        "type": "Point",
        "coordinates": [
          -4.8239682,
          43.4346227
        ]
      },
      "properties": {
        "id": 9964744578,
        "osm_type": "node",
        "vending": "drinks"
      }
    },
    {
      "type": "Feature",
      "geometry": {
        "type": "Point",
        "coordinates": [
          -5.4577843,
          43.222892
        ]
      },
      "properties": {
        "id": 10261357499,
        "osm_type": "node",
        "vending": "drinks"
      }
    },
    {
      "type": "Feature",
      "geometry": {
        "type": "Point",
        "coordinates": [
          -6.0033509,
          43.5769634
        ]
      },
      "properties": {
        "id": 10941370522,
        "osm_type": "node",
        "vending": "drinks"
      }
    },
    {
      "type": "Feature",
      "geometry": {
        "type": "Point",
        "coordinates": [
          -5.6738958,
          43.5094832
        ]
      },
      "properties": {
        "id": 10957626129,
        "osm_type": "node",
        "vending": "coffee;snacks;drinks;condoms"
      }
    },
    {
      "type": "Feature",
      "geometry": {
        "type": "Point",
        "coordinates": [
          -6.1409992,
          43.0876511
        ]
      },
      "properties": {
        "id": 11363074804,
        "osm_type": "node",
        "vending": "drinks"
      }
    },
    {
      "type": "Feature",
      "geometry": {
        "type": "Point",
        "coordinates": [
          -4.7829661,
          43.4240747
        ]
      },
      "properties": {
        "id": 11612157243,
        "osm_type": "node",
        "vending": "drinks"
      }
    },
    {
      "type": "Feature",
      "geometry": {
        "type": "Point",
        "coordinates": [
          -5.8503735,
          43.3696235
        ]
      },
      "properties": {
        "id": 11726556719,
        "osm_type": "node",
        "vending": "drinks"
      }
    },
    {
      "type": "Feature",
      "geometry": {
        "type": "Point",
        "coordinates": [
          -6.3313599,
          43.3968792
        ]
      },
      "properties": {
        "id": 12045270913,
        "osm_type": "node",
        "name": "La Parada Del peregrino",
        "vending": "coffee"
      }
    },
    {
      "type": "Feature",
      "geometry": {
        "type": "Point",
        "coordinates": [
          -5.8346931,
          43.3624506
        ]
      },
      "properties": {
        "id": 12055849111,
        "osm_type": "node",
        "vending": "food;drinks"
      }
    },
    {
      "type": "Feature",
      "geometry": {
        "type": "Point",
        "coordinates": [
          -6.4979996,
          43.3417647
        ]
      },
      "properties": {
        "id": 12097036529,
        "osm_type": "node",
        "vending": "drinks;snacks"
      }
    },
    {
      "type": "Feature",
      "geometry": {
        "type": "Point",
        "coordinates": [
          -6.5593603,
          43.335991
        ]
      },
      "properties": {
        "id": 12098642239,
        "osm_type": "node",
        "vending": "drinks;snacks"
      }
    },
    {
      "type": "Feature",
      "geometry": {
        "type": "Point",
        "coordinates": [
          -6.9351537,
          43.1609829
        ]
      },
      "properties": {
        "id": 12103839550,
        "osm_type": "node",
        "vending": "drinks;snacks"
      }
    },
    {
      "type": "Feature",
      "geometry": {
        "type": "Point",
        "coordinates": [
          -5.8324282,
          43.3703276
        ]
      },
      "properties": {
        "id": 12132081656,
        "osm_type": "node",
        "vending": "coffee"
      }
    },
    {
      "type": "Feature",
      "geometry": {
        "type": "Point",
        "coordinates": [
          -6.0329427,
          43.5592186
        ]
      },
      "properties": {
        "id": 12172784940,
        "osm_type": "node",
        "vending": "food;drinks"
      }
    },
    {
      "type": "Feature",
      "geometry": {
        "type": "Point",
        "coordinates": [
          -5.7755034,
          43.2461588
        ]
      },
      "properties": {
        "id": 13115864298,
        "osm_type": "node",
        "vending": "food"
      }
    },
    {
      "type": "Feature",
      "geometry": {
        "type": "Point",
        "coordinates": [
          -5.7755387,
          43.2461602
        ]
      },
      "properties": {
        "id": 13115864299,
        "osm_type": "node",
        "vending": "food"
      }
    },
    {
      "type": "Feature",
      "geometry": {
        "type": "Point",
        "coordinates": [
          -5.7732497,
          43.250599
        ]
      },
      "properties": {
        "id": 13135785647,
        "osm_type": "node",
        "vending": "food"
      }
    },
    {
      "type": "Feature",
      "geometry": {
        "type": "Point",
        "coordinates": [
          -5.7732491,
          43.2506092
        ]
      },
      "properties": {
        "id": 13135785648,
        "osm_type": "node",
        "vending": "drinks"
      }
    },
    {
      "type": "Feature",
      "geometry": {
        "type": "Point",
        "coordinates": [
          -5.778649,
          43.2499462
        ]
      },
      "properties": {
        "id": 13137599847,
        "osm_type": "node",
        "vending": "food"
      }
    },
    {
      "type": "Feature",
      "geometry": {
        "type": "Point",
        "coordinates": [
          -5.8515384,
          43.4396913
        ]
      },
      "properties": {
        "id": 13169563890,
        "osm_type": "node",
        "name": "Llanera Go!",
        "vending": "food"
      }
    },
    {
      "type": "Feature",
      "geometry": {
        "type": "Point",
        "coordinates": [
          -5.8515243,
          43.3685883
        ]
      },
      "properties": {
        "id": 13285494749,
        "osm_type": "node",
        "vending": "food"
      }
    }
  ]
}