{
  "type": "FeatureCollection",
  "features": [
    {
      "type": "Feature",
      "geometry": {
        "type": "Point",
        "coordinates": [
          10.79949,
          63.411923
        ]
      },
      "properties": {
        "id": 25928917,
        "osm_type": "node",
        "name": "Circle K Hommelvik",
        "brand": "Circle K",
        "opening_hours": "Mo-Fr 06:00-22:00, Sa-Su 09:00-22:00"
      }
    },
    {
      "type": "Feature",
      "geometry": {
        "type": "Point",
        "coordinates": [
          9.935554,
          63.580212
        ]
      },
      "properties": {
        "id": 29583463,
        "osm_type": "node",
        "name": "Circle K Automat Rissa",
        "brand": "Circle K"
      }
    },
    {
      "type": "Feature",
      "geometry": {
        "type": "Point",
        "coordinates": [
          9.689554,
          62.594709
        ]
      },
      "properties": {
        "id": 33842177,
        "osm_type": "node",
        "name": "Circle K Oppdal",
        "brand": "Circle K",
        "opening_hours": "Sa 07:00-22:00, Su 08:00-23:00"
      }
    },
    {
      "type": "Feature",
      "geometry": {
        "type": "Point",
        "coordinates": [
          9.7415436,
          62.9845559
        ]
      },
      "properties": {
        "id": 33960227,
        "osm_type": "node",
        "name": "YX Jerpstad (automat)",
        "brand": "YX"
      }
    },
    {
      "type": "Feature",
      "geometry": {
        "type": "Point",
        "coordinates": [
          10.444358,
          63.443148
        ]
      },
      "properties": {
        "id": 40655415,
        "osm_type": "node",
        "name": "YX Obs Lade (automat)",
        "brand": "YX"
      }
    },
    {
      "type": "Feature",
      "geometry": {
        "type": "Point",
        "coordinates": [
          9.852158,
          63.2968442
        ]
      },
      "properties": {
        "id": 41849897,
        "osm_type": "node",
        "name": "Uno-X Orkanger",
        "brand": "Uno-X"
      }
    },
    {
      "type": "Feature",
      "geometry": {
        "type": "Point",
        "coordinates": [
          10.436772,
          63.410359
        ]
      },
      "properties": {
        "id": 177201618,
        "osm_type": "node",
        "name": "Uno-X Moholt",
        "brand": "Uno-X"
      }
    },
    {
      "type": "Feature",
      "geometry": {
        "type": "Point",
        "coordinates": [
          9.598292,
          63.093755
        ]
      },
      "properties": {
        "id": 188758671,
        "osm_type": "node",
        "name": "YX Storås",
        "brand": "YX",
        "opening_hours": "Mo-Fr 07:00-21:00, Sa-Su 09:00-21:00"
      }
    },
    {
      "type": "Feature",
      "geometry": {
        "type": "Point",
        "coordinates": [
          10.0290818,
          62.7196179
        ]
      },
      "properties": {
        "id": 190651471,
        "osm_type": "node"
      }
    },
    {
      "type": "Feature",
      "geometry": {
        "type": "Point",
        "coordinates": [
          10.3746413,
          63.3672868
        ]
      },
      "properties": {
        "id": 192644629,
        "osm_type": "node",
        "name": "Uno-X Rosten",
        "brand": "Uno-X"
      }
    },
    {
      "type": "Feature",
      "geometry": {
        "type": "Point",
        "coordinates": [
          10.376254,
          63.366956
        ]
      },
      "properties": {
        "id": 192644635,
        "osm_type": "node",
        "name": "Circle K Rosten",
        "brand": "Circle K",
        "opening_hours": "Mo-Fr 06:00-23:00, Sa 08:00-23:00, Su 09:00-23:00"
      }
    },
    {
      "type": "Feature",
      "geometry": {
        "type": "Point",
        "coordinates": [
          9.2074288,
          63.070616
        ]
      },
      "properties": {
        "id": 193077601,
        "osm_type": "node"
      }
    },
    {
      "type": "Feature",
      "geometry": {
        "type": "Point",
        "coordinates": [
          10.3748625,
          63.3604996
        ]
      },
      "properties": {
        "id": 247681096,
        "osm_type": "node",
        "name": "Uno-X City syd",
        "brand": "Uno-X"
      }
    },
    {
      "type": "Feature",
      "geometry": {
        "type": "Point",
        "coordinates": [
          10.289615,
          63.153806
        ]
      },
      "properties": {
        "id": 249229501,
        "osm_type": "node",
        "name": "Circle K E6 Lundamo",
        "brand": "Circle K",
        "opening_hours": "24/7"
      }
    },
    {
      "type": "Feature",
      "geometry": {
        "type": "Point",
        "coordinates": [
          10.29178,
          63.03635
        ]
      },
      "properties": {
        "id": 249229564,
        "osm_type": "node",
        "name": "Circle K E6 Støren",
        "brand": "Circle K",
        "opening_hours": "24/7"
      }
    },
    {
      "type": "Feature",
      "geometry": {
        "type": "Point",
        "coordinates": [
          10.3136,
          63.185767
        ]
      },
      "properties": {
        "id": 249655006,
        "osm_type": "node",
        "name": "Haltbakk Express Ler",
        "brand": "Haltbakk"
      }
    },
    {
      "type": "Feature",
      "geometry": {
        "type": "Point",
        "coordinates": [
          10.279889,
          63.151159
        ]
      },
      "properties": {
        "id": 249655014,
        "osm_type": "node",
        "name": "Esso Express Lundamo",
        "brand": "Esso"
      }
    },
    {
      "type": "Feature",
      "geometry": {
        "type": "Point",
        "coordinates": [
          10.7441491,
          62.9528265
        ]
      },
      "properties": {
        "id": 249655023,
        "osm_type": "node"
      }
    },
    {
      "type": "Feature",
      "geometry": {
        "type": "Point",
        "coordinates": [
          11.304738,
          62.840526
        ]
      },
      "properties": {
        "id": 249655029,
        "osm_type": "node",
        "name": "Circle K Automat Ålen",
        "brand": "Circle K"
      }
    },
    {
      "type": "Feature",
      "geometry": {
        "type": "Point",
        "coordinates": [
          11.37757,
          62.57584
        ]
      },
      "properties": {
        "id": 249755770,
        "osm_type": "node",
        "name": "Esso Røros",
        "brand": "Esso",
        "opening_hours": "Mo-Fr 07:00-22:00, Sa 08:00-22:00, Su 09:00-22:00"
      }
    },
    {
      "type": "Feature",
      "geometry": {
        "type": "Point",
        "coordinates": [
          11.37256,
          62.56657
        ]
      },
      "properties": {
        "id": 249755775,
        "osm_type": "node",
        "name": "Circle K Røros",
        "brand": "Circle K",
        "opening_hours": "Mo-Fr 06:30-22:00, Sa 07:30-22:00, Su 09:00-22:00"
      }
    },
    {
      "type": "Feature",
      "geometry": {
        "type": "Point",
        "coordinates": [
          9.2725824,
          63.4948208
        ]
      },
      "properties": {
        "id": 250072641,
        "osm_type": "node",
        "name": "Haltbakk Express Vaslag",
        "brand": "Haltbakk Express"
      }
    },
    {
      "type": "Feature",
      "geometry": {
        "type": "Point",
        "coordinates": [
          10.305429,
          63.3249958
        ]
      },
      "properties": {
        "id": 253759858,
        "osm_type": "node",
        "name": "Circle K E6 Klett",
        "brand": "Circle K",
        "opening_hours": "24/7"
      }
    },
    {
      "type": "Feature",
      "geometry": {
        "type": "Point",
        "coordinates": [
          10.91787,
          63.466839
        ]
      },
      "properties": {
        "id": 256233959,
        "osm_type": "node",
        "name": "Circle K Stjørdal",
        "brand": "Circle K",
        "opening_hours": "24/7"
      }
    },
    {
      "type": "Feature",
      "geometry": {
        "type": "Point",
        "coordinates": [
          10.0111855,
          62.8320053
        ]
      },
      "properties": {
        "id": 257430658,
        "osm_type": "node",
        "name": "St1 Berkåk",
        "brand": "St1",
        "opening_hours": "Mo-Su 06:00-22:00"
      }
    },
    {
      "type": "Feature",
      "geometry": {
        "type": "Point",
        "coordinates": [
          9.00582,
          63.207432
        ]
      },
      "properties": {
        "id": 264164902,
        "osm_type": "node",
        "name": "YX Vinjeøra (automat)",
        "brand": "YX"
      }
    },
    {
      "type": "Feature",
      "geometry": {
        "type": "Point",
        "coordinates": [
          11.0945946,
          63.2506839
        ]
      },
      "properties": {
        "id": 265000089,
        "osm_type": "node",
        "name": "YX Selbu",
        "brand": "YX",
        "opening_hours": "Mo-Fr 06:00-23:00, Sa 08:00-23:00, Su 09:00-23:00"
      }
    },
    {
      "type": "Feature",
      "geometry": {
        "type": "Point",
        "coordinates": [
          11.042874,
          63.218006
        ]
      },
      "properties": {
        "id": 265000173,
        "osm_type": "node",
        "name": "Esso Selbu",
        "brand": "Esso",
        "opening_hours": "Mo-Fr 08:00-16:00"
      }
    },
    {
      "type": "Feature",
      "geometry": {
        "type": "Point",
        "coordinates": [
          10.7304299,
          63.424074
        ]
      },
      "properties": {
        "id": 269154817,
        "osm_type": "node",
        "name": "St1 Stav syd",
        "brand": "St1",
        "opening_hours": "Mo-Fr 06:00-24:00, Sa-Su 08:00-24:00"
      }
    },
    {
      "type": "Feature",
      "geometry": {
        "type": "Point",
        "coordinates": [
          11.491342,
          64.017787
        ]
      },
      "properties": {
        "id": 269783600,
        "osm_type": "node",
        "name": "Esso Dampsaga",
        "brand": "Esso",
        "opening_hours": "Mo-Fr 06:00-24:00, Sa-Su 00:00-24:00"
      }
    },
    {
      "type": "Feature",
      "geometry": {
        "type": "Point",
        "coordinates": [
          11.4985182,
          64.0113428
        ]
      },
      "properties": {
        "id": 269783601,
        "osm_type": "node",
        "name": "Circle K Steinkjer",
        "brand": "Circle K",
        "opening_hours": "24/7"
      }
    },
    {
      "type": "Feature",
      "geometry": {
        "type": "Point",
        "coordinates": [
          11.4989526,
          64.0122694
        ]
      },
      "properties": {
        "id": 269783602,
        "osm_type": "node",
        "name": "Uno-X Steinkjer Sentrum",
        "brand": "Uno-X"
      }
    },
    {
      "type": "Feature",
      "geometry": {
        "type": "Point",
        "coordinates": [
          9.5130778,
          63.3994314
        ]
      },
      "properties": {
        "id": 270588525,
        "osm_type": "node"
      }
    },
    {
      "type": "Feature",
      "geometry": {
        "type": "Point",
        "coordinates": [
          8.840263,
          63.716818
        ]
      },
      "properties": {
        "id": 270588570,
        "osm_type": "node",
        "name": "YX Sistranda",
        "brand": "YX",
        "opening_hours": "Mo-Fr 06:30-21:00, Sa 09:00-21:00, Su 10:00-21:00"
      }
    },
    {
      "type": "Feature",
      "geometry": {
        "type": "Point",
        "coordinates": [
          9.83706,
          63.3083
        ]
      },
      "properties": {
        "id": 271661005,
        "osm_type": "node",
        "name": "Circle K Truck Orkdal",
        "brand": "Circle K"
      }
    },
    {
      "type": "Feature",
      "geometry": {
        "type": "Point",
        "coordinates": [
          9.804047,
          63.265948
        ]
      },
      "properties": {
        "id": 271661017,
        "osm_type": "node",
        "name": "YX Fannrem",
        "brand": "YX",
        "opening_hours": "Mo-Fr 06:00-22:00, Sa-Su 09:00-22:00"
      }
    },
    {
      "type": "Feature",
      "geometry": {
        "type": "Point",
        "coordinates": [
          9.7685383,
          63.1971779
        ]
      },
      "properties": {
        "id": 271661023,
        "osm_type": "node",
        "name": "Best Vormstad (automat)",
        "brand": "Best"
      }
    },
    {
      "type": "Feature",
      "geometry": {
        "type": "Point",
        "coordinates": [
          9.2819168,
          63.0951531
        ]
      },
      "properties": {
        "id": 271661034,
        "osm_type": "node",
        "name": "YX Rindalsskogen",
        "brand": "YX",
        "opening_hours": "Mo-Fr 07:30-21:00, Sa 09:00-18:00"
      }
    },
    {
      "type": "Feature",
      "geometry": {
        "type": "Point",
        "coordinates": [
          10.3804456,
          63.3649598
        ]
      },
      "properties": {
        "id": 276826708,
        "osm_type": "node",
        "name": "St1 Tiller",
        "brand": "St1",
        "opening_hours": "24/7"
      }
    },
    {
      "type": "Feature",
      "geometry": {
        "type": "Point",
        "coordinates": [
          9.1359486,
          63.5366494
        ]
      },
      "properties": {
        "id": 279754843,
        "osm_type": "node"
      }
    },
    {
      "type": "Feature",
      "geometry": {
        "type": "Point",
        "coordinates": [
          11.231856,
          63.717746
        ]
      },
      "properties": {
        "id": 281596778,
        "osm_type": "node",
        "name": "Esso Express Gråmyra",
        "brand": "Esso"
      }
    },
    {
      "type": "Feature",
      "geometry": {
        "type": "Point",
        "coordinates": [
          13.167182,
          64.934165
        ]
      },
      "properties": {
        "id": 283602411,
        "osm_type": "node",
        "name": "Circle K Automat Namsskogan",
        "brand": "Circle K"
      }
    },
    {
      "type": "Feature",
      "geometry": {
        "type": "Point",
        "coordinates": [
          10.1505657,
          63.4258409
        ]
      },
      "properties": {
        "id": 305721519,
        "osm_type": "node",
        "name": "Circle K Automat Byneset",
        "brand": "Circle K"
      }
    },
    {
      "type": "Feature",
      "geometry": {
        "type": "Point",
        "coordinates": [
          11.3039633,
          63.7495507
        ]
      },
      "properties": {
        "id": 306934871,
        "osm_type": "node",
        "name": "Uno-X 7-Eleven Levanger",
        "brand": "Uno-X",
        "opening_hours": "Mo-Fr 06:00-24:00, Sa-Su 00:00-24:00"
      }
    },
    {
      "type": "Feature",
      "geometry": {
        "type": "Point",
        "coordinates": [
          11.2828372,
          63.7397286
        ]
      },
      "properties": {
        "id": 308039466,
        "osm_type": "node",
        "name": "Circle K Moan",
        "brand": "Circle K",
        "opening_hours": "Mo-Fr 07:00-22:00, Sa 08:30-20:00, Su 08:30-22:00"
      }
    },
    {
      "type": "Feature",
      "geometry": {
        "type": "Point",
        "coordinates": [
          10.914248,
          63.468762
        ]
      },
      "properties": {
        "id": 312568280,
        "osm_type": "node",
        "name": "Esso Stjørdal",
        "brand": "Esso",
        "opening_hours": "Mo-Fr 06:00-23:00, Sa 09:00-21:00, Su 09:00-23:00"
      }
    },
    {
      "type": "Feature",
      "geometry": {
        "type": "Point",
        "coordinates": [
          11.0950375,
          63.4663173
        ]
      },
      "properties": {
        "id": 370669653,
        "osm_type": "node",
        "name": "YX Hegra",
        "brand": "YX",
        "opening_hours": "Mo-Fr 08:00-16:00, Sa 09:00-14:00"
      }
    },
    {
      "type": "Feature",
      "geometry": {
        "type": "Point",
        "coordinates": [
          11.214965,
          64.063066
        ]
      },
      "properties": {
        "id": 373428446,
        "osm_type": "node",
        "name": "YX Malm",
        "brand": "YX",
        "opening_hours": "Mo-Fr 07:00-21:00, Sa-Su 10:00-21:00"
      }
    },
    {
      "type": "Feature",
      "geometry": {
        "type": "Point",
        "coordinates": [
          11.232388,
          63.718557
        ]
      },
      "properties": {
        "id": 387990634,
        "osm_type": "node",
        "name": "Circle K Truck Gråmyra",
        "brand": "Circle K"
      }
    },
    {
      "type": "Feature",
      "geometry": {
        "type": "Point",
        "coordinates": [
          9.881137,
          62.65674
        ]
      },
      "properties": {
        "id": 408995905,
        "osm_type": "node",
        "name": "Circle K Automat Oppdal",
        "brand": "Circle K"
      }
    },
    {
      "type": "Feature",
      "geometry": {
        "type": "Point",
        "coordinates": [
          8.9752005,
          63.5994744
        ]
      },
      "properties": {
        "id": 450918494,
        "osm_type": "node",
        "name": "St1 Hitra",
        "brand": "St1"
      }
    },
    {
      "type": "Feature",
      "geometry": {
        "type": "Point",
        "coordinates": [
          9.080044,
          63.293899
        ]
      },
      "properties": {
        "id": 495201213,
        "osm_type": "node",
        "name": "St1 Kyrksæterøra",
        "brand": "St1",
        "opening_hours": "24/7"
      }
    },
    {
      "type": "Feature",
      "geometry": {
        "type": "Point",
        "coordinates": [
          11.542256,
          64.4705082
        ]
      },
      "properties": {
        "id": 503713142,
        "osm_type": "node",
        "name": "Uno-X Hylla",
        "brand": "Uno-X"
      }
    },
    {
      "type": "Feature",
      "geometry": {
        "type": "Point",
        "coordinates": [
          9.8075682,
          63.7638258
        ]
      },
      "properties": {
        "id": 534162091,
        "osm_type": "node",
        "name": "YX Bjugn",
        "brand": "YX",
        "opening_hours": "Mo-Fr 06:00-00:00, Sa-Su 09:00-00:00"
      }
    },
    {
      "type": "Feature",
      "geometry": {
        "type": "Point",
        "coordinates": [
          10.48571,
          63.301578
        ]
      },
      "properties": {
        "id": 572495864,
        "osm_type": "node",
        "name": "YX Klæbu",
        "brand": "YX",
        "opening_hours": "Mo-Fr 06:30-22:00, Sa 08:00-22:00, Su 09:00-22:00"
      }
    },
    {
      "type": "Feature",
      "geometry": {
        "type": "Point",
        "coordinates": [
          11.7389867,
          63.418133
        ]
      },
      "properties": {
        "id": 666284940,
        "osm_type": "node",
        "name": "YX Meråker",
        "brand": "YX",
        "opening_hours": "Mo-Su 08:00-21:00"
      }
    },
    {
      "type": "Feature",
      "geometry": {
        "type": "Point",
        "coordinates": [
          10.9553651,
          63.468061
        ]
      },
      "properties": {
        "id": 748882924,
        "osm_type": "node",
        "name": "LPG E14",
        "opening_hours": "Mo-Fr 08:00-16:00"
      }
    },
    {
      "type": "Feature",
      "geometry": {
        "type": "Point",
        "coordinates": [
          11.4951386,
          64.009315
        ]
      },
      "properties": {
        "id": 748890161,
        "osm_type": "node",
        "name": "LPG Steinkjer",
        "brand": "LPG Norge",
        "opening_hours": "24/7"
      }
    },
    {
      "type": "Feature",
      "geometry": {
        "type": "Point",
        "coordinates": [
          11.5439577,
          64.4597778
        ]
      },
      "properties": {
        "id": 748912582,
        "osm_type": "node",
        "name": "LPG Namsos",
        "brand": "LPG Norge",
        "opening_hours": "24/7"
      }
    },
    {
      "type": "Feature",
      "geometry": {
        "type": "Point",
        "coordinates": [
          10.0187145,
          63.5092496
        ]
      },
      "properties": {
        "id": 762851978,
        "osm_type": "node"
      }
    },
    {
      "type": "Feature",
      "geometry": {
        "type": "Point",
        "coordinates": [
          10.4048438,
          63.3982879
        ]
      },
      "properties": {
        "id": 765730753,
        "osm_type": "node",
        "name": "LPG Trondheim",
        "brand": "LPG Norge",
        "opening_hours": "Mo-Fr 07:00-16:00; Sa 10:00-14:00"
      }
    },
    {
      "type": "Feature",
      "geometry": {
        "type": "Point",
        "coordinates": [
          10.29742,
          63.0307646
        ]
      },
      "properties": {
        "id": 765738818,
        "osm_type": "node",
        "name": "LPG Gaulagass",
        "opening_hours": "24/7"
      }
    },
    {
      "type": "Feature",
      "geometry": {
        "type": "Point",
        "coordinates": [
          9.6902805,
          62.5868373
        ]
      },
      "properties": {
        "id": 765766017,
        "osm_type": "node",
        "name": "LPG A-K Røstad Landbruksverksted",
        "opening_hours": "24/7"
      }
    },
    {
      "type": "Feature",
      "geometry": {
        "type": "Point",
        "coordinates": [
          11.3691858,
          62.5724807
        ]
      },
      "properties": {
        "id": 765779277,
        "osm_type": "node",
        "name": "LPG Røros",
        "brand": "LPG Norge"
      }
    },
    {
      "type": "Feature",
      "geometry": {
        "type": "Point",
        "coordinates": [
          11.53749,
          64.454176
        ]
      },
      "properties": {
        "id": 849975202,
        "osm_type": "node",
        "name": "YX Truck Namsos",
        "brand": "YX Truck"
      }
    },
    {
      "type": "Feature",
      "geometry": {
        "type": "Point",
        "coordinates": [
          11.401739,
          63.848724
        ]
      },
      "properties": {
        "id": 849975276,
        "osm_type": "node",
        "name": "YX Røra (automat)",
        "brand": "YX"
      }
    },
    {
      "type": "Feature",
      "geometry": {
        "type": "Point",
        "coordinates": [
          9.6995783,
          62.5959404
        ]
      },
      "properties": {
        "id": 849975440,
        "osm_type": "node",
        "name": "YX Oppdal",
        "brand": "YX",
        "opening_hours": "Mo-Fr 06:00-22:00, Sa-Su 08:00-22:00"
      }
    },
    {
      "type": "Feature",
      "geometry": {
        "type": "Point",
        "coordinates": [
          10.1731537,
          63.3079387
        ]
      },
      "properties": {
        "id": 849975676,
        "osm_type": "node",
        "name": "Uno-X 7-Eleven Buvika",
        "brand": "Uno-X"
      }
    },
    {
      "type": "Feature",
      "geometry": {
        "type": "Point",
        "coordinates": [
          10.51251,
          64.30236
        ]
      },
      "properties": {
        "id": 849975867,
        "osm_type": "node",
        "name": "YX Steinsdalen",
        "brand": "YX",
        "opening_hours": "Mo-Fr 09:00-20:00, Sa-Su 10:00-20:00"
      }
    },
    {
      "type": "Feature",
      "geometry": {
        "type": "Point",
        "coordinates": [
          10.9057658,
          63.4747589
        ]
      },
      "properties": {
        "id": 849975884,
        "osm_type": "node",
        "name": "Uno-X Stjørdal",
        "brand": "Uno-X"
      }
    },
    {
      "type": "Feature",
      "geometry": {
        "type": "Point",
        "coordinates": [
          11.225734,
          63.717558
        ]
      },
      "properties": {
        "id": 849975921,
        "osm_type": "node",
        "name": "YX Gråmyra",
        "brand": "YX",
        "opening_hours": "Mo-Fr 06:00-00:00, Sa-Su 08:00-00:00"
      }
    },
    {
      "type": "Feature",
      "geometry": {
        "type": "Point",
        "coordinates": [
          12.315849,
          64.464868
        ]
      },
      "properties": {
        "id": 849975929,
        "osm_type": "node",
        "name": "YX Grong",
        "brand": "YX",
        "opening_hours": "Mo-Fr 07:00-21:00, Sa 08:00-08:00, Su 08:00-09:00"
      }
    },
    {
      "type": "Feature",
      "geometry": {
        "type": "Point",
        "coordinates": [
          10.91306,
          63.44823
        ]
      },
      "properties": {
        "id": 849975933,
        "osm_type": "node",
        "name": "Uno-X Hell",
        "brand": "Uno-X",
        "opening_hours": "24/7"
      }
    },
    {
      "type": "Feature",
      "geometry": {
        "type": "Point",
        "coordinates": [
          10.6280163,
          63.6732266
        ]
      },
      "properties": {
        "id": 849976050,
        "osm_type": "node",
        "name": "Uno-X Leksvik",
        "brand": "Uno-X"
      }
    },
    {
      "type": "Feature",
      "geometry": {
        "type": "Point",
        "coordinates": [
          11.500621,
          64.466027
        ]
      },
      "properties": {
        "id": 849976127,
        "osm_type": "node",
        "name": "Uno-X Namsos",
        "brand": "Uno-X"
      }
    },
    {
      "type": "Feature",
      "geometry": {
        "type": "Point",
        "coordinates": [
          10.190275,
          62.948182
        ]
      },
      "properties": {
        "id": 849976151,
        "osm_type": "node",
        "name": "YX Soknedal (automat)",
        "brand": "YX"
      }
    },
    {
      "type": "Feature",
      "geometry": {
        "type": "Point",
        "coordinates": [
          11.479325,
          63.788594
        ]
      },
      "properties": {
        "id": 849976155,
        "osm_type": "node",
        "name": "YX Verdal",
        "brand": "YX",
        "opening_hours": "Mo-Fr 06:00-00:00, Sa-Su 08:00-00:00"
      }
    },
    {
      "type": "Feature",
      "geometry": {
        "type": "Point",
        "coordinates": [
          11.529965,
          64.456467
        ]
      },
      "properties": {
        "id": 892768800,
        "osm_type": "node",
        "name": "Circle K Namsos",
        "brand": "Circle K",
        "opening_hours": "Mo-Fr 06:00-22:00, Sa 08:00-21:00, Su 09:00-22:00"
      }
    },
    {
      "type": "Feature",
      "geometry": {
        "type": "Point",
        "coordinates": [
          11.232363,
          64.862681
        ]
      },
      "properties": {
        "id": 892796434,
        "osm_type": "node",
        "name": "Circle K Rørvik",
        "brand": "Circle K",
        "opening_hours": "Mo-Fr 07:00-20:00, Sa 10:00-20:00, Su 11:00-21:00"
      }
    },
    {
      "type": "Feature",
      "geometry": {
        "type": "Point",
        "coordinates": [
          12.321179,
          64.463657
        ]
      },
      "properties": {
        "id": 1016667702,
        "osm_type": "node",
        "name": "Esso Express Grong",
        "brand": "Esso"
      }
    },
    {
      "type": "Feature",
      "geometry": {
        "type": "Point",
        "coordinates": [
          11.283318,
          63.732937
        ]
      },
      "properties": {
        "id": 1304765810,
        "osm_type": "node",
        "name": "Circle K Automat Levanger",
        "brand": "Circle K"
      }
    },
    {
      "type": "Feature",
      "geometry": {
        "type": "Point",
        "coordinates": [
          10.355382,
          63.353218
        ]
      },
      "properties": {
        "id": 1353698730,
        "osm_type": "node",
        "name": "Circle K Automat Heimdal",
        "brand": "Circle K"
      }
    },
    {
      "type": "Feature",
      "geometry": {
        "type": "Point",
        "coordinates": [
          12.844217,
          64.741793
        ]
      },
      "properties": {
        "id": 1426556498,
        "osm_type": "node",
        "name": "YX Trones (automat)",
        "brand": "YX",
        "opening_hours": "Mo-Fr 09:00-17:00, Sa 10:00-15:00"
      }
    },
    {
      "type": "Feature",
      "geometry": {
        "type": "Point",
        "coordinates": [
          9.107805,
          63.521337
        ]
      },
      "properties": {
        "id": 1648872349,
        "osm_type": "node",
        "name": "Circle K Automat Hitra",
        "brand": "Circle K"
      }
    },
    {
      "type": "Feature",
      "geometry": {
        "type": "Point",
        "coordinates": [
          9.958184,
          63.584491
        ]
      },
      "properties": {
        "id": 1702768062,
        "osm_type": "node",
        "name": "YX Rissa",
        "brand": "YX",
        "opening_hours": "Mo-Fr 06:00-22:00, Sa 08:00-22:00, Su 09:00-22:00"
      }
    },
    {
      "type": "Feature",
      "geometry": {
        "type": "Point",
        "coordinates": [
          10.35518,
          63.350083
        ]
      },
      "properties": {
        "id": 1834028936,
        "osm_type": "node",
        "name": "Uno-X Heimdal",
        "brand": "Uno-X"
      }
    },
    {
      "type": "Feature",
      "geometry": {
        "type": "Point",
        "coordinates": [
          9.8291914,
          63.5016689
        ]
      },
      "properties": {
        "id": 1885073908,
        "osm_type": "node",
        "name": "YX Lensvik",
        "brand": "YX",
        "opening_hours": "Mo-Fr 08:00-18:00, Sa 09:00-19:00, Su 11:00-19:00"
      }
    },
    {
      "type": "Feature",
      "geometry": {
        "type": "Point",
        "coordinates": [
          9.661948,
          63.694801
        ]
      },
      "properties": {
        "id": 1903815520,
        "osm_type": "node",
        "name": "Circle K Brekstad",
        "brand": "Circle K",
        "opening_hours": "Mo-Fr 06:00-22:00, Sa-Su 09:00-22:00"
      }
    },
    {
      "type": "Feature",
      "geometry": {
        "type": "Point",
        "coordinates": [
          11.400816,
          64.388664
        ]
      },
      "properties": {
        "id": 2278324482,
        "osm_type": "node",
        "name": "YX Bangsund",
        "brand": "YX",
        "opening_hours": "Mo-Fr 08:00-22:00, Sa-Su 10:00-22:00"
      }
    },
    {
      "type": "Feature",
      "geometry": {
        "type": "Point",
        "coordinates": [
          12.48499,
          64.559181
        ]
      },
      "properties": {
        "id": 2398867914,
        "osm_type": "node",
        "name": "Circle K Harran",
        "brand": "Circle K",
        "opening_hours": "Mo-Fr 08:00-20:00, Sa-Su 09:00-20:00"
      }
    },
    {
      "type": "Feature",
      "geometry": {
        "type": "Point",
        "coordinates": [
          11.866302,
          62.646258
        ]
      },
      "properties": {
        "id": 2590696346,
        "osm_type": "node",
        "name": "Circle K Automat Brekken",
        "brand": "Circle K"
      }
    },
    {
      "type": "Feature",
      "geometry": {
        "type": "Point",
        "coordinates": [
          10.893556,
          64.499755
        ]
      },
      "properties": {
        "id": 2775666259,
        "osm_type": "node",
        "name": "Circle K Automat Lauvsnes",
        "brand": "Circle K"
      }
    },
    {
      "type": "Feature",
      "geometry": {
        "type": "Point",
        "coordinates": [
          10.403987,
          63.399223
        ]
      },
      "properties": {
        "id": 2834015036,
        "osm_type": "node",
        "name": "Uno-X Sluppen",
        "brand": "Uno-X"
      }
    },
    {
      "type": "Feature",
      "geometry": {
        "type": "Point",
        "coordinates": [
          11.501846,
          64.4668057
        ]
      },
      "properties": {
        "id": 2952883039,
        "osm_type": "node",
        "name": "St1 Namsos",
        "brand": "St1",
        "opening_hours": "24/7"
      }
    },
    {
      "type": "Feature",
      "geometry": {
        "type": "Point",
        "coordinates": [
          11.4875135,
          64.469307
        ]
      },
      "properties": {
        "id": 2952883040,
        "osm_type": "node",
        "name": "Uno-X Ullvaren",
        "brand": "Uno-X"
      }
    },
    {
      "type": "Feature",
      "geometry": {
        "type": "Point",
        "coordinates": [
          11.2904008,
          64.5165753
        ]
      },
      "properties": {
        "id": 2952966114,
        "osm_type": "node"
      }
    },
    {
      "type": "Feature",
      "geometry": {
        "type": "Point",
        "coordinates": [
          10.403529,
          63.401021
        ]
      },
      "properties": {
        "id": 2958689343,
        "osm_type": "node",
        "name": "Circle K Nidarvoll",
        "brand": "Circle K",
        "opening_hours": "Mo-Fr 06:00-00:00, Sa 08:00-00:00, Su 09:00-00:00"
      }
    },
    {
      "type": "Feature",
      "geometry": {
        "type": "Point",
        "coordinates": [
          11.659583,
          63.0446951
        ]
      },
      "properties": {
        "id": 3033326748,
        "osm_type": "node",
        "name": "Best Tydal",
        "brand": "Best",
        "opening_hours": "Mo-Fr 08:00-20:00, Sa 10:00-18:00, Su 11:00-19:00"
      }
    },
    {
      "type": "Feature",
      "geometry": {
        "type": "Point",
        "coordinates": [
          13.558921,
          64.886396
        ]
      },
      "properties": {
        "id": 3119988985,
        "osm_type": "node",
        "name": "YX Røyrvik",
        "brand": "YX",
        "opening_hours": "Mo-Fr 10:00-17:00, Sa 10:00-16:00, Su 11:00-16:00"
      }
    },
    {
      "type": "Feature",
      "geometry": {
        "type": "Point",
        "coordinates": [
          12.2089618,
          64.4698816
        ]
      },
      "properties": {
        "id": 3484761692,
        "osm_type": "node",
        "name": "Haltbakk Express Grong",
        "brand": "Haltbakk Express"
      }
    },
    {
      "type": "Feature",
      "geometry": {
        "type": "Point",
        "coordinates": [
          11.7414729,
          64.1396767
        ]
      },
      "properties": {
        "id": 4011269378,
        "osm_type": "node"
      }
    },
    {
      "type": "Feature",
      "geometry": {
        "type": "Point",
        "coordinates": [
          11.506633,
          64.06509
        ]
      },
      "properties": {
        "id": 4013220830,
        "osm_type": "node",
        "name": "Esso Asphaugen",
        "brand": "Esso",
        "opening_hours": "24/7"
      }
    },
    {
      "type": "Feature",
      "geometry": {
        "type": "Point",
        "coordinates": [
          11.4982562,
          64.0048034
        ]
      },
      "properties": {
        "id": 4023377699,
        "osm_type": "node",
        "name": "St1 Steinkjer",
        "brand": "St1",
        "opening_hours": "24/7"
      }
    },
    {
      "type": "Feature",
      "geometry": {
        "type": "Point",
        "coordinates": [
          11.433568,
          63.9171014
        ]
      },
      "properties": {
        "id": 4027751355,
        "osm_type": "node",
        "name": "St1 Sparbu",
        "brand": "St1",
        "opening_hours": "Mo-Fr 07:00-21:00, Sa-Su 09:00-21:00"
      }
    },
    {
      "type": "Feature",
      "geometry": {
        "type": "Point",
        "coordinates": [
          13.591882,
          64.463468
        ]
      },
      "properties": {
        "id": 4063122385,
        "osm_type": "node",
        "name": "Circle K Automat Nordli",
        "brand": "Circle K"
      }
    },
    {
      "type": "Feature",
      "geometry": {
        "type": "Point",
        "coordinates": [
          10.7578651,
          64.4610537
        ]
      },
      "properties": {
        "id": 4207236451,
        "osm_type": "node"
      }
    },
    {
      "type": "Feature",
      "geometry": {
        "type": "Point",
        "coordinates": [
          11.2236813,
          64.2226601
        ]
      },
      "properties": {
        "id": 4224852100,
        "osm_type": "node",
        "name": "St1 Namdalseid",
        "brand": "St1"
      }
    },
    {
      "type": "Feature",
      "geometry": {
        "type": "Point",
        "coordinates": [
          11.3817137,
          64.1120276
        ]
      },
      "properties": {
        "id": 4224852101,
        "osm_type": "node",
        "name": "Best Beitstad (automat)",
        "brand": "Best"
      }
    },
    {
      "type": "Feature",
      "geometry": {
        "type": "Point",
        "coordinates": [
          11.758523,
          64.984034
        ]
      },
      "properties": {
        "id": 4230619003,
        "osm_type": "node"
      }
    },
    {
      "type": "Feature",
      "geometry": {
        "type": "Point",
        "coordinates": [
          9.7152676,
          63.615458
        ]
      },
      "properties": {
        "id": 4232583488,
        "osm_type": "node",
        "opening_hours": "24/7"
      }
    },
    {
      "type": "Feature",
      "geometry": {
        "type": "Point",
        "coordinates": [
          10.5795242,
          63.8021359
        ]
      },
      "properties": {
        "id": 4286594418,
        "osm_type": "node"
      }
    },
    {
      "type": "Feature",
      "geometry": {
        "type": "Point",
        "coordinates": [
          10.0646591,
          63.322894
        ]
      },
      "properties": {
        "id": 4313364794,
        "osm_type": "node",
        "name": "Circle K Børsa",
        "brand": "Circle K",
        "opening_hours": "24/7"
      }
    },
    {
      "type": "Feature",
      "geometry": {
        "type": "Point",
        "coordinates": [
          12.310855,
          64.625451
        ]
      },
      "properties": {
        "id": 4345046929,
        "osm_type": "node",
        "name": "Circle K Høylandet",
        "brand": "Circle K",
        "opening_hours": "Mo-Fr 08:00-22:00, Sa-Su 09:00-22:00"
      }
    },
    {
      "type": "Feature",
      "geometry": {
        "type": "Point",
        "coordinates": [
          10.1004261,
          63.1594868
        ]
      },
      "properties": {
        "id": 4637470743,
        "osm_type": "node"
      }
    },
    {
      "type": "Feature",
      "geometry": {
        "type": "Point",
        "coordinates": [
          12.387348,
          64.24654
        ]
      },
      "properties": {
        "id": 4746757084,
        "osm_type": "node",
        "name": "Circle K Automat Snåsa",
        "brand": "Circle K"
      }
    },
    {
      "type": "Feature",
      "geometry": {
        "type": "Point",
        "coordinates": [
          11.7343052,
          63.7758225
        ]
      },
      "properties": {
        "id": 4929453397,
        "osm_type": "node",
        "name": "YX Vuku",
        "brand": "YX",
        "opening_hours": "Mo-Fr 07:30-20:00, Sa 09:00-17:00, Su 10:00-17:00"
      }
    },
    {
      "type": "Feature",
      "geometry": {
        "type": "Point",
        "coordinates": [
          11.0031645,
          63.8159132
        ]
      },
      "properties": {
        "id": 5018868642,
        "osm_type": "node"
      }
    },
    {
      "type": "Feature",
      "geometry": {
        "type": "Point",
        "coordinates": [
          9.702695,
          63.117733
        ]
      },
      "properties": {
        "id": 5538316669,
        "osm_type": "node",
        "name": "Circle K Automat Løkken",
        "brand": "Circle K"
      }
    },
    {
      "type": "Feature",
      "geometry": {
        "type": "Point",
        "coordinates": [
          9.9876278,
          63.113749
        ]
      },
      "properties": {
        "id": 5856650389,
        "osm_type": "node"
      }
    },
    {
      "type": "Feature",
      "geometry": {
        "type": "Point",
        "coordinates": [
          10.6549032,
          62.9422427
        ]
      },
      "properties": {
        "id": 5856794289,
        "osm_type": "node"
      }
    },
    {
      "type": "Feature",
      "geometry": {
        "type": "Point",
        "coordinates": [
          10.216753,
          63.964932
        ]
      },
      "properties": {
        "id": 5873430541,
        "osm_type": "node",
        "name": "YX Åfjord",
        "brand": "YX",
        "opening_hours": "Mo-Fr 07:00-21:00, Sa-Su 09:00-21:00"
      }
    },
    {
      "type": "Feature",
      "geometry": {
        "type": "Point",
        "coordinates": [
          10.346364,
          63.366487
        ]
      },
      "properties": {
        "id": 6028555868,
        "osm_type": "node",
        "name": "Esso Kolstad",
        "brand": "Esso",
        "opening_hours": "24/7"
      }
    },
    {
      "type": "Feature",
      "geometry": {
        "type": "Point",
        "coordinates": [
          10.0182222,
          64.0472502
        ]
      },
      "properties": {
        "id": 6028555888,
        "osm_type": "node",
        "name": "Coop Stokkøy"
      }
    },
    {
      "type": "Feature",
      "geometry": {
        "type": "Point",
        "coordinates": [
          11.47074,
          63.78292
        ]
      },
      "properties": {
        "id": 6061407362,
        "osm_type": "node",
        "name": "Circle K Automat Boby'n",
        "brand": "Circle K"
      }
    },
    {
      "type": "Feature",
      "geometry": {
        "type": "Point",
        "coordinates": [
          11.934645,
          64.493315
        ]
      },
      "properties": {
        "id": 6061407363,
        "osm_type": "node",
        "name": "Circle K Overhalla",
        "brand": "Circle K",
        "opening_hours": "Mo-Fr 06:00-21:00, Sa-Su 09:00-21:00"
      }
    },
    {
      "type": "Feature",
      "geometry": {
        "type": "Point",
        "coordinates": [
          10.331881,
          63.387324
        ]
      },
      "properties": {
        "id": 6061407753,
        "osm_type": "node",
        "name": "Circle K Automat Stavset",
        "brand": "Circle K"
      }
    },
    {
      "type": "Feature",
      "geometry": {
        "type": "Point",
        "coordinates": [
          10.461049,
          63.4208
        ]
      },
      "properties": {
        "id": 6061407755,
        "osm_type": "node",
        "name": "Circle K Tunga",
        "brand": "Circle K",
        "opening_hours": "24/7"
      }
    },
    {
      "type": "Feature",
      "geometry": {
        "type": "Point",
        "coordinates": [
          9.709326,
          63.04679
        ]
      },
      "properties": {
        "id": 6061407756,
        "osm_type": "node",
        "name": "Circle K Automat Meldal",
        "brand": "Circle K"
      }
    },
    {
      "type": "Feature",
      "geometry": {
        "type": "Point",
        "coordinates": [
          10.354653,
          63.417091
        ]
      },
      "properties": {
        "id": 6061407758,
        "osm_type": "node",
        "name": "Circle K Byåsen",
        "brand": "Circle K",
        "opening_hours": "Mo-Fr 06:00-23:00, Sa 08:00-23:00, Su 09:00-23:00"
      }
    },
    {
      "type": "Feature",
      "geometry": {
        "type": "Point",
        "coordinates": [
          10.367698,
          63.336936
        ]
      },
      "properties": {
        "id": 6061407759,
        "osm_type": "node",
        "name": "Circle K Truck Trondheim",
        "brand": "Circle K"
      }
    },
    {
      "type": "Feature",
      "geometry": {
        "type": "Point",
        "coordinates": [
          11.480146,
          64.0160562
        ]
      },
      "properties": {
        "id": 6061407760,
        "osm_type": "node",
        "name": "Circle K Truck Nordsileiret",
        "brand": "Circle K"
      }
    },
    {
      "type": "Feature",
      "geometry": {
        "type": "Point",
        "coordinates": [
          10.05617,
          63.26844
        ]
      },
      "properties": {
        "id": 6061407763,
        "osm_type": "node",
        "name": "Circle K Automat Skaun",
        "brand": "Circle K"
      }
    },
    {
      "type": "Feature",
      "geometry": {
        "type": "Point",
        "coordinates": [
          12.178387,
          64.962299
        ]
      },
      "properties": {
        "id": 6066895900,
        "osm_type": "node",
        "name": "Best Foldereid (automat)",
        "brand": "Best",
        "opening_hours": "Mo-Fr 09:00-20:00, Sa 09:00-18:00"
      }
    },
    {
      "type": "Feature",
      "geometry": {
        "type": "Point",
        "coordinates": [
          13.0149582,
          64.8476766
        ]
      },
      "properties": {
        "id": 6066895901,
        "osm_type": "node",
        "name": "Best Brekkvasselv (automat)",
        "brand": "Best",
        "opening_hours": "Mo-Fr 08:30-20:00, Sa 10:00-18:00, Su 11:00-20:00"
      }
    },
    {
      "type": "Feature",
      "geometry": {
        "type": "Point",
        "coordinates": [
          11.2418561,
          64.8618722
        ]
      },
      "properties": {
        "id": 6066895902,
        "osm_type": "node",
        "name": "Best Rørvik (automat)",
        "brand": "Best"
      }
    },
    {
      "type": "Feature",
      "geometry": {
        "type": "Point",
        "coordinates": [
          8.8329177,
          63.7355128
        ]
      },
      "properties": {
        "id": 6066895905,
        "osm_type": "node",
        "name": "Best Sistranda",
        "brand": "Best"
      }
    },
    {
      "type": "Feature",
      "geometry": {
        "type": "Point",
        "coordinates": [
          8.7839656,
          63.6959032
        ]
      },
      "properties": {
        "id": 6066895906,
        "osm_type": "node",
        "name": "YX Nabeita",
        "brand": "YX",
        "opening_hours": "Mo-Fr 07:30-17:00"
      }
    },
    {
      "type": "Feature",
      "geometry": {
        "type": "Point",
        "coordinates": [
          10.496858,
          63.42834
        ]
      },
      "properties": {
        "id": 6066895907,
        "osm_type": "node",
        "name": "YX Skovgård",
        "brand": "YX",
        "opening_hours": "Mo-Fr 06:00-00:00, Sa 08:00-00:00, Su 09:00-00:00"
      }
    },
    {
      "type": "Feature",
      "geometry": {
        "type": "Point",
        "coordinates": [
          9.852102,
          63.296047
        ]
      },
      "properties": {
        "id": 6082845019,
        "osm_type": "node",
        "name": "St1 Bårdshaug",
        "brand": "St1",
        "opening_hours": "24/7"
      }
    },
    {
      "type": "Feature",
      "geometry": {
        "type": "Point",
        "coordinates": [
          11.2885836,
          63.8738974
        ]
      },
      "properties": {
        "id": 6082847149,
        "osm_type": "node",
        "name": "St1 Inderøy",
        "brand": "St1",
        "opening_hours": "24/7"
      }
    },
    {
      "type": "Feature",
      "geometry": {
        "type": "Point",
        "coordinates": [
          10.915714,
          63.452055
        ]
      },
      "properties": {
        "id": 6082847151,
        "osm_type": "node",
        "name": "St1 Værnes",
        "brand": "St1",
        "opening_hours": "24/7"
      }
    },
    {
      "type": "Feature",
      "geometry": {
        "type": "Point",
        "coordinates": [
          9.6889823,
          62.5920248
        ]
      },
      "properties": {
        "id": 6082847153,
        "osm_type": "node",
        "name": "St1 Oppdal",
        "brand": "St1"
      }
    },
    {
      "type": "Feature",
      "geometry": {
        "type": "Point",
        "coordinates": [
          10.7287,
          63.423194
        ]
      },
      "properties": {
        "id": 6082847156,
        "osm_type": "node",
        "name": "St1 Stav nord",
        "brand": "St1",
        "opening_hours": "24/7"
      }
    },
    {
      "type": "Feature",
      "geometry": {
        "type": "Point",
        "coordinates": [
          10.761432,
          63.583977
        ]
      },
      "properties": {
        "id": 6093787869,
        "osm_type": "node",
        "name": "Esso Frosta",
        "brand": "Esso",
        "opening_hours": "Mo-Sa 09:00-21:00, Su 10:00-21:00"
      }
    },
    {
      "type": "Feature",
      "geometry": {
        "type": "Point",
        "coordinates": [
          11.604882,
          64.867503
        ]
      },
      "properties": {
        "id": 6093787870,
        "osm_type": "node",
        "name": "Esso Kolvereid",
        "brand": "Esso",
        "opening_hours": "Mo-Fr 06:00-24:00, Sa-Su 08:30-24:00"
      }
    },
    {
      "type": "Feature",
      "geometry": {
        "type": "Point",
        "coordinates": [
          10.008457,
          62.827731
        ]
      },
      "properties": {
        "id": 6093787871,
        "osm_type": "node",
        "name": "Esso Berkåk",
        "brand": "Esso",
        "opening_hours": "Mo-Fr 07:30-22:00, Sa 08:00-22:00, Su 09:00-22:00"
      }
    },
    {
      "type": "Feature",
      "geometry": {
        "type": "Point",
        "coordinates": [
          10.440871,
          63.409708
        ]
      },
      "properties": {
        "id": 6093787872,
        "osm_type": "node",
        "name": "Esso Express Moholt",
        "brand": "Esso"
      }
    },
    {
      "type": "Feature",
      "geometry": {
        "type": "Point",
        "coordinates": [
          11.042216,
          63.607657
        ]
      },
      "properties": {
        "id": 6093788399,
        "osm_type": "node",
        "name": "Esso Åsen",
        "brand": "Esso",
        "opening_hours": "Mo-Su 00:00-24:00"
      }
    },
    {
      "type": "Feature",
      "geometry": {
        "type": "Point",
        "coordinates": [
          9.0786,
          63.292275
        ]
      },
      "properties": {
        "id": 6093788689,
        "osm_type": "node",
        "name": "Esso Express Hemne",
        "brand": "Esso"
      }
    },
    {
      "type": "Feature",
      "geometry": {
        "type": "Point",
        "coordinates": [
          10.356476,
          63.332487
        ]
      },
      "properties": {
        "id": 6093788690,
        "osm_type": "node",
        "name": "Esso Sandmoen",
        "brand": "Esso",
        "opening_hours": "24/7"
      }
    },
    {
      "type": "Feature",
      "geometry": {
        "type": "Point",
        "coordinates": [
          11.484827,
          63.794181
        ]
      },
      "properties": {
        "id": 6093788691,
        "osm_type": "node",
        "name": "Esso Verdal",
        "brand": "Esso",
        "opening_hours": "Mo-Fr 06:00-24:00, Sa-Su 08:00-24:00"
      }
    },
    {
      "type": "Feature",
      "geometry": {
        "type": "Point",
        "coordinates": [
          10.452775,
          63.429964
        ]
      },
      "properties": {
        "id": 6093788692,
        "osm_type": "node",
        "name": "Esso Strindheim",
        "brand": "Esso",
        "opening_hours": "Mo-Fr 06:30-23:00, Sa-Su 09:00-23:00"
      }
    },
    {
      "type": "Feature",
      "geometry": {
        "type": "Point",
        "coordinates": [
          10.27928,
          63.28434
        ]
      },
      "properties": {
        "id": 6093788693,
        "osm_type": "node",
        "name": "Esso Melhus",
        "brand": "Esso",
        "opening_hours": "Mo-Fr 06:00-22:00, Sa-Su 09:00-22:00"
      }
    },
    {
      "type": "Feature",
      "geometry": {
        "type": "Point",
        "coordinates": [
          10.403515,
          63.43172
        ]
      },
      "properties": {
        "id": 6117259980,
        "osm_type": "node",
        "name": "YX Kjøpmannsgaten",
        "brand": "YX",
        "opening_hours": "Mo-Fr 06:00-00:00, Sa-Su 08:00-00:00"
      }
    },
    {
      "type": "Feature",
      "geometry": {
        "type": "Point",
        "coordinates": [
          11.493108,
          64.00963
        ]
      },
      "properties": {
        "id": 6117259981,
        "osm_type": "node",
        "name": "Uno-X Sørsia Steinkjer",
        "brand": "Uno-X"
      }
    },
    {
      "type": "Feature",
      "geometry": {
        "type": "Point",
        "coordinates": [
          10.359292,
          63.331483
        ]
      },
      "properties": {
        "id": 6117259983,
        "osm_type": "node",
        "name": "YX Truck Sandmoen",
        "brand": "YX Truck"
      }
    },
    {
      "type": "Feature",
      "geometry": {
        "type": "Point",
        "coordinates": [
          11.432394,
          63.919305
        ]
      },
      "properties": {
        "id": 6117260859,
        "osm_type": "node",
        "name": "YX Sparbu",
        "brand": "YX",
        "opening_hours": "Mo-Fr 07:30-16:00"
      }
    },
    {
      "type": "Feature",
      "geometry": {
        "type": "Point",
        "coordinates": [
          11.1361768,
          64.4941164
        ]
      },
      "properties": {
        "id": 6117260860,
        "osm_type": "node",
        "name": "YX Statland (automat)",
        "brand": "YX"
      }
    },
    {
      "type": "Feature",
      "geometry": {
        "type": "Point",
        "coordinates": [
          10.638624,
          63.440291
        ]
      },
      "properties": {
        "id": 6117260861,
        "osm_type": "node",
        "name": "Uno-X Vikhammer",
        "brand": "Uno-X"
      }
    },
    {
      "type": "Feature",
      "geometry": {
        "type": "Point",
        "coordinates": [
          10.3815968,
          63.3671519
        ]
      },
      "properties": {
        "id": 6117260864,
        "osm_type": "node",
        "name": "Uno-X Østre Rosten",
        "brand": "Uno-X"
      }
    },
    {
      "type": "Feature",
      "geometry": {
        "type": "Point",
        "coordinates": [
          13.8552271,
          64.1679269
        ]
      },
      "properties": {
        "id": 6117260866,
        "osm_type": "node"
      }
    },
    {
      "type": "Feature",
      "geometry": {
        "type": "Point",
        "coordinates": [
          8.8112533,
          63.6961689
        ]
      },
      "properties": {
        "id": 6117261200,
        "osm_type": "node",
        "name": "Frøya Transportsenter"
      }
    },
    {
      "type": "Feature",
      "geometry": {
        "type": "Point",
        "coordinates": [
          9.831391,
          63.30838
        ]
      },
      "properties": {
        "id": 6117261202,
        "osm_type": "node",
        "name": "YX Truck Orkanger",
        "brand": "YX Truck"
      }
    },
    {
      "type": "Feature",
      "geometry": {
        "type": "Point",
        "coordinates": [
          10.221888,
          63.554309
        ]
      },
      "properties": {
        "id": 6117261203,
        "osm_type": "node",
        "name": "YX Vanvikan",
        "brand": "YX",
        "opening_hours": "Mo-Fr 06:30-21:00, Sa 08:00-21:00, Su 09:30-21:00"
      }
    },
    {
      "type": "Feature",
      "geometry": {
        "type": "Point",
        "coordinates": [
          10.357302,
          63.402082
        ]
      },
      "properties": {
        "id": 6117261204,
        "osm_type": "node",
        "name": "Uno-X Munkvoll",
        "brand": "Uno-X"
      }
    },
    {
      "type": "Feature",
      "geometry": {
        "type": "Point",
        "coordinates": [
          10.265581,
          63.029273
        ]
      },
      "properties": {
        "id": 6117261205,
        "osm_type": "node",
        "name": "YX Truck Støren",
        "brand": "YX Truck"
      }
    },
    {
      "type": "Feature",
      "geometry": {
        "type": "Point",
        "coordinates": [
          12.298041,
          64.625978
        ]
      },
      "properties": {
        "id": 6117261385,
        "osm_type": "node",
        "name": "YX Høylandet",
        "brand": "YX",
        "opening_hours": "Mo-Fr 07:30-21:00, Sa 09:00-21:00, Su 10:00-21:00"
      }
    },
    {
      "type": "Feature",
      "geometry": {
        "type": "Point",
        "coordinates": [
          9.836206,
          63.29693
        ]
      },
      "properties": {
        "id": 6117261387,
        "osm_type": "node",
        "name": "YX Orkanger",
        "brand": "YX",
        "opening_hours": "Mo-Fr 06:30-21:00, Sa 08:00-21:00, Su 09:00-21:00"
      }
    },
    {
      "type": "Feature",
      "geometry": {
        "type": "Point",
        "coordinates": [
          10.940033,
          64.916768
        ]
      },
      "properties": {
        "id": 6117261389,
        "osm_type": "node",
        "name": "YX Austafjord (automat)",
        "brand": "YX"
      }
    },
    {
      "type": "Feature",
      "geometry": {
        "type": "Point",
        "coordinates": [
          9.21661,
          63.055528
        ]
      },
      "properties": {
        "id": 6119347981,
        "osm_type": "node",
        "name": "YX Rindal",
        "brand": "YX",
        "opening_hours": "Mo-Fr 08:00-21:00, Sa-Su 09:00-21:00"
      }
    },
    {
      "type": "Feature",
      "geometry": {
        "type": "Point",
        "coordinates": [
          10.3977584,
          63.4082365
        ]
      },
      "properties": {
        "id": 6120222062,
        "osm_type": "node",
        "name": "Uno-X 7-Eleven Tempe",
        "brand": "Uno-X"
      }
    },
    {
      "type": "Feature",
      "geometry": {
        "type": "Point",
        "coordinates": [
          10.92083,
          63.467419
        ]
      },
      "properties": {
        "id": 6221513870,
        "osm_type": "node",
        "name": "St1 Stjørdal",
        "brand": "St1",
        "opening_hours": "24/7"
      }
    },
    {
      "type": "Feature",
      "geometry": {
        "type": "Point",
        "coordinates": [
          10.3601352,
          63.3337396
        ]
      },
      "properties": {
        "id": 6564522057,
        "osm_type": "node",
        "name": "Uno-X Sandmoen",
        "brand": "Uno-X"
      }
    },
    {
      "type": "Feature",
      "geometry": {
        "type": "Point",
        "coordinates": [
          10.9372437,
          63.4549481
        ]
      },
      "properties": {
        "id": 7095594531,
        "osm_type": "node",
        "name": "GA fuel"
      }
    },
    {
      "type": "Feature",
      "geometry": {
        "type": "Point",
        "coordinates": [
          10.755921,
          63.420241
        ]
      },
      "properties": {
        "id": 7139801152,
        "osm_type": "node",
        "name": "Esso Express Malvik",
        "brand": "Esso"
      }
    },
    {
      "type": "Feature",
      "geometry": {
        "type": "Point",
        "coordinates": [
          9.6896088,
          63.7285978
        ]
      },
      "properties": {
        "id": 7434399709,
        "osm_type": "node",
        "name": "Driv Opphaug",
        "brand": "Driv"
      }
    },
    {
      "type": "Feature",
      "geometry": {
        "type": "Point",
        "coordinates": [
          9.6690365,
          63.6977625
        ]
      },
      "properties": {
        "id": 7632972027,
        "osm_type": "node",
        "name": "Driv Brekstad",
        "brand": "Driv"
      }
    },
    {
      "type": "Feature",
      "geometry": {
        "type": "Point",
        "coordinates": [
          11.1542588,
          62.9248436
        ]
      },
      "properties": {
        "id": 7632972029,
        "osm_type": "node",
        "name": "Driv Haltdalen",
        "brand": "Driv"
      }
    },
    {
      "type": "Feature",
      "geometry": {
        "type": "Point",
        "coordinates": [
          9.6943717,
          62.5889146
        ]
      },
      "properties": {
        "id": 7632972030,
        "osm_type": "node",
        "name": "Driv Oppdal",
        "brand": "Driv"
      }
    },
    {
      "type": "Feature",
      "geometry": {
        "type": "Point",
        "coordinates": [
          9.8732736,
          63.8846524
        ]
      },
      "properties": {
        "id": 7632972031,
        "osm_type": "node",
        "name": "Driv Lysøysund",
        "brand": "Driv"
      }
    },
    {
      "type": "Feature",
      "geometry": {
        "type": "Point",
        "coordinates": [
          11.0456309,
          63.694807
        ]
      },
      "properties": {
        "id": 7632972040,
        "osm_type": "node",
        "name": "Driv Ekne",
        "brand": "Driv"
      }
    },
    {
      "type": "Feature",
      "geometry": {
        "type": "Point",
        "coordinates": [
          12.2586507,
          64.2026191
        ]
      },
      "properties": {
        "id": 7758347059,
        "osm_type": "node"
      }
    },
    {
      "type": "Feature",
      "geometry": {
        "type": "Point",
        "coordinates": [
          9.8279968,
          63.632413
        ]
      },
      "properties": {
        "id": 7867727500,
        "osm_type": "node",
        "name": "Joker Hasselvika"
      }
    },
    {
      "type": "Feature",
      "geometry": {
        "type": "Point",
        "coordinates": [
          10.5621146,
          62.973001
        ]
      },
      "properties": {
        "id": 7962361242,
        "osm_type": "node",
        "name": "Kotsøy Næringsbygg"
      }
    },
    {
      "type": "Feature",
      "geometry": {
        "type": "Point",
        "coordinates": [
          10.303269,
          63.321032
        ]
      },
      "properties": {
        "id": 8364981159,
        "osm_type": "node",
        "name": "St1 Klett",
        "brand": "St1",
        "opening_hours": "24/7"
      }
    },
    {
      "type": "Feature",
      "geometry": {
        "type": "Point",
        "coordinates": [
          10.4427235,
          63.4471622
        ]
      },
      "properties": {
        "id": 8791397001,
        "osm_type": "node",
        "name": "Uno-X Ladetorget",
        "brand": "Uno-X"
      }
    },
    {
      "type": "Feature",
      "geometry": {
        "type": "Point",
        "coordinates": [
          10.4430271,
          63.4469642
        ]
      },
      "properties": {
        "id": 8878199110,
        "osm_type": "node",
        "name": "Uno-X Ladetorget",
        "brand": "Uno-X"
      }
    },
    {
      "type": "Feature",
      "geometry": {
        "type": "Point",
        "coordinates": [
          10.402922,
          63.399625
        ]
      },
      "properties": {
        "id": 8912386466,
        "osm_type": "node",
        "name": "St1 Bilbyn",
        "brand": "St1",
        "opening_hours": "24/7"
      }
    },
    {
      "type": "Feature",
      "geometry": {
        "type": "Point",
        "coordinates": [
          10.2238039,
          63.7770886
        ]
      },
      "properties": {
        "id": 8971741618,
        "osm_type": "node",
        "name": "Tankautomat Diesel & E95"
      }
    },
    {
      "type": "Feature",
      "geometry": {
        "type": "Point",
        "coordinates": [
          11.2412216,
          64.84819
        ]
      },
      "properties": {
        "id": 9166471204,
        "osm_type": "node",
        "name": "Uno-X Rørvik",
        "brand": "Uno-X"
      }
    },
    {
      "type": "Feature",
      "geometry": {
        "type": "Point",
        "coordinates": [
          11.8456797,
          64.7990551
        ]
      },
      "properties": {
        "id": 9812314799,
        "osm_type": "node",
        "name": "Coop Marked Opløfjorden",
        "brand": "Hydro"
      }
    },
    {
      "type": "Feature",
      "geometry": {
        "type": "Point",
        "coordinates": [
          9.87933,
          62.65591
        ]
      },
      "properties": {
        "id": 9835262359,
        "osm_type": "node",
        "name": "Circle K Automat Oppdalsporten",
        "brand": "Circle K"
      }
    },
    {
      "type": "Feature",
      "geometry": {
        "type": "Point",
        "coordinates": [
          10.3722206,
          63.3418141
        ]
      },
      "properties": {
        "id": 9881924921,
        "osm_type": "node",
        "name": "Gasum Trondheim",
        "brand": "Gasum",
        "opening_hours": "24/7"
      }
    },
    {
      "type": "Feature",
      "geometry": {
        "type": "Point",
        "coordinates": [
          11.7021668,
          65.094074
        ]
      },
      "properties": {
        "id": 9921456589,
        "osm_type": "node"
      }
    },
    {
      "type": "Feature",
      "geometry": {
        "type": "Point",
        "coordinates": [
          9.088279,
          63.9781544
        ]
      },
      "properties": {
        "id": 11048045160,
        "osm_type": "node",
        "brand": "Haltbakk bunkers"
      }
    },
    {
      "type": "Feature",
      "geometry": {
        "type": "Point",
        "coordinates": [
          8.390195,
          63.532929
        ]
      },
      "properties": {
        "id": 11053971036,
        "osm_type": "node"
      }
    },
    {
      "type": "Feature",
      "geometry": {
        "type": "Point",
        "coordinates": [
          11.1942503,
          63.7034498
        ]
      },
      "properties": {
        "id": 11237185030,
        "osm_type": "node",
        "brand": "Driv"
      }
    },
    {
      "type": "Feature",
      "geometry": {
        "type": "Point",
        "coordinates": [
          12.214685,
          64.2534352
        ]
      },
      "properties": {
        "id": 11935020442,
        "osm_type": "node",
        "name": "Tanken"
      }
    },
    {
      "type": "Feature",
      "geometry": {
        "type": "Point",
        "coordinates": [
          9.5338291,
          63.4052671
        ]
      },
      "properties": {
        "id": 11981294972,
        "osm_type": "node"
      }
    },
    {
      "type": "Feature",
      "geometry": {
        "type": "Point",
        "coordinates": [
          11.4646122,
          63.7691799
        ]
      },
      "properties": {
        "id": 12056725203,
        "osm_type": "node",
        "name": "St1 Verdal",
        "brand": "St1",
        "opening_hours": "Mo-Fr 07:00-21:00, Sa-Su 09:00-21:00"
      }
    },
    {
      "type": "Feature",
      "geometry": {
        "type": "Point",
        "coordinates": [
          11.2430987,
          64.8623204
        ]
      },
      "properties": {
        "id": 12069345030,
        "osm_type": "node",
        "name": "Minol Rørvik"
      }
    },
    {
      "type": "Feature",
      "geometry": {
        "type": "Point",
        "coordinates": [
          11.5401362,
          64.458305
        ]
      },
      "properties": {
        "id": 12075069655,
        "osm_type": "node",
        "brand": "mobile"
      }
    },
    {
      "type": "Feature",
      "geometry": {
        "type": "Point",
        "coordinates": [
          11.461721,
          63.7847418
        ]
      },
      "properties": {
        "id": 12880385322,
        "osm_type": "node",
        "name": "DRIV Verdal"
      }
    },
    {
      "type": "Feature",
      "geometry": {
        "type": "Point",
        "coordinates": [
          10.9119056,
          63.4450072
        ]
      },
      "properties": {
        "id": 12992448754,
        "osm_type": "node",
        "brand": "DRIV"
      }
    },
    {
      "type": "Feature",
      "geometry": {
        "type": "Point",
        "coordinates": [
          11.7100699,
          64.0857739
        ]
      },
      "properties": {
        "id": 13048307535,
        "osm_type": "node",
        "opening_hours": "24/7"
      }
    },
    {
      "type": "Feature",
      "geometry": {
        "type": "Point",
        "coordinates": [
          9.0905043,
          63.2893766
        ]
      },
      "properties": {
        "id": 13076583202,
        "osm_type": "node",
        "name": "Bunker Oil"
      }
    },
    {
      "type": "Feature",
      "geometry": {
        "type": "Point",
        "coordinates": [
          11.7136244,
          63.7510305
        ]
      },
      "properties": {
        "id": 13238600309,
        "osm_type": "node",
        "name": "DRIV Gropa",
        "opening_hours": "24/7"
      }
    },
    {
      "type": "Feature",
      "geometry": {
        "type": "Point",
        "coordinates": [
          10.3200967,
          64.2473922
        ]
      },
      "properties": {
        "id": 13249825601,
        "osm_type": "node"
      }
    },
    {
      "type": "Feature",
      "geometry": {
        "type": "Point",
        "coordinates": [
          10.3037246,
          63.3210553
        ]
      },
      "properties": {
        "id": 13440676464,
        "osm_type": "node",
        "brand": "St1",
        "opening_hours": "Mo-Su 00:00-24:00"
      }
    },
    {
      "type": "Feature",
      "geometry": {
        "type": "Point",
        "coordinates": [
          10.40353,
          63.4010379
        ]
      },
      "properties": {
        "id": 88128749,
        "osm_type": "way",
        "name": "Circle K Nidarvoll",
        "brand": "Circle K",
        "opening_hours": "Mo-Fr 06:00-23:00, Sa 08:00-23:00, Su 09:00-23:00"
      }
    },
    {
      "type": "Feature",
      "geometry": {
        "type": "Point",
        "coordinates": [
          10.417847,
          63.4105965
        ]
      },
      "properties": {
        "id": 93264162,
        "osm_type": "way",
        "name": "Circle K Nardo",
        "brand": "Circle K",
        "opening_hours": "24/7"
      }
    },
    {
      "type": "Feature",
      "geometry": {
        "type": "Point",
        "coordinates": [
          10.0110712,
          62.8295658
        ]
      },
      "properties": {
        "id": 434345837,
        "osm_type": "way",
        "name": "Circle K E6 Berkåk",
        "brand": "Circle K",
        "opening_hours": "Mo-Fr 06:00-24:00, Sa 07:00-22:00, Su 07:00-24:00"
      }
    },
    {
      "type": "Feature",
      "geometry": {
        "type": "Point",
        "coordinates": [
          12.25851,
          64.20261
        ]
      },
      "properties": {
        "id": 831106365,
        "osm_type": "way",
        "name": "Brede Servicestasjon"
      }
    },
    {
      "type": "Feature",
      "geometry": {
        "type": "Point",
        "coordinates": [
          9.8735171,
          63.8848184
        ]
      },
      "properties": {
        "id": 958925550,
        "osm_type": "way"
      }
    },
    {
      "type": "Feature",
      "geometry": {
        "type": "Point",
        "coordinates": [
          10.5625289,
          62.9727976
        ]
      },
      "properties": {
        "id": 994965549,
        "osm_type": "way"
      }
    },
    {
      "type": "Feature",
      "geometry": {
        "type": "Point",
        "coordinates": [
          10.4462156,
          63.408854
        ]
      },
      "properties": {
        "id": 1223800220,
        "osm_type": "way",
        "name": "St1 Moholt",
        "opening_hours": "Mo-Su 06:00-24:00"
      }
    },
    {
      "type": "Feature",
      "geometry": {
        "type": "Point",
        "coordinates": [
          10.379893,
          63.3650605
        ]
      },
      "properties": {
        "id": 1227035924,
        "osm_type": "way"
      }
    },
    {
      "type": "Feature",
      "geometry": {
        "type": "Point",
        "coordinates": [
          8.8223129,
          63.6505003
        ]
      },
      "properties": {
        "id": 1287241744,
        "osm_type": "way",
        "name": "Trønder oil"
      }
    },
    {
      "type": "Feature",
      "geometry": {
        "type": "Point",
        "coordinates": [
          11.3817279,
          64.1120265
        ]
      },
      "properties": {
        "id": 1312299863,
        "osm_type": "way"
      }
    },
    {
      "type": "Feature",
      "geometry": {
        "type": "Point",
        "coordinates": [
          11.312798,
          63.7508858
        ]
      },
      "properties": {
        "id": 1462467568,
        "osm_type": "way",
        "name": "Uno-X Levanger",
        "brand": "Uno-X"
      }
    }
  ]
}