{
  "type": "FeatureCollection",
  "features": [
    {
      "type": "Feature",
      "geometry": {
        "type": "Point",
        "coordinates": [
          15.6078574,
          50.7262675
        ]
      },
      "properties": {
        "id": 458807728,
        "osm_type": "node",
        "name": "Enapo",
        "opening_hours": "PH,Mo-Su 07:00-19:00"
      }
    },
    {
      "type": "Feature",
      "geometry": {
        "type": "Point",
        "coordinates": [
          15.6818281,
          50.4045847
        ]
      },
      "properties": {
        "id": 459184339,
        "osm_type": "node",
        "name": "Coop Tuty",
        "brand": "Coop Tuty",
        "opening_hours": "Mo-Fr 06:30-17:00; Sa 06:30-11:00; PH off"
      }
    },
    {
      "type": "Feature",
      "geometry": {
        "type": "Point",
        "coordinates": [
          15.2570277,
          50.4940481
        ]
      },
      "properties": {
        "id": 611671630,
        "osm_type": "node",
        "name": "Samoobsluha",
        "opening_hours": "Tu-Su 08:00-15:00; Sa 08:00-12:00"
      }
    },
    {
      "type": "Feature",
      "geometry": {
        "type": "Point",
        "coordinates": [
          15.9278964,
          50.3384122
        ]
      },
      "properties": {
        "id": 656214902,
        "osm_type": "node",
        "name": "Kinar, s.r.o."
      }
    },
    {
      "type": "Feature",
      "geometry": {
        "type": "Point",
        "coordinates": [
          16.14725,
          50.3566575
        ]
      },
      "properties": {
        "id": 656264839,
        "osm_type": "node",
        "name": "Verner Potraviny"
      }
    },
    {
      "type": "Feature",
      "geometry": {
        "type": "Point",
        "coordinates": [
          16.1542688,
          50.3539013
        ]
      },
      "properties": {
        "id": 656265780,
        "osm_type": "node"
      }
    },
    {
      "type": "Feature",
      "geometry": {
        "type": "Point",
        "coordinates": [
          16.1891838,
          50.4619726
        ]
      },
      "properties": {
        "id": 656315559,
        "osm_type": "node",
        "name": "Smíšené zboží Včelka"
      }
    },
    {
      "type": "Feature",
      "geometry": {
        "type": "Point",
        "coordinates": [
          16.1818188,
          50.4784425
        ]
      },
      "properties": {
        "id": 656345793,
        "osm_type": "node",
        "name": "Papírnictví Šefelín"
      }
    },
    {
      "type": "Feature",
      "geometry": {
        "type": "Point",
        "coordinates": [
          16.0887404,
          50.4760802
        ]
      },
      "properties": {
        "id": 656360122,
        "osm_type": "node",
        "name": "Coop Konzum",
        "brand": "Coop Konzum",
        "opening_hours": "Mo-Fr 07:00-22:00; Sa 07:00-20:00; Su 08:00-20:00"
      }
    },
    {
      "type": "Feature",
      "geometry": {
        "type": "Point",
        "coordinates": [
          16.0966325,
          50.4733951
        ]
      },
      "properties": {
        "id": 656361685,
        "osm_type": "node",
        "name": "Obchod s potravinami"
      }
    },
    {
      "type": "Feature",
      "geometry": {
        "type": "Point",
        "coordinates": [
          16.0971038,
          50.4794525
        ]
      },
      "properties": {
        "id": 656362252,
        "osm_type": "node",
        "name": "Smišený Obchod"
      }
    },
    {
      "type": "Feature",
      "geometry": {
        "type": "Point",
        "coordinates": [
          16.15784,
          50.534
        ]
      },
      "properties": {
        "id": 656369460,
        "osm_type": "node"
      }
    },
    {
      "type": "Feature",
      "geometry": {
        "type": "Point",
        "coordinates": [
          15.8160263,
          50.4308163
        ]
      },
      "properties": {
        "id": 656391291,
        "osm_type": "node",
        "name": "MIC Dvůr Králové nad Labem"
      }
    },
    {
      "type": "Feature",
      "geometry": {
        "type": "Point",
        "coordinates": [
          15.8153825,
          50.432325
        ]
      },
      "properties": {
        "id": 656391313,
        "osm_type": "node"
      }
    },
    {
      "type": "Feature",
      "geometry": {
        "type": "Point",
        "coordinates": [
          15.8154138,
          50.4329563
        ]
      },
      "properties": {
        "id": 656391550,
        "osm_type": "node"
      }
    },
    {
      "type": "Feature",
      "geometry": {
        "type": "Point",
        "coordinates": [
          15.8195996,
          50.6610361
        ]
      },
      "properties": {
        "id": 656461848,
        "osm_type": "node",
        "name": "Potraviny Enapo",
        "opening_hours": "Mo-Fr 06:30-18:00; Sa 07:00-12:00; Su 08:00-11:00"
      }
    },
    {
      "type": "Feature",
      "geometry": {
        "type": "Point",
        "coordinates": [
          15.8208002,
          50.656689
        ]
      },
      "properties": {
        "id": 656463429,
        "osm_type": "node",
        "name": "Potraviny - \"Hruška\"",
        "opening_hours": "Mo-Fr 06:30-17:30; Sa 07:00-11:00; Su 08:00-10:00"
      }
    },
    {
      "type": "Feature",
      "geometry": {
        "type": "Point",
        "coordinates": [
          15.6123973,
          50.623426
        ]
      },
      "properties": {
        "id": 656496586,
        "osm_type": "node",
        "name": "Natural"
      }
    },
    {
      "type": "Feature",
      "geometry": {
        "type": "Point",
        "coordinates": [
          15.6124825,
          50.6245276
        ]
      },
      "properties": {
        "id": 656496622,
        "osm_type": "node",
        "name": "Potraviany Tobolka"
      }
    },
    {
      "type": "Feature",
      "geometry": {
        "type": "Point",
        "coordinates": [
          15.6111125,
          50.6266563
        ]
      },
      "properties": {
        "id": 656501464,
        "osm_type": "node",
        "name": "Obchodní dům Alfa"
      }
    },
    {
      "type": "Feature",
      "geometry": {
        "type": "Point",
        "coordinates": [
          15.750745,
          50.2147663
        ]
      },
      "properties": {
        "id": 658511027,
        "osm_type": "node",
        "opening_hours": "Mo-Fr 07:00-18:00"
      }
    },
    {
      "type": "Feature",
      "geometry": {
        "type": "Point",
        "coordinates": [
          15.7598513,
          50.25575
        ]
      },
      "properties": {
        "id": 658512396,
        "osm_type": "node",
        "name": "Hruška",
        "brand": "Hruška",
        "opening_hours": "Mo-Fr 07:00-17:00; Sa 07:00-11:00; PH closed"
      }
    },
    {
      "type": "Feature",
      "geometry": {
        "type": "Point",
        "coordinates": [
          16.1465671,
          50.1286403
        ]
      },
      "properties": {
        "id": 673527453,
        "osm_type": "node",
        "name": "Nguyen Thi Huong",
        "opening_hours": "Mo-Sa 07:00-19:00; Su 08:00-18:00"
      }
    },
    {
      "type": "Feature",
      "geometry": {
        "type": "Point",
        "coordinates": [
          16.0447358,
          50.394859
        ]
      },
      "properties": {
        "id": 703741821,
        "osm_type": "node",
        "name": "Verner potraviny s.r.o",
        "opening_hours": "Mo-Fr 07:00-18:00; Sa 07:00-11:30; Su 07:30-11:00"
      }
    },
    {
      "type": "Feature",
      "geometry": {
        "type": "Point",
        "coordinates": [
          16.0354586,
          50.3964715
        ]
      },
      "properties": {
        "id": 704323478,
        "osm_type": "node",
        "name": "Verner potraviny s.r.o",
        "opening_hours": "Mo-Fr 07:00-18:00; Sa 07:00-11:00"
      }
    },
    {
      "type": "Feature",
      "geometry": {
        "type": "Point",
        "coordinates": [
          15.9938454,
          50.4429097
        ]
      },
      "properties": {
        "id": 768699920,
        "osm_type": "node"
      }
    },
    {
      "type": "Feature",
      "geometry": {
        "type": "Point",
        "coordinates": [
          15.9129124,
          50.2636866
        ]
      },
      "properties": {
        "id": 768701204,
        "osm_type": "node",
        "name": "Potraviny Pod Borovicí"
      }
    },
    {
      "type": "Feature",
      "geometry": {
        "type": "Point",
        "coordinates": [
          15.1761957,
          50.4676994
        ]
      },
      "properties": {
        "id": 842666645,
        "osm_type": "node"
      }
    },
    {
      "type": "Feature",
      "geometry": {
        "type": "Point",
        "coordinates": [
          15.6063076,
          50.7252623
        ]
      },
      "properties": {
        "id": 850896337,
        "osm_type": "node",
        "name": "U Mostu"
      }
    },
    {
      "type": "Feature",
      "geometry": {
        "type": "Point",
        "coordinates": [
          16.0475148,
          50.3927961
        ]
      },
      "properties": {
        "id": 942359457,
        "osm_type": "node",
        "name": "KONZUM market"
      }
    },
    {
      "type": "Feature",
      "geometry": {
        "type": "Point",
        "coordinates": [
          15.7535138,
          50.466852
        ]
      },
      "properties": {
        "id": 967685789,
        "osm_type": "node"
      }
    },
    {
      "type": "Feature",
      "geometry": {
        "type": "Point",
        "coordinates": [
          16.0491002,
          50.3957202
        ]
      },
      "properties": {
        "id": 1002562815,
        "osm_type": "node"
      }
    },
    {
      "type": "Feature",
      "geometry": {
        "type": "Point",
        "coordinates": [
          16.1626905,
          50.4159428
        ]
      },
      "properties": {
        "id": 1013285483,
        "osm_type": "node",
        "name": "Verner potraviny s.r.o",
        "opening_hours": "Mo-Fr 07:00-18:00; Sa 07:00-11:00"
      }
    },
    {
      "type": "Feature",
      "geometry": {
        "type": "Point",
        "coordinates": [
          16.0694259,
          50.5059983
        ]
      },
      "properties": {
        "id": 1046575899,
        "osm_type": "node"
      }
    },
    {
      "type": "Feature",
      "geometry": {
        "type": "Point",
        "coordinates": [
          16.0690791,
          50.5066182
        ]
      },
      "properties": {
        "id": 1046614113,
        "osm_type": "node"
      }
    },
    {
      "type": "Feature",
      "geometry": {
        "type": "Point",
        "coordinates": [
          16.1242849,
          50.3535315
        ]
      },
      "properties": {
        "id": 1104787403,
        "osm_type": "node"
      }
    },
    {
      "type": "Feature",
      "geometry": {
        "type": "Point",
        "coordinates": [
          16.1030513,
          50.3360483
        ]
      },
      "properties": {
        "id": 1105281553,
        "osm_type": "node",
        "name": "Potraviny Jarmilka"
      }
    },
    {
      "type": "Feature",
      "geometry": {
        "type": "Point",
        "coordinates": [
          15.3842805,
          50.4726999
        ]
      },
      "properties": {
        "id": 1173973281,
        "osm_type": "node",
        "name": "Večerka"
      }
    },
    {
      "type": "Feature",
      "geometry": {
        "type": "Point",
        "coordinates": [
          15.3428792,
          50.4040756
        ]
      },
      "properties": {
        "id": 1174018928,
        "osm_type": "node",
        "name": "Potraviny",
        "opening_hours": "Mo-Fr 6:00-16:00;Sa,Su 8:00-14:00"
      }
    },
    {
      "type": "Feature",
      "geometry": {
        "type": "Point",
        "coordinates": [
          16.2717106,
          50.3395379
        ]
      },
      "properties": {
        "id": 1360468894,
        "osm_type": "node",
        "opening_hours": "Mo 8:00-11:30, We 8:00-11:30, Fr 8:00-11:30"
      }
    },
    {
      "type": "Feature",
      "geometry": {
        "type": "Point",
        "coordinates": [
          15.3536502,
          50.4250736
        ]
      },
      "properties": {
        "id": 1677019554,
        "osm_type": "node"
      }
    },
    {
      "type": "Feature",
      "geometry": {
        "type": "Point",
        "coordinates": [
          15.3504343,
          50.4273548
        ]
      },
      "properties": {
        "id": 1677019565,
        "osm_type": "node"
      }
    },
    {
      "type": "Feature",
      "geometry": {
        "type": "Point",
        "coordinates": [
          15.9074178,
          50.6525131
        ]
      },
      "properties": {
        "id": 1713144040,
        "osm_type": "node",
        "name": "Enapo"
      }
    },
    {
      "type": "Feature",
      "geometry": {
        "type": "Point",
        "coordinates": [
          16.0825673,
          50.1553195
        ]
      },
      "properties": {
        "id": 1721700198,
        "osm_type": "node",
        "name": "Coop",
        "brand": "Coop"
      }
    },
    {
      "type": "Feature",
      "geometry": {
        "type": "Point",
        "coordinates": [
          16.0745737,
          50.1478022
        ]
      },
      "properties": {
        "id": 1721824140,
        "osm_type": "node"
      }
    },
    {
      "type": "Feature",
      "geometry": {
        "type": "Point",
        "coordinates": [
          16.0770413,
          50.1495777
        ]
      },
      "properties": {
        "id": 1721824159,
        "osm_type": "node",
        "name": "Co-op Tuty",
        "opening_hours": "Mo-Fr 06:00-17:00; Sa 07:00-11:00"
      }
    },
    {
      "type": "Feature",
      "geometry": {
        "type": "Point",
        "coordinates": [
          16.0804012,
          50.1525794
        ]
      },
      "properties": {
        "id": 1722064255,
        "osm_type": "node"
      }
    },
    {
      "type": "Feature",
      "geometry": {
        "type": "Point",
        "coordinates": [
          16.0719683,
          50.1521256
        ]
      },
      "properties": {
        "id": 1722064287,
        "osm_type": "node"
      }
    },
    {
      "type": "Feature",
      "geometry": {
        "type": "Point",
        "coordinates": [
          15.5156281,
          50.4944169
        ]
      },
      "properties": {
        "id": 1767478256,
        "osm_type": "node",
        "name": "Bala"
      }
    },
    {
      "type": "Feature",
      "geometry": {
        "type": "Point",
        "coordinates": [
          15.517037,
          50.4939835
        ]
      },
      "properties": {
        "id": 1767478369,
        "osm_type": "node",
        "name": "U Antonů"
      }
    },
    {
      "type": "Feature",
      "geometry": {
        "type": "Point",
        "coordinates": [
          15.5064191,
          50.4955398
        ]
      },
      "properties": {
        "id": 1767742669,
        "osm_type": "node",
        "name": "U Antonů"
      }
    },
    {
      "type": "Feature",
      "geometry": {
        "type": "Point",
        "coordinates": [
          15.5130793,
          50.4866731
        ]
      },
      "properties": {
        "id": 1768725849,
        "osm_type": "node",
        "name": "Coop Tip",
        "brand": "Coop Tip",
        "opening_hours": "Mo-Fr 06:00-18:30"
      }
    },
    {
      "type": "Feature",
      "geometry": {
        "type": "Point",
        "coordinates": [
          15.8153349,
          50.4204038
        ]
      },
      "properties": {
        "id": 1777850534,
        "osm_type": "node",
        "name": "U Hubených"
      }
    },
    {
      "type": "Feature",
      "geometry": {
        "type": "Point",
        "coordinates": [
          16.3590895,
          50.3007269
        ]
      },
      "properties": {
        "id": 1784874159,
        "osm_type": "node",
        "name": "COOP Jednota",
        "brand": "COOP Jednota",
        "opening_hours": "Tu-Fr 07:30-12:00,13:00-17:00; Sa 07:30-11:00; Mo 07:30-12:00"
      }
    },
    {
      "type": "Feature",
      "geometry": {
        "type": "Point",
        "coordinates": [
          16.1031499,
          50.2726489
        ]
      },
      "properties": {
        "id": 1811024388,
        "osm_type": "node"
      }
    },
    {
      "type": "Feature",
      "geometry": {
        "type": "Point",
        "coordinates": [
          16.1104241,
          50.2699128
        ]
      },
      "properties": {
        "id": 1811024407,
        "osm_type": "node"
      }
    },
    {
      "type": "Feature",
      "geometry": {
        "type": "Point",
        "coordinates": [
          15.5492178,
          50.3718473
        ]
      },
      "properties": {
        "id": 1832164631,
        "osm_type": "node"
      }
    },
    {
      "type": "Feature",
      "geometry": {
        "type": "Point",
        "coordinates": [
          15.7308385,
          50.5408209
        ]
      },
      "properties": {
        "id": 1835371218,
        "osm_type": "node",
        "name": "Potraviny Verner"
      }
    },
    {
      "type": "Feature",
      "geometry": {
        "type": "Point",
        "coordinates": [
          16.2553818,
          50.3863208
        ]
      },
      "properties": {
        "id": 1871592578,
        "osm_type": "node"
      }
    },
    {
      "type": "Feature",
      "geometry": {
        "type": "Point",
        "coordinates": [
          16.0723387,
          50.4954827
        ]
      },
      "properties": {
        "id": 1964793187,
        "osm_type": "node"
      }
    },
    {
      "type": "Feature",
      "geometry": {
        "type": "Point",
        "coordinates": [
          15.9087813,
          50.3518452
        ]
      },
      "properties": {
        "id": 2025406981,
        "osm_type": "node",
        "name": "Potraviny Pešová Jitka"
      }
    },
    {
      "type": "Feature",
      "geometry": {
        "type": "Point",
        "coordinates": [
          16.4544045,
          50.241951
        ]
      },
      "properties": {
        "id": 2037899513,
        "osm_type": "node",
        "name": "Pěticestí"
      }
    },
    {
      "type": "Feature",
      "geometry": {
        "type": "Point",
        "coordinates": [
          16.4002737,
          50.3026747
        ]
      },
      "properties": {
        "id": 2037899514,
        "osm_type": "node",
        "name": "Bufet Horské Služby pod Velkou Deštnou"
      }
    },
    {
      "type": "Feature",
      "geometry": {
        "type": "Point",
        "coordinates": [
          16.3511313,
          50.3037612
        ]
      },
      "properties": {
        "id": 2046081796,
        "osm_type": "node",
        "name": "Andělská kavárna",
        "opening_hours": "Mo,We,Fr 09:00-19:00; Tu,Th 09:00-17:00; Sa,Su,PH 10:00-17:00"
      }
    },
    {
      "type": "Feature",
      "geometry": {
        "type": "Point",
        "coordinates": [
          16.2753546,
          50.1630821
        ]
      },
      "properties": {
        "id": 2115691991,
        "osm_type": "node",
        "name": "Potraviny Bartoš",
        "opening_hours": "Mo-Fr 06:00-18:00; Sa 07:00-11:00; Su off"
      }
    },
    {
      "type": "Feature",
      "geometry": {
        "type": "Point",
        "coordinates": [
          16.2834656,
          50.1683877
        ]
      },
      "properties": {
        "id": 2115692012,
        "osm_type": "node"
      }
    },
    {
      "type": "Feature",
      "geometry": {
        "type": "Point",
        "coordinates": [
          16.1122441,
          50.2684516
        ]
      },
      "properties": {
        "id": 2115971484,
        "osm_type": "node",
        "opening_hours": "Mo-Su 09:00-21:00"
      }
    },
    {
      "type": "Feature",
      "geometry": {
        "type": "Point",
        "coordinates": [
          16.2311407,
          50.5441093
        ]
      },
      "properties": {
        "id": 2130405697,
        "osm_type": "node",
        "name": "KM-Prona, Police nad Metují",
        "brand": "KM - PRONA",
        "opening_hours": "05:00-22:00"
      }
    },
    {
      "type": "Feature",
      "geometry": {
        "type": "Point",
        "coordinates": [
          16.4729574,
          50.2790011
        ]
      },
      "properties": {
        "id": 2153187700,
        "osm_type": "node"
      }
    },
    {
      "type": "Feature",
      "geometry": {
        "type": "Point",
        "coordinates": [
          16.0926748,
          50.4757619
        ]
      },
      "properties": {
        "id": 2171549306,
        "osm_type": "node",
        "name": "Kubíček"
      }
    },
    {
      "type": "Feature",
      "geometry": {
        "type": "Point",
        "coordinates": [
          16.1043309,
          50.4726008
        ]
      },
      "properties": {
        "id": 2171601328,
        "osm_type": "node",
        "name": "Smišené zboží"
      }
    },
    {
      "type": "Feature",
      "geometry": {
        "type": "Point",
        "coordinates": [
          15.710613,
          50.6355981
        ]
      },
      "properties": {
        "id": 2175853827,
        "osm_type": "node",
        "name": "COOP Jednota",
        "brand": "COOP Jednota"
      }
    },
    {
      "type": "Feature",
      "geometry": {
        "type": "Point",
        "coordinates": [
          15.7112157,
          50.6354582
        ]
      },
      "properties": {
        "id": 2175853851,
        "osm_type": "node",
        "name": "Smíšení zboží a Bistro u Švandů"
      }
    },
    {
      "type": "Feature",
      "geometry": {
        "type": "Point",
        "coordinates": [
          15.6316325,
          50.3609966
        ]
      },
      "properties": {
        "id": 2207019277,
        "osm_type": "node",
        "name": "Potraviny U Husa"
      }
    },
    {
      "type": "Feature",
      "geometry": {
        "type": "Point",
        "coordinates": [
          15.521153,
          50.4936414
        ]
      },
      "properties": {
        "id": 2248008119,
        "osm_type": "node"
      }
    },
    {
      "type": "Feature",
      "geometry": {
        "type": "Point",
        "coordinates": [
          16.0388533,
          50.4538975
        ]
      },
      "properties": {
        "id": 2255897540,
        "osm_type": "node",
        "name": "Medková"
      }
    },
    {
      "type": "Feature",
      "geometry": {
        "type": "Point",
        "coordinates": [
          15.7403438,
          50.444955
        ]
      },
      "properties": {
        "id": 2393799645,
        "osm_type": "node",
        "name": "COOP Jednota",
        "brand": "COOP Jednota"
      }
    },
    {
      "type": "Feature",
      "geometry": {
        "type": "Point",
        "coordinates": [
          16.1138949,
          50.4985328
        ]
      },
      "properties": {
        "id": 2399745825,
        "osm_type": "node"
      }
    },
    {
      "type": "Feature",
      "geometry": {
        "type": "Point",
        "coordinates": [
          15.7108705,
          50.432542
        ]
      },
      "properties": {
        "id": 2404994254,
        "osm_type": "node"
      }
    },
    {
      "type": "Feature",
      "geometry": {
        "type": "Point",
        "coordinates": [
          15.8064819,
          50.4356963
        ]
      },
      "properties": {
        "id": 2405902058,
        "osm_type": "node",
        "name": "ENAPO potraviny"
      }
    },
    {
      "type": "Feature",
      "geometry": {
        "type": "Point",
        "coordinates": [
          15.9107623,
          50.4491432
        ]
      },
      "properties": {
        "id": 2417902698,
        "osm_type": "node"
      }
    },
    {
      "type": "Feature",
      "geometry": {
        "type": "Point",
        "coordinates": [
          15.2335475,
          50.4822441
        ]
      },
      "properties": {
        "id": 2444398076,
        "osm_type": "node"
      }
    },
    {
      "type": "Feature",
      "geometry": {
        "type": "Point",
        "coordinates": [
          16.1498075,
          50.2938483
        ]
      },
      "properties": {
        "id": 2459885615,
        "osm_type": "node"
      }
    },
    {
      "type": "Feature",
      "geometry": {
        "type": "Point",
        "coordinates": [
          16.1701892,
          50.416018
        ]
      },
      "properties": {
        "id": 2521499955,
        "osm_type": "node",
        "name": "Večerka u četníka"
      }
    },
    {
      "type": "Feature",
      "geometry": {
        "type": "Point",
        "coordinates": [
          15.8119008,
          50.6339526
        ]
      },
      "properties": {
        "id": 2525415711,
        "osm_type": "node",
        "name": "prodejna potravin JIP"
      }
    },
    {
      "type": "Feature",
      "geometry": {
        "type": "Point",
        "coordinates": [
          16.0883909,
          50.5870443
        ]
      },
      "properties": {
        "id": 2573778548,
        "osm_type": "node",
        "name": "Dana Tyšerová",
        "opening_hours": "Mo,We,Fr 05:00-18:00; Tu,Th 05:00-16:00; Sa 07:00-15:00"
      }
    },
    {
      "type": "Feature",
      "geometry": {
        "type": "Point",
        "coordinates": [
          16.2508168,
          50.0895691
        ]
      },
      "properties": {
        "id": 2613161520,
        "osm_type": "node"
      }
    },
    {
      "type": "Feature",
      "geometry": {
        "type": "Point",
        "coordinates": [
          16.0496542,
          50.5328531
        ]
      },
      "properties": {
        "id": 2737277991,
        "osm_type": "node",
        "name": "U Machů"
      }
    },
    {
      "type": "Feature",
      "geometry": {
        "type": "Point",
        "coordinates": [
          15.3567015,
          50.442599
        ]
      },
      "properties": {
        "id": 2812441246,
        "osm_type": "node",
        "name": "Cash @ Carry Jednička - Potraviny U Ťonga",
        "opening_hours": "Mo-Fr 7:00-20:00, Sa-Su 8:00-20:00"
      }
    },
    {
      "type": "Feature",
      "geometry": {
        "type": "Point",
        "coordinates": [
          15.6143522,
          50.6624649
        ]
      },
      "properties": {
        "id": 2907869340,
        "osm_type": "node",
        "name": "Potraviny Strážné",
        "opening_hours": "Mo-Fr 07:00-11:00, 13:00-17:00; Sa 07:00-11:00"
      }
    },
    {
      "type": "Feature",
      "geometry": {
        "type": "Point",
        "coordinates": [
          15.6569458,
          50.6515409
        ]
      },
      "properties": {
        "id": 2949456848,
        "osm_type": "node",
        "opening_hours": "Mo-Su 07:00-18:30"
      }
    },
    {
      "type": "Feature",
      "geometry": {
        "type": "Point",
        "coordinates": [
          15.6083087,
          50.4804055
        ]
      },
      "properties": {
        "id": 2995401990,
        "osm_type": "node",
        "name": "Coop",
        "brand": "Coop",
        "opening_hours": "Mo-Fr 06:30-16:30; Sa 07:00-10:30; PH off"
      }
    },
    {
      "type": "Feature",
      "geometry": {
        "type": "Point",
        "coordinates": [
          15.582996,
          50.4297565
        ]
      },
      "properties": {
        "id": 2995450519,
        "osm_type": "node",
        "name": "Coop Tuty",
        "brand": "Coop Tuty",
        "opening_hours": "Mo-Fr 06:00-17:30; Sa 07:00-12:00; PH off"
      }
    },
    {
      "type": "Feature",
      "geometry": {
        "type": "Point",
        "coordinates": [
          15.5838996,
          50.429229
        ]
      },
      "properties": {
        "id": 2997657421,
        "osm_type": "node",
        "name": "Večerka na mostě"
      }
    },
    {
      "type": "Feature",
      "geometry": {
        "type": "Point",
        "coordinates": [
          15.5823141,
          50.428418
        ]
      },
      "properties": {
        "id": 2997657422,
        "osm_type": "node",
        "opening_hours": "Mo-Sa 10:00-23:00; Su 7:30-23:00"
      }
    },
    {
      "type": "Feature",
      "geometry": {
        "type": "Point",
        "coordinates": [
          16.08005,
          50.1523188
        ]
      },
      "properties": {
        "id": 3109124202,
        "osm_type": "node",
        "opening_hours": "Mo-Su 06:00-20:00"
      }
    },
    {
      "type": "Feature",
      "geometry": {
        "type": "Point",
        "coordinates": [
          15.8770136,
          50.4265386
        ]
      },
      "properties": {
        "id": 3117987951,
        "osm_type": "node"
      }
    },
    {
      "type": "Feature",
      "geometry": {
        "type": "Point",
        "coordinates": [
          16.1058196,
          50.485762
        ]
      },
      "properties": {
        "id": 3296406832,
        "osm_type": "node",
        "name": "Potraviny"
      }
    },
    {
      "type": "Feature",
      "geometry": {
        "type": "Point",
        "coordinates": [
          16.2214674,
          50.6374812
        ]
      },
      "properties": {
        "id": 3505936433,
        "osm_type": "node",
        "name": "U Libora",
        "opening_hours": "09:00-19:00"
      }
    },
    {
      "type": "Feature",
      "geometry": {
        "type": "Point",
        "coordinates": [
          15.6819724,
          50.4038344
        ]
      },
      "properties": {
        "id": 3703506530,
        "osm_type": "node",
        "opening_hours": "Mo-Fr 06:30-19:00; Sa-Su 07:00-18:30"
      }
    },
    {
      "type": "Feature",
      "geometry": {
        "type": "Point",
        "coordinates": [
          16.3420462,
          50.548162
        ]
      },
      "properties": {
        "id": 3753253698,
        "osm_type": "node",
        "name": "Potraviny"
      }
    },
    {
      "type": "Feature",
      "geometry": {
        "type": "Point",
        "coordinates": [
          15.162554,
          50.4911605
        ]
      },
      "properties": {
        "id": 3817865862,
        "osm_type": "node"
      }
    },
    {
      "type": "Feature",
      "geometry": {
        "type": "Point",
        "coordinates": [
          16.2331295,
          50.5361502
        ]
      },
      "properties": {
        "id": 3840597789,
        "osm_type": "node",
        "name": "Koloniál Renata"
      }
    },
    {
      "type": "Feature",
      "geometry": {
        "type": "Point",
        "coordinates": [
          16.2332622,
          50.53685
        ]
      },
      "properties": {
        "id": 3840597790,
        "osm_type": "node"
      }
    },
    {
      "type": "Feature",
      "geometry": {
        "type": "Point",
        "coordinates": [
          15.1703607,
          50.4646561
        ]
      },
      "properties": {
        "id": 3880519123,
        "osm_type": "node",
        "name": "Coop"
      }
    },
    {
      "type": "Feature",
      "geometry": {
        "type": "Point",
        "coordinates": [
          15.6122747,
          50.623895
        ]
      },
      "properties": {
        "id": 3881443269,
        "osm_type": "node",
        "name": "Trafika U České známky"
      }
    },
    {
      "type": "Feature",
      "geometry": {
        "type": "Point",
        "coordinates": [
          15.8211697,
          50.2102845
        ]
      },
      "properties": {
        "id": 3933151967,
        "osm_type": "node",
        "name": "Gurmánská prodejna ESO HK",
        "opening_hours": "Mo-Th 06:30-16:00; Fr 06:30-13:00"
      }
    },
    {
      "type": "Feature",
      "geometry": {
        "type": "Point",
        "coordinates": [
          15.8299495,
          50.2105554
        ]
      },
      "properties": {
        "id": 3971734663,
        "osm_type": "node",
        "name": "Trafika nonstop",
        "opening_hours": "24/7",
        "check_date": "2023-09-28"
      }
    },
    {
      "type": "Feature",
      "geometry": {
        "type": "Point",
        "coordinates": [
          15.8107881,
          50.2140729
        ]
      },
      "properties": {
        "id": 3971741217,
        "osm_type": "node",
        "name": "Pont market",
        "opening_hours": "05:30-21:00",
        "check_date": "2026-03-14"
      }
    },
    {
      "type": "Feature",
      "geometry": {
        "type": "Point",
        "coordinates": [
          16.1139737,
          50.2680026
        ]
      },
      "properties": {
        "id": 4107148911,
        "osm_type": "node",
        "name": "Potraviny",
        "opening_hours": "Mo-Su 09:00-21:00"
      }
    },
    {
      "type": "Feature",
      "geometry": {
        "type": "Point",
        "coordinates": [
          16.1149181,
          50.2671745
        ]
      },
      "properties": {
        "id": 4107148912,
        "osm_type": "node",
        "name": "Potraviny",
        "opening_hours": "Mo-Su 09:00-21:00"
      }
    },
    {
      "type": "Feature",
      "geometry": {
        "type": "Point",
        "coordinates": [
          16.1522212,
          50.3441209
        ]
      },
      "properties": {
        "id": 4135081256,
        "osm_type": "node",
        "name": "Verner",
        "opening_hours": "Mo-Fr 06:30-17:00; Sa 07:00-11:00"
      }
    },
    {
      "type": "Feature",
      "geometry": {
        "type": "Point",
        "coordinates": [
          16.1507564,
          50.3522319
        ]
      },
      "properties": {
        "id": 4135081281,
        "osm_type": "node",
        "name": "Verner"
      }
    },
    {
      "type": "Feature",
      "geometry": {
        "type": "Point",
        "coordinates": [
          15.9221594,
          50.3499901
        ]
      },
      "properties": {
        "id": 4185242027,
        "osm_type": "node",
        "opening_hours": "Mo-Fr 06:30-18:00; Sa-Su 06:30-11:00"
      }
    },
    {
      "type": "Feature",
      "geometry": {
        "type": "Point",
        "coordinates": [
          16.0378434,
          50.5965893
        ]
      },
      "properties": {
        "id": 4199883970,
        "osm_type": "node",
        "name": "H&K Konzum",
        "opening_hours": "Mo-Tu, Th-Fr 07:30-15:00; We 07:30-11:00; Sa 07:30-09:30"
      }
    },
    {
      "type": "Feature",
      "geometry": {
        "type": "Point",
        "coordinates": [
          15.8122827,
          50.2137084
        ]
      },
      "properties": {
        "id": 4201091585,
        "osm_type": "node",
        "name": "Frencl",
        "opening_hours": "Mo-Fr 05:15-17:30; Sa 07:00-11:30",
        "check_date": "2026-03-14"
      }
    },
    {
      "type": "Feature",
      "geometry": {
        "type": "Point",
        "coordinates": [
          15.8301854,
          50.2103468
        ]
      },
      "properties": {
        "id": 4233351437,
        "osm_type": "node",
        "name": "Potraviny",
        "opening_hours": "Mo-Th 08:00-20:00, Fr-Sa 08:00-22:00, Su 08:00-19:00"
      }
    },
    {
      "type": "Feature",
      "geometry": {
        "type": "Point",
        "coordinates": [
          15.8134001,
          50.2136359
        ]
      },
      "properties": {
        "id": 4233394173,
        "osm_type": "node",
        "name": "Večerka U Rejžožrouta",
        "opening_hours": "Mo-Sa 09:00-21:30; Su 09:30-21:00"
      }
    },
    {
      "type": "Feature",
      "geometry": {
        "type": "Point",
        "coordinates": [
          16.2761267,
          50.4993601
        ]
      },
      "properties": {
        "id": 4268658404,
        "osm_type": "node",
        "opening_hours": "Mo-Fr 07:00-16:30; Sa 08:00-10:00"
      }
    },
    {
      "type": "Feature",
      "geometry": {
        "type": "Point",
        "coordinates": [
          15.3510622,
          50.4363404
        ]
      },
      "properties": {
        "id": 4287232593,
        "osm_type": "node",
        "name": "JIP",
        "opening_hours": "Mo-Fr 07:00-19:00; Sa-Su 07:30-15:00"
      }
    },
    {
      "type": "Feature",
      "geometry": {
        "type": "Point",
        "coordinates": [
          16.0663581,
          50.5072156
        ]
      },
      "properties": {
        "id": 4305755645,
        "osm_type": "node"
      }
    },
    {
      "type": "Feature",
      "geometry": {
        "type": "Point",
        "coordinates": [
          15.4279251,
          50.4577536
        ]
      },
      "properties": {
        "id": 4398955092,
        "osm_type": "node"
      }
    },
    {
      "type": "Feature",
      "geometry": {
        "type": "Point",
        "coordinates": [
          15.634458,
          50.2387426
        ]
      },
      "properties": {
        "id": 4400783598,
        "osm_type": "node",
        "name": "Unimarket"
      }
    },
    {
      "type": "Feature",
      "geometry": {
        "type": "Point",
        "coordinates": [
          16.1577615,
          50.5331928
        ]
      },
      "properties": {
        "id": 4433119907,
        "osm_type": "node",
        "name": "Potraviny \"Mléko - pečivo\""
      }
    },
    {
      "type": "Feature",
      "geometry": {
        "type": "Point",
        "coordinates": [
          15.3963774,
          50.3769487
        ]
      },
      "properties": {
        "id": 4443405490,
        "osm_type": "node",
        "name": "Smíšené zboží"
      }
    },
    {
      "type": "Feature",
      "geometry": {
        "type": "Point",
        "coordinates": [
          15.9047544,
          50.2107914
        ]
      },
      "properties": {
        "id": 4458823391,
        "osm_type": "node",
        "name": "Hruška",
        "brand": "Hruška"
      }
    },
    {
      "type": "Feature",
      "geometry": {
        "type": "Point",
        "coordinates": [
          16.1504054,
          50.3490686
        ]
      },
      "properties": {
        "id": 4481338827,
        "osm_type": "node",
        "name": "Verner"
      }
    },
    {
      "type": "Feature",
      "geometry": {
        "type": "Point",
        "coordinates": [
          16.2605699,
          50.1059464
        ]
      },
      "properties": {
        "id": 4625216791,
        "osm_type": "node",
        "name": "Asia market",
        "opening_hours": "Mo-Su 08:00-18:00"
      }
    },
    {
      "type": "Feature",
      "geometry": {
        "type": "Point",
        "coordinates": [
          16.2116268,
          50.1232756
        ]
      },
      "properties": {
        "id": 4636111044,
        "osm_type": "node",
        "name": "Coop",
        "brand": "Coop"
      }
    },
    {
      "type": "Feature",
      "geometry": {
        "type": "Point",
        "coordinates": [
          15.9107582,
          50.565001
        ]
      },
      "properties": {
        "id": 4684083190,
        "osm_type": "node"
      }
    },
    {
      "type": "Feature",
      "geometry": {
        "type": "Point",
        "coordinates": [
          16.2314067,
          50.2217599
        ]
      },
      "properties": {
        "id": 4697256856,
        "osm_type": "node",
        "name": "refreshment - only summer season"
      }
    },
    {
      "type": "Feature",
      "geometry": {
        "type": "Point",
        "coordinates": [
          15.3528507,
          50.4369568
        ]
      },
      "properties": {
        "id": 4716312789,
        "osm_type": "node",
        "name": "Fabio - ochutnejte region",
        "opening_hours": "Mo-Fr 07:00-17:30; Sa 07:30-12:00"
      }
    },
    {
      "type": "Feature",
      "geometry": {
        "type": "Point",
        "coordinates": [
          15.8120162,
          50.2134325
        ]
      },
      "properties": {
        "id": 4722157222,
        "osm_type": "node",
        "name": "Smíšené zboží",
        "opening_hours": "Mo-Fr 05:15-19:00; Sa 07:00-15:00; Su 08:00-13:00",
        "check_date": "2026-03-14"
      }
    },
    {
      "type": "Feature",
      "geometry": {
        "type": "Point",
        "coordinates": [
          16.1878855,
          50.4767193
        ]
      },
      "properties": {
        "id": 4787565257,
        "osm_type": "node",
        "name": "Potraviny - večerka",
        "opening_hours": "7:00-19:30"
      }
    },
    {
      "type": "Feature",
      "geometry": {
        "type": "Point",
        "coordinates": [
          16.4653102,
          50.1654446
        ]
      },
      "properties": {
        "id": 4796309422,
        "osm_type": "node",
        "name": "Farmářská prodejna",
        "opening_hours": "Mo-Fr 06:30-17:00; Su 14:00-17:00; Sa 06:30-11:00"
      }
    },
    {
      "type": "Feature",
      "geometry": {
        "type": "Point",
        "coordinates": [
          16.4686194,
          50.1752318
        ]
      },
      "properties": {
        "id": 4796518225,
        "osm_type": "node",
        "name": "Farma Pod Lipou",
        "opening_hours": "Mo-Su 17:00-18:30"
      }
    },
    {
      "type": "Feature",
      "geometry": {
        "type": "Point",
        "coordinates": [
          16.1173379,
          50.3795377
        ]
      },
      "properties": {
        "id": 4954888342,
        "osm_type": "node",
        "name": "Konzum, obchodní družsvo COOP",
        "opening_hours": "Mo 07:00-12:00,13:00-17:00; Tu 07:00-12:00; We-Fr 07:00-12:00,13:00-17:00; Sa 07:30-10:30; Su off"
      }
    },
    {
      "type": "Feature",
      "geometry": {
        "type": "Point",
        "coordinates": [
          15.6359899,
          50.2390361
        ]
      },
      "properties": {
        "id": 4963729376,
        "osm_type": "node",
        "name": "Řeznictví uzenářství"
      }
    },
    {
      "type": "Feature",
      "geometry": {
        "type": "Point",
        "coordinates": [
          15.4084465,
          50.1495624
        ]
      },
      "properties": {
        "id": 5015444642,
        "osm_type": "node",
        "name": "Hruška",
        "brand": "Hruška"
      }
    },
    {
      "type": "Feature",
      "geometry": {
        "type": "Point",
        "coordinates": [
          15.5829195,
          50.431887
        ]
      },
      "properties": {
        "id": 5021756868,
        "osm_type": "node",
        "name": "Můj obchod",
        "opening_hours": "Mo-Fr 07:00-19:00; Sa 07:30-19:00; Su 08:30-18:30"
      }
    },
    {
      "type": "Feature",
      "geometry": {
        "type": "Point",
        "coordinates": [
          15.820671,
          50.2142573
        ]
      },
      "properties": {
        "id": 5028666678,
        "osm_type": "node",
        "name": "Barvinok",
        "opening_hours": "Su-Fr 09:00-18:00; Sa 09:00-14:00"
      }
    },
    {
      "type": "Feature",
      "geometry": {
        "type": "Point",
        "coordinates": [
          16.2137125,
          50.2599052
        ]
      },
      "properties": {
        "id": 5046749905,
        "osm_type": "node",
        "name": "Potraviny Podbřezí",
        "opening_hours": "Mo 07:00-11:00, 14:30-16:00; Tu 07:00-09:00; We-Fr 07:00-11:00, 14:30-16:00; Sa 07:00-11:00; Su off"
      }
    },
    {
      "type": "Feature",
      "geometry": {
        "type": "Point",
        "coordinates": [
          15.7682804,
          50.6896321
        ]
      },
      "properties": {
        "id": 5072463763,
        "osm_type": "node"
      }
    },
    {
      "type": "Feature",
      "geometry": {
        "type": "Point",
        "coordinates": [
          16.1646847,
          50.5930914
        ]
      },
      "properties": {
        "id": 5080600644,
        "osm_type": "node",
        "name": "Minimarket Kamenec"
      }
    },
    {
      "type": "Feature",
      "geometry": {
        "type": "Point",
        "coordinates": [
          16.1700795,
          50.5943863
        ]
      },
      "properties": {
        "id": 5080601730,
        "osm_type": "node"
      }
    },
    {
      "type": "Feature",
      "geometry": {
        "type": "Point",
        "coordinates": [
          16.2654569,
          50.5405237
        ]
      },
      "properties": {
        "id": 5080605553,
        "osm_type": "node"
      }
    },
    {
      "type": "Feature",
      "geometry": {
        "type": "Point",
        "coordinates": [
          16.1813486,
          50.4798994
        ]
      },
      "properties": {
        "id": 5080628598,
        "osm_type": "node",
        "name": "Verner potraviny"
      }
    },
    {
      "type": "Feature",
      "geometry": {
        "type": "Point",
        "coordinates": [
          16.1817365,
          50.4795108
        ]
      },
      "properties": {
        "id": 5080629922,
        "osm_type": "node"
      }
    },
    {
      "type": "Feature",
      "geometry": {
        "type": "Point",
        "coordinates": [
          15.9980411,
          50.5235517
        ]
      },
      "properties": {
        "id": 5102224163,
        "osm_type": "node"
      }
    },
    {
      "type": "Feature",
      "geometry": {
        "type": "Point",
        "coordinates": [
          15.8246442,
          50.211509
        ]
      },
      "properties": {
        "id": 5116787992,
        "osm_type": "node",
        "name": "Potraviny",
        "opening_hours": "Mo-Su 07:00-20:00"
      }
    },
    {
      "type": "Feature",
      "geometry": {
        "type": "Point",
        "coordinates": [
          16.298437,
          50.1148264
        ]
      },
      "properties": {
        "id": 5126313928,
        "osm_type": "node",
        "name": "Coop Konzum",
        "brand": "Coop Konzum",
        "opening_hours": "Mo-Fr 07:00-18:00; Sa 07:00-11:00; Su 07:30-10:30; PH off"
      }
    },
    {
      "type": "Feature",
      "geometry": {
        "type": "Point",
        "coordinates": [
          16.1634931,
          50.4126519
        ]
      },
      "properties": {
        "id": 5219346184,
        "osm_type": "node",
        "name": "Verner",
        "opening_hours": "Mo-Fr 06:30-17:00; Sa 07:00-10:30"
      }
    },
    {
      "type": "Feature",
      "geometry": {
        "type": "Point",
        "coordinates": [
          15.2170259,
          50.3751713
        ]
      },
      "properties": {
        "id": 5393329403,
        "osm_type": "node",
        "name": "COOP",
        "opening_hours": "Mo-Fr 06:00-17:00; Sa 07:00-11:00"
      }
    },
    {
      "type": "Feature",
      "geometry": {
        "type": "Point",
        "coordinates": [
          15.2161981,
          50.3746834
        ]
      },
      "properties": {
        "id": 5393329405,
        "osm_type": "node"
      }
    },
    {
      "type": "Feature",
      "geometry": {
        "type": "Point",
        "coordinates": [
          15.7259531,
          50.1825285
        ]
      },
      "properties": {
        "id": 5506633471,
        "osm_type": "node",
        "name": "Prim Urbanice",
        "opening_hours": "06:00-20:00"
      }
    },
    {
      "type": "Feature",
      "geometry": {
        "type": "Point",
        "coordinates": [
          16.2223619,
          50.6362161
        ]
      },
      "properties": {
        "id": 5659319885,
        "osm_type": "node",
        "name": "Prodejna Primator",
        "opening_hours": "Sa, Su 12:00-22:00"
      }
    },
    {
      "type": "Feature",
      "geometry": {
        "type": "Point",
        "coordinates": [
          16.2435794,
          50.3575337
        ]
      },
      "properties": {
        "id": 5755496316,
        "osm_type": "node"
      }
    },
    {
      "type": "Feature",
      "geometry": {
        "type": "Point",
        "coordinates": [
          15.6080851,
          50.725108
        ]
      },
      "properties": {
        "id": 5809223675,
        "osm_type": "node",
        "name": "Mini-Market",
        "opening_hours": "Mo-Su 08:00-20:00"
      }
    },
    {
      "type": "Feature",
      "geometry": {
        "type": "Point",
        "coordinates": [
          15.6081008,
          50.725823
        ]
      },
      "properties": {
        "id": 5809228302,
        "osm_type": "node",
        "name": "Market Centrum",
        "opening_hours": "Mo-Su 09:00-21:00"
      }
    },
    {
      "type": "Feature",
      "geometry": {
        "type": "Point",
        "coordinates": [
          16.1137984,
          50.2675345
        ]
      },
      "properties": {
        "id": 5821914549,
        "osm_type": "node",
        "name": "Potraviny"
      }
    },
    {
      "type": "Feature",
      "geometry": {
        "type": "Point",
        "coordinates": [
          15.6085276,
          50.7426266
        ]
      },
      "properties": {
        "id": 5823057922,
        "osm_type": "node",
        "name": "Dívčí Lávky"
      }
    },
    {
      "type": "Feature",
      "geometry": {
        "type": "Point",
        "coordinates": [
          15.6654699,
          50.2089069
        ]
      },
      "properties": {
        "id": 5838043061,
        "osm_type": "node",
        "name": "Potraviny",
        "opening_hours": "Mo, We, Fr 10:30-11:30; Mo, We, Fr 15:30-16:30"
      }
    },
    {
      "type": "Feature",
      "geometry": {
        "type": "Point",
        "coordinates": [
          16.3840592,
          50.1357892
        ]
      },
      "properties": {
        "id": 6058286075,
        "osm_type": "node",
        "name": "Coop Konzum",
        "brand": "Coop Konzum",
        "opening_hours": "Mo-Fr 07:00-17:00; Sa 07:00-11:00; Su 07:00-10:00; PH off"
      }
    },
    {
      "type": "Feature",
      "geometry": {
        "type": "Point",
        "coordinates": [
          16.2407411,
          50.6258494
        ]
      },
      "properties": {
        "id": 6587259442,
        "osm_type": "node"
      }
    },
    {
      "type": "Feature",
      "geometry": {
        "type": "Point",
        "coordinates": [
          16.3062004,
          50.0823454
        ]
      },
      "properties": {
        "id": 6596902135,
        "osm_type": "node",
        "name": "Večerka",
        "opening_hours": "Mo-Su 07:00-20:00"
      }
    },
    {
      "type": "Feature",
      "geometry": {
        "type": "Point",
        "coordinates": [
          16.2906569,
          50.1182058
        ]
      },
      "properties": {
        "id": 6930028759,
        "osm_type": "node",
        "name": "Qanto",
        "brand": "Qanto",
        "opening_hours": "Mo-Fr 05:30-18:00; Sa 06:30-12:00; PH off"
      }
    },
    {
      "type": "Feature",
      "geometry": {
        "type": "Point",
        "coordinates": [
          16.1654779,
          50.2912968
        ]
      },
      "properties": {
        "id": 6939267998,
        "osm_type": "node"
      }
    },
    {
      "type": "Feature",
      "geometry": {
        "type": "Point",
        "coordinates": [
          15.8213406,
          50.1536354
        ]
      },
      "properties": {
        "id": 7194838135,
        "osm_type": "node",
        "name": "Potraviny Večerka"
      }
    },
    {
      "type": "Feature",
      "geometry": {
        "type": "Point",
        "coordinates": [
          15.9605625,
          50.2421405
        ]
      },
      "properties": {
        "id": 7366673862,
        "osm_type": "node"
      }
    },
    {
      "type": "Feature",
      "geometry": {
        "type": "Point",
        "coordinates": [
          16.0461645,
          50.2859081
        ]
      },
      "properties": {
        "id": 7695998607,
        "osm_type": "node",
        "name": "COOP Jednota",
        "brand": "COOP Jednota"
      }
    },
    {
      "type": "Feature",
      "geometry": {
        "type": "Point",
        "coordinates": [
          15.6070918,
          50.6300542
        ]
      },
      "properties": {
        "id": 7804004502,
        "osm_type": "node"
      }
    },
    {
      "type": "Feature",
      "geometry": {
        "type": "Point",
        "coordinates": [
          15.5571281,
          50.2969616
        ]
      },
      "properties": {
        "id": 7859472046,
        "osm_type": "node"
      }
    },
    {
      "type": "Feature",
      "geometry": {
        "type": "Point",
        "coordinates": [
          15.5030072,
          50.1241624
        ]
      },
      "properties": {
        "id": 7859592057,
        "osm_type": "node"
      }
    },
    {
      "type": "Feature",
      "geometry": {
        "type": "Point",
        "coordinates": [
          15.5351534,
          50.1811854
        ]
      },
      "properties": {
        "id": 7859599046,
        "osm_type": "node"
      }
    },
    {
      "type": "Feature",
      "geometry": {
        "type": "Point",
        "coordinates": [
          15.6517129,
          50.177215
        ]
      },
      "properties": {
        "id": 7862659555,
        "osm_type": "node"
      }
    },
    {
      "type": "Feature",
      "geometry": {
        "type": "Point",
        "coordinates": [
          15.7051398,
          50.3076457
        ]
      },
      "properties": {
        "id": 7863002540,
        "osm_type": "node"
      }
    },
    {
      "type": "Feature",
      "geometry": {
        "type": "Point",
        "coordinates": [
          15.9777964,
          50.2708046
        ]
      },
      "properties": {
        "id": 7863059578,
        "osm_type": "node"
      }
    },
    {
      "type": "Feature",
      "geometry": {
        "type": "Point",
        "coordinates": [
          15.9623744,
          50.2867044
        ]
      },
      "properties": {
        "id": 7863059584,
        "osm_type": "node"
      }
    },
    {
      "type": "Feature",
      "geometry": {
        "type": "Point",
        "coordinates": [
          15.8510365,
          50.2549287
        ]
      },
      "properties": {
        "id": 7863059792,
        "osm_type": "node"
      }
    },
    {
      "type": "Feature",
      "geometry": {
        "type": "Point",
        "coordinates": [
          15.8202843,
          50.2078426
        ]
      },
      "properties": {
        "id": 7970207910,
        "osm_type": "node",
        "name": "Hruška",
        "brand": "Hruška",
        "opening_hours": "Mo-Fr 07:00-18:30; Sa 07:00-12:00; Su 08:00-12:00"
      }
    },
    {
      "type": "Feature",
      "geometry": {
        "type": "Point",
        "coordinates": [
          16.5516975,
          50.2140301
        ]
      },
      "properties": {
        "id": 7993443451,
        "osm_type": "node",
        "name": "Neratovský obchod",
        "opening_hours": "24/7"
      }
    },
    {
      "type": "Feature",
      "geometry": {
        "type": "Point",
        "coordinates": [
          15.3444448,
          50.4425725
        ]
      },
      "properties": {
        "id": 8121708336,
        "osm_type": "node",
        "name": "COOP Jednota",
        "brand": "COOP Jednota"
      }
    },
    {
      "type": "Feature",
      "geometry": {
        "type": "Point",
        "coordinates": [
          15.4823112,
          50.4370747
        ]
      },
      "properties": {
        "id": 8452571307,
        "osm_type": "node",
        "name": "coop"
      }
    },
    {
      "type": "Feature",
      "geometry": {
        "type": "Point",
        "coordinates": [
          15.6423372,
          50.3687711
        ]
      },
      "properties": {
        "id": 8455097996,
        "osm_type": "node",
        "name": "COOP Jednota",
        "brand": "COOP Jednota",
        "opening_hours": "Mo,We,Fr 07:00-15:30; Tu,Th 07:00-13:00; Sa 07:00-10:30"
      }
    },
    {
      "type": "Feature",
      "geometry": {
        "type": "Point",
        "coordinates": [
          16.1821871,
          50.4796722
        ]
      },
      "properties": {
        "id": 8456628048,
        "osm_type": "node"
      }
    },
    {
      "type": "Feature",
      "geometry": {
        "type": "Point",
        "coordinates": [
          16.1786816,
          50.4769516
        ]
      },
      "properties": {
        "id": 8456746487,
        "osm_type": "node",
        "name": "Coop Konzum",
        "brand": "Coop Konzum"
      }
    },
    {
      "type": "Feature",
      "geometry": {
        "type": "Point",
        "coordinates": [
          16.2387406,
          50.5388278
        ]
      },
      "properties": {
        "id": 8628278204,
        "osm_type": "node",
        "name": "Smíšené zboží"
      }
    },
    {
      "type": "Feature",
      "geometry": {
        "type": "Point",
        "coordinates": [
          15.824891,
          50.3051009
        ]
      },
      "properties": {
        "id": 8773618877,
        "osm_type": "node"
      }
    },
    {
      "type": "Feature",
      "geometry": {
        "type": "Point",
        "coordinates": [
          16.3642216,
          50.5267881
        ]
      },
      "properties": {
        "id": 9014355300,
        "osm_type": "node",
        "name": "Hruška",
        "opening_hours": "Mo-Fr 07:00-11:30, 14:00-16:30; Sa 07:00-11:00"
      }
    },
    {
      "type": "Feature",
      "geometry": {
        "type": "Point",
        "coordinates": [
          15.8469435,
          50.6015295
        ]
      },
      "properties": {
        "id": 9026882981,
        "osm_type": "node"
      }
    },
    {
      "type": "Feature",
      "geometry": {
        "type": "Point",
        "coordinates": [
          16.0379116,
          50.3609571
        ]
      },
      "properties": {
        "id": 9070884119,
        "osm_type": "node",
        "name": "Potraviny smíšený obchod U Damový",
        "opening_hours": "Mo-Fr 06:30-18:30; Sa 07:00-17:00; Su 08:00-14:00"
      }
    },
    {
      "type": "Feature",
      "geometry": {
        "type": "Point",
        "coordinates": [
          15.5460926,
          50.3719067
        ]
      },
      "properties": {
        "id": 9318415097,
        "osm_type": "node",
        "name": "COOP Jednota",
        "brand": "COOP Jednota"
      }
    },
    {
      "type": "Feature",
      "geometry": {
        "type": "Point",
        "coordinates": [
          15.7174297,
          50.6770282
        ]
      },
      "properties": {
        "id": 9560746028,
        "osm_type": "node"
      }
    },
    {
      "type": "Feature",
      "geometry": {
        "type": "Point",
        "coordinates": [
          16.0420157,
          50.2232632
        ]
      },
      "properties": {
        "id": 9662247372,
        "osm_type": "node"
      }
    },
    {
      "type": "Feature",
      "geometry": {
        "type": "Point",
        "coordinates": [
          16.2385806,
          50.6254234
        ]
      },
      "properties": {
        "id": 9727152750,
        "osm_type": "node"
      }
    },
    {
      "type": "Feature",
      "geometry": {
        "type": "Point",
        "coordinates": [
          15.7774334,
          50.6304289
        ]
      },
      "properties": {
        "id": 9874132360,
        "osm_type": "node",
        "name": "Potraviny Večerka",
        "opening_hours": "Mo-Fr 07:00-19:00; Sa, Su 08:00-18:00"
      }
    },
    {
      "type": "Feature",
      "geometry": {
        "type": "Point",
        "coordinates": [
          15.1771556,
          50.4678753
        ]
      },
      "properties": {
        "id": 9885297036,
        "osm_type": "node",
        "name": "Ovoce zelenina",
        "opening_hours": "Mo-Fr 07:00-17:00; Sa 07:00-12:00"
      }
    },
    {
      "type": "Feature",
      "geometry": {
        "type": "Point",
        "coordinates": [
          16.1061408,
          50.2377712
        ]
      },
      "properties": {
        "id": 9892648159,
        "osm_type": "node"
      }
    },
    {
      "type": "Feature",
      "geometry": {
        "type": "Point",
        "coordinates": [
          15.1816517,
          50.4668942
        ]
      },
      "properties": {
        "id": 9899349323,
        "osm_type": "node",
        "name": "Coop"
      }
    },
    {
      "type": "Feature",
      "geometry": {
        "type": "Point",
        "coordinates": [
          15.235438,
          50.4591356
        ]
      },
      "properties": {
        "id": 9969998770,
        "osm_type": "node",
        "name": "Potraviny"
      }
    },
    {
      "type": "Feature",
      "geometry": {
        "type": "Point",
        "coordinates": [
          15.8109538,
          50.1997112
        ]
      },
      "properties": {
        "id": 10084859835,
        "osm_type": "node",
        "name": "Potraviny An Duc",
        "opening_hours": "Mo-Fr 08:00-19:00; Sa, Su 07:30-19:00",
        "check_date": "2022-10-08"
      }
    },
    {
      "type": "Feature",
      "geometry": {
        "type": "Point",
        "coordinates": [
          16.0933504,
          50.0979635
        ]
      },
      "properties": {
        "id": 10291511904,
        "osm_type": "node",
        "name": "Můj obchod",
        "brand": "Můj obchod"
      }
    },
    {
      "type": "Feature",
      "geometry": {
        "type": "Point",
        "coordinates": [
          16.0927581,
          50.0971406
        ]
      },
      "properties": {
        "id": 10291511906,
        "osm_type": "node",
        "name": "Coop Tuty",
        "brand": "Coop Tuty",
        "check_date": "2025-02-02"
      }
    },
    {
      "type": "Feature",
      "geometry": {
        "type": "Point",
        "coordinates": [
          16.4653104,
          50.1647772
        ]
      },
      "properties": {
        "id": 10296650207,
        "osm_type": "node",
        "name": "Potraviny"
      }
    },
    {
      "type": "Feature",
      "geometry": {
        "type": "Point",
        "coordinates": [
          16.4663035,
          50.1649357
        ]
      },
      "properties": {
        "id": 10296650208,
        "osm_type": "node",
        "name": "Potraviny"
      }
    },
    {
      "type": "Feature",
      "geometry": {
        "type": "Point",
        "coordinates": [
          16.4660234,
          50.1653564
        ]
      },
      "properties": {
        "id": 10296669310,
        "osm_type": "node",
        "name": "Potraviny"
      }
    },
    {
      "type": "Feature",
      "geometry": {
        "type": "Point",
        "coordinates": [
          15.5825429,
          50.4308917
        ]
      },
      "properties": {
        "id": 10856528885,
        "osm_type": "node",
        "name": "Mini Market 68",
        "opening_hours": "7:30-19:00"
      }
    },
    {
      "type": "Feature",
      "geometry": {
        "type": "Point",
        "coordinates": [
          15.5832134,
          50.428607
        ]
      },
      "properties": {
        "id": 10859104997,
        "osm_type": "node",
        "name": "Potraviny U Petra",
        "opening_hours": "8:00-21:00"
      }
    },
    {
      "type": "Feature",
      "geometry": {
        "type": "Point",
        "coordinates": [
          15.5785463,
          50.4482096
        ]
      },
      "properties": {
        "id": 10861102583,
        "osm_type": "node",
        "opening_hours": "Mo-Fr 5:30-20:00; Sa-Su 7:30-20:00"
      }
    },
    {
      "type": "Feature",
      "geometry": {
        "type": "Point",
        "coordinates": [
          16.1721571,
          50.4179959
        ]
      },
      "properties": {
        "id": 10934043380,
        "osm_type": "node",
        "name": "Občerstvení"
      }
    },
    {
      "type": "Feature",
      "geometry": {
        "type": "Point",
        "coordinates": [
          15.6304127,
          50.3289459
        ]
      },
      "properties": {
        "id": 11056765574,
        "osm_type": "node",
        "name": "COOP Jednota",
        "brand": "COOP Jednota"
      }
    },
    {
      "type": "Feature",
      "geometry": {
        "type": "Point",
        "coordinates": [
          16.1317602,
          50.5747695
        ]
      },
      "properties": {
        "id": 11073177410,
        "osm_type": "node",
        "name": "Samoobslužný bar",
        "opening_hours": "Mo-Su 8:00-20:00"
      }
    },
    {
      "type": "Feature",
      "geometry": {
        "type": "Point",
        "coordinates": [
          15.7442602,
          50.1716062
        ]
      },
      "properties": {
        "id": 11113594146,
        "osm_type": "node",
        "name": "Můj obchod",
        "opening_hours": "Mo-Fr 06:30-20:00; Sa-Su 07:00-20:00"
      }
    },
    {
      "type": "Feature",
      "geometry": {
        "type": "Point",
        "coordinates": [
          16.3350844,
          50.582751
        ]
      },
      "properties": {
        "id": 11155867398,
        "osm_type": "node",
        "name": "Večerka"
      }
    },
    {
      "type": "Feature",
      "geometry": {
        "type": "Point",
        "coordinates": [
          16.3308223,
          50.5861536
        ]
      },
      "properties": {
        "id": 11156021860,
        "osm_type": "node"
      }
    },
    {
      "type": "Feature",
      "geometry": {
        "type": "Point",
        "coordinates": [
          16.3332127,
          50.5851881
        ]
      },
      "properties": {
        "id": 11156021870,
        "osm_type": "node"
      }
    },
    {
      "type": "Feature",
      "geometry": {
        "type": "Point",
        "coordinates": [
          16.3319412,
          50.5851088
        ]
      },
      "properties": {
        "id": 11156021882,
        "osm_type": "node"
      }
    },
    {
      "type": "Feature",
      "geometry": {
        "type": "Point",
        "coordinates": [
          16.3354495,
          50.5875674
        ]
      },
      "properties": {
        "id": 11161881984,
        "osm_type": "node"
      }
    },
    {
      "type": "Feature",
      "geometry": {
        "type": "Point",
        "coordinates": [
          15.9099214,
          50.655014
        ]
      },
      "properties": {
        "id": 11252448805,
        "osm_type": "node",
        "name": "prodejna COOP"
      }
    },
    {
      "type": "Feature",
      "geometry": {
        "type": "Point",
        "coordinates": [
          16.1272911,
          50.224096
        ]
      },
      "properties": {
        "id": 11255850686,
        "osm_type": "node"
      }
    },
    {
      "type": "Feature",
      "geometry": {
        "type": "Point",
        "coordinates": [
          16.0746988,
          50.1478226
        ]
      },
      "properties": {
        "id": 11345861240,
        "osm_type": "node",
        "name": "CBA Premium"
      }
    },
    {
      "type": "Feature",
      "geometry": {
        "type": "Point",
        "coordinates": [
          16.0802876,
          50.3517318
        ]
      },
      "properties": {
        "id": 11861664811,
        "osm_type": "node",
        "name": "Quoc Bui Khac",
        "opening_hours": "Mo-Fr 07:00-19:00; Sa 07:00-15:00; Su 07:30-15:00"
      }
    },
    {
      "type": "Feature",
      "geometry": {
        "type": "Point",
        "coordinates": [
          15.6005659,
          50.7572973
        ]
      },
      "properties": {
        "id": 12100212575,
        "osm_type": "node",
        "name": "Samoobslužný bar"
      }
    },
    {
      "type": "Feature",
      "geometry": {
        "type": "Point",
        "coordinates": [
          15.3503408,
          50.432569
        ]
      },
      "properties": {
        "id": 12116835150,
        "osm_type": "node"
      }
    },
    {
      "type": "Feature",
      "geometry": {
        "type": "Point",
        "coordinates": [
          15.8431041,
          50.2136529
        ]
      },
      "properties": {
        "id": 12202126596,
        "osm_type": "node",
        "name": "Van Tien Nguyen",
        "opening_hours": "Mo-Sa 07:00-20:00; Su 08:00-19:00"
      }
    },
    {
      "type": "Feature",
      "geometry": {
        "type": "Point",
        "coordinates": [
          16.2741158,
          50.1620987
        ]
      },
      "properties": {
        "id": 12258649069,
        "osm_type": "node",
        "name": "Qanto",
        "opening_hours": "Mo-Fr 06:30-18:00; Sa 07:00-12:00"
      }
    },
    {
      "type": "Feature",
      "geometry": {
        "type": "Point",
        "coordinates": [
          16.0696321,
          50.5054739
        ]
      },
      "properties": {
        "id": 12300445926,
        "osm_type": "node"
      }
    },
    {
      "type": "Feature",
      "geometry": {
        "type": "Point",
        "coordinates": [
          15.6309114,
          50.2050505
        ]
      },
      "properties": {
        "id": 12368203050,
        "osm_type": "node",
        "name": "Hruška",
        "brand": "Hruška"
      }
    },
    {
      "type": "Feature",
      "geometry": {
        "type": "Point",
        "coordinates": [
          16.2133671,
          50.1231767
        ]
      },
      "properties": {
        "id": 12409857126,
        "osm_type": "node"
      }
    },
    {
      "type": "Feature",
      "geometry": {
        "type": "Point",
        "coordinates": [
          16.2100944,
          50.1205567
        ]
      },
      "properties": {
        "id": 12409857162,
        "osm_type": "node"
      }
    },
    {
      "type": "Feature",
      "geometry": {
        "type": "Point",
        "coordinates": [
          16.1705944,
          50.5914826
        ]
      },
      "properties": {
        "id": 12426257563,
        "osm_type": "node"
      }
    },
    {
      "type": "Feature",
      "geometry": {
        "type": "Point",
        "coordinates": [
          15.7181394,
          50.2586312
        ]
      },
      "properties": {
        "id": 12484346790,
        "osm_type": "node",
        "name": "Potraviny Hruška"
      }
    },
    {
      "type": "Feature",
      "geometry": {
        "type": "Point",
        "coordinates": [
          15.6900517,
          50.2643748
        ]
      },
      "properties": {
        "id": 12492945662,
        "osm_type": "node",
        "name": "Potraviny Hruška",
        "opening_hours": "Mo-Fr 06:30-12:00,14:00-17:00; Sa 06:00-10:00; PH closed"
      }
    },
    {
      "type": "Feature",
      "geometry": {
        "type": "Point",
        "coordinates": [
          15.6902951,
          50.2810303
        ]
      },
      "properties": {
        "id": 12508757744,
        "osm_type": "node",
        "name": "Můj obchod - Potraviny LeKarban",
        "brand": "Můj obchod",
        "opening_hours": "Mo-Su 7:00-19:00"
      }
    },
    {
      "type": "Feature",
      "geometry": {
        "type": "Point",
        "coordinates": [
          15.8571531,
          50.2042854
        ]
      },
      "properties": {
        "id": 12518490985,
        "osm_type": "node",
        "name": "Vinný Šenk",
        "opening_hours": "Mo-Th 10:00-18:00; Fr 10:00-19:00; Sa 09:00-12:00; Su off"
      }
    },
    {
      "type": "Feature",
      "geometry": {
        "type": "Point",
        "coordinates": [
          15.7579105,
          50.2392194
        ]
      },
      "properties": {
        "id": 12593542112,
        "osm_type": "node",
        "name": "Dmychadla, kompresory",
        "opening_hours": "Mo-Fr 08:00-17:00; PH closed"
      }
    },
    {
      "type": "Feature",
      "geometry": {
        "type": "Point",
        "coordinates": [
          15.6354179,
          50.2731288
        ]
      },
      "properties": {
        "id": 12623033751,
        "osm_type": "node",
        "name": "Potraviny"
      }
    },
    {
      "type": "Feature",
      "geometry": {
        "type": "Point",
        "coordinates": [
          15.6974204,
          50.2992435
        ]
      },
      "properties": {
        "id": 12625664049,
        "osm_type": "node"
      }
    },
    {
      "type": "Feature",
      "geometry": {
        "type": "Point",
        "coordinates": [
          15.8159379,
          50.2560098
        ]
      },
      "properties": {
        "id": 12630716386,
        "osm_type": "node"
      }
    },
    {
      "type": "Feature",
      "geometry": {
        "type": "Point",
        "coordinates": [
          15.7514581,
          50.2141778
        ]
      },
      "properties": {
        "id": 12638153769,
        "osm_type": "node",
        "name": "Můjobchod - Potraviny Stěžery",
        "opening_hours": "Mo-Su 07:00-20:00"
      }
    },
    {
      "type": "Feature",
      "geometry": {
        "type": "Point",
        "coordinates": [
          16.2336188,
          50.537218
        ]
      },
      "properties": {
        "id": 12643964591,
        "osm_type": "node"
      }
    },
    {
      "type": "Feature",
      "geometry": {
        "type": "Point",
        "coordinates": [
          15.7123414,
          50.2079644
        ]
      },
      "properties": {
        "id": 12704106196,
        "osm_type": "node",
        "name": "Můjobchod - Smíšená prodejna Elán",
        "brand": "Můj obchod"
      }
    },
    {
      "type": "Feature",
      "geometry": {
        "type": "Point",
        "coordinates": [
          15.6175789,
          50.243681
        ]
      },
      "properties": {
        "id": 12739952162,
        "osm_type": "node",
        "name": "Potraviny",
        "brand": "Shop & Go"
      }
    },
    {
      "type": "Feature",
      "geometry": {
        "type": "Point",
        "coordinates": [
          15.8428314,
          50.3566023
        ]
      },
      "properties": {
        "id": 12824362378,
        "osm_type": "node",
        "name": "Potraviny"
      }
    },
    {
      "type": "Feature",
      "geometry": {
        "type": "Point",
        "coordinates": [
          15.8357968,
          50.2098949
        ]
      },
      "properties": {
        "id": 12903428890,
        "osm_type": "node",
        "name": "Můj obchod",
        "brand": "Můj obchod",
        "opening_hours": "Mo-Fr 06:30-22:00; Sa-Su 07:00-22:00"
      }
    },
    {
      "type": "Feature",
      "geometry": {
        "type": "Point",
        "coordinates": [
          15.8234546,
          50.2109257
        ]
      },
      "properties": {
        "id": 12956281007,
        "osm_type": "node",
        "name": "Smíšené zboží",
        "opening_hours": "Mo-Fr 07:30-19:30; Sa,Su 07:30-19:00; PH 08:00-19:00"
      }
    },
    {
      "type": "Feature",
      "geometry": {
        "type": "Point",
        "coordinates": [
          15.8596387,
          50.1998288
        ]
      },
      "properties": {
        "id": 12965892734,
        "osm_type": "node",
        "opening_hours": "Mo-Fr 05:00-11:30,12:30-18:00; Sa 06:30-12:00; Su off",
        "check_date": "2025-09-11"
      }
    },
    {
      "type": "Feature",
      "geometry": {
        "type": "Point",
        "coordinates": [
          15.9890817,
          50.2005401
        ]
      },
      "properties": {
        "id": 13022743690,
        "osm_type": "node",
        "check_date": "2025-07-25"
      }
    },
    {
      "type": "Feature",
      "geometry": {
        "type": "Point",
        "coordinates": [
          16.0918331,
          50.0964529
        ]
      },
      "properties": {
        "id": 13048210177,
        "osm_type": "node",
        "name": "Hanička",
        "check_date": "2025-07-26"
      }
    },
    {
      "type": "Feature",
      "geometry": {
        "type": "Point",
        "coordinates": [
          15.5867161,
          50.1925907
        ]
      },
      "properties": {
        "id": 13088926645,
        "osm_type": "node"
      }
    },
    {
      "type": "Feature",
      "geometry": {
        "type": "Point",
        "coordinates": [
          15.505912,
          50.4833092
        ]
      },
      "properties": {
        "id": 13114862194,
        "osm_type": "node",
        "name": "Stop Cafe",
        "brand": "Stop Cafe"
      }
    },
    {
      "type": "Feature",
      "geometry": {
        "type": "Point",
        "coordinates": [
          15.5046593,
          50.4825982
        ]
      },
      "properties": {
        "id": 13114862195,
        "osm_type": "node",
        "name": "Stop Cafe",
        "brand": "Stop Cafe"
      }
    },
    {
      "type": "Feature",
      "geometry": {
        "type": "Point",
        "coordinates": [
          15.8397738,
          50.1936422
        ]
      },
      "properties": {
        "id": 13130971016,
        "osm_type": "node",
        "name": "Tabák Delikates",
        "opening_hours": "Mo-Fr 06:00-18:00; Sa,Su 07:00-12:00"
      }
    },
    {
      "type": "Feature",
      "geometry": {
        "type": "Point",
        "coordinates": [
          15.8519338,
          50.2179329
        ]
      },
      "properties": {
        "id": 13155617530,
        "osm_type": "node",
        "name": "Nguyen Tien Thanh",
        "opening_hours": "Mo-Fr 07:00-20:00; Sa,Su 08:00-19:00"
      }
    },
    {
      "type": "Feature",
      "geometry": {
        "type": "Point",
        "coordinates": [
          15.9292297,
          50.34039
        ]
      },
      "properties": {
        "id": 13264781772,
        "osm_type": "node"
      }
    },
    {
      "type": "Feature",
      "geometry": {
        "type": "Point",
        "coordinates": [
          15.823857,
          50.2154916
        ]
      },
      "properties": {
        "id": 13277608410,
        "osm_type": "node",
        "name": "Lahůdky",
        "opening_hours": "Mo-Fr 06:00-16:00"
      }
    },
    {
      "type": "Feature",
      "geometry": {
        "type": "Point",
        "coordinates": [
          15.853449,
          50.2041361
        ]
      },
      "properties": {
        "id": 13283259896,
        "osm_type": "node",
        "name": "Potraviny & Večerka Bamboo",
        "opening_hours": "Mo-Fr 06:30-20:00; Sa,Su 07:30-20:00"
      }
    },
    {
      "type": "Feature",
      "geometry": {
        "type": "Point",
        "coordinates": [
          16.4669959,
          50.1663291
        ]
      },
      "properties": {
        "id": 13290947966,
        "osm_type": "node",
        "name": "Coop Tuty",
        "brand": "Coop Tuty",
        "opening_hours": "Mo-Fr 06:30-17:30; Sa 06:30-11:00; Su 07:30-10:00; PH off"
      }
    },
    {
      "type": "Feature",
      "geometry": {
        "type": "Point",
        "coordinates": [
          15.8336156,
          50.2178542
        ]
      },
      "properties": {
        "id": 13291218013,
        "osm_type": "node",
        "name": "Viva",
        "brand": "Viva",
        "opening_hours": "24/7"
      }
    },
    {
      "type": "Feature",
      "geometry": {
        "type": "Point",
        "coordinates": [
          16.2606457,
          50.1056592
        ]
      },
      "properties": {
        "id": 13316271166,
        "osm_type": "node",
        "name": "Coop Konzum",
        "brand": "Coop Konzum",
        "opening_hours": "Mo-Fr 07:00-18:00; Sa 07:00-11:00; Su 07:00-10:00; PH off"
      }
    },
    {
      "type": "Feature",
      "geometry": {
        "type": "Point",
        "coordinates": [
          16.2925553,
          50.1165933
        ]
      },
      "properties": {
        "id": 13317046552,
        "osm_type": "node",
        "name": "Coop Konzum",
        "brand": "Coop Konzum",
        "opening_hours": "Mo-Fr 07:00-18:00; Sa,Su 07:00-12:00; PH off"
      }
    },
    {
      "type": "Feature",
      "geometry": {
        "type": "Point",
        "coordinates": [
          16.2635009,
          50.2127143
        ]
      },
      "properties": {
        "id": 13386813058,
        "osm_type": "node",
        "name": "Coop Konzum",
        "brand": "Coop Konzum",
        "opening_hours": "Mo-Fr 07:00-17:00; Sa 07:00-11:00; Su 07:00-10:30"
      }
    },
    {
      "type": "Feature",
      "geometry": {
        "type": "Point",
        "coordinates": [
          15.8222252,
          50.2299758
        ]
      },
      "properties": {
        "id": 13393308188,
        "osm_type": "node",
        "name": "Zastávka Plácky",
        "opening_hours": "v roce 2026 bude otevřeno od 1.4."
      }
    },
    {
      "type": "Feature",
      "geometry": {
        "type": "Point",
        "coordinates": [
          15.9182841,
          50.2621783
        ]
      },
      "properties": {
        "id": 13435963672,
        "osm_type": "node",
        "check_date": "2025-12-29"
      }
    },
    {
      "type": "Feature",
      "geometry": {
        "type": "Point",
        "coordinates": [
          15.6365637,
          50.3278726
        ]
      },
      "properties": {
        "id": 13503241037,
        "osm_type": "node",
        "name": "Tank Ono",
        "opening_hours": "24/7"
      }
    },
    {
      "type": "Feature",
      "geometry": {
        "type": "Point",
        "coordinates": [
          15.6472677,
          50.6224717
        ]
      },
      "properties": {
        "id": 13504380621,
        "osm_type": "node",
        "name": "Fresh Corner",
        "brand": "Fresh Corner",
        "opening_hours": "Mo-Su 06:00-21:00"
      }
    },
    {
      "type": "Feature",
      "geometry": {
        "type": "Point",
        "coordinates": [
          15.8777365,
          50.4239211
        ]
      },
      "properties": {
        "id": 13543468395,
        "osm_type": "node",
        "name": "Večerka - potraviny",
        "opening_hours": "Mo-Su 06:30-19:00"
      }
    },
    {
      "type": "Feature",
      "geometry": {
        "type": "Point",
        "coordinates": [
          15.8108979,
          50.211897
        ]
      },
      "properties": {
        "id": 13598428362,
        "osm_type": "node",
        "name": "Gurman - Ukrajinské potraviny",
        "opening_hours": "Mo-Fr 09:00-20:00; Sa,Su 10:00-20:00"
      }
    },
    {
      "type": "Feature",
      "geometry": {
        "type": "Point",
        "coordinates": [
          15.8483228,
          50.2195515
        ]
      },
      "properties": {
        "id": 13652653284,
        "osm_type": "node",
        "name": "Severka"
      }
    },
    {
      "type": "Feature",
      "geometry": {
        "type": "Point",
        "coordinates": [
          15.8482291,
          50.2194853
        ]
      },
      "properties": {
        "id": 13652709029,
        "osm_type": "node",
        "name": "Tony Market",
        "opening_hours": "Mo-Su 07:00-20:00"
      }
    },
    {
      "type": "Feature",
      "geometry": {
        "type": "Point",
        "coordinates": [
          15.8572656,
          50.2199378
        ]
      },
      "properties": {
        "id": 13652726664,
        "osm_type": "node",
        "name": "CBA Market",
        "opening_hours": "Mo-Fr 07:00-17:00; Sa 07:00-11:00; Su off"
      }
    },
    {
      "type": "Feature",
      "geometry": {
        "type": "Point",
        "coordinates": [
          15.7095097,
          50.2393734
        ]
      },
      "properties": {
        "id": 13660999411,
        "osm_type": "node",
        "name": "Potraviny Martin",
        "opening_hours": "Mo-Fr 07:00-19:00"
      }
    },
    {
      "type": "Feature",
      "geometry": {
        "type": "Point",
        "coordinates": [
          15.9099498,
          50.5600717
        ]
      },
      "properties": {
        "id": 13701269893,
        "osm_type": "node"
      }
    },
    {
      "type": "Feature",
      "geometry": {
        "type": "Point",
        "coordinates": [
          15.9120685,
          50.561228
        ]
      },
      "properties": {
        "id": 13701324603,
        "osm_type": "node"
      }
    },
    {
      "type": "Feature",
      "geometry": {
        "type": "Point",
        "coordinates": [
          15.8396005,
          50.1968241
        ]
      },
      "properties": {
        "id": 13744965578,
        "osm_type": "node",
        "name": "AAA",
        "opening_hours": "Mo-Sa 08:00-19:00; Su 09:00-18:00"
      }
    },
    {
      "type": "Feature",
      "geometry": {
        "type": "Point",
        "coordinates": [
          15.6099406,
          50.2706929
        ]
      },
      "properties": {
        "id": 32911973,
        "osm_type": "way"
      }
    },
    {
      "type": "Feature",
      "geometry": {
        "type": "Point",
        "coordinates": [
          15.6775568,
          50.2173932
        ]
      },
      "properties": {
        "id": 37113776,
        "osm_type": "way"
      }
    },
    {
      "type": "Feature",
      "geometry": {
        "type": "Point",
        "coordinates": [
          15.6264978,
          50.1846349
        ]
      },
      "properties": {
        "id": 37141262,
        "osm_type": "way",
        "name": "Na Rozcestí"
      }
    },
    {
      "type": "Feature",
      "geometry": {
        "type": "Point",
        "coordinates": [
          15.6443971,
          50.1503907
        ]
      },
      "properties": {
        "id": 37209049,
        "osm_type": "way",
        "name": "Hruška",
        "brand": "Hruška"
      }
    },
    {
      "type": "Feature",
      "geometry": {
        "type": "Point",
        "coordinates": [
          15.6426997,
          50.1492847
        ]
      },
      "properties": {
        "id": 37209081,
        "osm_type": "way"
      }
    },
    {
      "type": "Feature",
      "geometry": {
        "type": "Point",
        "coordinates": [
          15.6810487,
          50.1460356
        ]
      },
      "properties": {
        "id": 37212671,
        "osm_type": "way"
      }
    },
    {
      "type": "Feature",
      "geometry": {
        "type": "Point",
        "coordinates": [
          15.8230739,
          50.1534481
        ]
      },
      "properties": {
        "id": 50193332,
        "osm_type": "way",
        "name": "HRUŠKA"
      }
    },
    {
      "type": "Feature",
      "geometry": {
        "type": "Point",
        "coordinates": [
          15.8341626,
          50.1842769
        ]
      },
      "properties": {
        "id": 50203575,
        "osm_type": "way",
        "name": "Potraveny",
        "opening_hours": "Mo-Su,PH 07:00-21:00"
      }
    },
    {
      "type": "Feature",
      "geometry": {
        "type": "Point",
        "coordinates": [
          15.3612242,
          50.4394653
        ]
      },
      "properties": {
        "id": 51707401,
        "osm_type": "way",
        "name": "COOP Jednota",
        "brand": "COOP Jednota",
        "opening_hours": "Mo-Fr 06:00-18:00; Sa 06:00-11:00; Su 07:00-11:00"
      }
    },
    {
      "type": "Feature",
      "geometry": {
        "type": "Point",
        "coordinates": [
          16.091795,
          50.4743512
        ]
      },
      "properties": {
        "id": 51725616,
        "osm_type": "way",
        "name": "Potraviny z Polska"
      }
    },
    {
      "type": "Feature",
      "geometry": {
        "type": "Point",
        "coordinates": [
          15.5828692,
          50.3265521
        ]
      },
      "properties": {
        "id": 51744255,
        "osm_type": "way",
        "name": "coop"
      }
    },
    {
      "type": "Feature",
      "geometry": {
        "type": "Point",
        "coordinates": [
          15.8588851,
          50.3080846
        ]
      },
      "properties": {
        "id": 52001643,
        "osm_type": "way",
        "name": "Hruška",
        "brand": "Hruška"
      }
    },
    {
      "type": "Feature",
      "geometry": {
        "type": "Point",
        "coordinates": [
          15.5105646,
          50.4847151
        ]
      },
      "properties": {
        "id": 52477798,
        "osm_type": "way",
        "name": "Potraviny Pepa",
        "opening_hours": "Mo-Fr 07:00-20:00, Sa-Su 07:-19:00"
      }
    },
    {
      "type": "Feature",
      "geometry": {
        "type": "Point",
        "coordinates": [
          15.2630909,
          50.5082137
        ]
      },
      "properties": {
        "id": 53757934,
        "osm_type": "way",
        "name": "smíšené zboží"
      }
    },
    {
      "type": "Feature",
      "geometry": {
        "type": "Point",
        "coordinates": [
          16.275529,
          50.1140101
        ]
      },
      "properties": {
        "id": 60819648,
        "osm_type": "way",
        "name": "HDB",
        "brand": "HDB"
      }
    },
    {
      "type": "Feature",
      "geometry": {
        "type": "Point",
        "coordinates": [
          16.2180659,
          50.1218488
        ]
      },
      "properties": {
        "id": 60978246,
        "osm_type": "way",
        "name": "BENZINA",
        "opening_hours": "05:00-22:00"
      }
    },
    {
      "type": "Feature",
      "geometry": {
        "type": "Point",
        "coordinates": [
          15.5795126,
          50.4287989
        ]
      },
      "properties": {
        "id": 61493518,
        "osm_type": "way",
        "name": "Coop Tip",
        "brand": "Coop Tip",
        "opening_hours": "Mo-Fr 06:00-18:00; Sa 06:00-12:00; PH off"
      }
    },
    {
      "type": "Feature",
      "geometry": {
        "type": "Point",
        "coordinates": [
          15.6145869,
          50.621397
        ]
      },
      "properties": {
        "id": 68104307,
        "osm_type": "way",
        "name": "Astir"
      }
    },
    {
      "type": "Feature",
      "geometry": {
        "type": "Point",
        "coordinates": [
          16.0964528,
          50.1355279
        ]
      },
      "properties": {
        "id": 68428917,
        "osm_type": "way",
        "name": "Obecní prodejna Lípa nad Orlicí",
        "opening_hours": "Mo-Fr 06:30-11:00,14:00-16:30; Sa 07:30-11:00"
      }
    },
    {
      "type": "Feature",
      "geometry": {
        "type": "Point",
        "coordinates": [
          15.5832263,
          50.1598922
        ]
      },
      "properties": {
        "id": 118482720,
        "osm_type": "way"
      }
    },
    {
      "type": "Feature",
      "geometry": {
        "type": "Point",
        "coordinates": [
          16.2282514,
          50.5076483
        ]
      },
      "properties": {
        "id": 139494177,
        "osm_type": "way",
        "name": "Potraviny Bezděkov",
        "opening_hours": "Mo-Su 07:00-18:00"
      }
    },
    {
      "type": "Feature",
      "geometry": {
        "type": "Point",
        "coordinates": [
          16.059398,
          50.4507503
        ]
      },
      "properties": {
        "id": 139499891,
        "osm_type": "way",
        "name": "Smíšené zboží"
      }
    },
    {
      "type": "Feature",
      "geometry": {
        "type": "Point",
        "coordinates": [
          16.2438259,
          50.357325
        ]
      },
      "properties": {
        "id": 139892301,
        "osm_type": "way"
      }
    },
    {
      "type": "Feature",
      "geometry": {
        "type": "Point",
        "coordinates": [
          16.1089155,
          50.3864875
        ]
      },
      "properties": {
        "id": 139895210,
        "osm_type": "way",
        "name": "Večerka",
        "check_date": "2024-10-19"
      }
    },
    {
      "type": "Feature",
      "geometry": {
        "type": "Point",
        "coordinates": [
          16.07662,
          50.21387
        ]
      },
      "properties": {
        "id": 140165618,
        "osm_type": "way"
      }
    },
    {
      "type": "Feature",
      "geometry": {
        "type": "Point",
        "coordinates": [
          16.1488527,
          50.2095816
        ]
      },
      "properties": {
        "id": 140486126,
        "osm_type": "way"
      }
    },
    {
      "type": "Feature",
      "geometry": {
        "type": "Point",
        "coordinates": [
          15.4721046,
          50.4679522
        ]
      },
      "properties": {
        "id": 166490559,
        "osm_type": "way",
        "name": "Potraviny Jiříková",
        "opening_hours": "Mo-Fr 06:30-20:00; Sa,Su 07:00-20:00"
      }
    },
    {
      "type": "Feature",
      "geometry": {
        "type": "Point",
        "coordinates": [
          16.1640439,
          50.2453073
        ]
      },
      "properties": {
        "id": 170888508,
        "osm_type": "way",
        "name": "Potraviny a smíšené zboží Šmíd",
        "opening_hours": "Mo 07:00-11:00,14:00-16:00; Tu,Th 07:00-11:00; We,Fr 07:00-11:00,14:00-16:00,19:00-20:00; Sa 07:00-09:30,19:00-20:00"
      }
    },
    {
      "type": "Feature",
      "geometry": {
        "type": "Point",
        "coordinates": [
          15.6190321,
          50.3165066
        ]
      },
      "properties": {
        "id": 172079620,
        "osm_type": "way",
        "name": "Spotřební družstvo COOP"
      }
    },
    {
      "type": "Feature",
      "geometry": {
        "type": "Point",
        "coordinates": [
          15.5201304,
          50.387688
        ]
      },
      "properties": {
        "id": 172938563,
        "osm_type": "way",
        "name": "Jednota SP Nová Paka",
        "opening_hours": "Mo-Fr 07:00-16:00; Sa 06:30-09:30"
      }
    },
    {
      "type": "Feature",
      "geometry": {
        "type": "Point",
        "coordinates": [
          15.6961855,
          50.1906476
        ]
      },
      "properties": {
        "id": 174631580,
        "osm_type": "way",
        "name": "Prodejna Hruška"
      }
    },
    {
      "type": "Feature",
      "geometry": {
        "type": "Point",
        "coordinates": [
          15.806176,
          50.1907708
        ]
      },
      "properties": {
        "id": 210196534,
        "osm_type": "way",
        "name": "Tesco",
        "brand": "Tesco",
        "opening_hours": "Mo-Su 06:00-20:00"
      }
    },
    {
      "type": "Feature",
      "geometry": {
        "type": "Point",
        "coordinates": [
          16.0993777,
          50.2925271
        ]
      },
      "properties": {
        "id": 214648147,
        "osm_type": "way"
      }
    },
    {
      "type": "Feature",
      "geometry": {
        "type": "Point",
        "coordinates": [
          16.2243322,
          50.6156411
        ]
      },
      "properties": {
        "id": 221641300,
        "osm_type": "way",
        "name": "Potraviny",
        "opening_hours": "Mo-Fr 07:30-15:30"
      }
    },
    {
      "type": "Feature",
      "geometry": {
        "type": "Point",
        "coordinates": [
          16.3059843,
          50.0815095
        ]
      },
      "properties": {
        "id": 227967819,
        "osm_type": "way",
        "name": "Coop Konzum",
        "brand": "Coop Konzum"
      }
    },
    {
      "type": "Feature",
      "geometry": {
        "type": "Point",
        "coordinates": [
          15.8648547,
          50.2997647
        ]
      },
      "properties": {
        "id": 270918021,
        "osm_type": "way",
        "name": "U Brožů"
      }
    },
    {
      "type": "Feature",
      "geometry": {
        "type": "Point",
        "coordinates": [
          15.620869,
          50.6205083
        ]
      },
      "properties": {
        "id": 273274202,
        "osm_type": "way"
      }
    },
    {
      "type": "Feature",
      "geometry": {
        "type": "Point",
        "coordinates": [
          15.7963929,
          50.2895312
        ]
      },
      "properties": {
        "id": 286938665,
        "osm_type": "way"
      }
    },
    {
      "type": "Feature",
      "geometry": {
        "type": "Point",
        "coordinates": [
          16.3967033,
          50.2343709
        ]
      },
      "properties": {
        "id": 417809467,
        "osm_type": "way",
        "opening_hours": "Apr-Nov closed; Dec-Mar Mo-Su 9:00-16:00"
      }
    },
    {
      "type": "Feature",
      "geometry": {
        "type": "Point",
        "coordinates": [
          15.8288315,
          50.1852946
        ]
      },
      "properties": {
        "id": 476866386,
        "osm_type": "way",
        "name": "Tržnice Stromovka"
      }
    },
    {
      "type": "Feature",
      "geometry": {
        "type": "Point",
        "coordinates": [
          15.7034185,
          50.2955029
        ]
      },
      "properties": {
        "id": 526095537,
        "osm_type": "way",
        "name": "Stop Cafe",
        "brand": "Stop Cafe",
        "opening_hours": "Mo-Su 06:00-22:00"
      }
    },
    {
      "type": "Feature",
      "geometry": {
        "type": "Point",
        "coordinates": [
          16.2044439,
          50.1196979
        ]
      },
      "properties": {
        "id": 582933120,
        "osm_type": "way",
        "name": "Vodárna"
      }
    },
    {
      "type": "Feature",
      "geometry": {
        "type": "Point",
        "coordinates": [
          15.5967714,
          50.724235
        ]
      },
      "properties": {
        "id": 772387993,
        "osm_type": "way",
        "name": "Stop Cafe",
        "brand": "Stop Cafe",
        "opening_hours": "Mo-Su 05:00-23:00"
      }
    },
    {
      "type": "Feature",
      "geometry": {
        "type": "Point",
        "coordinates": [
          15.9118915,
          50.5616433
        ]
      },
      "properties": {
        "id": 1213672185,
        "osm_type": "way"
      }
    },
    {
      "type": "Feature",
      "geometry": {
        "type": "Point",
        "coordinates": [
          15.716745,
          50.2420496
        ]
      },
      "properties": {
        "id": 1340053043,
        "osm_type": "way",
        "name": "Bufet u hřiště"
      }
    },
    {
      "type": "Feature",
      "geometry": {
        "type": "Point",
        "coordinates": [
          15.8424416,
          50.2136376
        ]
      },
      "properties": {
        "id": 1435830744,
        "osm_type": "way"
      }
    },
    {
      "type": "Feature",
      "geometry": {
        "type": "Point",
        "coordinates": [
          15.8166047,
          50.2134345
        ]
      },
      "properties": {
        "id": 1456064943,
        "osm_type": "way"
      }
    },
    {
      "type": "Feature",
      "geometry": {
        "type": "Point",
        "coordinates": [
          15.8165017,
          50.2134569
        ]
      },
      "properties": {
        "id": 1456064944,
        "osm_type": "way"
      }
    }
  ]
}