{
  "type": "FeatureCollection",
  "features": [
    {
      "type": "Feature",
      "geometry": {
        "type": "Point",
        "coordinates": [
          15.8406766,
          50.1513872
        ]
      },
      "properties": {
        "id": 658514530,
        "osm_type": "node",
        "name": "Lovecká chata Hubert"
      }
    },
    {
      "type": "Feature",
      "geometry": {
        "type": "Point",
        "coordinates": [
          15.6618738,
          50.7093745
        ]
      },
      "properties": {
        "id": 958304118,
        "osm_type": "node",
        "name": "Útulna Atuln",
        "shelter_type": "basic_hut"
      }
    },
    {
      "type": "Feature",
      "geometry": {
        "type": "Point",
        "coordinates": [
          16.1875791,
          50.414368
        ]
      },
      "properties": {
        "id": 1566335713,
        "osm_type": "node",
        "shelter_type": "weather_shelter"
      }
    },
    {
      "type": "Feature",
      "geometry": {
        "type": "Point",
        "coordinates": [
          15.5635944,
          50.6860568
        ]
      },
      "properties": {
        "id": 1637448568,
        "osm_type": "node",
        "name": "Rovinka",
        "access": "yes",
        "shelter_type": "weather_shelter",
        "operator": "cz:krnap",
        "description": "Původně hraniční bod čtyř polesí. Harrachov Rezek Vítkovice Krausovy boudy"
      }
    },
    {
      "type": "Feature",
      "geometry": {
        "type": "Point",
        "coordinates": [
          16.3172449,
          50.1711183
        ]
      },
      "properties": {
        "id": 1977096894,
        "osm_type": "node",
        "name": "Ivanova poustevna",
        "shelter_type": "weather_shelter"
      }
    },
    {
      "type": "Feature",
      "geometry": {
        "type": "Point",
        "coordinates": [
          15.6477763,
          50.7428795
        ]
      },
      "properties": {
        "id": 2317133179,
        "osm_type": "node",
        "name": "Čertovka",
        "shelter_type": "weather_shelter"
      }
    },
    {
      "type": "Feature",
      "geometry": {
        "type": "Point",
        "coordinates": [
          16.3563493,
          50.6466731
        ]
      },
      "properties": {
        "id": 3624131691,
        "osm_type": "node",
        "shelter_type": "weather_shelter"
      }
    },
    {
      "type": "Feature",
      "geometry": {
        "type": "Point",
        "coordinates": [
          15.7856227,
          50.6541514
        ]
      },
      "properties": {
        "id": 4279004214,
        "osm_type": "node",
        "shelter_type": "weather_shelter"
      }
    },
    {
      "type": "Feature",
      "geometry": {
        "type": "Point",
        "coordinates": [
          16.3599402,
          50.353449
        ]
      },
      "properties": {
        "id": 4674839660,
        "osm_type": "node",
        "shelter_type": "weather_shelter",
        "bench": "yes"
      }
    },
    {
      "type": "Feature",
      "geometry": {
        "type": "Point",
        "coordinates": [
          15.5860019,
          50.6395379
        ]
      },
      "properties": {
        "id": 5496405071,
        "osm_type": "node",
        "shelter_type": "basic_hut"
      }
    },
    {
      "type": "Feature",
      "geometry": {
        "type": "Point",
        "coordinates": [
          16.0870783,
          50.3127122
        ]
      },
      "properties": {
        "id": 5805993592,
        "osm_type": "node",
        "shelter_type": "weather_shelter",
        "bench": "yes"
      }
    },
    {
      "type": "Feature",
      "geometry": {
        "type": "Point",
        "coordinates": [
          16.1403598,
          50.2385756
        ]
      },
      "properties": {
        "id": 7024359004,
        "osm_type": "node",
        "shelter_type": "weather_shelter",
        "bench": "yes"
      }
    },
    {
      "type": "Feature",
      "geometry": {
        "type": "Point",
        "coordinates": [
          16.2840245,
          50.5012151
        ]
      },
      "properties": {
        "id": 7295246272,
        "osm_type": "node",
        "shelter_type": "weather_shelter",
        "bench": "yes"
      }
    },
    {
      "type": "Feature",
      "geometry": {
        "type": "Point",
        "coordinates": [
          15.1597114,
          50.4196614
        ]
      },
      "properties": {
        "id": 8091533397,
        "osm_type": "node",
        "shelter_type": "basic_hut"
      }
    },
    {
      "type": "Feature",
      "geometry": {
        "type": "Point",
        "coordinates": [
          16.1604049,
          50.2770555
        ]
      },
      "properties": {
        "id": 8613162009,
        "osm_type": "node",
        "shelter_type": "weather_shelter",
        "bench": "yes"
      }
    },
    {
      "type": "Feature",
      "geometry": {
        "type": "Point",
        "coordinates": [
          15.3714154,
          50.444507
        ]
      },
      "properties": {
        "id": 8892536817,
        "osm_type": "node",
        "access": "no"
      }
    },
    {
      "type": "Feature",
      "geometry": {
        "type": "Point",
        "coordinates": [
          16.1060503,
          50.2631228
        ]
      },
      "properties": {
        "id": 9443917903,
        "osm_type": "node",
        "shelter_type": "weather_shelter",
        "bench": "yes"
      }
    },
    {
      "type": "Feature",
      "geometry": {
        "type": "Point",
        "coordinates": [
          16.3139005,
          50.1728827
        ]
      },
      "properties": {
        "id": 9752572414,
        "osm_type": "node",
        "name": "Perníková chaloupka"
      }
    },
    {
      "type": "Feature",
      "geometry": {
        "type": "Point",
        "coordinates": [
          16.0678246,
          50.5419787
        ]
      },
      "properties": {
        "id": 11200550720,
        "osm_type": "node",
        "shelter_type": "basic_hut"
      }
    },
    {
      "type": "Feature",
      "geometry": {
        "type": "Point",
        "coordinates": [
          16.1449374,
          50.4920631
        ]
      },
      "properties": {
        "id": 11821329956,
        "osm_type": "node",
        "shelter_type": "weather_shelter",
        "bench": "yes"
      }
    },
    {
      "type": "Feature",
      "geometry": {
        "type": "Point",
        "coordinates": [
          16.1595012,
          50.5987226
        ]
      },
      "properties": {
        "id": 12076048167,
        "osm_type": "node",
        "description": "Je třeba ověřit stav na místě."
      }
    },
    {
      "type": "Feature",
      "geometry": {
        "type": "Point",
        "coordinates": [
          15.6345858,
          50.7450465
        ]
      },
      "properties": {
        "id": 12100212569,
        "osm_type": "node",
        "name": "Kømen",
        "shelter_type": "basic_hut"
      }
    },
    {
      "type": "Feature",
      "geometry": {
        "type": "Point",
        "coordinates": [
          15.634468,
          50.7449169
        ]
      },
      "properties": {
        "id": 12100212571,
        "osm_type": "node",
        "shelter_type": "basic_hut"
      }
    },
    {
      "type": "Feature",
      "geometry": {
        "type": "Point",
        "coordinates": [
          15.6892395,
          50.2649907
        ]
      },
      "properties": {
        "id": 12492945664,
        "osm_type": "node",
        "shelter_type": "weather_shelter"
      }
    },
    {
      "type": "Feature",
      "geometry": {
        "type": "Point",
        "coordinates": [
          16.5499255,
          50.2155616
        ]
      },
      "properties": {
        "id": 12553757339,
        "osm_type": "node",
        "name": "Útulna Neratov 1",
        "shelter_type": "lean_to",
        "bench": "yes"
      }
    },
    {
      "type": "Feature",
      "geometry": {
        "type": "Point",
        "coordinates": [
          16.5500847,
          50.2155437
        ]
      },
      "properties": {
        "id": 12553757340,
        "osm_type": "node",
        "name": "Útulna Neratov 2",
        "shelter_type": "lean_to",
        "bench": "yes"
      }
    },
    {
      "type": "Feature",
      "geometry": {
        "type": "Point",
        "coordinates": [
          15.628354,
          50.4955117
        ]
      },
      "properties": {
        "id": 13353122618,
        "osm_type": "node"
      }
    },
    {
      "type": "Feature",
      "geometry": {
        "type": "Point",
        "coordinates": [
          15.7350616,
          50.4330238
        ]
      },
      "properties": {
        "id": 13357744684,
        "osm_type": "node"
      }
    },
    {
      "type": "Feature",
      "geometry": {
        "type": "Point",
        "coordinates": [
          15.6991007,
          50.4496054
        ]
      },
      "properties": {
        "id": 13500847735,
        "osm_type": "node"
      }
    },
    {
      "type": "Feature",
      "geometry": {
        "type": "Point",
        "coordinates": [
          15.6430096,
          50.4631474
        ]
      },
      "properties": {
        "id": 13690734401,
        "osm_type": "node",
        "shelter_type": "basic_hut",
        "bench": "yes",
        "operator": "Skauti"
      }
    },
    {
      "type": "Feature",
      "geometry": {
        "type": "Point",
        "coordinates": [
          15.582501,
          50.7784185
        ]
      },
      "properties": {
        "id": 292947417,
        "osm_type": "way",
        "shelter_type": "weather_shelter"
      }
    },
    {
      "type": "Feature",
      "geometry": {
        "type": "Point",
        "coordinates": [
          15.9144314,
          50.179452
        ]
      },
      "properties": {
        "id": 384137695,
        "osm_type": "way",
        "fee": "yes"
      }
    },
    {
      "type": "Feature",
      "geometry": {
        "type": "Point",
        "coordinates": [
          15.7296529,
          50.3334816
        ]
      },
      "properties": {
        "id": 526095477,
        "osm_type": "way",
        "name": "Hájovna Cerekvice"
      }
    },
    {
      "type": "Feature",
      "geometry": {
        "type": "Point",
        "coordinates": [
          16.3864308,
          50.3264861
        ]
      },
      "properties": {
        "id": 710683081,
        "osm_type": "way",
        "shelter_type": "weather_shelter",
        "bench": "yes"
      }
    },
    {
      "type": "Feature",
      "geometry": {
        "type": "Point",
        "coordinates": [
          15.6929742,
          50.6606767
        ]
      },
      "properties": {
        "id": 721588926,
        "osm_type": "way",
        "name": "Přístřešek Rejdiště",
        "shelter_type": "weather_shelter",
        "bench": "yes"
      }
    },
    {
      "type": "Feature",
      "geometry": {
        "type": "Point",
        "coordinates": [
          15.3594584,
          50.4450279
        ]
      },
      "properties": {
        "id": 781399047,
        "osm_type": "way",
        "name": "JUBILEJNÍ KLUBOVNA BOBŘÍ HRAD"
      }
    },
    {
      "type": "Feature",
      "geometry": {
        "type": "Point",
        "coordinates": [
          16.1199895,
          50.581321
        ]
      },
      "properties": {
        "id": 907641008,
        "osm_type": "way"
      }
    },
    {
      "type": "Feature",
      "geometry": {
        "type": "Point",
        "coordinates": [
          16.1328701,
          50.5782919
        ]
      },
      "properties": {
        "id": 907641013,
        "osm_type": "way",
        "name": "Mádrovka",
        "access": "no"
      }
    },
    {
      "type": "Feature",
      "geometry": {
        "type": "Point",
        "coordinates": [
          16.3218286,
          50.19888
        ]
      },
      "properties": {
        "id": 1058183973,
        "osm_type": "way"
      }
    },
    {
      "type": "Feature",
      "geometry": {
        "type": "Point",
        "coordinates": [
          16.3266956,
          50.2050285
        ]
      },
      "properties": {
        "id": 1058433441,
        "osm_type": "way"
      }
    },
    {
      "type": "Feature",
      "geometry": {
        "type": "Point",
        "coordinates": [
          16.3277005,
          50.2059128
        ]
      },
      "properties": {
        "id": 1058433442,
        "osm_type": "way"
      }
    },
    {
      "type": "Feature",
      "geometry": {
        "type": "Point",
        "coordinates": [
          16.3269174,
          50.2143283
        ]
      },
      "properties": {
        "id": 1058439505,
        "osm_type": "way"
      }
    },
    {
      "type": "Feature",
      "geometry": {
        "type": "Point",
        "coordinates": [
          16.3281913,
          50.2111666
        ]
      },
      "properties": {
        "id": 1058439506,
        "osm_type": "way"
      }
    },
    {
      "type": "Feature",
      "geometry": {
        "type": "Point",
        "coordinates": [
          16.3283099,
          50.2109665
        ]
      },
      "properties": {
        "id": 1058439507,
        "osm_type": "way"
      }
    },
    {
      "type": "Feature",
      "geometry": {
        "type": "Point",
        "coordinates": [
          16.328465,
          50.21104
        ]
      },
      "properties": {
        "id": 1058439508,
        "osm_type": "way"
      }
    },
    {
      "type": "Feature",
      "geometry": {
        "type": "Point",
        "coordinates": [
          16.3284644,
          50.2109239
        ]
      },
      "properties": {
        "id": 1058439509,
        "osm_type": "way"
      }
    },
    {
      "type": "Feature",
      "geometry": {
        "type": "Point",
        "coordinates": [
          16.3284881,
          50.2108564
        ]
      },
      "properties": {
        "id": 1058439510,
        "osm_type": "way"
      }
    },
    {
      "type": "Feature",
      "geometry": {
        "type": "Point",
        "coordinates": [
          16.335547,
          50.2245051
        ]
      },
      "properties": {
        "id": 1058861755,
        "osm_type": "way"
      }
    },
    {
      "type": "Feature",
      "geometry": {
        "type": "Point",
        "coordinates": [
          15.7001938,
          50.6738448
        ]
      },
      "properties": {
        "id": 1183901118,
        "osm_type": "way",
        "shelter_type": "weather_shelter"
      }
    },
    {
      "type": "Feature",
      "geometry": {
        "type": "Point",
        "coordinates": [
          16.3410073,
          50.517363
        ]
      },
      "properties": {
        "id": 1231549578,
        "osm_type": "way",
        "shelter_type": "weather_shelter",
        "bench": "yes"
      }
    },
    {
      "type": "Feature",
      "geometry": {
        "type": "Point",
        "coordinates": [
          16.0928481,
          50.5499381
        ]
      },
      "properties": {
        "id": 1312037085,
        "osm_type": "way",
        "shelter_type": "lean_to"
      }
    },
    {
      "type": "Feature",
      "geometry": {
        "type": "Point",
        "coordinates": [
          15.5782295,
          50.2711784
        ]
      },
      "properties": {
        "id": 1369972042,
        "osm_type": "way",
        "shelter_type": "weather_shelter"
      }
    },
    {
      "type": "Feature",
      "geometry": {
        "type": "Point",
        "coordinates": [
          15.9124796,
          50.6305536
        ]
      },
      "properties": {
        "id": 1378980922,
        "osm_type": "way",
        "shelter_type": "weather_shelter"
      }
    },
    {
      "type": "Feature",
      "geometry": {
        "type": "Point",
        "coordinates": [
          16.2933028,
          50.1709805
        ]
      },
      "properties": {
        "id": 1381534081,
        "osm_type": "way",
        "name": "Altánek",
        "shelter_type": "weather_shelter"
      }
    },
    {
      "type": "Feature",
      "geometry": {
        "type": "Point",
        "coordinates": [
          15.6352001,
          50.7446279
        ]
      },
      "properties": {
        "id": 1382707027,
        "osm_type": "way",
        "shelter_type": "weather_shelter"
      }
    },
    {
      "type": "Feature",
      "geometry": {
        "type": "Point",
        "coordinates": [
          15.6160661,
          50.690389
        ]
      },
      "properties": {
        "id": 1495849551,
        "osm_type": "way",
        "shelter_type": "weather_shelter"
      }
    }
  ]
}