{
  "type": "FeatureCollection",
  "features": [
    {
      "type": "Feature",
      "geometry": {
        "type": "Point",
        "coordinates": [
          18.7650259,
          44.8605817
        ]
      },
      "properties": {
        "id": 1684700353,
        "osm_type": "node",
        "name": "Kod Safete"
      }
    },
    {
      "type": "Feature",
      "geometry": {
        "type": "Point",
        "coordinates": [
          18.8101765,
          44.8773192
        ]
      },
      "properties": {
        "id": 1693897030,
        "osm_type": "node"
      }
    },
    {
      "type": "Feature",
      "geometry": {
        "type": "Point",
        "coordinates": [
          18.8066975,
          44.8806244
        ]
      },
      "properties": {
        "id": 1693941517,
        "osm_type": "node",
        "name": "Restoran SEHER",
        "cuisine": "seafood"
      }
    },
    {
      "type": "Feature",
      "geometry": {
        "type": "Point",
        "coordinates": [
          18.8145466,
          44.8773416
        ]
      },
      "properties": {
        "id": 1860275099,
        "osm_type": "node",
        "name": "Cicibela"
      }
    },
    {
      "type": "Feature",
      "geometry": {
        "type": "Point",
        "coordinates": [
          18.8099268,
          44.8749156
        ]
      },
      "properties": {
        "id": 1897832995,
        "osm_type": "node",
        "name": "Naša priča",
        "opening_hours": "Mo-Su 07:00-22:00"
      }
    },
    {
      "type": "Feature",
      "geometry": {
        "type": "Point",
        "coordinates": [
          18.8149198,
          44.8743034
        ]
      },
      "properties": {
        "id": 1913868976,
        "osm_type": "node",
        "name": "Bek",
        "cuisine": "regional"
      }
    },
    {
      "type": "Feature",
      "geometry": {
        "type": "Point",
        "coordinates": [
          18.8179631,
          44.875358
        ]
      },
      "properties": {
        "id": 1913868978,
        "osm_type": "node",
        "name": "Bek",
        "cuisine": "regional"
      }
    },
    {
      "type": "Feature",
      "geometry": {
        "type": "Point",
        "coordinates": [
          18.7997777,
          44.8788128
        ]
      },
      "properties": {
        "id": 2460279186,
        "osm_type": "node",
        "name": "Draško"
      }
    },
    {
      "type": "Feature",
      "geometry": {
        "type": "Point",
        "coordinates": [
          18.7587877,
          44.905894
        ]
      },
      "properties": {
        "id": 2828017010,
        "osm_type": "node",
        "name": "Restoran Bakarni Lonac",
        "website": "https://bakarnilonac.com/"
      }
    },
    {
      "type": "Feature",
      "geometry": {
        "type": "Point",
        "coordinates": [
          18.7589191,
          44.9041007
        ]
      },
      "properties": {
        "id": 2828084175,
        "osm_type": "node",
        "name": "Gastro Centar",
        "website": "https://bakarnilonac.com/"
      }
    },
    {
      "type": "Feature",
      "geometry": {
        "type": "Point",
        "coordinates": [
          18.9563984,
          44.8461632
        ]
      },
      "properties": {
        "id": 3643198411,
        "osm_type": "node",
        "name": "Masada",
        "cuisine": "regional",
        "takeaway": "yes"
      }
    },
    {
      "type": "Feature",
      "geometry": {
        "type": "Point",
        "coordinates": [
          18.9508958,
          44.848168
        ]
      },
      "properties": {
        "id": 3644009296,
        "osm_type": "node",
        "name": "Dva ribara",
        "cuisine": "regional",
        "takeaway": "yes"
      }
    },
    {
      "type": "Feature",
      "geometry": {
        "type": "Point",
        "coordinates": [
          18.7767051,
          44.8624224
        ]
      },
      "properties": {
        "id": 3718431408,
        "osm_type": "node",
        "name": "Restoran Condor"
      }
    },
    {
      "type": "Feature",
      "geometry": {
        "type": "Point",
        "coordinates": [
          18.8327526,
          44.8552254
        ]
      },
      "properties": {
        "id": 5809854798,
        "osm_type": "node",
        "name": "Restoran NJAM NJAM"
      }
    },
    {
      "type": "Feature",
      "geometry": {
        "type": "Point",
        "coordinates": [
          18.8854846,
          44.8504858
        ]
      },
      "properties": {
        "id": 6210129804,
        "osm_type": "node"
      }
    },
    {
      "type": "Feature",
      "geometry": {
        "type": "Point",
        "coordinates": [
          18.8149175,
          44.8743639
        ]
      },
      "properties": {
        "id": 10587580390,
        "osm_type": "node",
        "name": "Restoran Marco Polo"
      }
    },
    {
      "type": "Feature",
      "geometry": {
        "type": "Point",
        "coordinates": [
          18.8293744,
          44.8626662
        ]
      },
      "properties": {
        "id": 10587580401,
        "osm_type": "node",
        "name": "WALTER Sarajevski ćevap",
        "opening_hours": "Mo-Sa 08:00-22:00; Su 08:00-19:00"
      }
    },
    {
      "type": "Feature",
      "geometry": {
        "type": "Point",
        "coordinates": [
          18.809453,
          44.8636869
        ]
      },
      "properties": {
        "id": 10591537206,
        "osm_type": "node",
        "name": "Restoran Bingo"
      }
    },
    {
      "type": "Feature",
      "geometry": {
        "type": "Point",
        "coordinates": [
          18.8094306,
          44.8624896
        ]
      },
      "properties": {
        "id": 10594725676,
        "osm_type": "node",
        "name": "La Casa"
      }
    },
    {
      "type": "Feature",
      "geometry": {
        "type": "Point",
        "coordinates": [
          18.7692476,
          44.8889161
        ]
      },
      "properties": {
        "id": 11962756744,
        "osm_type": "node",
        "name": "Ambasador",
        "opening_hours": "Mo-Su 06:00-23:00",
        "cuisine": "regional"
      }
    },
    {
      "type": "Feature",
      "geometry": {
        "type": "Point",
        "coordinates": [
          18.815714,
          44.8514596
        ]
      },
      "properties": {
        "id": 13074736188,
        "osm_type": "node",
        "name": "St. Luka"
      }
    },
    {
      "type": "Feature",
      "geometry": {
        "type": "Point",
        "coordinates": [
          18.7985402,
          44.8782653
        ]
      },
      "properties": {
        "id": 13087072917,
        "osm_type": "node",
        "name": "Kort Restaurant"
      }
    },
    {
      "type": "Feature",
      "geometry": {
        "type": "Point",
        "coordinates": [
          18.6924306,
          44.7808563
        ]
      },
      "properties": {
        "id": 13135753283,
        "osm_type": "node",
        "name": "Havana",
        "opening_hours": "Mo-Sa 06:00-23:00",
        "phone": "+387 049 513-320",
        "website": "https://www.facebook.com/p/Restoran-Havana-100057730980060/",
        "cuisine": "pizza;ice_cream;cake;balkan;juice",
        "outdoor_seating": "yes"
      }
    },
    {
      "type": "Feature",
      "geometry": {
        "type": "Point",
        "coordinates": [
          18.8095996,
          44.8792249
        ]
      },
      "properties": {
        "id": 13202048215,
        "osm_type": "node",
        "name": "Restoran DUGA",
        "cuisine": "international"
      }
    },
    {
      "type": "Feature",
      "geometry": {
        "type": "Point",
        "coordinates": [
          18.8128319,
          44.8748958
        ]
      },
      "properties": {
        "id": 13202048219,
        "osm_type": "node",
        "name": "Galerija",
        "cuisine": "regional"
      }
    },
    {
      "type": "Feature",
      "geometry": {
        "type": "Point",
        "coordinates": [
          18.8027991,
          44.8607163
        ]
      },
      "properties": {
        "id": 13206194317,
        "osm_type": "node",
        "name": "Kod Dine"
      }
    },
    {
      "type": "Feature",
      "geometry": {
        "type": "Point",
        "coordinates": [
          18.764372,
          44.8607129
        ]
      },
      "properties": {
        "id": 13616337599,
        "osm_type": "node",
        "name": "Lejla",
        "phone": "+387 062 556 646",
        "cuisine": "chicken"
      }
    },
    {
      "type": "Feature",
      "geometry": {
        "type": "Point",
        "coordinates": [
          18.7833506,
          44.8680925
        ]
      },
      "properties": {
        "id": 13619413903,
        "osm_type": "node",
        "name": "Kod Huse"
      }
    },
    {
      "type": "Feature",
      "geometry": {
        "type": "Point",
        "coordinates": [
          18.7958678,
          44.8762404
        ]
      },
      "properties": {
        "id": 13621994414,
        "osm_type": "node",
        "name": "Meraje",
        "opening_hours": "Mo-Su 07:00-21:00",
        "phone": "+387 049 215-699",
        "cuisine": "pizza;chicken;balkan;fries"
      }
    },
    {
      "type": "Feature",
      "geometry": {
        "type": "Point",
        "coordinates": [
          18.79632,
          44.8711826
        ]
      },
      "properties": {
        "id": 13624447032,
        "osm_type": "node",
        "name": "Bosanska kuća",
        "cuisine": "balkan"
      }
    },
    {
      "type": "Feature",
      "geometry": {
        "type": "Point",
        "coordinates": [
          18.6996975,
          44.8324719
        ]
      },
      "properties": {
        "id": 742041893,
        "osm_type": "way",
        "name": "Restoran Holiday"
      }
    },
    {
      "type": "Feature",
      "geometry": {
        "type": "Point",
        "coordinates": [
          18.8145567,
          44.8774318
        ]
      },
      "properties": {
        "id": 759908186,
        "osm_type": "way",
        "name": "Cicibela"
      }
    },
    {
      "type": "Feature",
      "geometry": {
        "type": "Point",
        "coordinates": [
          18.8067755,
          44.8807689
        ]
      },
      "properties": {
        "id": 928186944,
        "osm_type": "way"
      }
    },
    {
      "type": "Feature",
      "geometry": {
        "type": "Point",
        "coordinates": [
          18.8405884,
          44.7915608
        ]
      },
      "properties": {
        "id": 1496792194,
        "osm_type": "way"
      }
    }
  ]
}