{
  "type": "FeatureCollection",
  "features": [
    {
      "type": "Feature",
      "geometry": {
        "type": "Point",
        "coordinates": [
          18.8297755,
          44.8626513
        ]
      },
      "properties": {
        "id": 10582030818,
        "osm_type": "node"
      }
    },
    {
      "type": "Feature",
      "geometry": {
        "type": "Point",
        "coordinates": [
          18.8282864,
          44.8617994
        ]
      },
      "properties": {
        "id": 10582030824,
        "osm_type": "node"
      }
    },
    {
      "type": "Feature",
      "geometry": {
        "type": "Point",
        "coordinates": [
          18.8092743,
          44.8637221
        ]
      },
      "properties": {
        "id": 10594779042,
        "osm_type": "node"
      }
    }
  ]
}