{
  "type": "FeatureCollection",
  "features": [
    {
      "type": "Feature",
      "geometry": {
        "type": "Point",
        "coordinates": [
          23.250372,
          43.8135338
        ]
      },
      "properties": {
        "id": 2189161558,
        "osm_type": "node",
        "name": "Лукойл",
        "brand": "Лукойл",
        "opening_hours": "24/7"
      }
    },
    {
      "type": "Feature",
      "geometry": {
        "type": "Point",
        "coordinates": [
          23.2375647,
          43.4021111
        ]
      },
      "properties": {
        "id": 2395084387,
        "osm_type": "node",
        "name": "Лукойл",
        "brand": "Лукойл"
      }
    },
    {
      "type": "Feature",
      "geometry": {
        "type": "Point",
        "coordinates": [
          23.0578445,
          43.4073386
        ]
      },
      "properties": {
        "id": 2441241173,
        "osm_type": "node",
        "name": "Петрол",
        "brand": "Петрол",
        "opening_hours": "Mo-Su 07:00-19:00"
      }
    },
    {
      "type": "Feature",
      "geometry": {
        "type": "Point",
        "coordinates": [
          23.4401482,
          43.7033735
        ]
      },
      "properties": {
        "id": 2772155043,
        "osm_type": "node",
        "name": "Петрол",
        "brand": "Петрол",
        "opening_hours": "Mo-Su 06:00-22:00"
      }
    },
    {
      "type": "Feature",
      "geometry": {
        "type": "Point",
        "coordinates": [
          23.3232231,
          43.4913504
        ]
      },
      "properties": {
        "id": 2811187699,
        "osm_type": "node"
      }
    },
    {
      "type": "Feature",
      "geometry": {
        "type": "Point",
        "coordinates": [
          22.9411063,
          43.5489931
        ]
      },
      "properties": {
        "id": 3076589139,
        "osm_type": "node",
        "name": "Лукойл",
        "brand": "Лукойл"
      }
    },
    {
      "type": "Feature",
      "geometry": {
        "type": "Point",
        "coordinates": [
          23.1415194,
          43.2342662
        ]
      },
      "properties": {
        "id": 3334249611,
        "osm_type": "node",
        "name": "OMV",
        "brand": "OMV",
        "opening_hours": "24/7"
      }
    },
    {
      "type": "Feature",
      "geometry": {
        "type": "Point",
        "coordinates": [
          23.228225,
          43.4208876
        ]
      },
      "properties": {
        "id": 3334249705,
        "osm_type": "node",
        "name": "OMV",
        "brand": "OMV",
        "opening_hours": "24/7",
        "check_date": "2023-09-18"
      }
    },
    {
      "type": "Feature",
      "geometry": {
        "type": "Point",
        "coordinates": [
          23.2929441,
          43.2017934
        ]
      },
      "properties": {
        "id": 4879101252,
        "osm_type": "node",
        "brand": "Глобал ойл"
      }
    },
    {
      "type": "Feature",
      "geometry": {
        "type": "Point",
        "coordinates": [
          23.2930756,
          43.2025413
        ]
      },
      "properties": {
        "id": 4879101259,
        "osm_type": "node",
        "name": "Петрол",
        "brand": "Петрол"
      }
    },
    {
      "type": "Feature",
      "geometry": {
        "type": "Point",
        "coordinates": [
          23.2462603,
          43.4031378
        ]
      },
      "properties": {
        "id": 5730436865,
        "osm_type": "node"
      }
    },
    {
      "type": "Feature",
      "geometry": {
        "type": "Point",
        "coordinates": [
          23.1957878,
          43.8202773
        ]
      },
      "properties": {
        "id": 5730721107,
        "osm_type": "node",
        "name": "Петрол",
        "brand": "Петрол"
      }
    },
    {
      "type": "Feature",
      "geometry": {
        "type": "Point",
        "coordinates": [
          23.2363123,
          43.8027216
        ]
      },
      "properties": {
        "id": 5781588546,
        "osm_type": "node",
        "name": "Лукойл",
        "brand": "Лукойл"
      }
    },
    {
      "type": "Feature",
      "geometry": {
        "type": "Point",
        "coordinates": [
          23.2414307,
          43.8190669
        ]
      },
      "properties": {
        "id": 5786845090,
        "osm_type": "node"
      }
    },
    {
      "type": "Feature",
      "geometry": {
        "type": "Point",
        "coordinates": [
          23.4440449,
          43.6970016
        ]
      },
      "properties": {
        "id": 5790224240,
        "osm_type": "node"
      }
    },
    {
      "type": "Feature",
      "geometry": {
        "type": "Point",
        "coordinates": [
          23.2206673,
          43.4254369
        ]
      },
      "properties": {
        "id": 6431492689,
        "osm_type": "node"
      }
    },
    {
      "type": "Feature",
      "geometry": {
        "type": "Point",
        "coordinates": [
          23.242992,
          43.4024465
        ]
      },
      "properties": {
        "id": 6431642406,
        "osm_type": "node",
        "name": "EKO",
        "brand": "EKO"
      }
    },
    {
      "type": "Feature",
      "geometry": {
        "type": "Point",
        "coordinates": [
          23.2285006,
          43.424918
        ]
      },
      "properties": {
        "id": 6432667098,
        "osm_type": "node",
        "name": "Лукойл",
        "brand": "Лукойл",
        "opening_hours": "24/7",
        "check_date": "2023-12-09"
      }
    },
    {
      "type": "Feature",
      "geometry": {
        "type": "Point",
        "coordinates": [
          23.2057247,
          43.4141045
        ]
      },
      "properties": {
        "id": 6433115207,
        "osm_type": "node",
        "name": "Петрол",
        "brand": "Петрол"
      }
    },
    {
      "type": "Feature",
      "geometry": {
        "type": "Point",
        "coordinates": [
          23.2075777,
          43.4130715
        ]
      },
      "properties": {
        "id": 6433115218,
        "osm_type": "node"
      }
    },
    {
      "type": "Feature",
      "geometry": {
        "type": "Point",
        "coordinates": [
          23.2152747,
          43.4144539
        ]
      },
      "properties": {
        "id": 6434518076,
        "osm_type": "node"
      }
    },
    {
      "type": "Feature",
      "geometry": {
        "type": "Point",
        "coordinates": [
          23.2328405,
          43.4330391
        ]
      },
      "properties": {
        "id": 6435988881,
        "osm_type": "node",
        "name": "Метанстанция \"Екометан\""
      }
    },
    {
      "type": "Feature",
      "geometry": {
        "type": "Point",
        "coordinates": [
          23.2392048,
          43.4070073
        ]
      },
      "properties": {
        "id": 6436480882,
        "osm_type": "node",
        "name": "Shell",
        "brand": "Shell"
      }
    },
    {
      "type": "Feature",
      "geometry": {
        "type": "Point",
        "coordinates": [
          23.2304541,
          43.4140973
        ]
      },
      "properties": {
        "id": 6468219697,
        "osm_type": "node",
        "name": "Петрол",
        "brand": "Петрол"
      }
    },
    {
      "type": "Feature",
      "geometry": {
        "type": "Point",
        "coordinates": [
          23.1073527,
          43.711985
        ]
      },
      "properties": {
        "id": 10136094716,
        "osm_type": "node"
      }
    },
    {
      "type": "Feature",
      "geometry": {
        "type": "Point",
        "coordinates": [
          23.1577803,
          43.1883792
        ]
      },
      "properties": {
        "id": 10140501701,
        "osm_type": "node",
        "name": "Ио Газ",
        "opening_hours": "24/7",
        "check_date": "2024-02-18"
      }
    },
    {
      "type": "Feature",
      "geometry": {
        "type": "Point",
        "coordinates": [
          23.1421278,
          43.2434873
        ]
      },
      "properties": {
        "id": 10140528635,
        "osm_type": "node",
        "name": "Топойл"
      }
    },
    {
      "type": "Feature",
      "geometry": {
        "type": "Point",
        "coordinates": [
          23.3589035,
          43.5138604
        ]
      },
      "properties": {
        "id": 11254889351,
        "osm_type": "node",
        "name": "Петрол",
        "brand": "Петрол",
        "opening_hours": "Mo-Su 07:00-19:00"
      }
    },
    {
      "type": "Feature",
      "geometry": {
        "type": "Point",
        "coordinates": [
          22.9816604,
          43.4321859
        ]
      },
      "properties": {
        "id": 11708114985,
        "osm_type": "node",
        "name": "Бис",
        "opening_hours": "06:00-19:00",
        "check_date": "2024-03-09"
      }
    },
    {
      "type": "Feature",
      "geometry": {
        "type": "Point",
        "coordinates": [
          23.1958581,
          43.8201977
        ]
      },
      "properties": {
        "id": 1143229769,
        "osm_type": "way"
      }
    }
  ]
}