{
  "type": "FeatureCollection",
  "features": [
    {
      "type": "Feature",
      "geometry": {
        "type": "Point",
        "coordinates": [
          7.5931344,
          47.5342084
        ]
      },
      "properties": {
        "id": 1794707586,
        "osm_type": "node",
        "name": "Coop",
        "brand": "Coop",
        "opening_hours": "Mo-Fr 07:30-18:30; Sa 07:30-16:00"
      }
    },
    {
      "type": "Feature",
      "geometry": {
        "type": "Point",
        "coordinates": [
          7.5936146,
          47.5322364
        ]
      },
      "properties": {
        "id": 2372630355,
        "osm_type": "node",
        "name": "Bruderholz Lädeli",
        "opening_hours": "Tu-Su 09:00-19:00"
      }
    },
    {
      "type": "Feature",
      "geometry": {
        "type": "Point",
        "coordinates": [
          7.5977406,
          47.5403806
        ]
      },
      "properties": {
        "id": 5137918322,
        "osm_type": "node",
        "name": "ALDI",
        "brand": "ALDI",
        "opening_hours": "Mo-Fr 08:00-20:00; Sa 07:30-18:00"
      }
    },
    {
      "type": "Feature",
      "geometry": {
        "type": "Point",
        "coordinates": [
          7.5984427,
          47.5401803
        ]
      },
      "properties": {
        "id": 10721637133,
        "osm_type": "node",
        "name": "Denner",
        "brand": "Denner",
        "opening_hours": "Mo-Fr 08:00-20:00; Sa 07:30-18:00"
      }
    },
    {
      "type": "Feature",
      "geometry": {
        "type": "Point",
        "coordinates": [
          7.5594212,
          47.5460322
        ]
      },
      "properties": {
        "id": 4933939222,
        "osm_type": "node",
        "name": "Neuweiler Lädeli"
      }
    },
    {
      "type": "Feature",
      "geometry": {
        "type": "Point",
        "coordinates": [
          7.5623892,
          47.5518459
        ]
      },
      "properties": {
        "id": 1717530033,
        "osm_type": "node",
        "name": "Coop",
        "brand": "Coop",
        "opening_hours": "Mo-Fr 08:30-18:30; Sa 08:30-17:00"
      }
    },
    {
      "type": "Feature",
      "geometry": {
        "type": "Point",
        "coordinates": [
          7.5649976,
          47.5466265
        ]
      },
      "properties": {
        "id": 274673564,
        "osm_type": "node",
        "name": "Coop",
        "brand": "Coop",
        "opening_hours": "Mo-Fr 07:30-20:00; Sa 07:30-18:00"
      }
    },
    {
      "type": "Feature",
      "geometry": {
        "type": "Point",
        "coordinates": [
          7.5643633,
          47.5469654
        ]
      },
      "properties": {
        "id": 1168833492,
        "osm_type": "node",
        "name": "Migros",
        "brand": "Migros",
        "opening_hours": "Mo-Fr 08:00-19:00; Sa 08:00-18:00; PH off"
      }
    },
    {
      "type": "Feature",
      "geometry": {
        "type": "Point",
        "coordinates": [
          7.5631279,
          47.551914
        ]
      },
      "properties": {
        "id": 1597662886,
        "osm_type": "node",
        "name": "Migros Partner",
        "opening_hours": "Mo-Fr 07:30-20:00, Sa 07:30-18:00, Su 08:00-18:00"
      }
    },
    {
      "type": "Feature",
      "geometry": {
        "type": "Point",
        "coordinates": [
          7.5734503,
          47.556004
        ]
      },
      "properties": {
        "id": 5718170409,
        "osm_type": "node",
        "name": "Migros",
        "brand": "Migros",
        "opening_hours": "Mo-Fr 08:00-20:00; Sa 07:30-18:00"
      }
    },
    {
      "type": "Feature",
      "geometry": {
        "type": "Point",
        "coordinates": [
          7.5621322,
          47.5659947
        ]
      },
      "properties": {
        "id": 707688647,
        "osm_type": "node",
        "name": "Coop",
        "brand": "Coop",
        "opening_hours": "Mo-Fr 07:30-19:00; Sa 07:30-18:00"
      }
    },
    {
      "type": "Feature",
      "geometry": {
        "type": "Point",
        "coordinates": [
          7.5674031,
          47.5601511
        ]
      },
      "properties": {
        "id": 1315132974,
        "osm_type": "node",
        "name": "Coop",
        "brand": "Coop",
        "opening_hours": "Mo-Fr 07:30-20:00; Sa 07:30-18:00"
      }
    },
    {
      "type": "Feature",
      "geometry": {
        "type": "Point",
        "coordinates": [
          7.5648039,
          47.5612804
        ]
      },
      "properties": {
        "id": 1639974906,
        "osm_type": "node",
        "name": "Migros Partner",
        "opening_hours": "Mo-Fr 08:00-19:30, Sa 07:30-18:00; PH off"
      }
    },
    {
      "type": "Feature",
      "geometry": {
        "type": "Point",
        "coordinates": [
          7.5693511,
          47.5611507
        ]
      },
      "properties": {
        "id": 4975193021,
        "osm_type": "node",
        "name": "Spar",
        "brand": "Spar",
        "opening_hours": "Mo-Sa 08:00-19:00; Su 09:00-18:00"
      }
    },
    {
      "type": "Feature",
      "geometry": {
        "type": "Point",
        "coordinates": [
          7.5728438,
          47.5623042
        ]
      },
      "properties": {
        "id": 661056247,
        "osm_type": "node",
        "name": "Migros",
        "brand": "Migros",
        "opening_hours": "Mo-Fr 08:00-19:00; Sa 07:30-18:00; Su,PH off"
      }
    },
    {
      "type": "Feature",
      "geometry": {
        "type": "Point",
        "coordinates": [
          7.575696,
          47.5606982
        ]
      },
      "properties": {
        "id": 698552416,
        "osm_type": "node",
        "name": "Coop",
        "brand": "Coop",
        "opening_hours": "Mo-Fr 07:30-20:00;Sa 07:30-18:00;PH off"
      }
    },
    {
      "type": "Feature",
      "geometry": {
        "type": "Point",
        "coordinates": [
          7.5736989,
          47.5616432
        ]
      },
      "properties": {
        "id": 1640864002,
        "osm_type": "node",
        "name": "Denner",
        "brand": "Denner",
        "opening_hours": "Mo-Fr 08:00-19:00; Sa 07:30-18:00"
      }
    },
    {
      "type": "Feature",
      "geometry": {
        "type": "Point",
        "coordinates": [
          7.5718704,
          47.5564494
        ]
      },
      "properties": {
        "id": 2105814536,
        "osm_type": "node",
        "name": "Coop",
        "brand": "Coop",
        "opening_hours": "Mo-Fr 07:30-20:00; Sa 07:30-18:00"
      }
    },
    {
      "type": "Feature",
      "geometry": {
        "type": "Point",
        "coordinates": [
          7.5748141,
          47.5574254
        ]
      },
      "properties": {
        "id": 2105814888,
        "osm_type": "node",
        "name": "Aldi",
        "brand": "Aldi Suisse",
        "opening_hours": "Mo-Fr 08:00-20:00; Sa 08:00-18:00"
      }
    },
    {
      "type": "Feature",
      "geometry": {
        "type": "Point",
        "coordinates": [
          7.5743456,
          47.5613158
        ]
      },
      "properties": {
        "id": 4377208521,
        "osm_type": "node",
        "name": "Asian Supermarket and lunch take away",
        "opening_hours": "Mo-Fr 08:30-19:00; Sa 09:00-17:00"
      }
    },
    {
      "type": "Feature",
      "geometry": {
        "type": "Point",
        "coordinates": [
          7.5698764,
          47.5681849
        ]
      },
      "properties": {
        "id": 697447471,
        "osm_type": "node",
        "name": "Migros Partner",
        "opening_hours": "Mo-Fr 08:00-19:00, Sa 08:00-18:00, Su 09:00-18:00"
      }
    },
    {
      "type": "Feature",
      "geometry": {
        "type": "Point",
        "coordinates": [
          7.5695506,
          47.5686765
        ]
      },
      "properties": {
        "id": 697447474,
        "osm_type": "node",
        "name": "Denner",
        "brand": "Denner"
      }
    },
    {
      "type": "Feature",
      "geometry": {
        "type": "Point",
        "coordinates": [
          7.5836046,
          47.545863
        ]
      },
      "properties": {
        "id": 121994447,
        "osm_type": "node",
        "name": "Pam",
        "brand": "Pam"
      }
    },
    {
      "type": "Feature",
      "geometry": {
        "type": "Point",
        "coordinates": [
          7.5887102,
          47.5452203
        ]
      },
      "properties": {
        "id": 1322305936,
        "osm_type": "node",
        "name": "Coop",
        "brand": "Coop",
        "opening_hours": "Mo-Sa 07:00-22:00"
      }
    },
    {
      "type": "Feature",
      "geometry": {
        "type": "Point",
        "coordinates": [
          7.5870037,
          47.5484965
        ]
      },
      "properties": {
        "id": 2438035445,
        "osm_type": "node",
        "name": "A-Chau",
        "opening_hours": "Mo-Fr 09:00-18:30; Sa 09:00-18:00"
      }
    },
    {
      "type": "Feature",
      "geometry": {
        "type": "Point",
        "coordinates": [
          7.5866643,
          47.5485364
        ]
      },
      "properties": {
        "id": 3803790715,
        "osm_type": "node",
        "name": "Denner",
        "brand": "Denner",
        "opening_hours": "Mo-Fr 07:30-20:00; Sa 08:00-18:00"
      }
    },
    {
      "type": "Feature",
      "geometry": {
        "type": "Point",
        "coordinates": [
          7.5889594,
          47.5476823
        ]
      },
      "properties": {
        "id": 5032268522,
        "osm_type": "node",
        "name": "Migros",
        "brand": "Migros",
        "opening_hours": "Mo-Sa 06:00-22:00; Su 07:30-22:00"
      }
    },
    {
      "type": "Feature",
      "geometry": {
        "type": "Point",
        "coordinates": [
          7.5804752,
          47.5511761
        ]
      },
      "properties": {
        "id": 267761965,
        "osm_type": "node",
        "name": "Coop",
        "brand": "Coop",
        "opening_hours": "Mo-Fr 07:30-20:00; Sa 07:30-18:00"
      }
    },
    {
      "type": "Feature",
      "geometry": {
        "type": "Point",
        "coordinates": [
          7.5784253,
          47.5501611
        ]
      },
      "properties": {
        "id": 267762044,
        "osm_type": "node",
        "name": "Migros Partner",
        "opening_hours": "Mo-Fr 07:30-19:00; Sa 07:30-18:00; Su 09:00-18:00"
      }
    },
    {
      "type": "Feature",
      "geometry": {
        "type": "Point",
        "coordinates": [
          7.5813063,
          47.5560278
        ]
      },
      "properties": {
        "id": 584796979,
        "osm_type": "node",
        "name": "Migros",
        "brand": "Migros",
        "opening_hours": "Mo-Fr 08:00-19:00, Sa 07:30-18:00; PH off"
      }
    },
    {
      "type": "Feature",
      "geometry": {
        "type": "Point",
        "coordinates": [
          7.5802968,
          47.5556547
        ]
      },
      "properties": {
        "id": 1810732785,
        "osm_type": "node",
        "name": "Höheners",
        "opening_hours": "Mo-Fr 08:30-18:30; Sa 08:30-17:00"
      }
    },
    {
      "type": "Feature",
      "geometry": {
        "type": "Point",
        "coordinates": [
          7.5907574,
          47.5475478
        ]
      },
      "properties": {
        "id": 364938620,
        "osm_type": "node",
        "name": "Coop",
        "brand": "Coop",
        "opening_hours": "Mo-Sa 06:00-22:00; Su 07:30-22:00"
      }
    },
    {
      "type": "Feature",
      "geometry": {
        "type": "Point",
        "coordinates": [
          7.5932694,
          47.5431222
        ]
      },
      "properties": {
        "id": 1598176926,
        "osm_type": "node",
        "name": "Coop",
        "brand": "Coop",
        "opening_hours": "Mo-Fr 07:00-20:00; Sa 07:30-18:00"
      }
    },
    {
      "type": "Feature",
      "geometry": {
        "type": "Point",
        "coordinates": [
          7.5921791,
          47.5435533
        ]
      },
      "properties": {
        "id": 1598176928,
        "osm_type": "node",
        "name": "Migros",
        "brand": "Migros",
        "opening_hours": "Mo-Fr 07:30-20:00; Sa 07:30-18:00; PH off"
      }
    },
    {
      "type": "Feature",
      "geometry": {
        "type": "Point",
        "coordinates": [
          7.5911585,
          47.5441888
        ]
      },
      "properties": {
        "id": 5130410214,
        "osm_type": "node",
        "name": "Alima Market",
        "opening_hours": "Mo-Sa 08:00-18:00"
      }
    },
    {
      "type": "Feature",
      "geometry": {
        "type": "Point",
        "coordinates": [
          7.5945814,
          47.5517393
        ]
      },
      "properties": {
        "id": 364939479,
        "osm_type": "node",
        "name": "Coop",
        "brand": "Coop",
        "opening_hours": "Mo-Fr 06:30-20:00; Sa 07:30-18:00"
      }
    },
    {
      "type": "Feature",
      "geometry": {
        "type": "Point",
        "coordinates": [
          7.5927128,
          47.5526701
        ]
      },
      "properties": {
        "id": 366139633,
        "osm_type": "node",
        "name": "Migros",
        "brand": "Migros",
        "opening_hours": "Mo-Fr 07:30-20:00, Sa 07:30-18:00; PH off"
      }
    },
    {
      "type": "Feature",
      "geometry": {
        "type": "Point",
        "coordinates": [
          7.5907408,
          47.5556543
        ]
      },
      "properties": {
        "id": 4437700046,
        "osm_type": "node",
        "name": "Coop",
        "brand": "Coop"
      }
    },
    {
      "type": "Feature",
      "geometry": {
        "type": "Point",
        "coordinates": [
          7.5836339,
          47.5563856
        ]
      },
      "properties": {
        "id": 1611634269,
        "osm_type": "node",
        "name": "Denner Kornhausgasse",
        "brand": "Denner",
        "opening_hours": "Mo-Fr 08:00-18:30; Sa 07:30-18:00"
      }
    },
    {
      "type": "Feature",
      "geometry": {
        "type": "Point",
        "coordinates": [
          7.5876958,
          47.5592809
        ]
      },
      "properties": {
        "id": 4521077846,
        "osm_type": "node",
        "name": "Migros",
        "brand": "Migros",
        "opening_hours": "Mo-Fr 07:30-20:00; Sa 08:00-18:00; Su off"
      }
    },
    {
      "type": "Feature",
      "geometry": {
        "type": "Point",
        "coordinates": [
          7.5871556,
          47.5594919
        ]
      },
      "properties": {
        "id": 6958301574,
        "osm_type": "node",
        "name": "Coop",
        "brand": "Coop",
        "opening_hours": "Mo-Fr 06:30-20:00; Sa 06:30-18:00"
      }
    },
    {
      "type": "Feature",
      "geometry": {
        "type": "Point",
        "coordinates": [
          7.5796433,
          47.5690946
        ]
      },
      "properties": {
        "id": 707688653,
        "osm_type": "node",
        "name": "Coop",
        "brand": "Coop",
        "opening_hours": "Mo-Fr 07:30-20:00; Sa 07:30-18:00"
      }
    },
    {
      "type": "Feature",
      "geometry": {
        "type": "Point",
        "coordinates": [
          7.5794364,
          47.5683624
        ]
      },
      "properties": {
        "id": 707688659,
        "osm_type": "node",
        "name": "Migros",
        "brand": "Migros",
        "opening_hours": "Mo-Fr 07:00-20:00; Sa 07:00-18:00; PH off"
      }
    },
    {
      "type": "Feature",
      "geometry": {
        "type": "Point",
        "coordinates": [
          7.5789892,
          47.5681608
        ]
      },
      "properties": {
        "id": 2339470135,
        "osm_type": "node",
        "name": "Denner",
        "brand": "Denner"
      }
    },
    {
      "type": "Feature",
      "geometry": {
        "type": "Point",
        "coordinates": [
          7.5773804,
          47.5671874
        ]
      },
      "properties": {
        "id": 3497148294,
        "osm_type": "node",
        "name": "TESKO Lebensmittel"
      }
    },
    {
      "type": "Feature",
      "geometry": {
        "type": "Point",
        "coordinates": [
          7.5888231,
          47.5684382
        ]
      },
      "properties": {
        "id": 2987453154,
        "osm_type": "node",
        "name": "noya market",
        "opening_hours": "Mo-Fr 07:00-20:00; Sa 07:00-18:00"
      }
    },
    {
      "type": "Feature",
      "geometry": {
        "type": "Point",
        "coordinates": [
          7.5926839,
          47.5611969
        ]
      },
      "properties": {
        "id": 1642282453,
        "osm_type": "node",
        "name": "Manor Food",
        "opening_hours": "Mo-Fr 08:30-20:00; Sa 08:00-18:00"
      }
    },
    {
      "type": "Feature",
      "geometry": {
        "type": "Point",
        "coordinates": [
          7.5913921,
          47.561065
        ]
      },
      "properties": {
        "id": 8098492384,
        "osm_type": "node",
        "name": "Coop",
        "brand": "Coop",
        "opening_hours": "Mo-Fr 06:30-20:00; Sa 07:30-18:00, Aug 1 Closed"
      }
    },
    {
      "type": "Feature",
      "geometry": {
        "type": "Point",
        "coordinates": [
          7.5923242,
          47.562245
        ]
      },
      "properties": {
        "id": 8143753521,
        "osm_type": "node",
        "name": "Aldi",
        "brand": "Aldi Suisse",
        "opening_hours": "Mo-Fr 08:00-20:00; Sa 08:00-18:00"
      }
    },
    {
      "type": "Feature",
      "geometry": {
        "type": "Point",
        "coordinates": [
          7.5942134,
          47.5605996
        ]
      },
      "properties": {
        "id": 8909514018,
        "osm_type": "node",
        "name": "Lidl",
        "brand": "Lidl",
        "opening_hours": "Mo-Fr 07:00-20:00; Sa 07:00-18:00"
      }
    },
    {
      "type": "Feature",
      "geometry": {
        "type": "Point",
        "coordinates": [
          7.5931936,
          47.5620557
        ]
      },
      "properties": {
        "id": 9006432484,
        "osm_type": "node",
        "name": "Denner",
        "brand": "Denner",
        "opening_hours": "Mo-Fr 08:00-20:00; Sa 08:00-18:00"
      }
    },
    {
      "type": "Feature",
      "geometry": {
        "type": "Point",
        "coordinates": [
          7.6018528,
          47.5586733
        ]
      },
      "properties": {
        "id": 761492253,
        "osm_type": "node",
        "name": "Migros",
        "brand": "Migros",
        "opening_hours": "Mo-Fr 08:00-19:00, Sa 08:00-17:00; PH off"
      }
    },
    {
      "type": "Feature",
      "geometry": {
        "type": "Point",
        "coordinates": [
          7.5986978,
          47.5608551
        ]
      },
      "properties": {
        "id": 4877177531,
        "osm_type": "node",
        "name": "New Asia Market",
        "opening_hours": "Mo-Fr 09:00-18:30; Sa 09:00-18:00"
      }
    },
    {
      "type": "Feature",
      "geometry": {
        "type": "Point",
        "coordinates": [
          7.5975768,
          47.5623043
        ]
      },
      "properties": {
        "id": 8222862966,
        "osm_type": "node",
        "name": "Casa Santos",
        "opening_hours": "Mo-Fr 09:00-13:00,14:00-19:00; Sa 08:00-18:00"
      }
    },
    {
      "type": "Feature",
      "geometry": {
        "type": "Point",
        "coordinates": [
          7.5922147,
          47.5653845
        ]
      },
      "properties": {
        "id": 586261581,
        "osm_type": "node",
        "name": "Express Market"
      }
    },
    {
      "type": "Feature",
      "geometry": {
        "type": "Point",
        "coordinates": [
          7.5948273,
          47.5671248
        ]
      },
      "properties": {
        "id": 804534298,
        "osm_type": "node",
        "name": "Denner",
        "brand": "Denner",
        "opening_hours": "Mo-Fr 08:00-19:00; Sa 07:30-18:00"
      }
    },
    {
      "type": "Feature",
      "geometry": {
        "type": "Point",
        "coordinates": [
          7.5905738,
          47.5690817
        ]
      },
      "properties": {
        "id": 1513116290,
        "osm_type": "node",
        "name": "Coop",
        "brand": "Coop",
        "opening_hours": "Mo-Fr 07:30-20:00; Sa 07:30-18:00"
      }
    },
    {
      "type": "Feature",
      "geometry": {
        "type": "Point",
        "coordinates": [
          7.590623,
          47.566673
        ]
      },
      "properties": {
        "id": 1517612090,
        "osm_type": "node",
        "name": "Denner",
        "brand": "Denner",
        "opening_hours": "Mo-Fr 08:00-19:00; Sa 07:30-18:00"
      }
    },
    {
      "type": "Feature",
      "geometry": {
        "type": "Point",
        "coordinates": [
          7.5970323,
          47.5628797
        ]
      },
      "properties": {
        "id": 1311957978,
        "osm_type": "node",
        "name": "Coop",
        "brand": "Coop",
        "opening_hours": "Mo-Fr 07:30-20:00; Sa 07:30-18:00, Aug 1 Closed"
      }
    },
    {
      "type": "Feature",
      "geometry": {
        "type": "Point",
        "coordinates": [
          7.5964884,
          47.56926
        ]
      },
      "properties": {
        "id": 1668864828,
        "osm_type": "node",
        "name": "Migros",
        "brand": "Migros",
        "opening_hours": "Mo-Fr 08:00-20:00; Sa 07:30-18:00; PH off"
      }
    },
    {
      "type": "Feature",
      "geometry": {
        "type": "Point",
        "coordinates": [
          7.5965751,
          47.5686759
        ]
      },
      "properties": {
        "id": 1668864839,
        "osm_type": "node",
        "name": "Sevi vel",
        "opening_hours": "Mo-Su,PH 09:00-22:00"
      }
    },
    {
      "type": "Feature",
      "geometry": {
        "type": "Point",
        "coordinates": [
          7.6039942,
          47.5395222
        ]
      },
      "properties": {
        "id": 7457739462,
        "osm_type": "node",
        "name": "Migros",
        "brand": "Migros",
        "opening_hours": "Mo-Fr 09:00-20:00, Sa 08:00-18:00; PH off"
      }
    },
    {
      "type": "Feature",
      "geometry": {
        "type": "Point",
        "coordinates": [
          7.6038088,
          47.5392283
        ]
      },
      "properties": {
        "id": 7457897589,
        "osm_type": "node",
        "name": "Denner",
        "brand": "Denner"
      }
    },
    {
      "type": "Feature",
      "geometry": {
        "type": "Point",
        "coordinates": [
          7.6085807,
          47.5375176
        ]
      },
      "properties": {
        "id": 11129298207,
        "osm_type": "node",
        "name": "Coop",
        "brand": "Coop",
        "opening_hours": "Mo-Fr 07:00-19:00; Sa 08:00-18:00; PH off"
      }
    },
    {
      "type": "Feature",
      "geometry": {
        "type": "Point",
        "coordinates": [
          7.6201761,
          47.5410642
        ]
      },
      "properties": {
        "id": 2001262832,
        "osm_type": "node",
        "name": "Coop",
        "brand": "Coop"
      }
    },
    {
      "type": "Feature",
      "geometry": {
        "type": "Point",
        "coordinates": [
          7.6067133,
          47.5495574
        ]
      },
      "properties": {
        "id": 5744197144,
        "osm_type": "node",
        "name": "Coop",
        "brand": "Coop",
        "opening_hours": "Mo-Fr 07:00-19:00; Sa 07:00-18:00"
      }
    },
    {
      "type": "Feature",
      "geometry": {
        "type": "Point",
        "coordinates": [
          7.6075855,
          47.5491969
        ]
      },
      "properties": {
        "id": 13148031416,
        "osm_type": "node",
        "name": "Denner",
        "brand": "Denner",
        "opening_hours": "Mo-Fr 08:00-18:30; Sa 07:30-17:00"
      }
    },
    {
      "type": "Feature",
      "geometry": {
        "type": "Point",
        "coordinates": [
          7.6071952,
          47.5493126
        ]
      },
      "properties": {
        "id": 13148031421,
        "osm_type": "node",
        "name": "Migros",
        "brand": "Migros",
        "opening_hours": "Mo-Fr 07:30-19:00, Sa 07:30-18:00; PH off"
      }
    },
    {
      "type": "Feature",
      "geometry": {
        "type": "Point",
        "coordinates": [
          7.6138463,
          47.55521
        ]
      },
      "properties": {
        "id": 1598954903,
        "osm_type": "node",
        "name": "Coop",
        "brand": "Coop",
        "opening_hours": "Mo-Fr 07:30-20:00; Sa 07:30-18:00"
      }
    },
    {
      "type": "Feature",
      "geometry": {
        "type": "Point",
        "coordinates": [
          7.61478,
          47.555347
        ]
      },
      "properties": {
        "id": 1598955385,
        "osm_type": "node",
        "name": "Migros Partner",
        "opening_hours": "Mo-Fr 08:00-19:30; Sa 07:30-18:00"
      }
    },
    {
      "type": "Feature",
      "geometry": {
        "type": "Point",
        "coordinates": [
          7.6208521,
          47.5470184
        ]
      },
      "properties": {
        "id": 2456030635,
        "osm_type": "node",
        "name": "Migros",
        "brand": "Migros",
        "opening_hours": "Mo-Fr 07:30-20:00, Sa 07:30-18:00"
      }
    },
    {
      "type": "Feature",
      "geometry": {
        "type": "Point",
        "coordinates": [
          7.6220489,
          47.5475732
        ]
      },
      "properties": {
        "id": 2425957792,
        "osm_type": "node",
        "name": "Spar",
        "brand": "Spar",
        "opening_hours": "Mo-Fr 08:00-19:00; Sa 08:00-18:00; Su 09:00-18:00"
      }
    },
    {
      "type": "Feature",
      "geometry": {
        "type": "Point",
        "coordinates": [
          7.6178221,
          47.5651143
        ]
      },
      "properties": {
        "id": 4342407034,
        "osm_type": "node",
        "name": "Coop",
        "brand": "Coop",
        "opening_hours": "Mo-Fr 07:30-20:00, Sa 07:30-18:00"
      }
    },
    {
      "type": "Feature",
      "geometry": {
        "type": "Point",
        "coordinates": [
          7.5733861,
          47.5705577
        ]
      },
      "properties": {
        "id": 703717472,
        "osm_type": "node",
        "name": "Coop",
        "brand": "Coop",
        "opening_hours": "Mo-Fr 07:30-20:00; Sa 07:30-18:00"
      }
    },
    {
      "type": "Feature",
      "geometry": {
        "type": "Point",
        "coordinates": [
          7.5793615,
          47.5694011
        ]
      },
      "properties": {
        "id": 3600637175,
        "osm_type": "node",
        "name": "Sangai Market",
        "opening_hours": "Mo-Su 10:00-22:00"
      }
    },
    {
      "type": "Feature",
      "geometry": {
        "type": "Point",
        "coordinates": [
          7.590504,
          47.5773784
        ]
      },
      "properties": {
        "id": 7673760806,
        "osm_type": "node",
        "name": "Migros Partner",
        "opening_hours": "Mo-Fr 08:00-20:00, Sa 08:00-18:00, Su 09:00-18:00"
      }
    },
    {
      "type": "Feature",
      "geometry": {
        "type": "Point",
        "coordinates": [
          7.5911385,
          47.5769624
        ]
      },
      "properties": {
        "id": 8098492385,
        "osm_type": "node",
        "name": "Coop",
        "brand": "Coop",
        "opening_hours": "Mo-Fr 07:30-20:00; Sa 07:30-18:00"
      }
    },
    {
      "type": "Feature",
      "geometry": {
        "type": "Point",
        "coordinates": [
          7.5911232,
          47.5804436
        ]
      },
      "properties": {
        "id": 8882968610,
        "osm_type": "node",
        "name": "Denner Express",
        "opening_hours": "Mo-Fr 08:00-19:00; Sa 07:30-18:00"
      }
    },
    {
      "type": "Feature",
      "geometry": {
        "type": "Point",
        "coordinates": [
          7.5961798,
          47.5800952
        ]
      },
      "properties": {
        "id": 2485517212,
        "osm_type": "node",
        "name": "Migros",
        "brand": "Migros",
        "opening_hours": "Mo-Fr 09:00-20:00, Sa 09:00-18:00; PH off"
      }
    },
    {
      "type": "Feature",
      "geometry": {
        "type": "Point",
        "coordinates": [
          7.5964307,
          47.5807244
        ]
      },
      "properties": {
        "id": 6068889655,
        "osm_type": "node",
        "name": "Denner",
        "brand": "Denner",
        "opening_hours": "Mo-Fr 09:00-19:00; Sa 09:00-18:00"
      }
    },
    {
      "type": "Feature",
      "geometry": {
        "type": "Point",
        "coordinates": [
          7.6031489,
          47.5700131
        ]
      },
      "properties": {
        "id": 6927157602,
        "osm_type": "node",
        "name": "Coop",
        "brand": "Coop",
        "opening_hours": "Mo-Fr 07:30-20:00; Sa 07:30-18:00"
      }
    },
    {
      "type": "Feature",
      "geometry": {
        "type": "Point",
        "coordinates": [
          7.6099735,
          47.5702959
        ]
      },
      "properties": {
        "id": 4099869676,
        "osm_type": "node",
        "name": "Coop",
        "opening_hours": "Mo-Fr 07:30-19:00; Sa 07:30-18:00"
      }
    },
    {
      "type": "Feature",
      "geometry": {
        "type": "Point",
        "coordinates": [
          7.634846,
          47.5756733
        ]
      },
      "properties": {
        "id": 678896283,
        "osm_type": "node",
        "name": "pronto shop",
        "opening_hours": "Mo-Sa 06:00-22:00; Su 07:00-22:00"
      }
    },
    {
      "type": "Feature",
      "geometry": {
        "type": "Point",
        "coordinates": [
          7.6330791,
          47.5707289
        ]
      },
      "properties": {
        "id": 3226243177,
        "osm_type": "node",
        "name": "Coop",
        "opening_hours": "Mo-Fr 07:00-20:00; Sa 07:30-18:00"
      }
    },
    {
      "type": "Feature",
      "geometry": {
        "type": "Point",
        "coordinates": [
          7.6330456,
          47.5698251
        ]
      },
      "properties": {
        "id": 7673788483,
        "osm_type": "node",
        "name": "Migros Partner",
        "opening_hours": "Mo-Fr 08:00-19:00, Sa 08:00-18:00, Su 09:00-17:00"
      }
    },
    {
      "type": "Feature",
      "geometry": {
        "type": "Point",
        "coordinates": [
          7.6314409,
          47.5713429
        ]
      },
      "properties": {
        "id": 8747195033,
        "osm_type": "node",
        "name": "Denner",
        "brand": "Denner",
        "opening_hours": "Mo-Fr 08:00-18:30; Sa 08:00-18:00"
      }
    },
    {
      "type": "Feature",
      "geometry": {
        "type": "Point",
        "coordinates": [
          7.6467891,
          47.5754838
        ]
      },
      "properties": {
        "id": 1005308983,
        "osm_type": "node",
        "name": "Migros Partner",
        "opening_hours": "Mo-Fr 08:00-19:00, Sa 08:00-18:00, Su 09:00-17:00"
      }
    },
    {
      "type": "Feature",
      "geometry": {
        "type": "Point",
        "coordinates": [
          7.6517854,
          47.5852901
        ]
      },
      "properties": {
        "id": 335990607,
        "osm_type": "node",
        "name": "Migros",
        "brand": "Migros",
        "opening_hours": "Mo-Fr 08:00-19:00, Sa 07:30-18:00; PH off"
      }
    },
    {
      "type": "Feature",
      "geometry": {
        "type": "Point",
        "coordinates": [
          7.6503186,
          47.5854961
        ]
      },
      "properties": {
        "id": 5029136746,
        "osm_type": "node",
        "name": "Denner",
        "brand": "Denner",
        "opening_hours": "Mo-Fr 08:00-19:00; Sa 07:30-18:00"
      }
    },
    {
      "type": "Feature",
      "geometry": {
        "type": "Point",
        "coordinates": [
          7.6508308,
          47.5849618
        ]
      },
      "properties": {
        "id": 13158342145,
        "osm_type": "node",
        "name": "Coop",
        "brand": "Coop",
        "opening_hours": "Mo-Fr 07:00-19:00; Sa 07:30-18:00"
      }
    },
    {
      "type": "Feature",
      "geometry": {
        "type": "Point",
        "coordinates": [
          7.6651092,
          47.5708233
        ]
      },
      "properties": {
        "id": 11740917726,
        "osm_type": "node",
        "name": "Bioflix Bettingen",
        "opening_hours": "24/7"
      }
    },
    {
      "type": "Feature",
      "geometry": {
        "type": "Point",
        "coordinates": [
          7.5922974,
          47.5616937
        ]
      },
      "properties": {
        "id": 821839667,
        "osm_type": "way",
        "name": "Migros",
        "brand": "Migros",
        "opening_hours": "Mo-Fr 08:30-20:00, Sa 08:00-18:00; PH off"
      }
    },
    {
      "type": "Feature",
      "geometry": {
        "type": "Point",
        "coordinates": [
          7.6074662,
          47.5669719
        ]
      },
      "properties": {
        "id": 374539970,
        "osm_type": "way",
        "name": "Migros Partner",
        "brand": "Migros",
        "opening_hours": "Mo-Fr 06:00-21:00; Sa,Su,PH 07:00-21:00"
      }
    },
    {
      "type": "Feature",
      "geometry": {
        "type": "Point",
        "coordinates": [
          7.6153481,
          47.5700595
        ]
      },
      "properties": {
        "id": 93487019,
        "osm_type": "way",
        "name": "Migros",
        "brand": "Migros",
        "opening_hours": "Mo-Fr 08:00-19:00; Sa 08:00-18:00; PH off"
      }
    }
  ]
}