{
  "type": "FeatureCollection",
  "features": [
    {
      "type": "Feature",
      "geometry": {
        "type": "Point",
        "coordinates": [
          26.6093371,
          44.048703
        ]
      },
      "properties": {
        "id": 1719507428,
        "osm_type": "node"
      }
    },
    {
      "type": "Feature",
      "geometry": {
        "type": "Point",
        "coordinates": [
          26.6073485,
          44.0453127
        ]
      },
      "properties": {
        "id": 1719507429,
        "osm_type": "node"
      }
    },
    {
      "type": "Feature",
      "geometry": {
        "type": "Point",
        "coordinates": [
          26.6159316,
          44.0457214
        ]
      },
      "properties": {
        "id": 1719507430,
        "osm_type": "node"
      }
    },
    {
      "type": "Feature",
      "geometry": {
        "type": "Point",
        "coordinates": [
          26.6108836,
          44.0497969
        ]
      },
      "properties": {
        "id": 1719507431,
        "osm_type": "node"
      }
    },
    {
      "type": "Feature",
      "geometry": {
        "type": "Point",
        "coordinates": [
          26.596126,
          44.0440383
        ]
      },
      "properties": {
        "id": 1719507437,
        "osm_type": "node"
      }
    },
    {
      "type": "Feature",
      "geometry": {
        "type": "Point",
        "coordinates": [
          26.616232,
          44.0462921
        ]
      },
      "properties": {
        "id": 1719507439,
        "osm_type": "node"
      }
    },
    {
      "type": "Feature",
      "geometry": {
        "type": "Point",
        "coordinates": [
          26.6077947,
          44.0474692
        ]
      },
      "properties": {
        "id": 1719507442,
        "osm_type": "node"
      }
    },
    {
      "type": "Feature",
      "geometry": {
        "type": "Point",
        "coordinates": [
          26.5918239,
          44.043431
        ]
      },
      "properties": {
        "id": 1719507444,
        "osm_type": "node"
      }
    },
    {
      "type": "Feature",
      "geometry": {
        "type": "Point",
        "coordinates": [
          26.6105886,
          44.0509883
        ]
      },
      "properties": {
        "id": 1719507450,
        "osm_type": "node"
      }
    },
    {
      "type": "Feature",
      "geometry": {
        "type": "Point",
        "coordinates": [
          26.6189866,
          44.0512929
        ]
      },
      "properties": {
        "id": 1719507451,
        "osm_type": "node",
        "name": "Калева чешма"
      }
    },
    {
      "type": "Feature",
      "geometry": {
        "type": "Point",
        "coordinates": [
          26.6042024,
          44.0482906
        ]
      },
      "properties": {
        "id": 1719507453,
        "osm_type": "node"
      }
    },
    {
      "type": "Feature",
      "geometry": {
        "type": "Point",
        "coordinates": [
          26.6017361,
          44.0469031
        ]
      },
      "properties": {
        "id": 1719507456,
        "osm_type": "node"
      }
    },
    {
      "type": "Feature",
      "geometry": {
        "type": "Point",
        "coordinates": [
          26.5962763,
          44.0427832
        ]
      },
      "properties": {
        "id": 1719507461,
        "osm_type": "node"
      }
    },
    {
      "type": "Feature",
      "geometry": {
        "type": "Point",
        "coordinates": [
          26.6156118,
          44.0509707
        ]
      },
      "properties": {
        "id": 1719507465,
        "osm_type": "node"
      }
    },
    {
      "type": "Feature",
      "geometry": {
        "type": "Point",
        "coordinates": [
          26.6225298,
          44.0519676
        ]
      },
      "properties": {
        "id": 1719507468,
        "osm_type": "node"
      }
    },
    {
      "type": "Feature",
      "geometry": {
        "type": "Point",
        "coordinates": [
          26.6007073,
          44.0449811
        ]
      },
      "properties": {
        "id": 1719507470,
        "osm_type": "node"
      }
    },
    {
      "type": "Feature",
      "geometry": {
        "type": "Point",
        "coordinates": [
          26.6760204,
          44.0426357
        ]
      },
      "properties": {
        "id": 1739220101,
        "osm_type": "node"
      }
    },
    {
      "type": "Feature",
      "geometry": {
        "type": "Point",
        "coordinates": [
          26.7495282,
          44.0664371
        ]
      },
      "properties": {
        "id": 1739220105,
        "osm_type": "node"
      }
    },
    {
      "type": "Feature",
      "geometry": {
        "type": "Point",
        "coordinates": [
          27.2903853,
          44.0803962
        ]
      },
      "properties": {
        "id": 1971389080,
        "osm_type": "node"
      }
    },
    {
      "type": "Feature",
      "geometry": {
        "type": "Point",
        "coordinates": [
          26.5756057,
          44.027331
        ]
      },
      "properties": {
        "id": 2101764567,
        "osm_type": "node"
      }
    },
    {
      "type": "Feature",
      "geometry": {
        "type": "Point",
        "coordinates": [
          26.6097368,
          44.0482693
        ]
      },
      "properties": {
        "id": 2101764626,
        "osm_type": "node"
      }
    },
    {
      "type": "Feature",
      "geometry": {
        "type": "Point",
        "coordinates": [
          26.6067542,
          44.0453061
        ]
      },
      "properties": {
        "id": 2101764652,
        "osm_type": "node"
      }
    },
    {
      "type": "Feature",
      "geometry": {
        "type": "Point",
        "coordinates": [
          26.587343,
          44.0274699
        ]
      },
      "properties": {
        "id": 2101764740,
        "osm_type": "node"
      }
    },
    {
      "type": "Feature",
      "geometry": {
        "type": "Point",
        "coordinates": [
          26.6990571,
          44.0582322
        ]
      },
      "properties": {
        "id": 2109374682,
        "osm_type": "node"
      }
    },
    {
      "type": "Feature",
      "geometry": {
        "type": "Point",
        "coordinates": [
          26.7460118,
          44.0676339
        ]
      },
      "properties": {
        "id": 2109374902,
        "osm_type": "node"
      }
    },
    {
      "type": "Feature",
      "geometry": {
        "type": "Point",
        "coordinates": [
          26.7511992,
          44.0651092
        ]
      },
      "properties": {
        "id": 2109375024,
        "osm_type": "node"
      }
    },
    {
      "type": "Feature",
      "geometry": {
        "type": "Point",
        "coordinates": [
          26.6870837,
          44.0117857
        ]
      },
      "properties": {
        "id": 2111864340,
        "osm_type": "node"
      }
    },
    {
      "type": "Feature",
      "geometry": {
        "type": "Point",
        "coordinates": [
          26.6867082,
          44.0112378
        ]
      },
      "properties": {
        "id": 2111864358,
        "osm_type": "node"
      }
    },
    {
      "type": "Feature",
      "geometry": {
        "type": "Point",
        "coordinates": [
          26.6189797,
          44.0514083
        ]
      },
      "properties": {
        "id": 2111864362,
        "osm_type": "node"
      }
    },
    {
      "type": "Feature",
      "geometry": {
        "type": "Point",
        "coordinates": [
          26.751631,
          43.9630671
        ]
      },
      "properties": {
        "id": 2112661825,
        "osm_type": "node"
      }
    },
    {
      "type": "Feature",
      "geometry": {
        "type": "Point",
        "coordinates": [
          26.6151905,
          43.9699088
        ]
      },
      "properties": {
        "id": 2144993783,
        "osm_type": "node"
      }
    },
    {
      "type": "Feature",
      "geometry": {
        "type": "Point",
        "coordinates": [
          26.5849131,
          44.0274459
        ]
      },
      "properties": {
        "id": 2163014863,
        "osm_type": "node"
      }
    },
    {
      "type": "Feature",
      "geometry": {
        "type": "Point",
        "coordinates": [
          27.191309,
          44.0999498
        ]
      },
      "properties": {
        "id": 5016120622,
        "osm_type": "node"
      }
    },
    {
      "type": "Feature",
      "geometry": {
        "type": "Point",
        "coordinates": [
          26.9632101,
          44.1211081
        ]
      },
      "properties": {
        "id": 5064202122,
        "osm_type": "node"
      }
    },
    {
      "type": "Feature",
      "geometry": {
        "type": "Point",
        "coordinates": [
          27.1406562,
          43.8229943
        ]
      },
      "properties": {
        "id": 5632437081,
        "osm_type": "node"
      }
    },
    {
      "type": "Feature",
      "geometry": {
        "type": "Point",
        "coordinates": [
          27.2553497,
          43.8732819
        ]
      },
      "properties": {
        "id": 5923672577,
        "osm_type": "node"
      }
    },
    {
      "type": "Feature",
      "geometry": {
        "type": "Point",
        "coordinates": [
          27.1412406,
          43.8248456
        ]
      },
      "properties": {
        "id": 6138027585,
        "osm_type": "node",
        "name": "Чешмата на Калинка"
      }
    },
    {
      "type": "Feature",
      "geometry": {
        "type": "Point",
        "coordinates": [
          27.4968656,
          43.9928803
        ]
      },
      "properties": {
        "id": 10055406134,
        "osm_type": "node"
      }
    }
  ]
}