{
  "type": "FeatureCollection",
  "features": [
    {
      "type": "Feature",
      "geometry": {
        "type": "Point",
        "coordinates": [
          4.5079087,
          51.8432764
        ]
      },
      "properties": {
        "id": 874358273,
        "osm_type": "node",
        "shelter_type": "weather_shelter",
        "bench": "yes"
      }
    },
    {
      "type": "Feature",
      "geometry": {
        "type": "Point",
        "coordinates": [
          4.2297618,
          52.0480315
        ]
      },
      "properties": {
        "id": 5881791993,
        "osm_type": "node",
        "shelter_type": "weather_shelter",
        "bench": "yes"
      }
    },
    {
      "type": "Feature",
      "geometry": {
        "type": "Point",
        "coordinates": [
          4.6489958,
          52.0269569
        ]
      },
      "properties": {
        "id": 5904554496,
        "osm_type": "node",
        "shelter_type": "weather_shelter",
        "bench": "yes"
      }
    },
    {
      "type": "Feature",
      "geometry": {
        "type": "Point",
        "coordinates": [
          4.3494679,
          52.061275
        ]
      },
      "properties": {
        "id": 8629561897,
        "osm_type": "node",
        "name": "Jongerenontmoetingsplek",
        "shelter_type": "lean_to"
      }
    },
    {
      "type": "Feature",
      "geometry": {
        "type": "Point",
        "coordinates": [
          4.3962396,
          52.0962089
        ]
      },
      "properties": {
        "id": 8986737950,
        "osm_type": "node",
        "name": "Jongerenontmoetingsplek",
        "shelter_type": "lean_to"
      }
    },
    {
      "type": "Feature",
      "geometry": {
        "type": "Point",
        "coordinates": [
          4.5732053,
          51.9439176
        ]
      },
      "properties": {
        "id": 9003435717,
        "osm_type": "node",
        "shelter_type": "weather_shelter",
        "bench": "yes"
      }
    },
    {
      "type": "Feature",
      "geometry": {
        "type": "Point",
        "coordinates": [
          4.3744066,
          52.1092779
        ]
      },
      "properties": {
        "id": 9549807123,
        "osm_type": "node",
        "name": "Jongerenontmoetingsplek Wassenaar",
        "shelter_type": "lean_to"
      }
    },
    {
      "type": "Feature",
      "geometry": {
        "type": "Point",
        "coordinates": [
          4.3745085,
          52.1092688
        ]
      },
      "properties": {
        "id": 9549807124,
        "osm_type": "node",
        "name": "Jongerenontmoetingsplek Wassenaar",
        "shelter_type": "lean_to"
      }
    },
    {
      "type": "Feature",
      "geometry": {
        "type": "Point",
        "coordinates": [
          4.3978075,
          52.0701332
        ]
      },
      "properties": {
        "id": 10200327285,
        "osm_type": "node",
        "shelter_type": "lean_to"
      }
    },
    {
      "type": "Feature",
      "geometry": {
        "type": "Point",
        "coordinates": [
          4.1749911,
          51.9093276
        ]
      },
      "properties": {
        "id": 11939474245,
        "osm_type": "node",
        "shelter_type": "weather_shelter"
      }
    },
    {
      "type": "Feature",
      "geometry": {
        "type": "Point",
        "coordinates": [
          4.3809783,
          52.0861597
        ]
      },
      "properties": {
        "id": 12095984272,
        "osm_type": "node",
        "name": "Jongerenontmoetingsplek",
        "shelter_type": "lean_to"
      }
    },
    {
      "type": "Feature",
      "geometry": {
        "type": "Point",
        "coordinates": [
          4.3809729,
          52.08613
        ]
      },
      "properties": {
        "id": 12095984273,
        "osm_type": "node",
        "name": "Jongerenontmoetingsplek",
        "shelter_type": "lean_to"
      }
    },
    {
      "type": "Feature",
      "geometry": {
        "type": "Point",
        "coordinates": [
          4.2122568,
          51.9024136
        ]
      },
      "properties": {
        "id": 12873460202,
        "osm_type": "node",
        "shelter_type": "weather_shelter",
        "bench": "no"
      }
    },
    {
      "type": "Feature",
      "geometry": {
        "type": "Point",
        "coordinates": [
          4.6483196,
          52.0551856
        ]
      },
      "properties": {
        "id": 264135090,
        "osm_type": "way",
        "shelter_type": "weather_shelter",
        "bench": "yes"
      }
    },
    {
      "type": "Feature",
      "geometry": {
        "type": "Point",
        "coordinates": [
          4.618462,
          51.8590211
        ]
      },
      "properties": {
        "id": 326264789,
        "osm_type": "way",
        "shelter_type": "weather_shelter"
      }
    },
    {
      "type": "Feature",
      "geometry": {
        "type": "Point",
        "coordinates": [
          4.6278194,
          51.8678196
        ]
      },
      "properties": {
        "id": 442658403,
        "osm_type": "way",
        "shelter_type": "weather_shelter"
      }
    },
    {
      "type": "Feature",
      "geometry": {
        "type": "Point",
        "coordinates": [
          4.3595631,
          52.066588
        ]
      },
      "properties": {
        "id": 643114234,
        "osm_type": "way",
        "shelter_type": "weather_shelter",
        "bench": "yes"
      }
    },
    {
      "type": "Feature",
      "geometry": {
        "type": "Point",
        "coordinates": [
          4.5974388,
          51.8519163
        ]
      },
      "properties": {
        "id": 683528454,
        "osm_type": "way",
        "shelter_type": "weather_shelter"
      }
    },
    {
      "type": "Feature",
      "geometry": {
        "type": "Point",
        "coordinates": [
          4.5551287,
          51.7572531
        ]
      },
      "properties": {
        "id": 1042654540,
        "osm_type": "way",
        "shelter_type": "weather_shelter"
      }
    },
    {
      "type": "Feature",
      "geometry": {
        "type": "Point",
        "coordinates": [
          4.5600726,
          51.7575094
        ]
      },
      "properties": {
        "id": 1042671635,
        "osm_type": "way",
        "shelter_type": "weather_shelter"
      }
    },
    {
      "type": "Feature",
      "geometry": {
        "type": "Point",
        "coordinates": [
          4.4904741,
          51.8439733
        ]
      },
      "properties": {
        "id": 1072336253,
        "osm_type": "way",
        "shelter_type": "weather_shelter",
        "bench": "yes"
      }
    },
    {
      "type": "Feature",
      "geometry": {
        "type": "Point",
        "coordinates": [
          4.3225342,
          52.0817814
        ]
      },
      "properties": {
        "id": 1192433663,
        "osm_type": "way",
        "shelter_type": "weather_shelter"
      }
    },
    {
      "type": "Feature",
      "geometry": {
        "type": "Point",
        "coordinates": [
          4.323004,
          52.0815264
        ]
      },
      "properties": {
        "id": 1192433664,
        "osm_type": "way",
        "shelter_type": "weather_shelter"
      }
    },
    {
      "type": "Feature",
      "geometry": {
        "type": "Point",
        "coordinates": [
          4.3237554,
          52.081974
        ]
      },
      "properties": {
        "id": 1192433665,
        "osm_type": "way",
        "shelter_type": "weather_shelter"
      }
    },
    {
      "type": "Feature",
      "geometry": {
        "type": "Point",
        "coordinates": [
          4.7067604,
          52.0169422
        ]
      },
      "properties": {
        "id": 1230091660,
        "osm_type": "way",
        "shelter_type": "weather_shelter"
      }
    },
    {
      "type": "Feature",
      "geometry": {
        "type": "Point",
        "coordinates": [
          4.3998175,
          52.0966231
        ]
      },
      "properties": {
        "id": 1257988594,
        "osm_type": "way",
        "shelter_type": "lean_to"
      }
    },
    {
      "type": "Feature",
      "geometry": {
        "type": "Point",
        "coordinates": [
          4.3997216,
          52.0967189
        ]
      },
      "properties": {
        "id": 1347168587,
        "osm_type": "way",
        "shelter_type": "lean_to"
      }
    },
    {
      "type": "Feature",
      "geometry": {
        "type": "Point",
        "coordinates": [
          4.4010239,
          52.0799818
        ]
      },
      "properties": {
        "id": 1349571469,
        "osm_type": "way",
        "shelter_type": "lean_to"
      }
    },
    {
      "type": "Feature",
      "geometry": {
        "type": "Point",
        "coordinates": [
          4.3749998,
          52.0861762
        ]
      },
      "properties": {
        "id": 1450308998,
        "osm_type": "way",
        "shelter_type": "lean_to"
      }
    },
    {
      "type": "Feature",
      "geometry": {
        "type": "Point",
        "coordinates": [
          4.3763935,
          52.0860625
        ]
      },
      "properties": {
        "id": 1450667463,
        "osm_type": "way",
        "shelter_type": "lean_to"
      }
    },
    {
      "type": "Feature",
      "geometry": {
        "type": "Point",
        "coordinates": [
          4.374478,
          52.0840869
        ]
      },
      "properties": {
        "id": 1451167847,
        "osm_type": "way",
        "shelter_type": "lean_to"
      }
    },
    {
      "type": "Feature",
      "geometry": {
        "type": "Point",
        "coordinates": [
          4.3742482,
          52.0825315
        ]
      },
      "properties": {
        "id": 1453364171,
        "osm_type": "way",
        "shelter_type": "lean_to"
      }
    },
    {
      "type": "Feature",
      "geometry": {
        "type": "Point",
        "coordinates": [
          4.3586063,
          52.0779957
        ]
      },
      "properties": {
        "id": 1462912943,
        "osm_type": "way",
        "shelter_type": "lean_to"
      }
    },
    {
      "type": "Feature",
      "geometry": {
        "type": "Point",
        "coordinates": [
          4.379501,
          52.0819336
        ]
      },
      "properties": {
        "id": 1476484551,
        "osm_type": "way",
        "shelter_type": "lean_to"
      }
    },
    {
      "type": "Feature",
      "geometry": {
        "type": "Point",
        "coordinates": [
          4.364812,
          52.0703539
        ]
      },
      "properties": {
        "id": 1493259298,
        "osm_type": "way",
        "shelter_type": "lean_to"
      }
    },
    {
      "type": "Feature",
      "geometry": {
        "type": "Point",
        "coordinates": [
          4.3600768,
          52.0693486
        ]
      },
      "properties": {
        "id": 1494725672,
        "osm_type": "way",
        "shelter_type": "lean_to"
      }
    },
    {
      "type": "Feature",
      "geometry": {
        "type": "Point",
        "coordinates": [
          4.3745936,
          52.0717661
        ]
      },
      "properties": {
        "id": 1501186812,
        "osm_type": "way",
        "name": "Prieel Byvliet",
        "shelter_type": "lean_to"
      }
    }
  ]
}