{
  "type": "FeatureCollection",
  "features": [
    {
      "type": "Feature",
      "geometry": {
        "type": "Point",
        "coordinates": [
          27.4606987,
          38.5411735
        ]
      },
      "properties": {
        "id": 1924802141,
        "osm_type": "node",
        "name": "Oğlak Çeşmesi"
      }
    },
    {
      "type": "Feature",
      "geometry": {
        "type": "Point",
        "coordinates": [
          27.4993156,
          38.5716551
        ]
      },
      "properties": {
        "id": 1924802142,
        "osm_type": "node",
        "name": "Sülüklü Göl Çeşmesi"
      }
    },
    {
      "type": "Feature",
      "geometry": {
        "type": "Point",
        "coordinates": [
          27.4861753,
          38.5499431
        ]
      },
      "properties": {
        "id": 1924802463,
        "osm_type": "node"
      }
    },
    {
      "type": "Feature",
      "geometry": {
        "type": "Point",
        "coordinates": [
          27.5096133,
          38.5546335
        ]
      },
      "properties": {
        "id": 1924802629,
        "osm_type": "node"
      }
    },
    {
      "type": "Feature",
      "geometry": {
        "type": "Point",
        "coordinates": [
          27.5826836,
          38.5264671
        ]
      },
      "properties": {
        "id": 2502947609,
        "osm_type": "node"
      }
    },
    {
      "type": "Feature",
      "geometry": {
        "type": "Point",
        "coordinates": [
          27.4804202,
          38.5786581
        ]
      },
      "properties": {
        "id": 2513833137,
        "osm_type": "node",
        "name": "Nurkadın Çeşmesi"
      }
    },
    {
      "type": "Feature",
      "geometry": {
        "type": "Point",
        "coordinates": [
          27.4278072,
          38.6154488
        ]
      },
      "properties": {
        "id": 3970250542,
        "osm_type": "node",
        "name": "Çeşme",
        "check_date": "2026-02-10"
      }
    },
    {
      "type": "Feature",
      "geometry": {
        "type": "Point",
        "coordinates": [
          27.5893068,
          39.292651
        ]
      },
      "properties": {
        "id": 4439732178,
        "osm_type": "node"
      }
    },
    {
      "type": "Feature",
      "geometry": {
        "type": "Point",
        "coordinates": [
          28.3054597,
          38.4894959
        ]
      },
      "properties": {
        "id": 8721136634,
        "osm_type": "node"
      }
    },
    {
      "type": "Feature",
      "geometry": {
        "type": "Point",
        "coordinates": [
          28.6637817,
          38.1942051
        ]
      },
      "properties": {
        "id": 8721159972,
        "osm_type": "node"
      }
    },
    {
      "type": "Feature",
      "geometry": {
        "type": "Point",
        "coordinates": [
          28.6740935,
          38.1847139
        ]
      },
      "properties": {
        "id": 8721162166,
        "osm_type": "node"
      }
    },
    {
      "type": "Feature",
      "geometry": {
        "type": "Point",
        "coordinates": [
          28.6781415,
          38.1842174
        ]
      },
      "properties": {
        "id": 8721164184,
        "osm_type": "node"
      }
    },
    {
      "type": "Feature",
      "geometry": {
        "type": "Point",
        "coordinates": [
          28.8987489,
          38.8059357
        ]
      },
      "properties": {
        "id": 9169357837,
        "osm_type": "node"
      }
    },
    {
      "type": "Feature",
      "geometry": {
        "type": "Point",
        "coordinates": [
          27.6900789,
          38.6883337
        ]
      },
      "properties": {
        "id": 9679085403,
        "osm_type": "node",
        "access": "yes"
      }
    },
    {
      "type": "Feature",
      "geometry": {
        "type": "Point",
        "coordinates": [
          27.3329264,
          38.5698144
        ]
      },
      "properties": {
        "id": 10792846905,
        "osm_type": "node"
      }
    },
    {
      "type": "Feature",
      "geometry": {
        "type": "Point",
        "coordinates": [
          27.4964823,
          38.9814274
        ]
      },
      "properties": {
        "id": 10792847005,
        "osm_type": "node"
      }
    },
    {
      "type": "Feature",
      "geometry": {
        "type": "Point",
        "coordinates": [
          27.4936758,
          38.9956358
        ]
      },
      "properties": {
        "id": 10792847205,
        "osm_type": "node"
      }
    },
    {
      "type": "Feature",
      "geometry": {
        "type": "Point",
        "coordinates": [
          27.4338449,
          38.6138075
        ]
      },
      "properties": {
        "id": 11244948944,
        "osm_type": "node",
        "name": "Hayrat",
        "fee": "no"
      }
    },
    {
      "type": "Feature",
      "geometry": {
        "type": "Point",
        "coordinates": [
          27.3775757,
          38.6109553
        ]
      },
      "properties": {
        "id": 12165887411,
        "osm_type": "node",
        "name": "Hayrat",
        "access": "yes",
        "fee": "no"
      }
    },
    {
      "type": "Feature",
      "geometry": {
        "type": "Point",
        "coordinates": [
          28.6247556,
          38.2746842
        ]
      },
      "properties": {
        "id": 13634609836,
        "osm_type": "node",
        "name": "Water tap in cemetery"
      }
    }
  ]
}