{
  "type": "FeatureCollection",
  "features": [
    {
      "type": "Feature",
      "geometry": {
        "type": "Point",
        "coordinates": [
          26.6954494,
          37.7120406
        ]
      },
      "properties": {
        "id": 275366968,
        "osm_type": "node",
        "name": "BP",
        "brand": "BP"
      }
    },
    {
      "type": "Feature",
      "geometry": {
        "type": "Point",
        "coordinates": [
          26.1877981,
          39.0818659
        ]
      },
      "properties": {
        "id": 347313220,
        "osm_type": "node",
        "name": "ΕΛΙΝΟΙΛ",
        "brand": "ΕΛΙΝΟΙΛ"
      }
    },
    {
      "type": "Feature",
      "geometry": {
        "type": "Point",
        "coordinates": [
          26.19869,
          39.0375958
        ]
      },
      "properties": {
        "id": 369338120,
        "osm_type": "node",
        "name": "EKO",
        "brand": "EKO"
      }
    },
    {
      "type": "Feature",
      "geometry": {
        "type": "Point",
        "coordinates": [
          26.8984096,
          37.7729812
        ]
      },
      "properties": {
        "id": 437577214,
        "osm_type": "node",
        "name": "JetOil"
      }
    },
    {
      "type": "Feature",
      "geometry": {
        "type": "Point",
        "coordinates": [
          26.8398895,
          37.8035166
        ]
      },
      "properties": {
        "id": 437577234,
        "osm_type": "node",
        "name": "SILKOIL",
        "brand": "SILKOIL"
      }
    },
    {
      "type": "Feature",
      "geometry": {
        "type": "Point",
        "coordinates": [
          26.7217887,
          37.8029369
        ]
      },
      "properties": {
        "id": 437577236,
        "osm_type": "node",
        "name": "EKO",
        "brand": "EKO",
        "opening_hours": "24/7"
      }
    },
    {
      "type": "Feature",
      "geometry": {
        "type": "Point",
        "coordinates": [
          26.7045244,
          37.7969433
        ]
      },
      "properties": {
        "id": 437577237,
        "osm_type": "node",
        "name": "SHELL",
        "brand": "Shell"
      }
    },
    {
      "type": "Feature",
      "geometry": {
        "type": "Point",
        "coordinates": [
          26.7056562,
          37.7836663
        ]
      },
      "properties": {
        "id": 437987874,
        "osm_type": "node",
        "name": "ΕΚΟ",
        "brand": "EKO"
      }
    },
    {
      "type": "Feature",
      "geometry": {
        "type": "Point",
        "coordinates": [
          26.9112653,
          37.6997823
        ]
      },
      "properties": {
        "id": 437987885,
        "osm_type": "node",
        "name": "SHELL",
        "brand": "SHELL"
      }
    },
    {
      "type": "Feature",
      "geometry": {
        "type": "Point",
        "coordinates": [
          26.9608165,
          37.6973318
        ]
      },
      "properties": {
        "id": 438011337,
        "osm_type": "node",
        "name": "AEGEAN",
        "brand": "Aegean"
      }
    },
    {
      "type": "Feature",
      "geometry": {
        "type": "Point",
        "coordinates": [
          26.9654141,
          37.7064087
        ]
      },
      "properties": {
        "id": 438011339,
        "osm_type": "node",
        "name": "EKO",
        "brand": "EKO",
        "opening_hours": "24/7"
      }
    },
    {
      "type": "Feature",
      "geometry": {
        "type": "Point",
        "coordinates": [
          26.9654495,
          37.7122501
        ]
      },
      "properties": {
        "id": 438011341,
        "osm_type": "node",
        "name": "AVIN",
        "brand": "Avin"
      }
    },
    {
      "type": "Feature",
      "geometry": {
        "type": "Point",
        "coordinates": [
          26.9805168,
          37.7362116
        ]
      },
      "properties": {
        "id": 438011343,
        "osm_type": "node",
        "name": "BP",
        "brand": "BP"
      }
    },
    {
      "type": "Feature",
      "geometry": {
        "type": "Point",
        "coordinates": [
          26.9115721,
          37.7231603
        ]
      },
      "properties": {
        "id": 438049036,
        "osm_type": "node",
        "name": "ΑΡΓΩ",
        "brand": "ΑΡΓΩ"
      }
    },
    {
      "type": "Feature",
      "geometry": {
        "type": "Point",
        "coordinates": [
          26.6955446,
          37.7220594
        ]
      },
      "properties": {
        "id": 438107982,
        "osm_type": "node",
        "name": "EKO",
        "brand": "EKO"
      }
    },
    {
      "type": "Feature",
      "geometry": {
        "type": "Point",
        "coordinates": [
          26.4349476,
          39.1279878
        ]
      },
      "properties": {
        "id": 599421304,
        "osm_type": "node",
        "name": "EKO",
        "brand": "EKO"
      }
    },
    {
      "type": "Feature",
      "geometry": {
        "type": "Point",
        "coordinates": [
          26.7012963,
          37.7988307
        ]
      },
      "properties": {
        "id": 667450266,
        "osm_type": "node",
        "name": "EKO",
        "brand": "EKO"
      }
    },
    {
      "type": "Feature",
      "geometry": {
        "type": "Point",
        "coordinates": [
          26.5446921,
          39.1250958
        ]
      },
      "properties": {
        "id": 704498567,
        "osm_type": "node",
        "name": "BP",
        "brand": "BP"
      }
    },
    {
      "type": "Feature",
      "geometry": {
        "type": "Point",
        "coordinates": [
          26.9787106,
          37.7533147
        ]
      },
      "properties": {
        "id": 915625249,
        "osm_type": "node"
      }
    },
    {
      "type": "Feature",
      "geometry": {
        "type": "Point",
        "coordinates": [
          26.1356131,
          38.4001097
        ]
      },
      "properties": {
        "id": 1068787539,
        "osm_type": "node",
        "name": "EKO",
        "brand": "EKO"
      }
    },
    {
      "type": "Feature",
      "geometry": {
        "type": "Point",
        "coordinates": [
          26.7172375,
          37.8001602
        ]
      },
      "properties": {
        "id": 1305055828,
        "osm_type": "node",
        "name": "BP",
        "brand": "BP",
        "opening_hours": "24/7"
      }
    },
    {
      "type": "Feature",
      "geometry": {
        "type": "Point",
        "coordinates": [
          26.7039866,
          37.7968471
        ]
      },
      "properties": {
        "id": 1305618022,
        "osm_type": "node",
        "name": "BP",
        "brand": "BP"
      }
    },
    {
      "type": "Feature",
      "geometry": {
        "type": "Point",
        "coordinates": [
          26.120927,
          38.3123249
        ]
      },
      "properties": {
        "id": 1338457285,
        "osm_type": "node",
        "name": "Revoil",
        "brand": "Revoil"
      }
    },
    {
      "type": "Feature",
      "geometry": {
        "type": "Point",
        "coordinates": [
          26.0331387,
          38.2557415
        ]
      },
      "properties": {
        "id": 1338824314,
        "osm_type": "node",
        "name": "REVOIL",
        "brand": "Revoil"
      }
    },
    {
      "type": "Feature",
      "geometry": {
        "type": "Point",
        "coordinates": [
          26.0677331,
          38.2520896
        ]
      },
      "properties": {
        "id": 1338824344,
        "osm_type": "node",
        "name": "REVOIL",
        "brand": "Revoil"
      }
    },
    {
      "type": "Feature",
      "geometry": {
        "type": "Point",
        "coordinates": [
          26.1428886,
          38.3482091
        ]
      },
      "properties": {
        "id": 1338824387,
        "osm_type": "node",
        "name": "REVOIL",
        "brand": "Revoil"
      }
    },
    {
      "type": "Feature",
      "geometry": {
        "type": "Point",
        "coordinates": [
          26.0677524,
          38.2884449
        ]
      },
      "properties": {
        "id": 1338824444,
        "osm_type": "node",
        "name": "ΕΛΙΝΟΙΛ",
        "brand": "ΕΛΙΝΟΙΛ"
      }
    },
    {
      "type": "Feature",
      "geometry": {
        "type": "Point",
        "coordinates": [
          26.0302768,
          38.252027
        ]
      },
      "properties": {
        "id": 1338824561,
        "osm_type": "node",
        "name": "AVIN",
        "brand": "Avin"
      }
    },
    {
      "type": "Feature",
      "geometry": {
        "type": "Point",
        "coordinates": [
          26.1433392,
          38.3345558
        ]
      },
      "properties": {
        "id": 1338824666,
        "osm_type": "node",
        "name": "REVOIL",
        "brand": "Revoil"
      }
    },
    {
      "type": "Feature",
      "geometry": {
        "type": "Point",
        "coordinates": [
          26.0958765,
          38.2461776
        ]
      },
      "properties": {
        "id": 1338824692,
        "osm_type": "node",
        "name": "EKO",
        "brand": "EKO"
      }
    },
    {
      "type": "Feature",
      "geometry": {
        "type": "Point",
        "coordinates": [
          26.3813823,
          38.9726096
        ]
      },
      "properties": {
        "id": 1346078959,
        "osm_type": "node",
        "name": "EKO",
        "brand": "EKO"
      }
    },
    {
      "type": "Feature",
      "geometry": {
        "type": "Point",
        "coordinates": [
          25.2443678,
          39.9330728
        ]
      },
      "properties": {
        "id": 1367651223,
        "osm_type": "node",
        "name": "ΕΛΙΝΟΙΛ",
        "brand": "ΕΛΙΝΟΙΛ"
      }
    },
    {
      "type": "Feature",
      "geometry": {
        "type": "Point",
        "coordinates": [
          26.7010894,
          37.7922446
        ]
      },
      "properties": {
        "id": 1595963276,
        "osm_type": "node",
        "name": "SILKOIL",
        "brand": "SILKOIL"
      }
    },
    {
      "type": "Feature",
      "geometry": {
        "type": "Point",
        "coordinates": [
          26.0817522,
          37.6068723
        ]
      },
      "properties": {
        "id": 1619256812,
        "osm_type": "node",
        "name": "EKO",
        "brand": "EKO"
      }
    },
    {
      "type": "Feature",
      "geometry": {
        "type": "Point",
        "coordinates": [
          26.1617656,
          37.5926022
        ]
      },
      "properties": {
        "id": 1619260865,
        "osm_type": "node",
        "name": "ΕΛΙΝΟΙΛ",
        "brand": "ΕΛΙΝΟΙΛ"
      }
    },
    {
      "type": "Feature",
      "geometry": {
        "type": "Point",
        "coordinates": [
          26.0938979,
          37.6236127
        ]
      },
      "properties": {
        "id": 1801803918,
        "osm_type": "node",
        "name": "ΕΛΙΝΟΙΛ",
        "brand": "ΕΛΙΝΟΙΛ"
      }
    },
    {
      "type": "Feature",
      "geometry": {
        "type": "Point",
        "coordinates": [
          26.048117,
          39.237031
        ]
      },
      "properties": {
        "id": 2065706369,
        "osm_type": "node",
        "name": "Cyclon"
      }
    },
    {
      "type": "Feature",
      "geometry": {
        "type": "Point",
        "coordinates": [
          26.5289101,
          39.1443161
        ]
      },
      "properties": {
        "id": 2421883536,
        "osm_type": "node",
        "name": "ΕΛΙΝΟΙΛ",
        "brand": "ΕΛΙΝΟΙΛ"
      }
    },
    {
      "type": "Feature",
      "geometry": {
        "type": "Point",
        "coordinates": [
          26.555094,
          39.1005744
        ]
      },
      "properties": {
        "id": 2425622145,
        "osm_type": "node",
        "name": "EKO",
        "brand": "EKO"
      }
    },
    {
      "type": "Feature",
      "geometry": {
        "type": "Point",
        "coordinates": [
          26.8984667,
          37.6920315
        ]
      },
      "properties": {
        "id": 2440204437,
        "osm_type": "node",
        "name": "EKO",
        "brand": "EKO"
      }
    },
    {
      "type": "Feature",
      "geometry": {
        "type": "Point",
        "coordinates": [
          26.1426606,
          39.1681117
        ]
      },
      "properties": {
        "id": 2639082564,
        "osm_type": "node",
        "name": "ΕΛΙΝΟΙΛ",
        "brand": "ΕΛΙΝΟΙΛ"
      }
    },
    {
      "type": "Feature",
      "geometry": {
        "type": "Point",
        "coordinates": [
          26.4730296,
          39.1205936
        ]
      },
      "properties": {
        "id": 2730684584,
        "osm_type": "node",
        "name": "AVIN",
        "brand": "Avin"
      }
    },
    {
      "type": "Feature",
      "geometry": {
        "type": "Point",
        "coordinates": [
          26.0063006,
          38.3024384
        ]
      },
      "properties": {
        "id": 3126144631,
        "osm_type": "node"
      }
    },
    {
      "type": "Feature",
      "geometry": {
        "type": "Point",
        "coordinates": [
          25.9347763,
          39.1584615
        ]
      },
      "properties": {
        "id": 3165321815,
        "osm_type": "node"
      }
    },
    {
      "type": "Feature",
      "geometry": {
        "type": "Point",
        "coordinates": [
          26.2380781,
          39.3163151
        ]
      },
      "properties": {
        "id": 3165321846,
        "osm_type": "node",
        "name": "ΕΛΙΝΟΙΛ",
        "brand": "ΕΛΙΝΟΙΛ"
      }
    },
    {
      "type": "Feature",
      "geometry": {
        "type": "Point",
        "coordinates": [
          26.1615555,
          39.3190968
        ]
      },
      "properties": {
        "id": 3642976741,
        "osm_type": "node",
        "name": "EKO",
        "brand": "EKO"
      }
    },
    {
      "type": "Feature",
      "geometry": {
        "type": "Point",
        "coordinates": [
          26.1842684,
          39.3146723
        ]
      },
      "properties": {
        "id": 3696949820,
        "osm_type": "node"
      }
    },
    {
      "type": "Feature",
      "geometry": {
        "type": "Point",
        "coordinates": [
          26.2082906,
          39.2352266
        ]
      },
      "properties": {
        "id": 3696951652,
        "osm_type": "node",
        "name": "AVIN",
        "brand": "Avin"
      }
    },
    {
      "type": "Feature",
      "geometry": {
        "type": "Point",
        "coordinates": [
          26.4010244,
          38.9821762
        ]
      },
      "properties": {
        "id": 3864807078,
        "osm_type": "node",
        "name": "EKO",
        "brand": "EKO"
      }
    },
    {
      "type": "Feature",
      "geometry": {
        "type": "Point",
        "coordinates": [
          26.4107239,
          38.9790104
        ]
      },
      "properties": {
        "id": 3864808081,
        "osm_type": "node",
        "name": "ΕΛΙΝΟΙΛ",
        "brand": "ΕΛΙΝΟΙΛ"
      }
    },
    {
      "type": "Feature",
      "geometry": {
        "type": "Point",
        "coordinates": [
          26.1874944,
          37.6276468
        ]
      },
      "properties": {
        "id": 4406935133,
        "osm_type": "node",
        "name": "AVIN",
        "brand": "Avin"
      }
    },
    {
      "type": "Feature",
      "geometry": {
        "type": "Point",
        "coordinates": [
          26.54662,
          39.1051535
        ]
      },
      "properties": {
        "id": 4440150474,
        "osm_type": "node",
        "name": "EKO",
        "brand": "EKO"
      }
    },
    {
      "type": "Feature",
      "geometry": {
        "type": "Point",
        "coordinates": [
          26.3169726,
          39.3333983
        ]
      },
      "properties": {
        "id": 5105130426,
        "osm_type": "node",
        "name": "EKO",
        "brand": "EKO"
      }
    },
    {
      "type": "Feature",
      "geometry": {
        "type": "Point",
        "coordinates": [
          26.4088332,
          39.124675
        ]
      },
      "properties": {
        "id": 5429001550,
        "osm_type": "node",
        "name": "AviN",
        "brand": "Avin"
      }
    },
    {
      "type": "Feature",
      "geometry": {
        "type": "Point",
        "coordinates": [
          26.9850269,
          37.7374154
        ]
      },
      "properties": {
        "id": 6122027006,
        "osm_type": "node",
        "name": "SHELL",
        "brand": "Shell"
      }
    },
    {
      "type": "Feature",
      "geometry": {
        "type": "Point",
        "coordinates": [
          25.5680486,
          38.546973
        ]
      },
      "properties": {
        "id": 6602252318,
        "osm_type": "node",
        "name": "ΕΚΟ",
        "brand": "EKO"
      }
    },
    {
      "type": "Feature",
      "geometry": {
        "type": "Point",
        "coordinates": [
          25.4040875,
          39.9799191
        ]
      },
      "properties": {
        "id": 7804023999,
        "osm_type": "node",
        "name": "ΕΛΙΝΟΙΛ",
        "brand": "ΕΛΙΝΟΙΛ"
      }
    },
    {
      "type": "Feature",
      "geometry": {
        "type": "Point",
        "coordinates": [
          26.0105378,
          39.1305731
        ]
      },
      "properties": {
        "id": 8927679695,
        "osm_type": "node",
        "name": "EKO",
        "brand": "EKO"
      }
    },
    {
      "type": "Feature",
      "geometry": {
        "type": "Point",
        "coordinates": [
          25.0655547,
          39.880377
        ]
      },
      "properties": {
        "id": 9010332565,
        "osm_type": "node",
        "name": "BP",
        "brand": "BP"
      }
    },
    {
      "type": "Feature",
      "geometry": {
        "type": "Point",
        "coordinates": [
          26.2030438,
          39.0896798
        ]
      },
      "properties": {
        "id": 9610354191,
        "osm_type": "node",
        "name": "BP",
        "brand": "BP"
      }
    },
    {
      "type": "Feature",
      "geometry": {
        "type": "Point",
        "coordinates": [
          26.5285451,
          39.1448296
        ]
      },
      "properties": {
        "id": 9610405819,
        "osm_type": "node",
        "name": "BP",
        "brand": "BP"
      }
    },
    {
      "type": "Feature",
      "geometry": {
        "type": "Point",
        "coordinates": [
          26.2175981,
          39.2302716
        ]
      },
      "properties": {
        "id": 9611631670,
        "osm_type": "node",
        "name": "BP",
        "brand": "BP"
      }
    },
    {
      "type": "Feature",
      "geometry": {
        "type": "Point",
        "coordinates": [
          26.2222636,
          39.2304468
        ]
      },
      "properties": {
        "id": 9611644045,
        "osm_type": "node",
        "name": "EKO",
        "brand": "EKO"
      }
    },
    {
      "type": "Feature",
      "geometry": {
        "type": "Point",
        "coordinates": [
          25.934482,
          39.1651845
        ]
      },
      "properties": {
        "id": 9612259883,
        "osm_type": "node",
        "name": "BP",
        "brand": "BP"
      }
    },
    {
      "type": "Feature",
      "geometry": {
        "type": "Point",
        "coordinates": [
          26.3689778,
          39.080756
        ]
      },
      "properties": {
        "id": 9615002883,
        "osm_type": "node",
        "name": "ΕΛΙΝΟΙΛ",
        "brand": "ΕΛΙΝΟΙΛ"
      }
    },
    {
      "type": "Feature",
      "geometry": {
        "type": "Point",
        "coordinates": [
          26.5058866,
          39.1092966
        ]
      },
      "properties": {
        "id": 9633490039,
        "osm_type": "node",
        "name": "ΕΡΜΗΣ ΑΕΜΕΕ ΥΠ/ΜΑ ΜΥΤΙΛΗΝΗΣ 2",
        "brand": "Shell"
      }
    },
    {
      "type": "Feature",
      "geometry": {
        "type": "Point",
        "coordinates": [
          25.8642688,
          39.2187561
        ]
      },
      "properties": {
        "id": 9754369168,
        "osm_type": "node",
        "name": "SHELL",
        "brand": "Shell"
      }
    },
    {
      "type": "Feature",
      "geometry": {
        "type": "Point",
        "coordinates": [
          25.0729435,
          39.8687403
        ]
      },
      "properties": {
        "id": 9765110554,
        "osm_type": "node",
        "name": "BP",
        "brand": "BP"
      }
    },
    {
      "type": "Feature",
      "geometry": {
        "type": "Point",
        "coordinates": [
          25.0740327,
          39.8649282
        ]
      },
      "properties": {
        "id": 9765110565,
        "osm_type": "node",
        "name": "ΕΛΙΝΟΙΛ",
        "brand": "ΕΛΙΝΟΙΛ"
      }
    },
    {
      "type": "Feature",
      "geometry": {
        "type": "Point",
        "coordinates": [
          25.0697439,
          39.8836622
        ]
      },
      "properties": {
        "id": 9765110582,
        "osm_type": "node",
        "name": "ΕΛΙΝΟΙΛ",
        "brand": "ΕΛΙΝΟΙΛ"
      }
    },
    {
      "type": "Feature",
      "geometry": {
        "type": "Point",
        "coordinates": [
          25.2774487,
          39.8854339
        ]
      },
      "properties": {
        "id": 9765136259,
        "osm_type": "node",
        "name": "ΕΛΙΝΟΙΛ",
        "brand": "ΕΛΙΝΟΙΛ"
      }
    },
    {
      "type": "Feature",
      "geometry": {
        "type": "Point",
        "coordinates": [
          25.0791404,
          39.8898425
        ]
      },
      "properties": {
        "id": 9765148865,
        "osm_type": "node",
        "name": "BP",
        "brand": "BP"
      }
    },
    {
      "type": "Feature",
      "geometry": {
        "type": "Point",
        "coordinates": [
          25.1039525,
          39.9014713
        ]
      },
      "properties": {
        "id": 9765148887,
        "osm_type": "node",
        "name": "EKO",
        "brand": "EKO"
      }
    },
    {
      "type": "Feature",
      "geometry": {
        "type": "Point",
        "coordinates": [
          25.1480293,
          39.9099057
        ]
      },
      "properties": {
        "id": 9765148902,
        "osm_type": "node",
        "name": "EKO",
        "brand": "EKO"
      }
    },
    {
      "type": "Feature",
      "geometry": {
        "type": "Point",
        "coordinates": [
          25.1984358,
          39.9118652
        ]
      },
      "properties": {
        "id": 9765148911,
        "osm_type": "node",
        "name": "SHELL",
        "brand": "Shell"
      }
    },
    {
      "type": "Feature",
      "geometry": {
        "type": "Point",
        "coordinates": [
          25.1914538,
          39.8913078
        ]
      },
      "properties": {
        "id": 9765154332,
        "osm_type": "node",
        "name": "BP",
        "brand": "BP"
      }
    },
    {
      "type": "Feature",
      "geometry": {
        "type": "Point",
        "coordinates": [
          25.1578538,
          39.8706879
        ]
      },
      "properties": {
        "id": 9765154348,
        "osm_type": "node",
        "name": "EKO",
        "brand": "EKO"
      }
    },
    {
      "type": "Feature",
      "geometry": {
        "type": "Point",
        "coordinates": [
          25.3373848,
          39.9291656
        ]
      },
      "properties": {
        "id": 9765168494,
        "osm_type": "node",
        "name": "EKO",
        "brand": "EKO"
      }
    },
    {
      "type": "Feature",
      "geometry": {
        "type": "Point",
        "coordinates": [
          26.4532548,
          39.0582608
        ]
      },
      "properties": {
        "id": 9770019737,
        "osm_type": "node",
        "name": "ΕΛΙΝΟΙΛ",
        "brand": "ΕΛΙΝΟΙΛ"
      }
    },
    {
      "type": "Feature",
      "geometry": {
        "type": "Point",
        "coordinates": [
          26.4489239,
          39.1107639
        ]
      },
      "properties": {
        "id": 9770066289,
        "osm_type": "node",
        "name": "EKO",
        "brand": "EKO"
      }
    },
    {
      "type": "Feature",
      "geometry": {
        "type": "Point",
        "coordinates": [
          26.4467896,
          39.1224505
        ]
      },
      "properties": {
        "id": 9770066304,
        "osm_type": "node",
        "name": "SHELL",
        "brand": "Shell"
      }
    },
    {
      "type": "Feature",
      "geometry": {
        "type": "Point",
        "coordinates": [
          26.1984684,
          39.0471676
        ]
      },
      "properties": {
        "id": 9770076928,
        "osm_type": "node",
        "name": "AEGEAN",
        "brand": "Aegean"
      }
    },
    {
      "type": "Feature",
      "geometry": {
        "type": "Point",
        "coordinates": [
          26.1866451,
          39.0802777
        ]
      },
      "properties": {
        "id": 9770076949,
        "osm_type": "node",
        "name": "BP",
        "brand": "BP"
      }
    },
    {
      "type": "Feature",
      "geometry": {
        "type": "Point",
        "coordinates": [
          26.1938744,
          39.0848942
        ]
      },
      "properties": {
        "id": 9770076969,
        "osm_type": "node",
        "name": "EKO",
        "brand": "EKO"
      }
    },
    {
      "type": "Feature",
      "geometry": {
        "type": "Point",
        "coordinates": [
          26.2463667,
          39.2248668
        ]
      },
      "properties": {
        "id": 9770130474,
        "osm_type": "node",
        "name": "SHELL",
        "brand": "Shell"
      }
    },
    {
      "type": "Feature",
      "geometry": {
        "type": "Point",
        "coordinates": [
          26.0699476,
          39.1514569
        ]
      },
      "properties": {
        "id": 9770214745,
        "osm_type": "node",
        "name": "EKO",
        "brand": "EKO"
      }
    },
    {
      "type": "Feature",
      "geometry": {
        "type": "Point",
        "coordinates": [
          26.064195,
          39.1576309
        ]
      },
      "properties": {
        "id": 9770214750,
        "osm_type": "node",
        "name": "AVIN",
        "brand": "Avin"
      }
    },
    {
      "type": "Feature",
      "geometry": {
        "type": "Point",
        "coordinates": [
          25.9769341,
          39.2376854
        ]
      },
      "properties": {
        "id": 9770214794,
        "osm_type": "node",
        "name": "ΕΛΙΝΟΙΛ",
        "brand": "ΕΛΙΝΟΙΛ"
      }
    },
    {
      "type": "Feature",
      "geometry": {
        "type": "Point",
        "coordinates": [
          26.0820666,
          39.2561206
        ]
      },
      "properties": {
        "id": 9770248865,
        "osm_type": "node",
        "name": "EKO",
        "brand": "EKO"
      }
    },
    {
      "type": "Feature",
      "geometry": {
        "type": "Point",
        "coordinates": [
          26.181738,
          39.3580856
        ]
      },
      "properties": {
        "id": 9770261808,
        "osm_type": "node",
        "name": "EKO",
        "brand": "EKO"
      }
    },
    {
      "type": "Feature",
      "geometry": {
        "type": "Point",
        "coordinates": [
          26.1828413,
          39.3240512
        ]
      },
      "properties": {
        "id": 9770264643,
        "osm_type": "node",
        "name": "SHELL",
        "brand": "Shell"
      }
    },
    {
      "type": "Feature",
      "geometry": {
        "type": "Point",
        "coordinates": [
          26.1808577,
          39.3313188
        ]
      },
      "properties": {
        "id": 9770264648,
        "osm_type": "node",
        "name": "BP",
        "brand": "BP"
      }
    },
    {
      "type": "Feature",
      "geometry": {
        "type": "Point",
        "coordinates": [
          26.5554109,
          39.0978648
        ]
      },
      "properties": {
        "id": 9770654990,
        "osm_type": "node",
        "name": "SHELL",
        "brand": "Shell"
      }
    },
    {
      "type": "Feature",
      "geometry": {
        "type": "Point",
        "coordinates": [
          26.5417586,
          39.0567572
        ]
      },
      "properties": {
        "id": 9770654995,
        "osm_type": "node",
        "name": "AVIN",
        "brand": "Avin"
      }
    },
    {
      "type": "Feature",
      "geometry": {
        "type": "Point",
        "coordinates": [
          26.3355886,
          39.3079195
        ]
      },
      "properties": {
        "id": 9770685626,
        "osm_type": "node",
        "name": "EKO",
        "brand": "EKO"
      }
    },
    {
      "type": "Feature",
      "geometry": {
        "type": "Point",
        "coordinates": [
          26.3627373,
          39.290571
        ]
      },
      "properties": {
        "id": 9770717906,
        "osm_type": "node",
        "name": "AVIN",
        "brand": "Avin"
      }
    },
    {
      "type": "Feature",
      "geometry": {
        "type": "Point",
        "coordinates": [
          26.503947,
          39.1105473
        ]
      },
      "properties": {
        "id": 9770724216,
        "osm_type": "node",
        "name": "BP",
        "brand": "BP"
      }
    },
    {
      "type": "Feature",
      "geometry": {
        "type": "Point",
        "coordinates": [
          26.5444364,
          39.1268283
        ]
      },
      "properties": {
        "id": 9770724356,
        "osm_type": "node",
        "name": "AVIN",
        "brand": "Avin"
      }
    },
    {
      "type": "Feature",
      "geometry": {
        "type": "Point",
        "coordinates": [
          26.5164431,
          39.152671
        ]
      },
      "properties": {
        "id": 9770733374,
        "osm_type": "node",
        "name": "AVIN",
        "brand": "Avin"
      }
    },
    {
      "type": "Feature",
      "geometry": {
        "type": "Point",
        "coordinates": [
          25.9406682,
          38.4714676
        ]
      },
      "properties": {
        "id": 9783625019,
        "osm_type": "node",
        "name": "REVOIL",
        "brand": "Revoil"
      }
    },
    {
      "type": "Feature",
      "geometry": {
        "type": "Point",
        "coordinates": [
          26.1008833,
          38.5399372
        ]
      },
      "properties": {
        "id": 9783684654,
        "osm_type": "node",
        "name": "ΕΛΙΝΟΙΛ",
        "brand": "ΕΛΙΝΟΙΛ"
      }
    },
    {
      "type": "Feature",
      "geometry": {
        "type": "Point",
        "coordinates": [
          26.0955508,
          38.5326934
        ]
      },
      "properties": {
        "id": 9783684666,
        "osm_type": "node",
        "name": "REVOIL",
        "brand": "Revoil"
      }
    },
    {
      "type": "Feature",
      "geometry": {
        "type": "Point",
        "coordinates": [
          26.1345251,
          38.4097113
        ]
      },
      "properties": {
        "id": 9783684698,
        "osm_type": "node",
        "name": "SHELL",
        "brand": "Shell"
      }
    },
    {
      "type": "Feature",
      "geometry": {
        "type": "Point",
        "coordinates": [
          26.1354902,
          38.397386
        ]
      },
      "properties": {
        "id": 9783722190,
        "osm_type": "node",
        "name": "BP",
        "brand": "BP"
      }
    },
    {
      "type": "Feature",
      "geometry": {
        "type": "Point",
        "coordinates": [
          26.1372148,
          38.3875654
        ]
      },
      "properties": {
        "id": 9783722206,
        "osm_type": "node",
        "name": "REVOIL",
        "brand": "Revoil"
      }
    },
    {
      "type": "Feature",
      "geometry": {
        "type": "Point",
        "coordinates": [
          26.1323086,
          38.3872993
        ]
      },
      "properties": {
        "id": 9783748818,
        "osm_type": "node",
        "name": "BP",
        "brand": "BP"
      }
    },
    {
      "type": "Feature",
      "geometry": {
        "type": "Point",
        "coordinates": [
          26.0435286,
          38.2330565
        ]
      },
      "properties": {
        "id": 9783820486,
        "osm_type": "node",
        "name": "ΑΡΓΩ",
        "brand": "ΑΡΓΩ"
      }
    },
    {
      "type": "Feature",
      "geometry": {
        "type": "Point",
        "coordinates": [
          26.0820082,
          38.2455736
        ]
      },
      "properties": {
        "id": 9783820508,
        "osm_type": "node",
        "name": "REVOIL",
        "brand": "Revoil"
      }
    },
    {
      "type": "Feature",
      "geometry": {
        "type": "Point",
        "coordinates": [
          26.0980286,
          38.2674056
        ]
      },
      "properties": {
        "id": 9783884025,
        "osm_type": "node",
        "name": "REVOIL",
        "brand": "Revoil"
      }
    },
    {
      "type": "Feature",
      "geometry": {
        "type": "Point",
        "coordinates": [
          26.0742651,
          38.2917574
        ]
      },
      "properties": {
        "id": 9783884032,
        "osm_type": "node",
        "name": "AVIN",
        "brand": "Avin"
      }
    },
    {
      "type": "Feature",
      "geometry": {
        "type": "Point",
        "coordinates": [
          26.1367111,
          38.376335
        ]
      },
      "properties": {
        "id": 9784010249,
        "osm_type": "node",
        "name": "SHELL",
        "brand": "Shell"
      }
    },
    {
      "type": "Feature",
      "geometry": {
        "type": "Point",
        "coordinates": [
          26.1352905,
          38.3763076
        ]
      },
      "properties": {
        "id": 9784010266,
        "osm_type": "node",
        "name": "BP",
        "brand": "BP"
      }
    },
    {
      "type": "Feature",
      "geometry": {
        "type": "Point",
        "coordinates": [
          26.1350884,
          38.3718898
        ]
      },
      "properties": {
        "id": 9784010267,
        "osm_type": "node",
        "name": "BP",
        "brand": "BP"
      }
    },
    {
      "type": "Feature",
      "geometry": {
        "type": "Point",
        "coordinates": [
          26.1334291,
          38.3712996
        ]
      },
      "properties": {
        "id": 9784010276,
        "osm_type": "node",
        "name": "EKO",
        "brand": "EKO"
      }
    },
    {
      "type": "Feature",
      "geometry": {
        "type": "Point",
        "coordinates": [
          26.1353236,
          38.3603022
        ]
      },
      "properties": {
        "id": 9784010292,
        "osm_type": "node",
        "name": "REVOIL",
        "brand": "Revoil"
      }
    },
    {
      "type": "Feature",
      "geometry": {
        "type": "Point",
        "coordinates": [
          26.1353228,
          38.3583707
        ]
      },
      "properties": {
        "id": 9784010299,
        "osm_type": "node",
        "name": "ΕΛΙΝΟΙΛ",
        "brand": "ΕΛΙΝΟΙΛ"
      }
    },
    {
      "type": "Feature",
      "geometry": {
        "type": "Point",
        "coordinates": [
          26.1352067,
          38.3559063
        ]
      },
      "properties": {
        "id": 9784010309,
        "osm_type": "node",
        "name": "EKO",
        "brand": "EKO"
      }
    },
    {
      "type": "Feature",
      "geometry": {
        "type": "Point",
        "coordinates": [
          26.1347694,
          38.3466576
        ]
      },
      "properties": {
        "id": 9784010322,
        "osm_type": "node",
        "name": "ΑΡΓΩ",
        "brand": "ΑΡΓΩ"
      }
    },
    {
      "type": "Feature",
      "geometry": {
        "type": "Point",
        "coordinates": [
          26.1290647,
          38.3244548
        ]
      },
      "properties": {
        "id": 9784010362,
        "osm_type": "node",
        "name": "BP",
        "brand": "BP"
      }
    },
    {
      "type": "Feature",
      "geometry": {
        "type": "Point",
        "coordinates": [
          26.1253718,
          38.317298
        ]
      },
      "properties": {
        "id": 9784010365,
        "osm_type": "node",
        "name": "BP",
        "brand": "BP"
      }
    },
    {
      "type": "Feature",
      "geometry": {
        "type": "Point",
        "coordinates": [
          26.1213368,
          38.3126988
        ]
      },
      "properties": {
        "id": 9784010370,
        "osm_type": "node",
        "name": "REVOIL",
        "brand": "Revoil"
      }
    },
    {
      "type": "Feature",
      "geometry": {
        "type": "Point",
        "coordinates": [
          26.1104832,
          38.3126462
        ]
      },
      "properties": {
        "id": 9784032148,
        "osm_type": "node",
        "name": "REVOIL",
        "brand": "Revoil"
      }
    },
    {
      "type": "Feature",
      "geometry": {
        "type": "Point",
        "coordinates": [
          26.1063286,
          38.3152212
        ]
      },
      "properties": {
        "id": 9784032166,
        "osm_type": "node",
        "name": "EKO",
        "brand": "EKO"
      }
    },
    {
      "type": "Feature",
      "geometry": {
        "type": "Point",
        "coordinates": [
          26.1066008,
          38.3216366
        ]
      },
      "properties": {
        "id": 9784032187,
        "osm_type": "node",
        "name": "EKO",
        "brand": "EKO"
      }
    },
    {
      "type": "Feature",
      "geometry": {
        "type": "Point",
        "coordinates": [
          26.1000968,
          38.3320705
        ]
      },
      "properties": {
        "id": 9784032206,
        "osm_type": "node",
        "name": "BP",
        "brand": "BP"
      }
    },
    {
      "type": "Feature",
      "geometry": {
        "type": "Point",
        "coordinates": [
          26.1170084,
          38.3364694
        ]
      },
      "properties": {
        "id": 9784032207,
        "osm_type": "node",
        "name": "AEGEAN",
        "brand": "Aegean"
      }
    },
    {
      "type": "Feature",
      "geometry": {
        "type": "Point",
        "coordinates": [
          26.1219252,
          38.3412337
        ]
      },
      "properties": {
        "id": 9784060835,
        "osm_type": "node",
        "name": "EKO",
        "brand": "EKO"
      }
    },
    {
      "type": "Feature",
      "geometry": {
        "type": "Point",
        "coordinates": [
          26.1436223,
          38.3153886
        ]
      },
      "properties": {
        "id": 9784060844,
        "osm_type": "node",
        "name": "EKO",
        "brand": "EKO"
      }
    },
    {
      "type": "Feature",
      "geometry": {
        "type": "Point",
        "coordinates": [
          26.1454759,
          38.3338265
        ]
      },
      "properties": {
        "id": 9784080027,
        "osm_type": "node",
        "name": "SHELL",
        "brand": "Shell"
      }
    },
    {
      "type": "Feature",
      "geometry": {
        "type": "Point",
        "coordinates": [
          26.1405665,
          38.3372954
        ]
      },
      "properties": {
        "id": 9784080057,
        "osm_type": "node",
        "name": "AVIN",
        "brand": "Avin"
      }
    },
    {
      "type": "Feature",
      "geometry": {
        "type": "Point",
        "coordinates": [
          26.1381689,
          38.3389352
        ]
      },
      "properties": {
        "id": 9784080066,
        "osm_type": "node",
        "name": "EKO",
        "brand": "EKO"
      }
    },
    {
      "type": "Feature",
      "geometry": {
        "type": "Point",
        "coordinates": [
          26.1433678,
          38.3555153
        ]
      },
      "properties": {
        "id": 9784080091,
        "osm_type": "node",
        "name": "EKO",
        "brand": "EKO"
      }
    },
    {
      "type": "Feature",
      "geometry": {
        "type": "Point",
        "coordinates": [
          25.9982145,
          38.2256875
        ]
      },
      "properties": {
        "id": 9784101169,
        "osm_type": "node",
        "name": "ΑΡΓΩ",
        "brand": "ΑΡΓΩ"
      }
    },
    {
      "type": "Feature",
      "geometry": {
        "type": "Point",
        "coordinates": [
          26.7043359,
          37.7857385
        ]
      },
      "properties": {
        "id": 9809677603,
        "osm_type": "node",
        "name": "AVIN",
        "brand": "Avin"
      }
    },
    {
      "type": "Feature",
      "geometry": {
        "type": "Point",
        "coordinates": [
          26.9271761,
          37.7678438
        ]
      },
      "properties": {
        "id": 9809707630,
        "osm_type": "node",
        "name": "SILKOIL",
        "brand": "SILKOIL"
      }
    },
    {
      "type": "Feature",
      "geometry": {
        "type": "Point",
        "coordinates": [
          26.9168111,
          37.6967074
        ]
      },
      "properties": {
        "id": 9809715213,
        "osm_type": "node",
        "name": "SILKOIL",
        "brand": "SILKOIL"
      }
    },
    {
      "type": "Feature",
      "geometry": {
        "type": "Point",
        "coordinates": [
          26.9535379,
          37.7534156
        ]
      },
      "properties": {
        "id": 9809738480,
        "osm_type": "node",
        "name": "ΕΛΙΝΟΙΛ",
        "brand": "ΕΛΙΝΟΙΛ"
      }
    },
    {
      "type": "Feature",
      "geometry": {
        "type": "Point",
        "coordinates": [
          26.9633519,
          37.7487895
        ]
      },
      "properties": {
        "id": 9809752731,
        "osm_type": "node",
        "name": "BP",
        "brand": "BP"
      }
    },
    {
      "type": "Feature",
      "geometry": {
        "type": "Point",
        "coordinates": [
          26.9763594,
          37.7499845
        ]
      },
      "properties": {
        "id": 9809752746,
        "osm_type": "node",
        "name": "SILKOIL",
        "brand": "SILKOIL"
      }
    },
    {
      "type": "Feature",
      "geometry": {
        "type": "Point",
        "coordinates": [
          26.976556,
          37.7506477
        ]
      },
      "properties": {
        "id": 9809752747,
        "osm_type": "node",
        "name": "EKO",
        "brand": "EKO"
      }
    },
    {
      "type": "Feature",
      "geometry": {
        "type": "Point",
        "coordinates": [
          26.1315135,
          37.6324982
        ]
      },
      "properties": {
        "id": 9809784395,
        "osm_type": "node",
        "name": "BP",
        "brand": "BP"
      }
    },
    {
      "type": "Feature",
      "geometry": {
        "type": "Point",
        "coordinates": [
          26.8253481,
          37.7039718
        ]
      },
      "properties": {
        "id": 9809787114,
        "osm_type": "node",
        "name": "EKO",
        "brand": "EKO"
      }
    },
    {
      "type": "Feature",
      "geometry": {
        "type": "Point",
        "coordinates": [
          26.7273436,
          37.74809
        ]
      },
      "properties": {
        "id": 9809796610,
        "osm_type": "node",
        "name": "SILKOIL",
        "brand": "SILKOIL"
      }
    },
    {
      "type": "Feature",
      "geometry": {
        "type": "Point",
        "coordinates": [
          26.2151843,
          37.6271815
        ]
      },
      "properties": {
        "id": 9809831827,
        "osm_type": "node",
        "name": "ΕΛΙΝΟΙΛ",
        "brand": "ΕΛΙΝΟΙΛ"
      }
    },
    {
      "type": "Feature",
      "geometry": {
        "type": "Point",
        "coordinates": [
          26.2454569,
          37.5915575
        ]
      },
      "properties": {
        "id": 9809872738,
        "osm_type": "node",
        "name": "EKO",
        "brand": "EKO"
      }
    },
    {
      "type": "Feature",
      "geometry": {
        "type": "Point",
        "coordinates": [
          26.2948921,
          37.6176988
        ]
      },
      "properties": {
        "id": 9809872761,
        "osm_type": "node",
        "name": "ΕΛΙΝΟΙΛ",
        "brand": "ΕΛΙΝΟΙΛ"
      }
    },
    {
      "type": "Feature",
      "geometry": {
        "type": "Point",
        "coordinates": [
          26.3000839,
          37.6245133
        ]
      },
      "properties": {
        "id": 9809872766,
        "osm_type": "node",
        "name": "ΕΛΙΝΟΙΛ",
        "brand": "ΕΛΙΝΟΙΛ"
      }
    },
    {
      "type": "Feature",
      "geometry": {
        "type": "Point",
        "coordinates": [
          25.1118543,
          39.9091744
        ]
      },
      "properties": {
        "id": 9842197171,
        "osm_type": "node",
        "name": "EKO",
        "brand": "EKO"
      }
    },
    {
      "type": "Feature",
      "geometry": {
        "type": "Point",
        "coordinates": [
          25.2270547,
          39.9205007
        ]
      },
      "properties": {
        "id": 9842207447,
        "osm_type": "node",
        "name": "AVIN",
        "brand": "Avin"
      }
    },
    {
      "type": "Feature",
      "geometry": {
        "type": "Point",
        "coordinates": [
          26.4791756,
          37.5727747
        ]
      },
      "properties": {
        "id": 10035129071,
        "osm_type": "node",
        "name": "EKO",
        "brand": "EKO"
      }
    },
    {
      "type": "Feature",
      "geometry": {
        "type": "Point",
        "coordinates": [
          25.9442328,
          38.4684927
        ]
      },
      "properties": {
        "id": 10035153328,
        "osm_type": "node",
        "name": "REVOIL",
        "brand": "Revoil"
      }
    },
    {
      "type": "Feature",
      "geometry": {
        "type": "Point",
        "coordinates": [
          26.1419369,
          38.3415132
        ]
      },
      "properties": {
        "id": 10037871292,
        "osm_type": "node",
        "name": "ΕΛΙΝΟΙΛ",
        "brand": "ΕΛΙΝΟΙΛ"
      }
    },
    {
      "type": "Feature",
      "geometry": {
        "type": "Point",
        "coordinates": [
          26.1335427,
          38.3378005
        ]
      },
      "properties": {
        "id": 10037871303,
        "osm_type": "node",
        "name": "AVIN",
        "brand": "Avin"
      }
    },
    {
      "type": "Feature",
      "geometry": {
        "type": "Point",
        "coordinates": [
          26.1370706,
          38.3774362
        ]
      },
      "properties": {
        "id": 10038000359,
        "osm_type": "node",
        "name": "ΑΡΓΩ",
        "brand": "ΑΡΓΩ"
      }
    },
    {
      "type": "Feature",
      "geometry": {
        "type": "Point",
        "coordinates": [
          26.1368768,
          38.3843436
        ]
      },
      "properties": {
        "id": 10038000368,
        "osm_type": "node",
        "name": "ΕΛΙΝΟΙΛ",
        "brand": "ΕΛΙΝΟΙΛ"
      }
    },
    {
      "type": "Feature",
      "geometry": {
        "type": "Point",
        "coordinates": [
          26.1343414,
          38.3887813
        ]
      },
      "properties": {
        "id": 10038000369,
        "osm_type": "node",
        "name": "REVOIL",
        "brand": "Revoil"
      }
    },
    {
      "type": "Feature",
      "geometry": {
        "type": "Point",
        "coordinates": [
          26.5089685,
          39.1644456
        ]
      },
      "properties": {
        "id": 10869228083,
        "osm_type": "node",
        "name": "Shell",
        "brand": "Shell"
      }
    },
    {
      "type": "Feature",
      "geometry": {
        "type": "Point",
        "coordinates": [
          25.4037053,
          39.9797474
        ]
      },
      "properties": {
        "id": 11168981151,
        "osm_type": "node",
        "name": "ΕΛΙΝΟΙΛ",
        "brand": "ΕΛΙΝΟΙΛ"
      }
    },
    {
      "type": "Feature",
      "geometry": {
        "type": "Point",
        "coordinates": [
          26.228499,
          39.2304659
        ]
      },
      "properties": {
        "id": 12812436011,
        "osm_type": "node"
      }
    },
    {
      "type": "Feature",
      "geometry": {
        "type": "Point",
        "coordinates": [
          26.4996099,
          39.1795123
        ]
      },
      "properties": {
        "id": 119683943,
        "osm_type": "way",
        "name": "EKO",
        "brand": "EKO"
      }
    },
    {
      "type": "Feature",
      "geometry": {
        "type": "Point",
        "coordinates": [
          25.1989583,
          39.9118615
        ]
      },
      "properties": {
        "id": 271740719,
        "osm_type": "way",
        "name": "Gas Station"
      }
    },
    {
      "type": "Feature",
      "geometry": {
        "type": "Point",
        "coordinates": [
          26.4741783,
          39.1273429
        ]
      },
      "properties": {
        "id": 380049411,
        "osm_type": "way",
        "name": "ΕΚΟ",
        "brand": "EKO"
      }
    },
    {
      "type": "Feature",
      "geometry": {
        "type": "Point",
        "coordinates": [
          26.0481281,
          39.236999
        ]
      },
      "properties": {
        "id": 381973457,
        "osm_type": "way"
      }
    },
    {
      "type": "Feature",
      "geometry": {
        "type": "Point",
        "coordinates": [
          26.1842227,
          39.3146837
        ]
      },
      "properties": {
        "id": 382869287,
        "osm_type": "way"
      }
    },
    {
      "type": "Feature",
      "geometry": {
        "type": "Point",
        "coordinates": [
          26.0063173,
          38.3025092
        ]
      },
      "properties": {
        "id": 403280115,
        "osm_type": "way"
      }
    },
    {
      "type": "Feature",
      "geometry": {
        "type": "Point",
        "coordinates": [
          26.1209292,
          38.3123359
        ]
      },
      "properties": {
        "id": 409129039,
        "osm_type": "way"
      }
    },
    {
      "type": "Feature",
      "geometry": {
        "type": "Point",
        "coordinates": [
          26.9572309,
          37.6908191
        ]
      },
      "properties": {
        "id": 423448684,
        "osm_type": "way",
        "name": "Marina Gas Station",
        "brand": "ELIN"
      }
    },
    {
      "type": "Feature",
      "geometry": {
        "type": "Point",
        "coordinates": [
          26.1616499,
          37.5926185
        ]
      },
      "properties": {
        "id": 449690521,
        "osm_type": "way"
      }
    },
    {
      "type": "Feature",
      "geometry": {
        "type": "Point",
        "coordinates": [
          26.5500423,
          39.1053722
        ]
      },
      "properties": {
        "id": 592315291,
        "osm_type": "way",
        "name": "EKO",
        "brand": "EKO"
      }
    },
    {
      "type": "Feature",
      "geometry": {
        "type": "Point",
        "coordinates": [
          26.4966425,
          39.0419557
        ]
      },
      "properties": {
        "id": 901526179,
        "osm_type": "way",
        "name": "ΕΛΙΝΟΙΛ",
        "brand": "ΕΛΙΝΟΙΛ"
      }
    },
    {
      "type": "Feature",
      "geometry": {
        "type": "Point",
        "coordinates": [
          26.5323836,
          39.1093955
        ]
      },
      "properties": {
        "id": 1044308507,
        "osm_type": "way",
        "name": "Avin",
        "brand": "Avin"
      }
    },
    {
      "type": "Feature",
      "geometry": {
        "type": "Point",
        "coordinates": [
          26.5488635,
          39.1059109
        ]
      },
      "properties": {
        "id": 1044316056,
        "osm_type": "way",
        "name": "AEGEAN",
        "brand": "Aegean"
      }
    },
    {
      "type": "Feature",
      "geometry": {
        "type": "Point",
        "coordinates": [
          26.453147,
          39.1211148
        ]
      },
      "properties": {
        "id": 1052249037,
        "osm_type": "way",
        "name": "EKO",
        "brand": "EKO"
      }
    },
    {
      "type": "Feature",
      "geometry": {
        "type": "Point",
        "coordinates": [
          26.2689928,
          39.2448548
        ]
      },
      "properties": {
        "id": 1058306469,
        "osm_type": "way",
        "name": "BP",
        "brand": "BP"
      }
    },
    {
      "type": "Feature",
      "geometry": {
        "type": "Point",
        "coordinates": [
          26.5060202,
          39.0410696
        ]
      },
      "properties": {
        "id": 1058317347,
        "osm_type": "way",
        "name": "EKO",
        "brand": "EKO"
      }
    },
    {
      "type": "Feature",
      "geometry": {
        "type": "Point",
        "coordinates": [
          26.4571839,
          39.0343295
        ]
      },
      "properties": {
        "id": 1060543744,
        "osm_type": "way",
        "name": "ΕΛΙΝΟΙΛ",
        "brand": "ΕΛΙΝΟΙΛ"
      }
    },
    {
      "type": "Feature",
      "geometry": {
        "type": "Point",
        "coordinates": [
          26.4579336,
          39.0339616
        ]
      },
      "properties": {
        "id": 1060543745,
        "osm_type": "way",
        "name": "BP",
        "brand": "BP"
      }
    },
    {
      "type": "Feature",
      "geometry": {
        "type": "Point",
        "coordinates": [
          26.4575372,
          39.0336846
        ]
      },
      "properties": {
        "id": 1060543747,
        "osm_type": "way",
        "name": "(closed)"
      }
    },
    {
      "type": "Feature",
      "geometry": {
        "type": "Point",
        "coordinates": [
          26.461007,
          39.0334873
        ]
      },
      "properties": {
        "id": 1060546836,
        "osm_type": "way",
        "name": "ΕΛΙΝΟΙΛ",
        "brand": "ΕΛΙΝΟΙΛ"
      }
    },
    {
      "type": "Feature",
      "geometry": {
        "type": "Point",
        "coordinates": [
          26.217443,
          39.3093515
        ]
      },
      "properties": {
        "id": 1061732173,
        "osm_type": "way",
        "name": "EKO",
        "brand": "EKO"
      }
    },
    {
      "type": "Feature",
      "geometry": {
        "type": "Point",
        "coordinates": [
          26.2380197,
          39.3159463
        ]
      },
      "properties": {
        "id": 1061733286,
        "osm_type": "way",
        "name": "BP",
        "brand": "BP"
      }
    },
    {
      "type": "Feature",
      "geometry": {
        "type": "Point",
        "coordinates": [
          26.2875784,
          39.1944129
        ]
      },
      "properties": {
        "id": 1063665797,
        "osm_type": "way",
        "name": "ΕΛΙΝΟΙΛ",
        "brand": "ΕΛΙΝΟΙΛ"
      }
    },
    {
      "type": "Feature",
      "geometry": {
        "type": "Point",
        "coordinates": [
          26.5114822,
          39.1056682
        ]
      },
      "properties": {
        "id": 1063745128,
        "osm_type": "way",
        "name": "ΕΛΙΝΟΙΛ",
        "brand": "ΕΛΙΝΟΙΛ"
      }
    },
    {
      "type": "Feature",
      "geometry": {
        "type": "Point",
        "coordinates": [
          26.5462419,
          39.1052188
        ]
      },
      "properties": {
        "id": 1068914917,
        "osm_type": "way",
        "name": "EKO",
        "brand": "EKO"
      }
    },
    {
      "type": "Feature",
      "geometry": {
        "type": "Point",
        "coordinates": [
          25.222516,
          39.945149
        ]
      },
      "properties": {
        "id": 1289311901,
        "osm_type": "way",
        "name": "Aegean",
        "brand": "Aegean"
      }
    },
    {
      "type": "Feature",
      "geometry": {
        "type": "Point",
        "coordinates": [
          25.2224631,
          39.9451743
        ]
      },
      "properties": {
        "id": 1289314411,
        "osm_type": "way",
        "name": "Aegean",
        "brand": "Aegean"
      }
    }
  ]
}