{
  "type": "FeatureCollection",
  "features": [
    {
      "type": "Feature",
      "geometry": {
        "type": "Point",
        "coordinates": [
          -7.4280224,
          41.5601138
        ]
      },
      "properties": {
        "id": 1351767053,
        "osm_type": "node",
        "name": "Freitas",
        "brand": "Freitas;Galp",
        "opening_hours": "Mo-Su 07:00-23:00"
      }
    },
    {
      "type": "Feature",
      "geometry": {
        "type": "Point",
        "coordinates": [
          -7.3119807,
          41.6127793
        ]
      },
      "properties": {
        "id": 1668843307,
        "osm_type": "node",
        "name": "Freitas",
        "brand": "Freitas;Galp",
        "opening_hours": "Mo-Su 07:30-22:00"
      }
    },
    {
      "type": "Feature",
      "geometry": {
        "type": "Point",
        "coordinates": [
          -7.7844413,
          41.158701
        ]
      },
      "properties": {
        "id": 1688056639,
        "osm_type": "node",
        "name": "Repsol",
        "brand": "Repsol",
        "check_date": "2022-09-18"
      }
    },
    {
      "type": "Feature",
      "geometry": {
        "type": "Point",
        "coordinates": [
          -7.7972154,
          41.1675779
        ]
      },
      "properties": {
        "id": 1688057434,
        "osm_type": "node",
        "name": "Galp",
        "brand": "Galp"
      }
    },
    {
      "type": "Feature",
      "geometry": {
        "type": "Point",
        "coordinates": [
          -7.7202574,
          41.5028579
        ]
      },
      "properties": {
        "id": 1696008296,
        "osm_type": "node",
        "name": "OZ Energia",
        "brand": "OZ Energia"
      }
    },
    {
      "type": "Feature",
      "geometry": {
        "type": "Point",
        "coordinates": [
          -7.7207279,
          41.5039172
        ]
      },
      "properties": {
        "id": 1696010695,
        "osm_type": "node",
        "brand": "OZ",
        "check_date": "2026-01-10"
      }
    },
    {
      "type": "Feature",
      "geometry": {
        "type": "Point",
        "coordinates": [
          -7.8027956,
          41.5164826
        ]
      },
      "properties": {
        "id": 1696018915,
        "osm_type": "node",
        "name": "Galp",
        "brand": "Galp",
        "opening_hours": "06:00-22:00"
      }
    },
    {
      "type": "Feature",
      "geometry": {
        "type": "Point",
        "coordinates": [
          -7.4765606,
          41.2731256
        ]
      },
      "properties": {
        "id": 1723064789,
        "osm_type": "node",
        "name": "Galp",
        "brand": "Galp",
        "opening_hours": "07:00-22:00"
      }
    },
    {
      "type": "Feature",
      "geometry": {
        "type": "Point",
        "coordinates": [
          -7.4757053,
          41.2694029
        ]
      },
      "properties": {
        "id": 1723064940,
        "osm_type": "node",
        "name": "Intermarché",
        "brand": "Intermarché"
      }
    },
    {
      "type": "Feature",
      "geometry": {
        "type": "Point",
        "coordinates": [
          -7.4501896,
          41.4063318
        ]
      },
      "properties": {
        "id": 1799628977,
        "osm_type": "node",
        "name": "Repsol",
        "brand": "Repsol",
        "opening_hours": "24/7",
        "check_date": "2025-08-25"
      }
    },
    {
      "type": "Feature",
      "geometry": {
        "type": "Point",
        "coordinates": [
          -7.3144269,
          41.604982
        ]
      },
      "properties": {
        "id": 1817783131,
        "osm_type": "node",
        "name": "Galp",
        "brand": "Galp",
        "opening_hours": "Mo-Su 07:30-22:00"
      }
    },
    {
      "type": "Feature",
      "geometry": {
        "type": "Point",
        "coordinates": [
          -7.3780918,
          41.6947541
        ]
      },
      "properties": {
        "id": 1918312929,
        "osm_type": "node",
        "name": "Petro Alto do Barracão"
      }
    },
    {
      "type": "Feature",
      "geometry": {
        "type": "Point",
        "coordinates": [
          -7.3367643,
          41.6688566
        ]
      },
      "properties": {
        "id": 1918312930,
        "osm_type": "node",
        "name": "Moeve",
        "brand": "Moeve"
      }
    },
    {
      "type": "Feature",
      "geometry": {
        "type": "Point",
        "coordinates": [
          -7.4690924,
          41.7316335
        ]
      },
      "properties": {
        "id": 1918315013,
        "osm_type": "node",
        "name": "Moeve",
        "brand": "Moeve",
        "opening_hours": "24/7"
      }
    },
    {
      "type": "Feature",
      "geometry": {
        "type": "Point",
        "coordinates": [
          -7.4711001,
          41.7286651
        ]
      },
      "properties": {
        "id": 1918317550,
        "osm_type": "node",
        "name": "Galp",
        "brand": "Galp",
        "opening_hours": "07:00-22:00",
        "check_date": "2025-08-27"
      }
    },
    {
      "type": "Feature",
      "geometry": {
        "type": "Point",
        "coordinates": [
          -7.4761319,
          41.7399054
        ]
      },
      "properties": {
        "id": 1924380012,
        "osm_type": "node",
        "name": "Repsol",
        "brand": "Repsol",
        "opening_hours": "Mo-Su 07:00-23:00",
        "check_date": "2025-08-25"
      }
    },
    {
      "type": "Feature",
      "geometry": {
        "type": "Point",
        "coordinates": [
          -7.6318698,
          41.2678937
        ]
      },
      "properties": {
        "id": 2051295984,
        "osm_type": "node",
        "name": "Prisma"
      }
    },
    {
      "type": "Feature",
      "geometry": {
        "type": "Point",
        "coordinates": [
          -7.824287,
          41.1944631
        ]
      },
      "properties": {
        "id": 2638935090,
        "osm_type": "node",
        "name": "Lubripecto Medrões"
      }
    },
    {
      "type": "Feature",
      "geometry": {
        "type": "Point",
        "coordinates": [
          -7.5701213,
          41.639005
        ]
      },
      "properties": {
        "id": 2643406291,
        "osm_type": "node",
        "name": "Galp",
        "brand": "Galp"
      }
    },
    {
      "type": "Feature",
      "geometry": {
        "type": "Point",
        "coordinates": [
          -7.9558833,
          41.411567
        ]
      },
      "properties": {
        "id": 2700246501,
        "osm_type": "node",
        "name": "Galp",
        "brand": "Galp",
        "opening_hours": "Mo-Su 06:30-22:00"
      }
    },
    {
      "type": "Feature",
      "geometry": {
        "type": "Point",
        "coordinates": [
          -7.7049556,
          41.337406
        ]
      },
      "properties": {
        "id": 2704653153,
        "osm_type": "node",
        "name": "BP",
        "brand": "BP"
      }
    },
    {
      "type": "Feature",
      "geometry": {
        "type": "Point",
        "coordinates": [
          -7.6434155,
          41.5010983
        ]
      },
      "properties": {
        "id": 2710968598,
        "osm_type": "node",
        "name": "Galp",
        "brand": "Galp",
        "opening_hours": "Mo-Su 07:00-22:00",
        "check_date": "2023-09-02"
      }
    },
    {
      "type": "Feature",
      "geometry": {
        "type": "Point",
        "coordinates": [
          -7.6778374,
          41.4350761
        ]
      },
      "properties": {
        "id": 2710968600,
        "osm_type": "node",
        "name": "BP",
        "brand": "BP",
        "opening_hours": "06:00-22:00"
      }
    },
    {
      "type": "Feature",
      "geometry": {
        "type": "Point",
        "coordinates": [
          -7.6383148,
          41.5027467
        ]
      },
      "properties": {
        "id": 2711546261,
        "osm_type": "node",
        "name": "Repsol",
        "brand": "Repsol"
      }
    },
    {
      "type": "Feature",
      "geometry": {
        "type": "Point",
        "coordinates": [
          -7.604917,
          41.5398768
        ]
      },
      "properties": {
        "id": 2711546262,
        "osm_type": "node",
        "name": "Galp",
        "brand": "Galp",
        "opening_hours": "Mo-Sa 07:00-21:00"
      }
    },
    {
      "type": "Feature",
      "geometry": {
        "type": "Point",
        "coordinates": [
          -7.4859325,
          41.715912
        ]
      },
      "properties": {
        "id": 2712464885,
        "osm_type": "node",
        "name": "Gaspe",
        "brand": "Gaspe;Galp"
      }
    },
    {
      "type": "Feature",
      "geometry": {
        "type": "Point",
        "coordinates": [
          -7.4668002,
          41.7417841
        ]
      },
      "properties": {
        "id": 2712464924,
        "osm_type": "node",
        "name": "Repsol",
        "brand": "Repsol",
        "opening_hours": "Mo-Su 07:00-23:00"
      }
    },
    {
      "type": "Feature",
      "geometry": {
        "type": "Point",
        "coordinates": [
          -7.4674416,
          41.7679829
        ]
      },
      "properties": {
        "id": 2712465086,
        "osm_type": "node",
        "name": "Q8",
        "brand": "Q8",
        "opening_hours": "Mo-Su 06:30-22:30"
      }
    },
    {
      "type": "Feature",
      "geometry": {
        "type": "Point",
        "coordinates": [
          -7.4575061,
          41.7221229
        ]
      },
      "properties": {
        "id": 2712465241,
        "osm_type": "node",
        "name": "Prio",
        "brand": "Prio"
      }
    },
    {
      "type": "Feature",
      "geometry": {
        "type": "Point",
        "coordinates": [
          -7.4526938,
          41.7371228
        ]
      },
      "properties": {
        "id": 2870288374,
        "osm_type": "node",
        "name": "Cepsa",
        "brand": "Cepsa",
        "opening_hours": "Mo-Su 07:00-21:00"
      }
    },
    {
      "type": "Feature",
      "geometry": {
        "type": "Point",
        "coordinates": [
          -7.4712655,
          41.6569029
        ]
      },
      "properties": {
        "id": 2870288375,
        "osm_type": "node",
        "name": "Gaspe",
        "brand": "Gaspe;Galp"
      }
    },
    {
      "type": "Feature",
      "geometry": {
        "type": "Point",
        "coordinates": [
          -7.4669252,
          41.7245605
        ]
      },
      "properties": {
        "id": 2870288377,
        "osm_type": "node",
        "name": "Prio",
        "brand": "Prio",
        "opening_hours": "06:00-22:00"
      }
    },
    {
      "type": "Feature",
      "geometry": {
        "type": "Point",
        "coordinates": [
          -7.9266077,
          41.457456
        ]
      },
      "properties": {
        "id": 2935373386,
        "osm_type": "node",
        "name": "Prio",
        "brand": "Prio",
        "opening_hours": "Mo-Su 07:00-20:00"
      }
    },
    {
      "type": "Feature",
      "geometry": {
        "type": "Point",
        "coordinates": [
          -7.5712603,
          41.6691964
        ]
      },
      "properties": {
        "id": 2991158483,
        "osm_type": "node",
        "brand": "OZ",
        "check_date": "2026-01-10"
      }
    },
    {
      "type": "Feature",
      "geometry": {
        "type": "Point",
        "coordinates": [
          -7.4851941,
          41.7692633
        ]
      },
      "properties": {
        "id": 3075894268,
        "osm_type": "node",
        "name": "Q8",
        "brand": "Q8",
        "opening_hours": "Mo-Su 06:30-22:30"
      }
    },
    {
      "type": "Feature",
      "geometry": {
        "type": "Point",
        "coordinates": [
          -7.4786021,
          41.2700065
        ]
      },
      "properties": {
        "id": 3762869864,
        "osm_type": "node",
        "name": "Tuacar",
        "brand": "Tuacar;Repsol"
      }
    },
    {
      "type": "Feature",
      "geometry": {
        "type": "Point",
        "coordinates": [
          -7.9609087,
          41.6731573
        ]
      },
      "properties": {
        "id": 3798002083,
        "osm_type": "node",
        "name": "Galp",
        "brand": "Galp",
        "opening_hours": "Mo-Su 08:00-12:00,13:00-20:00"
      }
    },
    {
      "type": "Feature",
      "geometry": {
        "type": "Point",
        "coordinates": [
          -7.4618344,
          41.3201525
        ]
      },
      "properties": {
        "id": 3956023557,
        "osm_type": "node",
        "name": "Avia"
      }
    },
    {
      "type": "Feature",
      "geometry": {
        "type": "Point",
        "coordinates": [
          -7.4268098,
          41.5646352
        ]
      },
      "properties": {
        "id": 4325199528,
        "osm_type": "node",
        "name": "Galp",
        "brand": "Galp",
        "opening_hours": "Mo-Su 07:00-21:00"
      }
    },
    {
      "type": "Feature",
      "geometry": {
        "type": "Point",
        "coordinates": [
          -7.6404956,
          41.3245743
        ]
      },
      "properties": {
        "id": 4870775332,
        "osm_type": "node",
        "name": "BP",
        "brand": "BP"
      }
    },
    {
      "type": "Feature",
      "geometry": {
        "type": "Point",
        "coordinates": [
          -7.641619,
          41.3235606
        ]
      },
      "properties": {
        "id": 4870775333,
        "osm_type": "node",
        "name": "BP",
        "brand": "BP"
      }
    },
    {
      "type": "Feature",
      "geometry": {
        "type": "Point",
        "coordinates": [
          -7.468401,
          41.7340728
        ]
      },
      "properties": {
        "id": 5894977495,
        "osm_type": "node",
        "name": "E.Leclerc",
        "brand": "E.Leclerc"
      }
    },
    {
      "type": "Feature",
      "geometry": {
        "type": "Point",
        "coordinates": [
          -7.7906079,
          41.8232948
        ]
      },
      "properties": {
        "id": 6179744943,
        "osm_type": "node",
        "name": "Prio",
        "brand": "Prio"
      }
    },
    {
      "type": "Feature",
      "geometry": {
        "type": "Point",
        "coordinates": [
          -7.9570239,
          41.4061875
        ]
      },
      "properties": {
        "id": 6185288232,
        "osm_type": "node",
        "name": "Intermarché",
        "brand": "Intermarché",
        "check_date": "2026-02-22"
      }
    },
    {
      "type": "Feature",
      "geometry": {
        "type": "Point",
        "coordinates": [
          -7.6443651,
          41.4943935
        ]
      },
      "properties": {
        "id": 6578791514,
        "osm_type": "node",
        "name": "Cooperativa Aguiarense",
        "brand": "Cooperativa Aguiarense;Gaspe;Galp",
        "opening_hours": "Mo-Sa 07:00-21:00"
      }
    },
    {
      "type": "Feature",
      "geometry": {
        "type": "Point",
        "coordinates": [
          -7.325913,
          41.6639765
        ]
      },
      "properties": {
        "id": 7829686385,
        "osm_type": "node",
        "name": "Gaspe",
        "brand": "Gaspe;Galp"
      }
    },
    {
      "type": "Feature",
      "geometry": {
        "type": "Point",
        "coordinates": [
          -7.3799396,
          41.3619905
        ]
      },
      "properties": {
        "id": 9078365314,
        "osm_type": "node",
        "name": "Prio",
        "brand": "Prio"
      }
    },
    {
      "type": "Feature",
      "geometry": {
        "type": "Point",
        "coordinates": [
          -7.7130535,
          41.4990591
        ]
      },
      "properties": {
        "id": 9421703468,
        "osm_type": "node",
        "name": "Gaspe",
        "brand": "Gaspe;Galp"
      }
    },
    {
      "type": "Feature",
      "geometry": {
        "type": "Point",
        "coordinates": [
          -7.8752185,
          41.2914101
        ]
      },
      "properties": {
        "id": 9430867942,
        "osm_type": "node",
        "name": "Galp",
        "brand": "Galp"
      }
    },
    {
      "type": "Feature",
      "geometry": {
        "type": "Point",
        "coordinates": [
          -7.7028478,
          41.3889892
        ]
      },
      "properties": {
        "id": 9555947786,
        "osm_type": "node",
        "name": "Repsol",
        "brand": "Repsol"
      }
    },
    {
      "type": "Feature",
      "geometry": {
        "type": "Point",
        "coordinates": [
          -7.7201133,
          41.3521107
        ]
      },
      "properties": {
        "id": 9708402696,
        "osm_type": "node",
        "name": "Dourogás",
        "brand": "Dourogás"
      }
    },
    {
      "type": "Feature",
      "geometry": {
        "type": "Point",
        "coordinates": [
          -7.851738,
          41.28174
        ]
      },
      "properties": {
        "id": 11067159946,
        "osm_type": "node",
        "name": "Alves Bandeira",
        "brand": "Alves Bandeira"
      }
    },
    {
      "type": "Feature",
      "geometry": {
        "type": "Point",
        "coordinates": [
          -7.6611761,
          41.6901843
        ]
      },
      "properties": {
        "id": 11800082561,
        "osm_type": "node",
        "name": "Gaspe",
        "brand": "Gaspe;Galp",
        "check_date": "2024-04-07"
      }
    },
    {
      "type": "Feature",
      "geometry": {
        "type": "Point",
        "coordinates": [
          -7.716906,
          41.2761
        ]
      },
      "properties": {
        "id": 11866182641,
        "osm_type": "node",
        "name": "BP",
        "brand": "BP"
      }
    },
    {
      "type": "Feature",
      "geometry": {
        "type": "Point",
        "coordinates": [
          -7.7150246,
          41.275493
        ]
      },
      "properties": {
        "id": 11866207320,
        "osm_type": "node",
        "name": "Inpar Energy",
        "brand": "Inpar Energy;Repsol;Prio"
      }
    },
    {
      "type": "Feature",
      "geometry": {
        "type": "Point",
        "coordinates": [
          -7.7602122,
          41.2851529
        ]
      },
      "properties": {
        "id": 11866207322,
        "osm_type": "node",
        "name": "Tuacar",
        "brand": "Tuacar;Repsol"
      }
    },
    {
      "type": "Feature",
      "geometry": {
        "type": "Point",
        "coordinates": [
          -7.752657,
          41.2999656
        ]
      },
      "properties": {
        "id": 11866207333,
        "osm_type": "node",
        "name": "Moeve",
        "brand": "Moeve"
      }
    },
    {
      "type": "Feature",
      "geometry": {
        "type": "Point",
        "coordinates": [
          -7.7564021,
          41.3077901
        ]
      },
      "properties": {
        "id": 11866207334,
        "osm_type": "node",
        "name": "BP",
        "brand": "BP"
      }
    },
    {
      "type": "Feature",
      "geometry": {
        "type": "Point",
        "coordinates": [
          -7.7410743,
          41.3001312
        ]
      },
      "properties": {
        "id": 11866207343,
        "osm_type": "node",
        "name": "Prio",
        "brand": "Prio"
      }
    },
    {
      "type": "Feature",
      "geometry": {
        "type": "Point",
        "coordinates": [
          -7.7406194,
          41.3008684
        ]
      },
      "properties": {
        "id": 11866207345,
        "osm_type": "node",
        "name": "Galp",
        "brand": "Galp"
      }
    },
    {
      "type": "Feature",
      "geometry": {
        "type": "Point",
        "coordinates": [
          -7.7411528,
          41.3025229
        ]
      },
      "properties": {
        "id": 11866207347,
        "osm_type": "node",
        "name": "Repsol",
        "brand": "Repsol"
      }
    },
    {
      "type": "Feature",
      "geometry": {
        "type": "Point",
        "coordinates": [
          -7.735608,
          41.3091458
        ]
      },
      "properties": {
        "id": 11866207349,
        "osm_type": "node",
        "name": "Moeve",
        "brand": "Moeve"
      }
    },
    {
      "type": "Feature",
      "geometry": {
        "type": "Point",
        "coordinates": [
          -7.7340666,
          41.3088393
        ]
      },
      "properties": {
        "id": 11866207364,
        "osm_type": "node",
        "name": "BP",
        "brand": "BP"
      }
    },
    {
      "type": "Feature",
      "geometry": {
        "type": "Point",
        "coordinates": [
          -7.7244164,
          41.3102112
        ]
      },
      "properties": {
        "id": 11866207375,
        "osm_type": "node",
        "name": "Intermarché",
        "brand": "Intermarché"
      }
    },
    {
      "type": "Feature",
      "geometry": {
        "type": "Point",
        "coordinates": [
          -7.7231467,
          41.3055607
        ]
      },
      "properties": {
        "id": 11866207395,
        "osm_type": "node",
        "name": "Repsol",
        "brand": "Repsol",
        "opening_hours": "PH,Mo-Su 00:00-24:00",
        "check_date": "2025-08-25"
      }
    },
    {
      "type": "Feature",
      "geometry": {
        "type": "Point",
        "coordinates": [
          -7.7313758,
          41.3004436
        ]
      },
      "properties": {
        "id": 11866207408,
        "osm_type": "node",
        "name": "BP",
        "brand": "BP"
      }
    },
    {
      "type": "Feature",
      "geometry": {
        "type": "Point",
        "coordinates": [
          -7.7365387,
          41.2971209
        ]
      },
      "properties": {
        "id": 11866207431,
        "osm_type": "node",
        "name": "Auchan",
        "brand": "Auchan",
        "opening_hours": "24/7",
        "check_date": "2025-08-25"
      }
    },
    {
      "type": "Feature",
      "geometry": {
        "type": "Point",
        "coordinates": [
          -7.7315213,
          41.2962547
        ]
      },
      "properties": {
        "id": 11866207433,
        "osm_type": "node",
        "name": "PetroEuropa",
        "brand": "Petroeuropa",
        "opening_hours": "05:00-00:00",
        "check_date": "2023-11-15"
      }
    },
    {
      "type": "Feature",
      "geometry": {
        "type": "Point",
        "coordinates": [
          -7.7360437,
          41.2937792
        ]
      },
      "properties": {
        "id": 11866207436,
        "osm_type": "node",
        "name": "Galp",
        "brand": "Galp"
      }
    },
    {
      "type": "Feature",
      "geometry": {
        "type": "Point",
        "coordinates": [
          -7.7048269,
          41.2758222
        ]
      },
      "properties": {
        "id": 11866207438,
        "osm_type": "node",
        "name": "Recheio",
        "brand": "Recheio;BP"
      }
    },
    {
      "type": "Feature",
      "geometry": {
        "type": "Point",
        "coordinates": [
          -7.5898497,
          41.2637285
        ]
      },
      "properties": {
        "id": 11866480655,
        "osm_type": "node",
        "name": "Gaspe",
        "brand": "Gaspe;Galp"
      }
    },
    {
      "type": "Feature",
      "geometry": {
        "type": "Point",
        "coordinates": [
          -7.5897272,
          41.2646453
        ]
      },
      "properties": {
        "id": 11866480667,
        "osm_type": "node",
        "name": "BP",
        "brand": "BP"
      }
    },
    {
      "type": "Feature",
      "geometry": {
        "type": "Point",
        "coordinates": [
          -7.5766541,
          41.2657747
        ]
      },
      "properties": {
        "id": 11866504769,
        "osm_type": "node",
        "name": "Galp",
        "brand": "Galp"
      }
    },
    {
      "type": "Feature",
      "geometry": {
        "type": "Point",
        "coordinates": [
          -7.7942109,
          41.1645435
        ]
      },
      "properties": {
        "id": 12035820220,
        "osm_type": "node",
        "name": "Galp",
        "brand": "Galp"
      }
    },
    {
      "type": "Feature",
      "geometry": {
        "type": "Point",
        "coordinates": [
          -7.7939144,
          41.1647564
        ]
      },
      "properties": {
        "id": 12035820221,
        "osm_type": "node",
        "name": "Repsol",
        "brand": "Repsol"
      }
    },
    {
      "type": "Feature",
      "geometry": {
        "type": "Point",
        "coordinates": [
          -7.8720049,
          41.7501362
        ]
      },
      "properties": {
        "id": 12535238544,
        "osm_type": "node",
        "name": "BP",
        "brand": "BP"
      }
    },
    {
      "type": "Feature",
      "geometry": {
        "type": "Point",
        "coordinates": [
          -7.4469521,
          41.4014881
        ]
      },
      "properties": {
        "id": 13324773651,
        "osm_type": "node",
        "name": "Galp",
        "brand": "Galp",
        "opening_hours": "06:00-23:00"
      }
    },
    {
      "type": "Feature",
      "geometry": {
        "type": "Point",
        "coordinates": [
          -7.7965104,
          41.5200732
        ]
      },
      "properties": {
        "id": 13598532592,
        "osm_type": "node",
        "name": "Bombas Maxi-Tem",
        "brand": "Bombas Maxi-Tem"
      }
    },
    {
      "type": "Feature",
      "geometry": {
        "type": "Point",
        "coordinates": [
          -7.8281515,
          41.2284329
        ]
      },
      "properties": {
        "id": 13624135569,
        "osm_type": "node",
        "name": "Freitas",
        "brand": "Freitas;Galp"
      }
    },
    {
      "type": "Feature",
      "geometry": {
        "type": "Point",
        "coordinates": [
          -7.5428123,
          41.1898702
        ]
      },
      "properties": {
        "id": 13756837631,
        "osm_type": "node",
        "name": "Galp",
        "brand": "Galp"
      }
    },
    {
      "type": "Feature",
      "geometry": {
        "type": "Point",
        "coordinates": [
          -7.6454876,
          41.4927445
        ]
      },
      "properties": {
        "id": 157379714,
        "osm_type": "way",
        "name": "Intermarché",
        "brand": "Intermarché"
      }
    },
    {
      "type": "Feature",
      "geometry": {
        "type": "Point",
        "coordinates": [
          -7.9377036,
          41.4215025
        ]
      },
      "properties": {
        "id": 186947806,
        "osm_type": "way",
        "name": "Gaspe",
        "brand": "Gaspe;Galp"
      }
    },
    {
      "type": "Feature",
      "geometry": {
        "type": "Point",
        "coordinates": [
          -7.9335031,
          41.6519348
        ]
      },
      "properties": {
        "id": 347270478,
        "osm_type": "way",
        "name": "Paragem Zen",
        "brand": "Paragem Zen;Repsol",
        "opening_hours": "07:00-24:00"
      }
    },
    {
      "type": "Feature",
      "geometry": {
        "type": "Point",
        "coordinates": [
          -7.5055353,
          41.7162681
        ]
      },
      "properties": {
        "id": 660261496,
        "osm_type": "way",
        "name": "Gaspe",
        "brand": "Gaspe;Galp"
      }
    },
    {
      "type": "Feature",
      "geometry": {
        "type": "Point",
        "coordinates": [
          -7.8042355,
          41.7641008
        ]
      },
      "properties": {
        "id": 660261514,
        "osm_type": "way",
        "name": "Gaspe",
        "brand": "Gaspe;Galp"
      }
    },
    {
      "type": "Feature",
      "geometry": {
        "type": "Point",
        "coordinates": [
          -7.7982957,
          41.8237813
        ]
      },
      "properties": {
        "id": 660279811,
        "osm_type": "way",
        "name": "Intermarché",
        "brand": "Intermarché"
      }
    },
    {
      "type": "Feature",
      "geometry": {
        "type": "Point",
        "coordinates": [
          -7.8903935,
          41.1591635
        ]
      },
      "properties": {
        "id": 672610960,
        "osm_type": "way",
        "name": "Galp",
        "brand": "Galp"
      }
    },
    {
      "type": "Feature",
      "geometry": {
        "type": "Point",
        "coordinates": [
          -7.7470674,
          41.8925696
        ]
      },
      "properties": {
        "id": 828963092,
        "osm_type": "way",
        "name": "BP",
        "brand": "BP"
      }
    },
    {
      "type": "Feature",
      "geometry": {
        "type": "Point",
        "coordinates": [
          -7.7843546,
          41.2128545
        ]
      },
      "properties": {
        "id": 847272096,
        "osm_type": "way",
        "name": "Galp",
        "brand": "Galp"
      }
    },
    {
      "type": "Feature",
      "geometry": {
        "type": "Point",
        "coordinates": [
          -7.8032139,
          41.1622001
        ]
      },
      "properties": {
        "id": 848037880,
        "osm_type": "way",
        "name": "Intermarché",
        "brand": "Intermarché"
      }
    },
    {
      "type": "Feature",
      "geometry": {
        "type": "Point",
        "coordinates": [
          -7.8025085,
          41.1683051
        ]
      },
      "properties": {
        "id": 848037897,
        "osm_type": "way",
        "name": "Prio",
        "brand": "Prio"
      }
    },
    {
      "type": "Feature",
      "geometry": {
        "type": "Point",
        "coordinates": [
          -7.9570152,
          41.4038949
        ]
      },
      "properties": {
        "id": 877493293,
        "osm_type": "way",
        "name": "BP",
        "brand": "BP"
      }
    },
    {
      "type": "Feature",
      "geometry": {
        "type": "Point",
        "coordinates": [
          -7.304658,
          41.6063657
        ]
      },
      "properties": {
        "id": 886776379,
        "osm_type": "way",
        "name": "Intermarché",
        "brand": "Intermarché"
      }
    },
    {
      "type": "Feature",
      "geometry": {
        "type": "Point",
        "coordinates": [
          -7.3100576,
          41.6052889
        ]
      },
      "properties": {
        "id": 967058032,
        "osm_type": "way",
        "name": "Galp",
        "brand": "Galp"
      }
    },
    {
      "type": "Feature",
      "geometry": {
        "type": "Point",
        "coordinates": [
          -7.3130444,
          41.6118084
        ]
      },
      "properties": {
        "id": 967058059,
        "osm_type": "way",
        "name": "Repsol",
        "brand": "Repsol"
      }
    },
    {
      "type": "Feature",
      "geometry": {
        "type": "Point",
        "coordinates": [
          -7.6643068,
          41.6872148
        ]
      },
      "properties": {
        "id": 980163801,
        "osm_type": "way",
        "name": "Galp",
        "brand": "Galp",
        "opening_hours": "Mo-Su 07:00-23:00",
        "check_date": "2024-04-07"
      }
    },
    {
      "type": "Feature",
      "geometry": {
        "type": "Point",
        "coordinates": [
          -7.8796508,
          41.4152768
        ]
      },
      "properties": {
        "id": 1104487292,
        "osm_type": "way",
        "name": "Galp",
        "brand": "Galp",
        "check_date": "2023-03-19"
      }
    },
    {
      "type": "Feature",
      "geometry": {
        "type": "Point",
        "coordinates": [
          -7.7735107,
          41.8349049
        ]
      },
      "properties": {
        "id": 1435183366,
        "osm_type": "way",
        "name": "Freitas",
        "brand": "Freitas;Galp"
      }
    },
    {
      "type": "Feature",
      "geometry": {
        "type": "Point",
        "coordinates": [
          -7.3294504,
          41.7757373
        ]
      },
      "properties": {
        "id": 1435183714,
        "osm_type": "way",
        "name": "Petro Bolideira"
      }
    },
    {
      "type": "Feature",
      "geometry": {
        "type": "Point",
        "coordinates": [
          -7.2626041,
          41.7572693
        ]
      },
      "properties": {
        "id": 1435184350,
        "osm_type": "way",
        "name": "Valcarce",
        "brand": "Valcarce"
      }
    },
    {
      "type": "Feature",
      "geometry": {
        "type": "Point",
        "coordinates": [
          -7.7020753,
          41.679343
        ]
      },
      "properties": {
        "id": 1435185228,
        "osm_type": "way",
        "name": "Repsol",
        "brand": "Repsol"
      }
    },
    {
      "type": "Feature",
      "geometry": {
        "type": "Point",
        "coordinates": [
          -7.5196756,
          41.2955536
        ]
      },
      "properties": {
        "id": 1435288963,
        "osm_type": "way",
        "name": "Cepsa",
        "brand": "Cepsa"
      }
    }
  ]
}