{
  "type": "FeatureCollection",
  "features": [
    {
      "type": "Feature",
      "geometry": {
        "type": "Point",
        "coordinates": [
          17.2346414,
          45.2584516
        ]
      },
      "properties": {
        "id": 286845753,
        "osm_type": "node"
      }
    },
    {
      "type": "Feature",
      "geometry": {
        "type": "Point",
        "coordinates": [
          18.0179623,
          45.1517131
        ]
      },
      "properties": {
        "id": 506763963,
        "osm_type": "node",
        "name": "Harley",
        "outdoor_seating": "yes"
      }
    },
    {
      "type": "Feature",
      "geometry": {
        "type": "Point",
        "coordinates": [
          18.0180165,
          45.1516807
        ]
      },
      "properties": {
        "id": 506763966,
        "osm_type": "node",
        "name": "Green park"
      }
    },
    {
      "type": "Feature",
      "geometry": {
        "type": "Point",
        "coordinates": [
          18.1185793,
          45.1644019
        ]
      },
      "properties": {
        "id": 514338691,
        "osm_type": "node",
        "name": "Hari"
      }
    },
    {
      "type": "Feature",
      "geometry": {
        "type": "Point",
        "coordinates": [
          18.1178685,
          45.1644378
        ]
      },
      "properties": {
        "id": 514338969,
        "osm_type": "node"
      }
    },
    {
      "type": "Feature",
      "geometry": {
        "type": "Point",
        "coordinates": [
          18.0115328,
          45.1542927
        ]
      },
      "properties": {
        "id": 668050639,
        "osm_type": "node",
        "name": "Exkluziv"
      }
    },
    {
      "type": "Feature",
      "geometry": {
        "type": "Point",
        "coordinates": [
          18.0117186,
          45.1538695
        ]
      },
      "properties": {
        "id": 668059245,
        "osm_type": "node",
        "name": "Navigator",
        "check_date": "2023-07-25"
      }
    },
    {
      "type": "Feature",
      "geometry": {
        "type": "Point",
        "coordinates": [
          18.0241468,
          45.155728
        ]
      },
      "properties": {
        "id": 830001678,
        "osm_type": "node",
        "name": "Caffe Bar Ponita"
      }
    },
    {
      "type": "Feature",
      "geometry": {
        "type": "Point",
        "coordinates": [
          18.0209648,
          45.1550553
        ]
      },
      "properties": {
        "id": 830001679,
        "osm_type": "node",
        "name": "Caffe Bar Lipa"
      }
    },
    {
      "type": "Feature",
      "geometry": {
        "type": "Point",
        "coordinates": [
          18.0319879,
          45.1535972
        ]
      },
      "properties": {
        "id": 830001684,
        "osm_type": "node",
        "name": "Casper"
      }
    },
    {
      "type": "Feature",
      "geometry": {
        "type": "Point",
        "coordinates": [
          18.0237914,
          45.1547098
        ]
      },
      "properties": {
        "id": 830003591,
        "osm_type": "node",
        "name": "Caffe Bar Cappuccino"
      }
    },
    {
      "type": "Feature",
      "geometry": {
        "type": "Point",
        "coordinates": [
          18.0121579,
          45.1538412
        ]
      },
      "properties": {
        "id": 954609642,
        "osm_type": "node",
        "name": "Caffe Bar Rupa"
      }
    },
    {
      "type": "Feature",
      "geometry": {
        "type": "Point",
        "coordinates": [
          18.0123102,
          45.1536898
        ]
      },
      "properties": {
        "id": 954609655,
        "osm_type": "node",
        "name": "Krčma Zen"
      }
    },
    {
      "type": "Feature",
      "geometry": {
        "type": "Point",
        "coordinates": [
          18.0140805,
          45.1534855
        ]
      },
      "properties": {
        "id": 954609658,
        "osm_type": "node",
        "name": "Alfa Club"
      }
    },
    {
      "type": "Feature",
      "geometry": {
        "type": "Point",
        "coordinates": [
          18.0124922,
          45.1606504
        ]
      },
      "properties": {
        "id": 954609664,
        "osm_type": "node",
        "name": "Caffe Bar Amadeus"
      }
    },
    {
      "type": "Feature",
      "geometry": {
        "type": "Point",
        "coordinates": [
          18.0166454,
          45.1530249
        ]
      },
      "properties": {
        "id": 966993661,
        "osm_type": "node",
        "name": "Imago"
      }
    },
    {
      "type": "Feature",
      "geometry": {
        "type": "Point",
        "coordinates": [
          18.0130608,
          45.1588851
        ]
      },
      "properties": {
        "id": 966995452,
        "osm_type": "node",
        "name": "Caffe Bar"
      }
    },
    {
      "type": "Feature",
      "geometry": {
        "type": "Point",
        "coordinates": [
          18.0131037,
          45.1592955
        ]
      },
      "properties": {
        "id": 966995456,
        "osm_type": "node",
        "name": "Glamour"
      }
    },
    {
      "type": "Feature",
      "geometry": {
        "type": "Point",
        "coordinates": [
          18.0124793,
          45.161232
        ]
      },
      "properties": {
        "id": 966995469,
        "osm_type": "node"
      }
    },
    {
      "type": "Feature",
      "geometry": {
        "type": "Point",
        "coordinates": [
          18.0108458,
          45.1633548
        ]
      },
      "properties": {
        "id": 966996678,
        "osm_type": "node",
        "name": "Brod na Savi"
      }
    },
    {
      "type": "Feature",
      "geometry": {
        "type": "Point",
        "coordinates": [
          17.9995962,
          45.1650975
        ]
      },
      "properties": {
        "id": 970862960,
        "osm_type": "node",
        "name": "COME BACK"
      }
    },
    {
      "type": "Feature",
      "geometry": {
        "type": "Point",
        "coordinates": [
          18.0007657,
          45.1664685
        ]
      },
      "properties": {
        "id": 970862963,
        "osm_type": "node",
        "name": "Elite"
      }
    },
    {
      "type": "Feature",
      "geometry": {
        "type": "Point",
        "coordinates": [
          18.0246162,
          45.1487124
        ]
      },
      "properties": {
        "id": 972115441,
        "osm_type": "node",
        "name": "Robi"
      }
    },
    {
      "type": "Feature",
      "geometry": {
        "type": "Point",
        "coordinates": [
          18.0659415,
          45.1544243
        ]
      },
      "properties": {
        "id": 972500407,
        "osm_type": "node",
        "name": "Caffe Bar Chicago",
        "opening_hours": "Mo-Sa 08:00-23:00"
      }
    },
    {
      "type": "Feature",
      "geometry": {
        "type": "Point",
        "coordinates": [
          18.0672516,
          45.1550476
        ]
      },
      "properties": {
        "id": 972500858,
        "osm_type": "node",
        "name": "Pizzeria MEGI"
      }
    },
    {
      "type": "Feature",
      "geometry": {
        "type": "Point",
        "coordinates": [
          18.0184651,
          45.1543403
        ]
      },
      "properties": {
        "id": 975885438,
        "osm_type": "node",
        "name": "Caffe Bar Evergreen"
      }
    },
    {
      "type": "Feature",
      "geometry": {
        "type": "Point",
        "coordinates": [
          18.0209739,
          45.1541795
        ]
      },
      "properties": {
        "id": 976658491,
        "osm_type": "node",
        "name": "LuMa"
      }
    },
    {
      "type": "Feature",
      "geometry": {
        "type": "Point",
        "coordinates": [
          18.0109206,
          45.1587979
        ]
      },
      "properties": {
        "id": 990329187,
        "osm_type": "node",
        "name": "Caffe Bar"
      }
    },
    {
      "type": "Feature",
      "geometry": {
        "type": "Point",
        "coordinates": [
          18.0139873,
          45.1546101
        ]
      },
      "properties": {
        "id": 990355479,
        "osm_type": "node",
        "name": "Caffe bar San Marco"
      }
    },
    {
      "type": "Feature",
      "geometry": {
        "type": "Point",
        "coordinates": [
          18.0135884,
          45.1556037
        ]
      },
      "properties": {
        "id": 1010450318,
        "osm_type": "node",
        "name": "Janković"
      }
    },
    {
      "type": "Feature",
      "geometry": {
        "type": "Point",
        "coordinates": [
          18.0450502,
          45.1501302
        ]
      },
      "properties": {
        "id": 1018825016,
        "osm_type": "node",
        "name": "Malboro"
      }
    },
    {
      "type": "Feature",
      "geometry": {
        "type": "Point",
        "coordinates": [
          18.0210672,
          45.1552072
        ]
      },
      "properties": {
        "id": 1018987747,
        "osm_type": "node",
        "name": "Složna braća"
      }
    },
    {
      "type": "Feature",
      "geometry": {
        "type": "Point",
        "coordinates": [
          18.0123639,
          45.161263
        ]
      },
      "properties": {
        "id": 1131178806,
        "osm_type": "node",
        "name": "Caffe Bar Aquarious"
      }
    },
    {
      "type": "Feature",
      "geometry": {
        "type": "Point",
        "coordinates": [
          18.0125457,
          45.1609934
        ]
      },
      "properties": {
        "id": 1198623944,
        "osm_type": "node",
        "name": "Caffe Bar Slavonac"
      }
    },
    {
      "type": "Feature",
      "geometry": {
        "type": "Point",
        "coordinates": [
          18.0128755,
          45.1599336
        ]
      },
      "properties": {
        "id": 1234223537,
        "osm_type": "node"
      }
    },
    {
      "type": "Feature",
      "geometry": {
        "type": "Point",
        "coordinates": [
          18.0146208,
          45.153319
        ]
      },
      "properties": {
        "id": 1291963057,
        "osm_type": "node"
      }
    },
    {
      "type": "Feature",
      "geometry": {
        "type": "Point",
        "coordinates": [
          18.0129415,
          45.1581555
        ]
      },
      "properties": {
        "id": 1369496528,
        "osm_type": "node",
        "name": "Caffe Bar Sport"
      }
    },
    {
      "type": "Feature",
      "geometry": {
        "type": "Point",
        "coordinates": [
          18.0132297,
          45.1535959
        ]
      },
      "properties": {
        "id": 1369497189,
        "osm_type": "node",
        "name": "Caffe Bar Insomnija"
      }
    },
    {
      "type": "Feature",
      "geometry": {
        "type": "Point",
        "coordinates": [
          18.0149985,
          45.1560748
        ]
      },
      "properties": {
        "id": 1472176485,
        "osm_type": "node",
        "name": "Caffe Bar"
      }
    },
    {
      "type": "Feature",
      "geometry": {
        "type": "Point",
        "coordinates": [
          18.020904,
          45.1535945
        ]
      },
      "properties": {
        "id": 1488755009,
        "osm_type": "node",
        "name": "Caffe Bar Palazzo"
      }
    },
    {
      "type": "Feature",
      "geometry": {
        "type": "Point",
        "coordinates": [
          18.045512,
          45.1731798
        ]
      },
      "properties": {
        "id": 1683147236,
        "osm_type": "node",
        "name": "Caffe \"Kennedy\""
      }
    },
    {
      "type": "Feature",
      "geometry": {
        "type": "Point",
        "coordinates": [
          17.9116843,
          45.1905402
        ]
      },
      "properties": {
        "id": 1738517660,
        "osm_type": "node"
      }
    },
    {
      "type": "Feature",
      "geometry": {
        "type": "Point",
        "coordinates": [
          18.2945844,
          45.1872601
        ]
      },
      "properties": {
        "id": 1742705357,
        "osm_type": "node",
        "name": "Caffe Bar \"Capry\""
      }
    },
    {
      "type": "Feature",
      "geometry": {
        "type": "Point",
        "coordinates": [
          18.03842,
          45.1288358
        ]
      },
      "properties": {
        "id": 1809992029,
        "osm_type": "node"
      }
    },
    {
      "type": "Feature",
      "geometry": {
        "type": "Point",
        "coordinates": [
          18.0121658,
          45.1539862
        ]
      },
      "properties": {
        "id": 1891335011,
        "osm_type": "node",
        "name": "City",
        "check_date": "2023-07-24"
      }
    },
    {
      "type": "Feature",
      "geometry": {
        "type": "Point",
        "coordinates": [
          18.0070128,
          45.1548166
        ]
      },
      "properties": {
        "id": 1891335017,
        "osm_type": "node",
        "name": "Del Cappellano",
        "check_date": "2023-07-24"
      }
    },
    {
      "type": "Feature",
      "geometry": {
        "type": "Point",
        "coordinates": [
          17.9928869,
          45.1676745
        ]
      },
      "properties": {
        "id": 1917457847,
        "osm_type": "node",
        "name": "Janković",
        "opening_hours": "Mo-Fr 06:00-20:00;Sa 06:00-16:00"
      }
    },
    {
      "type": "Feature",
      "geometry": {
        "type": "Point",
        "coordinates": [
          18.011127,
          45.1598929
        ]
      },
      "properties": {
        "id": 1935699068,
        "osm_type": "node",
        "name": "Plavo polje"
      }
    },
    {
      "type": "Feature",
      "geometry": {
        "type": "Point",
        "coordinates": [
          18.0152163,
          45.1573701
        ]
      },
      "properties": {
        "id": 1936922698,
        "osm_type": "node",
        "name": "Noć i dan",
        "opening_hours": "Mo-Sa 06:00-24:00; Su 06:00-14:00"
      }
    },
    {
      "type": "Feature",
      "geometry": {
        "type": "Point",
        "coordinates": [
          18.0046265,
          45.2225741
        ]
      },
      "properties": {
        "id": 1940723808,
        "osm_type": "node",
        "name": "Gas"
      }
    },
    {
      "type": "Feature",
      "geometry": {
        "type": "Point",
        "coordinates": [
          18.0178874,
          45.1658957
        ]
      },
      "properties": {
        "id": 1941642955,
        "osm_type": "node",
        "name": "TIME-OUT"
      }
    },
    {
      "type": "Feature",
      "geometry": {
        "type": "Point",
        "coordinates": [
          18.0180698,
          45.1655477
        ]
      },
      "properties": {
        "id": 1941647508,
        "osm_type": "node",
        "name": "ORLY"
      }
    },
    {
      "type": "Feature",
      "geometry": {
        "type": "Point",
        "coordinates": [
          18.0183756,
          45.1662493
        ]
      },
      "properties": {
        "id": 1941652483,
        "osm_type": "node",
        "name": "PIGAL"
      }
    },
    {
      "type": "Feature",
      "geometry": {
        "type": "Point",
        "coordinates": [
          18.0183568,
          45.1661642
        ]
      },
      "properties": {
        "id": 1941654492,
        "osm_type": "node",
        "name": "MARTEL"
      }
    },
    {
      "type": "Feature",
      "geometry": {
        "type": "Point",
        "coordinates": [
          18.0183219,
          45.1660526
        ]
      },
      "properties": {
        "id": 1941656200,
        "osm_type": "node",
        "name": "Fino & friško"
      }
    },
    {
      "type": "Feature",
      "geometry": {
        "type": "Point",
        "coordinates": [
          18.0182441,
          45.1659429
        ]
      },
      "properties": {
        "id": 1941658996,
        "osm_type": "node",
        "name": "NAPOLEON"
      }
    },
    {
      "type": "Feature",
      "geometry": {
        "type": "Point",
        "coordinates": [
          18.0182066,
          45.167019
        ]
      },
      "properties": {
        "id": 1941667582,
        "osm_type": "node",
        "name": "Kod Jerka"
      }
    },
    {
      "type": "Feature",
      "geometry": {
        "type": "Point",
        "coordinates": [
          18.0181744,
          45.1668979
        ]
      },
      "properties": {
        "id": 1941668137,
        "osm_type": "node",
        "name": "ODEON"
      }
    },
    {
      "type": "Feature",
      "geometry": {
        "type": "Point",
        "coordinates": [
          18.0183809,
          45.1663079
        ]
      },
      "properties": {
        "id": 1941679163,
        "osm_type": "node",
        "name": "MALI PARIS"
      }
    },
    {
      "type": "Feature",
      "geometry": {
        "type": "Point",
        "coordinates": [
          18.0122065,
          45.1529987
        ]
      },
      "properties": {
        "id": 1941734005,
        "osm_type": "node",
        "name": "Gradska kavana",
        "check_date": "2023-07-25"
      }
    },
    {
      "type": "Feature",
      "geometry": {
        "type": "Point",
        "coordinates": [
          17.998915,
          45.1653747
        ]
      },
      "properties": {
        "id": 1941920870,
        "osm_type": "node",
        "name": "Caffe bar Bubamara",
        "opening_hours": "07:00-00:00"
      }
    },
    {
      "type": "Feature",
      "geometry": {
        "type": "Point",
        "coordinates": [
          18.0187765,
          45.1750446
        ]
      },
      "properties": {
        "id": 1942796942,
        "osm_type": "node",
        "name": "Virus"
      }
    },
    {
      "type": "Feature",
      "geometry": {
        "type": "Point",
        "coordinates": [
          18.0149816,
          45.1613207
        ]
      },
      "properties": {
        "id": 1942802543,
        "osm_type": "node",
        "name": "Stars"
      }
    },
    {
      "type": "Feature",
      "geometry": {
        "type": "Point",
        "coordinates": [
          18.0329692,
          45.1900188
        ]
      },
      "properties": {
        "id": 1943056854,
        "osm_type": "node",
        "name": "Europa"
      }
    },
    {
      "type": "Feature",
      "geometry": {
        "type": "Point",
        "coordinates": [
          18.0328163,
          45.1899243
        ]
      },
      "properties": {
        "id": 1943069228,
        "osm_type": "node",
        "name": "buffet Dominik"
      }
    },
    {
      "type": "Feature",
      "geometry": {
        "type": "Point",
        "coordinates": [
          18.0167537,
          45.154678
        ]
      },
      "properties": {
        "id": 1945670197,
        "osm_type": "node",
        "name": "Likaj"
      }
    },
    {
      "type": "Feature",
      "geometry": {
        "type": "Point",
        "coordinates": [
          18.019305,
          45.1552316
        ]
      },
      "properties": {
        "id": 1945670201,
        "osm_type": "node",
        "name": "Dolcevita"
      }
    },
    {
      "type": "Feature",
      "geometry": {
        "type": "Point",
        "coordinates": [
          18.0152276,
          45.1554105
        ]
      },
      "properties": {
        "id": 1945684008,
        "osm_type": "node",
        "name": "Mozart"
      }
    },
    {
      "type": "Feature",
      "geometry": {
        "type": "Point",
        "coordinates": [
          18.0151658,
          45.1554161
        ]
      },
      "properties": {
        "id": 1945684009,
        "osm_type": "node",
        "name": "Pergamino"
      }
    },
    {
      "type": "Feature",
      "geometry": {
        "type": "Point",
        "coordinates": [
          18.0151014,
          45.1554293
        ]
      },
      "properties": {
        "id": 1945684010,
        "osm_type": "node",
        "name": "Ante"
      }
    },
    {
      "type": "Feature",
      "geometry": {
        "type": "Point",
        "coordinates": [
          18.0150983,
          45.1587008
        ]
      },
      "properties": {
        "id": 1946797589,
        "osm_type": "node",
        "name": "D Paris"
      }
    },
    {
      "type": "Feature",
      "geometry": {
        "type": "Point",
        "coordinates": [
          17.9953456,
          45.1558663
        ]
      },
      "properties": {
        "id": 1953204713,
        "osm_type": "node",
        "name": "Lješnica"
      }
    },
    {
      "type": "Feature",
      "geometry": {
        "type": "Point",
        "coordinates": [
          17.9957274,
          45.1664706
        ]
      },
      "properties": {
        "id": 1962458210,
        "osm_type": "node",
        "name": "Lović"
      }
    },
    {
      "type": "Feature",
      "geometry": {
        "type": "Point",
        "coordinates": [
          18.0233694,
          45.1532662
        ]
      },
      "properties": {
        "id": 1985400029,
        "osm_type": "node",
        "name": "Dora"
      }
    },
    {
      "type": "Feature",
      "geometry": {
        "type": "Point",
        "coordinates": [
          18.012861,
          45.157659
        ]
      },
      "properties": {
        "id": 1985567314,
        "osm_type": "node",
        "name": "Grazie"
      }
    },
    {
      "type": "Feature",
      "geometry": {
        "type": "Point",
        "coordinates": [
          18.0130628,
          45.1591177
        ]
      },
      "properties": {
        "id": 1985596802,
        "osm_type": "node",
        "name": "Regoč"
      }
    },
    {
      "type": "Feature",
      "geometry": {
        "type": "Point",
        "coordinates": [
          18.013101,
          45.1592525
        ]
      },
      "properties": {
        "id": 1985596803,
        "osm_type": "node"
      }
    },
    {
      "type": "Feature",
      "geometry": {
        "type": "Point",
        "coordinates": [
          18.013468,
          45.1553099
        ]
      },
      "properties": {
        "id": 1986101218,
        "osm_type": "node",
        "name": "Zero"
      }
    },
    {
      "type": "Feature",
      "geometry": {
        "type": "Point",
        "coordinates": [
          18.0137774,
          45.1552817
        ]
      },
      "properties": {
        "id": 1986122356,
        "osm_type": "node",
        "name": "Puslica"
      }
    },
    {
      "type": "Feature",
      "geometry": {
        "type": "Point",
        "coordinates": [
          18.0149153,
          45.1526181
        ]
      },
      "properties": {
        "id": 1987414185,
        "osm_type": "node",
        "name": "Mollinary"
      }
    },
    {
      "type": "Feature",
      "geometry": {
        "type": "Point",
        "coordinates": [
          18.0234755,
          45.1641815
        ]
      },
      "properties": {
        "id": 1990944785,
        "osm_type": "node",
        "name": "Grizli"
      }
    },
    {
      "type": "Feature",
      "geometry": {
        "type": "Point",
        "coordinates": [
          18.0030105,
          45.1629057
        ]
      },
      "properties": {
        "id": 2364574016,
        "osm_type": "node",
        "name": "Montana"
      }
    },
    {
      "type": "Feature",
      "geometry": {
        "type": "Point",
        "coordinates": [
          18.0154205,
          45.1585384
        ]
      },
      "properties": {
        "id": 2365364827,
        "osm_type": "node",
        "name": "Citrus"
      }
    },
    {
      "type": "Feature",
      "geometry": {
        "type": "Point",
        "coordinates": [
          18.0181635,
          45.1667754
        ]
      },
      "properties": {
        "id": 2370170205,
        "osm_type": "node",
        "name": "Mlinar",
        "brand": "Mlinar"
      }
    },
    {
      "type": "Feature",
      "geometry": {
        "type": "Point",
        "coordinates": [
          18.0166019,
          45.1551461
        ]
      },
      "properties": {
        "id": 2370984454,
        "osm_type": "node",
        "name": "Dorian Gray"
      }
    },
    {
      "type": "Feature",
      "geometry": {
        "type": "Point",
        "coordinates": [
          18.0023678,
          45.1653808
        ]
      },
      "properties": {
        "id": 2394718540,
        "osm_type": "node",
        "name": "Mini"
      }
    },
    {
      "type": "Feature",
      "geometry": {
        "type": "Point",
        "coordinates": [
          18.033811,
          45.158063
        ]
      },
      "properties": {
        "id": 2511662258,
        "osm_type": "node",
        "name": "Big Ben"
      }
    },
    {
      "type": "Feature",
      "geometry": {
        "type": "Point",
        "coordinates": [
          18.0313164,
          45.1568212
        ]
      },
      "properties": {
        "id": 2511662259,
        "osm_type": "node",
        "name": "Bondo"
      }
    },
    {
      "type": "Feature",
      "geometry": {
        "type": "Point",
        "coordinates": [
          18.0333098,
          45.1575906
        ]
      },
      "properties": {
        "id": 2511662261,
        "osm_type": "node",
        "name": "Dan i noć"
      }
    },
    {
      "type": "Feature",
      "geometry": {
        "type": "Point",
        "coordinates": [
          18.0337926,
          45.1577414
        ]
      },
      "properties": {
        "id": 2511662263,
        "osm_type": "node",
        "name": "Habana"
      }
    },
    {
      "type": "Feature",
      "geometry": {
        "type": "Point",
        "coordinates": [
          18.0328787,
          45.1574221
        ]
      },
      "properties": {
        "id": 2511662266,
        "osm_type": "node",
        "name": "Jack Daniels"
      }
    },
    {
      "type": "Feature",
      "geometry": {
        "type": "Point",
        "coordinates": [
          18.0331677,
          45.1578309
        ]
      },
      "properties": {
        "id": 2511662268,
        "osm_type": "node",
        "name": "Krešimir"
      }
    },
    {
      "type": "Feature",
      "geometry": {
        "type": "Point",
        "coordinates": [
          18.033141,
          45.1575269
        ]
      },
      "properties": {
        "id": 2511662272,
        "osm_type": "node",
        "name": "Lović"
      }
    },
    {
      "type": "Feature",
      "geometry": {
        "type": "Point",
        "coordinates": [
          18.0335437,
          45.1576612
        ]
      },
      "properties": {
        "id": 2511662275,
        "osm_type": "node",
        "name": "Nina"
      }
    },
    {
      "type": "Feature",
      "geometry": {
        "type": "Point",
        "coordinates": [
          18.0328603,
          45.1577402
        ]
      },
      "properties": {
        "id": 2511662298,
        "osm_type": "node",
        "name": "Pracny"
      }
    },
    {
      "type": "Feature",
      "geometry": {
        "type": "Point",
        "coordinates": [
          18.0321134,
          45.157071
        ]
      },
      "properties": {
        "id": 2511662325,
        "osm_type": "node",
        "name": "Tolić"
      }
    },
    {
      "type": "Feature",
      "geometry": {
        "type": "Point",
        "coordinates": [
          18.0325963,
          45.1576719
        ]
      },
      "properties": {
        "id": 2511662347,
        "osm_type": "node"
      }
    },
    {
      "type": "Feature",
      "geometry": {
        "type": "Point",
        "coordinates": [
          18.0273637,
          45.1528791
        ]
      },
      "properties": {
        "id": 2511676189,
        "osm_type": "node",
        "name": "Europa"
      }
    },
    {
      "type": "Feature",
      "geometry": {
        "type": "Point",
        "coordinates": [
          18.0519012,
          45.1753349
        ]
      },
      "properties": {
        "id": 2511715834,
        "osm_type": "node",
        "name": "Deny"
      }
    },
    {
      "type": "Feature",
      "geometry": {
        "type": "Point",
        "coordinates": [
          18.0512136,
          45.1750409
        ]
      },
      "properties": {
        "id": 2511715836,
        "osm_type": "node",
        "name": "Mlinpek"
      }
    },
    {
      "type": "Feature",
      "geometry": {
        "type": "Point",
        "coordinates": [
          18.0119026,
          45.1557387
        ]
      },
      "properties": {
        "id": 2587837095,
        "osm_type": "node",
        "name": "Mrvica"
      }
    },
    {
      "type": "Feature",
      "geometry": {
        "type": "Point",
        "coordinates": [
          17.999164,
          45.1576844
        ]
      },
      "properties": {
        "id": 2589370113,
        "osm_type": "node",
        "name": "Skoko"
      }
    },
    {
      "type": "Feature",
      "geometry": {
        "type": "Point",
        "coordinates": [
          18.018692,
          45.1566206
        ]
      },
      "properties": {
        "id": 2590872563,
        "osm_type": "node",
        "name": "Arena"
      }
    },
    {
      "type": "Feature",
      "geometry": {
        "type": "Point",
        "coordinates": [
          18.0353663,
          45.1636491
        ]
      },
      "properties": {
        "id": 2590872569,
        "osm_type": "node",
        "name": "Coctail"
      }
    },
    {
      "type": "Feature",
      "geometry": {
        "type": "Point",
        "coordinates": [
          18.026099,
          45.1594686
        ]
      },
      "properties": {
        "id": 2590872572,
        "osm_type": "node",
        "name": "Europa"
      }
    },
    {
      "type": "Feature",
      "geometry": {
        "type": "Point",
        "coordinates": [
          18.0401802,
          45.1681338
        ]
      },
      "properties": {
        "id": 2590872573,
        "osm_type": "node",
        "name": "Fortuna"
      }
    },
    {
      "type": "Feature",
      "geometry": {
        "type": "Point",
        "coordinates": [
          18.0258481,
          45.1563888
        ]
      },
      "properties": {
        "id": 2590872577,
        "osm_type": "node",
        "name": "Janković"
      }
    },
    {
      "type": "Feature",
      "geometry": {
        "type": "Point",
        "coordinates": [
          18.0323574,
          45.1658997
        ]
      },
      "properties": {
        "id": 2590872578,
        "osm_type": "node",
        "name": "Janković"
      }
    },
    {
      "type": "Feature",
      "geometry": {
        "type": "Point",
        "coordinates": [
          18.0257699,
          45.1563907
        ]
      },
      "properties": {
        "id": 2590872580,
        "osm_type": "node",
        "name": "Mario"
      }
    },
    {
      "type": "Feature",
      "geometry": {
        "type": "Point",
        "coordinates": [
          18.0337703,
          45.163047
        ]
      },
      "properties": {
        "id": 2590872587,
        "osm_type": "node",
        "name": "Rail"
      }
    },
    {
      "type": "Feature",
      "geometry": {
        "type": "Point",
        "coordinates": [
          18.0184281,
          45.1515501
        ]
      },
      "properties": {
        "id": 2598736192,
        "osm_type": "node",
        "name": "Mint"
      }
    },
    {
      "type": "Feature",
      "geometry": {
        "type": "Point",
        "coordinates": [
          18.0237703,
          45.1574376
        ]
      },
      "properties": {
        "id": 2598736198,
        "osm_type": "node",
        "name": "Iskra"
      }
    },
    {
      "type": "Feature",
      "geometry": {
        "type": "Point",
        "coordinates": [
          18.0244911,
          45.1565584
        ]
      },
      "properties": {
        "id": 2598736199,
        "osm_type": "node",
        "name": "Junior"
      }
    },
    {
      "type": "Feature",
      "geometry": {
        "type": "Point",
        "coordinates": [
          18.0239142,
          45.1561153
        ]
      },
      "properties": {
        "id": 2598736209,
        "osm_type": "node",
        "name": "Pracny"
      }
    },
    {
      "type": "Feature",
      "geometry": {
        "type": "Point",
        "coordinates": [
          18.0124058,
          45.1550555
        ]
      },
      "properties": {
        "id": 2692734254,
        "osm_type": "node",
        "name": "Green park"
      }
    },
    {
      "type": "Feature",
      "geometry": {
        "type": "Point",
        "coordinates": [
          18.0125354,
          45.1554058
        ]
      },
      "properties": {
        "id": 2692734266,
        "osm_type": "node",
        "name": "Mlinar",
        "brand": "Mlinar"
      }
    },
    {
      "type": "Feature",
      "geometry": {
        "type": "Point",
        "coordinates": [
          18.0075748,
          45.1627186
        ]
      },
      "properties": {
        "id": 2692742364,
        "osm_type": "node",
        "name": "K caffe"
      }
    },
    {
      "type": "Feature",
      "geometry": {
        "type": "Point",
        "coordinates": [
          18.0544365,
          45.1743101
        ]
      },
      "properties": {
        "id": 2696315262,
        "osm_type": "node",
        "name": "Buf"
      }
    },
    {
      "type": "Feature",
      "geometry": {
        "type": "Point",
        "coordinates": [
          18.0376152,
          45.166467
        ]
      },
      "properties": {
        "id": 2696315269,
        "osm_type": "node",
        "name": "Složna braća"
      }
    },
    {
      "type": "Feature",
      "geometry": {
        "type": "Point",
        "coordinates": [
          18.0014067,
          45.1564539
        ]
      },
      "properties": {
        "id": 2696358603,
        "osm_type": "node",
        "name": "Skoko"
      }
    },
    {
      "type": "Feature",
      "geometry": {
        "type": "Point",
        "coordinates": [
          18.023692,
          45.1641342
        ]
      },
      "properties": {
        "id": 2696370486,
        "osm_type": "node",
        "name": "Giovani"
      }
    },
    {
      "type": "Feature",
      "geometry": {
        "type": "Point",
        "coordinates": [
          18.0188311,
          45.1655077
        ]
      },
      "properties": {
        "id": 2696370496,
        "osm_type": "node"
      }
    },
    {
      "type": "Feature",
      "geometry": {
        "type": "Point",
        "coordinates": [
          18.0116718,
          45.1534748
        ]
      },
      "properties": {
        "id": 2708659644,
        "osm_type": "node",
        "name": "Caffe Bar Beerc"
      }
    },
    {
      "type": "Feature",
      "geometry": {
        "type": "Point",
        "coordinates": [
          18.0121858,
          45.1540947
        ]
      },
      "properties": {
        "id": 2708659649,
        "osm_type": "node",
        "name": "Soho bar"
      }
    },
    {
      "type": "Feature",
      "geometry": {
        "type": "Point",
        "coordinates": [
          18.0136574,
          45.1540202
        ]
      },
      "properties": {
        "id": 2708659684,
        "osm_type": "node"
      }
    },
    {
      "type": "Feature",
      "geometry": {
        "type": "Point",
        "coordinates": [
          18.0179589,
          45.1544413
        ]
      },
      "properties": {
        "id": 2719964629,
        "osm_type": "node",
        "name": "Janković"
      }
    },
    {
      "type": "Feature",
      "geometry": {
        "type": "Point",
        "coordinates": [
          18.0234144,
          45.1535597
        ]
      },
      "properties": {
        "id": 2719964631,
        "osm_type": "node",
        "name": "Maralushaj"
      }
    },
    {
      "type": "Feature",
      "geometry": {
        "type": "Point",
        "coordinates": [
          18.0145512,
          45.1586045
        ]
      },
      "properties": {
        "id": 2725731232,
        "osm_type": "node",
        "name": "Derby"
      }
    },
    {
      "type": "Feature",
      "geometry": {
        "type": "Point",
        "coordinates": [
          18.0235266,
          45.1545954
        ]
      },
      "properties": {
        "id": 2725731236,
        "osm_type": "node",
        "name": "Grof"
      }
    },
    {
      "type": "Feature",
      "geometry": {
        "type": "Point",
        "coordinates": [
          18.0233676,
          45.1540337
        ]
      },
      "properties": {
        "id": 2725731238,
        "osm_type": "node",
        "name": "Korner"
      }
    },
    {
      "type": "Feature",
      "geometry": {
        "type": "Point",
        "coordinates": [
          18.0216326,
          45.1548576
        ]
      },
      "properties": {
        "id": 2725731239,
        "osm_type": "node",
        "name": "Lović"
      }
    },
    {
      "type": "Feature",
      "geometry": {
        "type": "Point",
        "coordinates": [
          18.0203,
          45.1598775
        ]
      },
      "properties": {
        "id": 2725731244,
        "osm_type": "node",
        "name": "Noć i dan",
        "opening_hours": "Mo-Sa 06:00-20:00; Su 07:00-14:00"
      }
    },
    {
      "type": "Feature",
      "geometry": {
        "type": "Point",
        "coordinates": [
          18.0222205,
          45.1547837
        ]
      },
      "properties": {
        "id": 2725731253,
        "osm_type": "node",
        "name": "Tržnica"
      }
    },
    {
      "type": "Feature",
      "geometry": {
        "type": "Point",
        "coordinates": [
          18.0217175,
          45.1561044
        ]
      },
      "properties": {
        "id": 2725731255,
        "osm_type": "node",
        "name": "Kaktus"
      }
    },
    {
      "type": "Feature",
      "geometry": {
        "type": "Point",
        "coordinates": [
          18.033479,
          45.1628597
        ]
      },
      "properties": {
        "id": 2734713318,
        "osm_type": "node",
        "name": "Pracny"
      }
    },
    {
      "type": "Feature",
      "geometry": {
        "type": "Point",
        "coordinates": [
          18.0186657,
          45.1624067
        ]
      },
      "properties": {
        "id": 3009566237,
        "osm_type": "node",
        "name": "Cat"
      }
    },
    {
      "type": "Feature",
      "geometry": {
        "type": "Point",
        "coordinates": [
          18.0133181,
          45.1534486
        ]
      },
      "properties": {
        "id": 3033401494,
        "osm_type": "node",
        "name": "Galerija"
      }
    },
    {
      "type": "Feature",
      "geometry": {
        "type": "Point",
        "coordinates": [
          18.018166,
          45.166814
        ]
      },
      "properties": {
        "id": 3067857833,
        "osm_type": "node",
        "name": "Gatsby"
      }
    },
    {
      "type": "Feature",
      "geometry": {
        "type": "Point",
        "coordinates": [
          17.8597955,
          45.178481
        ]
      },
      "properties": {
        "id": 3196072239,
        "osm_type": "node",
        "name": "Viva"
      }
    },
    {
      "type": "Feature",
      "geometry": {
        "type": "Point",
        "coordinates": [
          17.4572731,
          45.1477971
        ]
      },
      "properties": {
        "id": 3196087769,
        "osm_type": "node"
      }
    },
    {
      "type": "Feature",
      "geometry": {
        "type": "Point",
        "coordinates": [
          17.6997764,
          45.1674527
        ]
      },
      "properties": {
        "id": 3196087774,
        "osm_type": "node"
      }
    },
    {
      "type": "Feature",
      "geometry": {
        "type": "Point",
        "coordinates": [
          17.6927258,
          45.1689901
        ]
      },
      "properties": {
        "id": 3196087776,
        "osm_type": "node"
      }
    },
    {
      "type": "Feature",
      "geometry": {
        "type": "Point",
        "coordinates": [
          17.7161197,
          45.1704044
        ]
      },
      "properties": {
        "id": 3196087778,
        "osm_type": "node"
      }
    },
    {
      "type": "Feature",
      "geometry": {
        "type": "Point",
        "coordinates": [
          17.8530999,
          45.1777773
        ]
      },
      "properties": {
        "id": 3196087781,
        "osm_type": "node"
      }
    },
    {
      "type": "Feature",
      "geometry": {
        "type": "Point",
        "coordinates": [
          17.6484539,
          45.1942689
        ]
      },
      "properties": {
        "id": 3196087784,
        "osm_type": "node"
      }
    },
    {
      "type": "Feature",
      "geometry": {
        "type": "Point",
        "coordinates": [
          18.0098525,
          45.1627321
        ]
      },
      "properties": {
        "id": 3196541862,
        "osm_type": "node",
        "name": "Mrvica"
      }
    },
    {
      "type": "Feature",
      "geometry": {
        "type": "Point",
        "coordinates": [
          18.01988,
          45.1552763
        ]
      },
      "properties": {
        "id": 3224914030,
        "osm_type": "node",
        "name": "Janković",
        "opening_hours": "Mo-Su 07:00-14:00"
      }
    },
    {
      "type": "Feature",
      "geometry": {
        "type": "Point",
        "coordinates": [
          17.3844137,
          45.2596005
        ]
      },
      "properties": {
        "id": 3432142574,
        "osm_type": "node",
        "name": "Caffe bar Rubikon"
      }
    },
    {
      "type": "Feature",
      "geometry": {
        "type": "Point",
        "coordinates": [
          17.3847973,
          45.2595474
        ]
      },
      "properties": {
        "id": 3432142577,
        "osm_type": "node",
        "name": "The Corner Pub"
      }
    },
    {
      "type": "Feature",
      "geometry": {
        "type": "Point",
        "coordinates": [
          17.9987871,
          45.1595192
        ]
      },
      "properties": {
        "id": 3601214209,
        "osm_type": "node",
        "name": "Mlinar",
        "brand": "Mlinar"
      }
    },
    {
      "type": "Feature",
      "geometry": {
        "type": "Point",
        "coordinates": [
          18.0121413,
          45.1650041
        ]
      },
      "properties": {
        "id": 3772941369,
        "osm_type": "node"
      }
    },
    {
      "type": "Feature",
      "geometry": {
        "type": "Point",
        "coordinates": [
          18.0120226,
          45.1649718
        ]
      },
      "properties": {
        "id": 3772941370,
        "osm_type": "node"
      }
    },
    {
      "type": "Feature",
      "geometry": {
        "type": "Point",
        "coordinates": [
          18.4826102,
          45.0872532
        ]
      },
      "properties": {
        "id": 3787790913,
        "osm_type": "node"
      }
    },
    {
      "type": "Feature",
      "geometry": {
        "type": "Point",
        "coordinates": [
          18.4848412,
          45.0755627
        ]
      },
      "properties": {
        "id": 3787794326,
        "osm_type": "node",
        "name": "Luis"
      }
    },
    {
      "type": "Feature",
      "geometry": {
        "type": "Point",
        "coordinates": [
          18.0140132,
          45.1594352
        ]
      },
      "properties": {
        "id": 4009160850,
        "osm_type": "node",
        "name": "Knez"
      }
    },
    {
      "type": "Feature",
      "geometry": {
        "type": "Point",
        "coordinates": [
          18.0140883,
          45.159378
        ]
      },
      "properties": {
        "id": 4009161607,
        "osm_type": "node",
        "name": "Gaga"
      }
    },
    {
      "type": "Feature",
      "geometry": {
        "type": "Point",
        "coordinates": [
          18.296493,
          45.1873891
        ]
      },
      "properties": {
        "id": 4239163693,
        "osm_type": "node",
        "name": "Cibona"
      }
    },
    {
      "type": "Feature",
      "geometry": {
        "type": "Point",
        "coordinates": [
          17.5130188,
          45.1117577
        ]
      },
      "properties": {
        "id": 4489448946,
        "osm_type": "node",
        "name": "Papillon"
      }
    },
    {
      "type": "Feature",
      "geometry": {
        "type": "Point",
        "coordinates": [
          17.3749272,
          45.2619987
        ]
      },
      "properties": {
        "id": 4758389148,
        "osm_type": "node"
      }
    },
    {
      "type": "Feature",
      "geometry": {
        "type": "Point",
        "coordinates": [
          17.3543399,
          45.2655772
        ]
      },
      "properties": {
        "id": 4758389150,
        "osm_type": "node",
        "name": "Leon"
      }
    },
    {
      "type": "Feature",
      "geometry": {
        "type": "Point",
        "coordinates": [
          17.6420622,
          45.1959182
        ]
      },
      "properties": {
        "id": 5102528721,
        "osm_type": "node",
        "name": "Pekara"
      }
    },
    {
      "type": "Feature",
      "geometry": {
        "type": "Point",
        "coordinates": [
          17.9959766,
          45.1825054
        ]
      },
      "properties": {
        "id": 5235728288,
        "osm_type": "node",
        "name": "Vinograd"
      }
    },
    {
      "type": "Feature",
      "geometry": {
        "type": "Point",
        "coordinates": [
          18.4038858,
          45.2087531
        ]
      },
      "properties": {
        "id": 5235730021,
        "osm_type": "node",
        "name": "Park"
      }
    },
    {
      "type": "Feature",
      "geometry": {
        "type": "Point",
        "coordinates": [
          17.6420855,
          45.1961394
        ]
      },
      "properties": {
        "id": 5240835389,
        "osm_type": "node"
      }
    },
    {
      "type": "Feature",
      "geometry": {
        "type": "Point",
        "coordinates": [
          17.937405,
          45.1656294
        ]
      },
      "properties": {
        "id": 5349069330,
        "osm_type": "node"
      }
    },
    {
      "type": "Feature",
      "geometry": {
        "type": "Point",
        "coordinates": [
          17.3843126,
          45.2582068
        ]
      },
      "properties": {
        "id": 5842626802,
        "osm_type": "node"
      }
    },
    {
      "type": "Feature",
      "geometry": {
        "type": "Point",
        "coordinates": [
          18.0154919,
          45.1538414
        ]
      },
      "properties": {
        "id": 5871831935,
        "osm_type": "node",
        "name": "Horoskop"
      }
    },
    {
      "type": "Feature",
      "geometry": {
        "type": "Point",
        "coordinates": [
          18.0341692,
          45.16843
        ]
      },
      "properties": {
        "id": 7542407358,
        "osm_type": "node",
        "name": "Caffe Bar Royal",
        "outdoor_seating": "yes"
      }
    },
    {
      "type": "Feature",
      "geometry": {
        "type": "Point",
        "coordinates": [
          18.0673835,
          45.1544643
        ]
      },
      "properties": {
        "id": 8063874408,
        "osm_type": "node",
        "name": "Pekarnica Kajtazi",
        "opening_hours": "Mo-Sa 07:30-22:30"
      }
    },
    {
      "type": "Feature",
      "geometry": {
        "type": "Point",
        "coordinates": [
          18.0688618,
          45.153686
        ]
      },
      "properties": {
        "id": 8063874409,
        "osm_type": "node",
        "name": "Caffe bar Dream",
        "opening_hours": "Mo-Su 08:00-23:00"
      }
    },
    {
      "type": "Feature",
      "geometry": {
        "type": "Point",
        "coordinates": [
          18.0665104,
          45.1622609
        ]
      },
      "properties": {
        "id": 8063950529,
        "osm_type": "node",
        "name": "Pekara Tolić"
      }
    },
    {
      "type": "Feature",
      "geometry": {
        "type": "Point",
        "coordinates": [
          17.3841879,
          45.142915
        ]
      },
      "properties": {
        "id": 8429012609,
        "osm_type": "node",
        "name": "Ribnjak"
      }
    },
    {
      "type": "Feature",
      "geometry": {
        "type": "Point",
        "coordinates": [
          18.0641311,
          45.1766875
        ]
      },
      "properties": {
        "id": 9603939077,
        "osm_type": "node"
      }
    },
    {
      "type": "Feature",
      "geometry": {
        "type": "Point",
        "coordinates": [
          18.063386,
          45.1757269
        ]
      },
      "properties": {
        "id": 9603939078,
        "osm_type": "node"
      }
    },
    {
      "type": "Feature",
      "geometry": {
        "type": "Point",
        "coordinates": [
          18.0118438,
          45.1550778
        ]
      },
      "properties": {
        "id": 9603950485,
        "osm_type": "node",
        "name": "Square Cafe"
      }
    },
    {
      "type": "Feature",
      "geometry": {
        "type": "Point",
        "coordinates": [
          17.3806117,
          45.260972
        ]
      },
      "properties": {
        "id": 11360099191,
        "osm_type": "node",
        "name": "Matan"
      }
    },
    {
      "type": "Feature",
      "geometry": {
        "type": "Point",
        "coordinates": [
          17.755612,
          45.1653057
        ]
      },
      "properties": {
        "id": 12068386025,
        "osm_type": "node",
        "name": "Pekarnica Janković",
        "check_date": "2024-07-22"
      }
    },
    {
      "type": "Feature",
      "geometry": {
        "type": "Point",
        "coordinates": [
          18.0141239,
          45.1533405
        ]
      },
      "properties": {
        "id": 242207406,
        "osm_type": "way",
        "name": "Snooker"
      }
    },
    {
      "type": "Feature",
      "geometry": {
        "type": "Point",
        "coordinates": [
          18.39421,
          45.1559323
        ]
      },
      "properties": {
        "id": 1118751806,
        "osm_type": "way"
      }
    },
    {
      "type": "Feature",
      "geometry": {
        "type": "Point",
        "coordinates": [
          18.4029741,
          45.1542843
        ]
      },
      "properties": {
        "id": 1119153634,
        "osm_type": "way",
        "name": "Monap"
      }
    },
    {
      "type": "Feature",
      "geometry": {
        "type": "Point",
        "coordinates": [
          18.4032729,
          45.1546954
        ]
      },
      "properties": {
        "id": 1120218024,
        "osm_type": "way",
        "name": "Pekara Matić"
      }
    },
    {
      "type": "Feature",
      "geometry": {
        "type": "Point",
        "coordinates": [
          17.3846126,
          45.2565629
        ]
      },
      "properties": {
        "id": 1221599213,
        "osm_type": "way",
        "name": "Caffe bar Carpe Diem",
        "opening_hours": "Mo-Su 07:00-22:00",
        "outdoor_seating": "yes"
      }
    }
  ]
}