{
  "type": "FeatureCollection",
  "features": [
    {
      "type": "Feature",
      "geometry": {
        "type": "Point",
        "coordinates": [
          40.4943084,
          38.9031719
        ]
      },
      "properties": {
        "id": 4233385851,
        "osm_type": "node",
        "name": "Medine Market"
      }
    },
    {
      "type": "Feature",
      "geometry": {
        "type": "Point",
        "coordinates": [
          40.5982978,
          38.9123478
        ]
      },
      "properties": {
        "id": 9723524598,
        "osm_type": "node"
      }
    },
    {
      "type": "Feature",
      "geometry": {
        "type": "Point",
        "coordinates": [
          40.5325148,
          38.751274
        ]
      },
      "properties": {
        "id": 13061257901,
        "osm_type": "node"
      }
    },
    {
      "type": "Feature",
      "geometry": {
        "type": "Point",
        "coordinates": [
          40.9868533,
          39.3730233
        ]
      },
      "properties": {
        "id": 13062969885,
        "osm_type": "node"
      }
    }
  ]
}