{
  "type": "FeatureCollection",
  "features": [
    {
      "type": "Feature",
      "geometry": {
        "type": "Point",
        "coordinates": [
          10.1137398,
          54.3335687
        ]
      },
      "properties": {
        "id": 251677828,
        "osm_type": "node",
        "addr:city": "Kiel",
        "addr:country": "DE",
        "addr:housenumber": "82a",
        "addr:postcode": "24118",
        "addr:street": "Gutenbergstraße",
        "amenity": "fast_food",
        "brand": "McDonald's",
        "brand:wikidata": "Q38076",
        "brand:wikipedia": "en:McDonald's",
        "cuisine": "burger",
        "diet:vegan": "no",
        "diet:vegetarian": "yes",
        "indoor_seating": "yes",
        "name": "McDonald's",
        "outdoor_seating": "yes",
        "smoking": "no",
        "takeaway": "yes",
        "wheelchair": "yes"
      }
    },
    {
      "type": "Feature",
      "geometry": {
        "type": "Point",
        "coordinates": [
          9.3971995,
          54.7736279
        ]
      },
      "properties": {
        "id": 261607601,
        "osm_type": "node",
        "addr:city": "Flensburg",
        "addr:country": "DE",
        "addr:housenumber": "4",
        "addr:postcode": "24941",
        "addr:street": "Langberger Weg",
        "air_conditioning": "yes",
        "amenity": "fast_food",
        "brand": "McDonald's",
        "brand:wikidata": "Q38076",
        "brand:wikipedia": "en:McDonald's",
        "check_date:opening_hours": "2022-09-27",
        "cuisine": "burger",
        "email": "ruediger.dreilich@mcflens.de",
        "indoor_seating": "yes",
        "level": "0",
        "name": "McDonald's",
        "opening_hours": "Mo-Sa 09:00-20:00; Su,PH off",
        "outdoor_seating": "no",
        "phone": "+49 461 5008336",
        "smoking": "no",
        "takeaway": "yes",
        "website": "https://www.mcdonalds.de/",
        "wheelchair": "yes"
      }
    },
    {
      "type": "Feature",
      "geometry": {
        "type": "Point",
        "coordinates": [
          10.1365833,
          54.3225195
        ]
      },
      "properties": {
        "id": 268223175,
        "osm_type": "node",
        "addr:city": "Kiel",
        "addr:housenumber": "3",
        "addr:postcode": "24103",
        "addr:street": "Holstenbrücke",
        "amenity": "fast_food",
        "brand": "McDonald's",
        "brand:wikidata": "Q38076",
        "brand:wikipedia": "en:McDonald's",
        "check_date:opening_hours": "2024-10-13",
        "cuisine": "burger",
        "diet:vegan": "yes",
        "diet:vegetarian": "yes",
        "drive_through": "no",
        "fax": "+49 431 9709645",
        "indoor_seating": "yes",
        "internet_access": "wlan",
        "level": "0",
        "name": "McDonald's",
        "opening_hours": "Mo-Sa 9:30-23:00; Su 10:00-23:00",
        "opening_hours:signed": "no",
        "operator": "Thomas Brand Systemgastronomie e. K.",
        "outdoor_seating": "yes",
        "phone": "+49 431 9709406",
        "takeaway": "yes",
        "toilets:wheelchair": "no",
        "website": "https://www.mcdonalds.com/de/de-de/restaurant-suche.html/l/kiel/holstenbrucke-3/137",
        "wheelchair": "yes"
      }
    },
    {
      "type": "Feature",
      "geometry": {
        "type": "Point",
        "coordinates": [
          9.9453487,
          54.6567537
        ]
      },
      "properties": {
        "id": 272472911,
        "osm_type": "node",
        "addr:city": "Kappeln",
        "addr:country": "DE",
        "addr:housenumber": "9b",
        "addr:postcode": "24376",
        "addr:street": "Eckernförder Straße",
        "amenity": "fast_food",
        "brand": "McDonald's",
        "brand:wikidata": "Q38076",
        "brand:wikipedia": "en:McDonald's",
        "cuisine": "burger",
        "diet:vegetarian": "yes",
        "indoor_seating": "yes",
        "name": "McDonald's",
        "opening_hours": "Mo-Su 10:00-23:00",
        "outdoor_seating": "patio",
        "smoking": "outside",
        "takeaway": "yes",
        "wheelchair": "yes"
      }
    },
    {
      "type": "Feature",
      "geometry": {
        "type": "Point",
        "coordinates": [
          10.6702317,
          53.8672572
        ]
      },
      "properties": {
        "id": 290879996,
        "osm_type": "node",
        "addr:city": "Lübeck",
        "addr:country": "DE",
        "addr:housenumber": "2",
        "addr:postcode": "23558",
        "addr:street": "Am Bahnhof",
        "amenity": "fast_food",
        "brand": "McDonald's",
        "brand:wikidata": "Q38076",
        "brand:wikipedia": "en:McDonald's",
        "check_date:opening_hours": "2024-08-04",
        "contact:phone": "+49 451 2035279",
        "cuisine": "burger",
        "diet:vegetarian": "yes",
        "indoor_seating": "yes",
        "level": "0",
        "name": "McDonald's",
        "opening_hours": "Mo-Th 08:00-23:00; Fr,Sa 08:00-24:00; Su 08:00-23:00",
        "outdoor_seating": "no",
        "takeaway": "yes",
        "wheelchair": "yes"
      }
    },
    {
      "type": "Feature",
      "geometry": {
        "type": "Point",
        "coordinates": [
          10.6358914,
          53.8542735
        ]
      },
      "properties": {
        "id": 316412045,
        "osm_type": "node",
        "amenity": "fast_food",
        "brand": "McDonald's",
        "brand:wikidata": "Q38076",
        "brand:wikipedia": "en:McDonald's",
        "check_date": "2024-02-19",
        "cuisine": "burger",
        "diet:vegan": "yes",
        "diet:vegetarian": "yes",
        "email": "51399@restaurant.de.mcd.com",
        "indoor_seating": "yes",
        "name": "McDonald's",
        "opening_hours": "Mo-Sa 10:30-19:00",
        "operator": "Systemgastronomie K. Neubaumer e.K.",
        "outdoor_seating": "no",
        "phone": "+49 451 8131633",
        "takeaway": "yes",
        "wheelchair": "yes"
      }
    },
    {
      "type": "Feature",
      "geometry": {
        "type": "Point",
        "coordinates": [
          9.4338958,
          54.7862408
        ]
      },
      "properties": {
        "id": 317428164,
        "osm_type": "node",
        "addr:city": "Flensburg",
        "addr:country": "DE",
        "addr:housenumber": "1",
        "addr:postcode": "24937",
        "addr:street": "Große Straße",
        "amenity": "fast_food",
        "brand": "McDonald's",
        "brand:wikidata": "Q38076",
        "brand:wikipedia": "en:McDonald's",
        "check_date": "2025-08-26",
        "cuisine": "burger",
        "diet:vegan": "no",
        "diet:vegetarian": "yes",
        "indoor_seating": "yes",
        "internet_access": "wlan",
        "internet_access:fee": "no",
        "internet_access:operator": "Telekom",
        "level": "0",
        "name": "McDonald's",
        "opening_hours": "24/7",
        "outdoor_seating": "yes",
        "payment:cash": "yes",
        "payment:credit_cards": "yes",
        "payment:debit_cards": "yes",
        "phone": "+49 461 24344",
        "takeaway": "yes",
        "toilets:access": "customers",
        "toilets:description": "4-digit access code from receipt required / 4-stelligen Zugangscode des Kassebons benötigt",
        "toilets:wheelchair": "no",
        "website": "https://www.mcdonalds.de/restaurant?url=flensburg-grosse-str-1&/de",
        "wheelchair": "yes"
      }
    },
    {
      "type": "Feature",
      "geometry": {
        "type": "Point",
        "coordinates": [
          8.9670826,
          54.6230467
        ]
      },
      "properties": {
        "id": 417905872,
        "osm_type": "node",
        "amenity": "fast_food",
        "brand": "McDonald's",
        "brand:wikidata": "Q38076",
        "brand:wikipedia": "en:McDonald's",
        "cuisine": "burger",
        "name": "McDonald's",
        "takeaway": "yes"
      }
    },
    {
      "type": "Feature",
      "geometry": {
        "type": "Point",
        "coordinates": [
          9.4141331,
          54.7768945
        ]
      },
      "properties": {
        "id": 448941328,
        "osm_type": "node",
        "addr:city": "Flensburg",
        "addr:country": "DE",
        "addr:housenumber": "3",
        "addr:postcode": "24941",
        "addr:street": "Am Friedenshügel",
        "amenity": "fast_food",
        "brand": "McDonald's",
        "brand:wikidata": "Q38076",
        "brand:wikipedia": "en:McDonald's",
        "changing_table": "yes",
        "changing_table:fee": "no",
        "changing_table:location": "female_toilet",
        "check_date": "2023-05-16",
        "cuisine": "burger",
        "drive_through": "yes",
        "name": "McDonald's",
        "opening_hours": "Su-We 07:00-02:00; Th 07:00-24:00; Fr-Sa 00:00-24:00",
        "phone": "+49 461 55020",
        "takeaway": "yes",
        "toilets:wheelchair": "no",
        "wheelchair": "no",
        "wheelchair:description": "Es gibt überhaupt keine Behindertentoilette. Und es ist alles so eng, dass man kaum mit einem Rollstuhl fahren kann. Schade"
      }
    },
    {
      "type": "Feature",
      "geometry": {
        "type": "Point",
        "coordinates": [
          9.9805555,
          54.0762854
        ]
      },
      "properties": {
        "id": 567026597,
        "osm_type": "node",
        "amenity": "fast_food",
        "brand": "McDonald's",
        "brand:wikidata": "Q38076",
        "brand:wikipedia": "en:McDonald's",
        "cuisine": "burger",
        "level": "0",
        "name": "McDonald's",
        "opening_hours": "PH,Mo-Su 09:00-23:00",
        "takeaway": "yes",
        "wheelchair": "yes"
      }
    },
    {
      "type": "Feature",
      "geometry": {
        "type": "Point",
        "coordinates": [
          9.4375964,
          54.7834104
        ]
      },
      "properties": {
        "id": 587689005,
        "osm_type": "node",
        "addr:city": "Flensburg",
        "addr:country": "DE",
        "addr:housenumber": "57-61",
        "addr:postcode": "24937",
        "addr:street": "Holm",
        "amenity": "fast_food",
        "brand": "McDonald's",
        "brand:wikidata": "Q38076",
        "brand:wikipedia": "en:McDonald's",
        "cuisine": "burger",
        "drive_through": "no",
        "internet_access": "wlan",
        "internet_access:fee": "no",
        "level": "-1",
        "name": "McDonald's",
        "opening_hours": "Mo-Sa 09:00-20:00; Su,PH off",
        "operator": "Systemgastronomie K-H Blumroth e.K.",
        "outdoor_seating": "no",
        "phone": "+49 461 1689559",
        "takeaway": "yes",
        "wheelchair": "yes"
      }
    },
    {
      "type": "Feature",
      "geometry": {
        "type": "Point",
        "coordinates": [
          10.0987701,
          54.3122642
        ]
      },
      "properties": {
        "id": 743497033,
        "osm_type": "node",
        "addr:housenumber": "1",
        "addr:street": "Mühlendamm",
        "amenity": "fast_food",
        "brand:wikidata": "Q38076",
        "brand:wikipedia": "en:McDonald's",
        "cuisine": "burger",
        "indoor_seating": "yes",
        "level": "1",
        "name": "McDonald's",
        "opening_hours": "Mo-Sa 09:00-20:00; Su,PH off",
        "outdoor_seating": "no",
        "takeaway": "yes",
        "wheelchair": "yes"
      }
    },
    {
      "type": "Feature",
      "geometry": {
        "type": "Point",
        "coordinates": [
          10.1532397,
          53.546936
        ]
      },
      "properties": {
        "id": 1639582145,
        "osm_type": "node",
        "addr:city": "Oststeinbek",
        "addr:country": "DE",
        "addr:housenumber": "1",
        "addr:postcode": "22113",
        "addr:street": "Willinghusener Weg",
        "amenity": "fast_food",
        "brand": "McDonald's",
        "brand:wikidata": "Q38076",
        "brand:wikipedia": "en:McDonald's",
        "check_date": "2024-10-24",
        "cuisine": "burger",
        "internet_access": "wlan",
        "name": "McDonald's",
        "opening_hours": "Mo-Th 09:00-21:00; Fr-Sa 09:00-22:00; PH off",
        "operator": "Michael Kaup Systemgastronomie e.K. Barsbütteler Str. 45",
        "phone": "+49 40 71403859",
        "takeaway": "yes",
        "website": "https://www.mcdonalds.com/de/de-de/restaurant-suche.html/l/oststeinbek/willinghusener-weg-1/1112/",
        "wheelchair": "yes"
      }
    },
    {
      "type": "Feature",
      "geometry": {
        "type": "Point",
        "coordinates": [
          8.3014138,
          54.9078275
        ]
      },
      "properties": {
        "id": 3826710257,
        "osm_type": "node",
        "addr:city": "Sylt",
        "addr:country": "DE",
        "addr:housenumber": "36",
        "addr:postcode": "25980",
        "addr:street": "Friedrichstraße",
        "addr:suburb": "Westerland",
        "amenity": "fast_food",
        "brand": "McDonald's",
        "brand:wikidata": "Q38076",
        "brand:wikipedia": "en:McDonald's",
        "cuisine": "burger",
        "diet:vegan": "no",
        "diet:vegetarian": "yes",
        "indoor_seating": "yes",
        "name": "McDonald's",
        "opening_hours": "Mo-Su 09:30-23:00",
        "operator": "McDonald's",
        "outdoor_seating": "yes",
        "takeaway": "yes",
        "toilets:wheelchair": "no",
        "website": "https://www.mcdonalds.com/",
        "wheelchair": "yes"
      }
    },
    {
      "type": "Feature",
      "geometry": {
        "type": "Point",
        "coordinates": [
          10.8665299,
          54.2965704
        ]
      },
      "properties": {
        "id": 5216670444,
        "osm_type": "node",
        "addr:city": "Oldenburg in Holstein",
        "addr:country": "DE",
        "addr:housenumber": "1",
        "addr:postcode": "23758",
        "addr:street": "Dannauer Bruch",
        "amenity": "fast_food",
        "brand": "McDonald's",
        "brand:wikidata": "Q38076",
        "brand:wikipedia": "en:McDonald's",
        "contact:facebook": "https://de-de.facebook.com/mcd/",
        "contact:phone": "+49 4361 6239942",
        "contact:twitter": "https://twitter.com/mcdonalds",
        "contact:website": "https://www.mcdonalds.de/restaurant?url=oldenburg-in-holstein-dannauer-bruch-1",
        "contact:youtube": "https://www.youtube.com/user/mcdonaldsDE",
        "cuisine": "burger",
        "name": "McDonald's",
        "opening_hours": "Mo-Su 08:00-24:00",
        "operator": "Systemgastronomie Kurt Neubaumer e.K.",
        "takeaway": "yes",
        "toilets:wheelchair": "yes",
        "wheelchair": "limited"
      }
    },
    {
      "type": "Feature",
      "geometry": {
        "type": "Point",
        "coordinates": [
          9.9782652,
          54.0885343
        ]
      },
      "properties": {
        "id": 5977648453,
        "osm_type": "node",
        "amenity": "fast_food",
        "brand": "McDonald's",
        "brand:wikidata": "Q38076",
        "brand:wikipedia": "en:McDonald's",
        "cuisine": "burger",
        "indoor_seating": "yes",
        "name": "McDonald's",
        "opening_hours": "Mo-Th 08:00-01:00, Fr,Sa 08:00-03:00, PH,Su 08:00-01:00",
        "outdoor_seating": "yes",
        "takeaway": "yes",
        "wheelchair": "yes"
      }
    },
    {
      "type": "Feature",
      "geometry": {
        "type": "Point",
        "coordinates": [
          10.3206057,
          53.6930706
        ]
      },
      "properties": {
        "id": 7530815401,
        "osm_type": "node",
        "amenity": "fast_food",
        "brand": "McDonald's",
        "brand:wikidata": "Q38076",
        "brand:wikipedia": "en:McDonald's",
        "cuisine": "burger",
        "name": "McDonald's",
        "takeaway": "yes"
      }
    },
    {
      "type": "Feature",
      "geometry": {
        "type": "Point",
        "coordinates": [
          10.2116971,
          54.342021
        ]
      },
      "properties": {
        "id": 10266942833,
        "osm_type": "node",
        "addr:city": "Schönkirchen",
        "addr:housenumber": "7",
        "addr:postcode": "24232",
        "addr:street": "Krummland",
        "amenity": "fast_food",
        "brand": "McDonald's",
        "brand:wikidata": "Q38076",
        "cuisine": "burger",
        "name": "McDonald's",
        "start_date": "2022-12-06",
        "takeaway": "yes"
      }
    },
    {
      "type": "Feature",
      "geometry": {
        "type": "Point",
        "coordinates": [
          9.3727766,
          54.7937683
        ]
      },
      "properties": {
        "id": 12442302701,
        "osm_type": "node",
        "addr:housenumber": "49",
        "addr:postcode": "24955",
        "addr:street": "Industrieweg",
        "amenity": "fast_food",
        "cuisine": "burger",
        "internet_access": "wlan",
        "name": "McDonald’s",
        "opening_hours": "Su-Th 07:00-23:00; Fr-Sa 07:00-00:00",
        "phone": "+49 461 50089543",
        "website": "https://www.mcdonalds.com/"
      }
    },
    {
      "type": "Feature",
      "geometry": {
        "type": "Point",
        "coordinates": [
          10.6358972,
          54.1228863
        ]
      },
      "properties": {
        "id": 27990450,
        "osm_type": "way",
        "addr:city": "Eutin",
        "addr:housenumber": "2",
        "addr:postcode": "23701",
        "addr:street": "Röntgenstraße",
        "amenity": "fast_food",
        "brand": "McDonald's",
        "brand:wikidata": "Q38076",
        "brand:wikipedia": "en:McDonald's",
        "building": "yes",
        "cuisine": "burger",
        "drive_through": "yes",
        "name": "McDonald's",
        "opening_hours": "Mo-Th 08:00-24:00, Fr,Sa 08:00-24:00, Su,PH 09:00-24:00",
        "takeaway": "yes",
        "toilets:wheelchair": "yes",
        "wheelchair": "yes"
      }
    },
    {
      "type": "Feature",
      "geometry": {
        "type": "Point",
        "coordinates": [
          9.7238281,
          53.5833382
        ]
      },
      "properties": {
        "id": 30419281,
        "osm_type": "way",
        "amenity": "fast_food",
        "brand": "McDonald's",
        "brand:wikidata": "Q38076",
        "brand:wikipedia": "en:McDonald's",
        "building": "yes",
        "cuisine": "burger",
        "name": "McDonald's",
        "opening_hours": "Mo-Fr 09:00-24:00; Sa,Su 09:00-24:00,00:00-01:00",
        "operator": "McDonald's",
        "source": "yahoo sat",
        "takeaway": "yes",
        "wheelchair": "yes"
      }
    },
    {
      "type": "Feature",
      "geometry": {
        "type": "Point",
        "coordinates": [
          9.8280445,
          54.4724053
        ]
      },
      "properties": {
        "id": 31767805,
        "osm_type": "way",
        "addr:city": "Eckernförde",
        "addr:country": "DE",
        "addr:housenumber": "15",
        "addr:postcode": "24340",
        "addr:street": "Noorstraße",
        "amenity": "fast_food",
        "brand": "McDonald's",
        "brand:wikidata": "Q38076",
        "brand:wikipedia": "en:McDonald's",
        "building": "commercial",
        "cuisine": "burger",
        "email": "info@mcflens.de",
        "name": "McDonald's",
        "opening_hours": "Mo-Th 09:00-24:00, Fr,Sa 09:00-02:00, PH,Su 10:00-24:00",
        "phone": "+49 4351 726940",
        "takeaway": "yes",
        "website": "https://mcdonalds.de/"
      }
    },
    {
      "type": "Feature",
      "geometry": {
        "type": "Point",
        "coordinates": [
          9.695652,
          53.7465324
        ]
      },
      "properties": {
        "id": 35805668,
        "osm_type": "way",
        "addr:city": "Elmshorn",
        "addr:country": "DE",
        "addr:housenumber": "1",
        "addr:postcode": "25337",
        "addr:street": "Lise-Meitner-Straße",
        "amenity": "fast_food",
        "brand": "McDonald's",
        "brand:wikidata": "Q38076",
        "brand:wikipedia": "en:McDonald's",
        "building": "yes",
        "cuisine": "burger",
        "drive_through": "yes",
        "name": "McDonald's",
        "opening_hours": "Mo-Fr 07:00-03:00, Sa,Su 00:00-24:00",
        "phone": "+49 4121 438121",
        "takeaway": "yes",
        "website": "https://www.mcdonalds.com/de/de-de/restaurant-suche.html/l/elmshorn/lise-meitner-strasse-1/650",
        "wheelchair": "yes",
        "wheelchair:description": "Die Toilette ist so klein, das man mit einem Aktivrollstuhl nicht einmal zwischen WC und Tür passt."
      }
    },
    {
      "type": "Feature",
      "geometry": {
        "type": "Point",
        "coordinates": [
          9.9827702,
          53.8021157
        ]
      },
      "properties": {
        "id": 39107596,
        "osm_type": "way",
        "addr:city": "Henstedt-Ulzburg",
        "addr:housenumber": "5b",
        "addr:postcode": "24558",
        "addr:street": "Gutenbergstraße",
        "amenity": "fast_food",
        "brand": "McDonald's",
        "brand:wikidata": "Q38076",
        "brand:wikipedia": "en:McDonald's",
        "building": "retail",
        "contact:facebook": "https://www.facebook.com/mcd",
        "contact:instagram": "https://www.instagram.com/mcdonaldsde/",
        "contact:twitter": "https://twitter.com/McDonaldsDENews",
        "cuisine": "burger",
        "delivery": "yes",
        "drive_through": "yes",
        "internet_access": "wlan",
        "internet_access:fee": "no",
        "name": "McDonald's",
        "opening_hours": "Mo-Th 08:00-01:00, Fr,Sa 08:00-03:00; PH,Su 08:00-01:00",
        "operator": "DCI Restaurants KG",
        "outdoor_seating": "yes",
        "payment:apple_pay": "yes",
        "payment:cash": "yes",
        "payment:coins": "yes",
        "payment:contactless": "yes",
        "payment:credit_cards": "yes",
        "payment:debit_cards": "yes",
        "payment:girocard": "yes",
        "payment:google_pay": "yes",
        "payment:mastercard": "yes",
        "payment:visa": "yes",
        "payment:visa_debit": "yes",
        "phone": "+49 4193 967945",
        "smoking": "outside",
        "takeaway": "yes",
        "toilets": "yes",
        "toilets:wheelchair": "yes",
        "website": "https://www.mcdonalds.com/de/de-de/restaurant-suche.html/l/henstedt-ulzburg/gutenbergstrasse-5-b/469",
        "wheelchair": "yes"
      }
    },
    {
      "type": "Feature",
      "geometry": {
        "type": "Point",
        "coordinates": [
          9.6636412,
          54.3095638
        ]
      },
      "properties": {
        "id": 40730896,
        "osm_type": "way",
        "addr:city": "Büdelsdorf",
        "addr:country": "DE",
        "addr:housenumber": "1a",
        "addr:postcode": "24782",
        "addr:street": "Am Ahlmannkai",
        "amenity": "fast_food",
        "brand": "McDonald's",
        "brand:wikidata": "Q38076",
        "brand:wikipedia": "en:McDonald's",
        "building": "yes",
        "check_date": "2024-04-13",
        "cuisine": "burger",
        "diet:vegetarian": "yes",
        "drive_through": "yes",
        "name": "McDonald's",
        "opening_hours": "Mo-Th,Su 08:00-01:00; Fr-Sa 08:00-03:00",
        "payment:cash": "yes",
        "payment:girocard": "yes",
        "payment:maestro": "yes",
        "payment:mastercard": "yes",
        "payment:visa": "yes",
        "phone": "+49 4331 39898",
        "takeaway": "yes",
        "toilets:wheelchair": "no",
        "website": "https://www.mcdonalds.de/",
        "wheelchair": "limited"
      }
    },
    {
      "type": "Feature",
      "geometry": {
        "type": "Point",
        "coordinates": [
          10.2212384,
          53.6635076
        ]
      },
      "properties": {
        "id": 45173129,
        "osm_type": "way",
        "amenity": "fast_food",
        "brand": "McDonald's",
        "brand:wikidata": "Q38076",
        "brand:wikipedia": "en:McDonald's",
        "building": "yes",
        "check_date": "2025-07-03",
        "cuisine": "burger",
        "name": "McDonald's",
        "takeaway": "yes",
        "toilets:wheelchair": "yes",
        "wheelchair": "yes"
      }
    },
    {
      "type": "Feature",
      "geometry": {
        "type": "Point",
        "coordinates": [
          10.7348525,
          53.7002705
        ]
      },
      "properties": {
        "id": 85891514,
        "osm_type": "way",
        "addr:city": "Ratzeburg",
        "addr:housenumber": "2",
        "addr:postcode": "23909",
        "addr:street": "Am Rackerschlag",
        "amenity": "fast_food",
        "brand": "McDonald's",
        "brand:wikidata": "Q38076",
        "brand:wikipedia": "en:McDonald's",
        "building": "retail",
        "building:levels": "1",
        "building:material": "plaster",
        "check_date": "2025-07-21",
        "check_date:opening_hours": "2025-07-21",
        "cuisine": "burger",
        "drive_through": "yes",
        "name": "McDonald's",
        "opening_hours": "Su-Th,PH 07:00-01:00, Fr,Sa 07:00-04:00",
        "outdoor_seating": "yes",
        "payment:cash": "yes",
        "payment:debit_cards": "yes",
        "payment:mastercard": "yes",
        "payment:visa": "yes",
        "roof:levels": "0",
        "roof:shape": "mansard",
        "takeaway": "yes",
        "toilets:wheelchair": "yes",
        "website": "https://www.mcdonalds.de/restaurant?id=1036",
        "wheelchair": "yes"
      }
    },
    {
      "type": "Feature",
      "geometry": {
        "type": "Point",
        "coordinates": [
          10.7953938,
          54.0997708
        ]
      },
      "properties": {
        "id": 97172100,
        "osm_type": "way",
        "addr:city": "Neustadt",
        "addr:country": "DE",
        "addr:housenumber": "57-59",
        "addr:postcode": "23730",
        "addr:street": "Eutiner Straße",
        "amenity": "fast_food",
        "brand": "McDonald's",
        "brand:wikidata": "Q38076",
        "brand:wikipedia": "en:McDonald's",
        "building": "yes",
        "cuisine": "burger",
        "name": "McDonald's",
        "opening_hours": "Mo-Fr 07:00-24:00; Sa-Su 00:00-01:00,07:00-24:00",
        "operator": "Systemgastronomie Kurt Neubaumer e.K.",
        "phone": "+49 4561 16166",
        "takeaway": "yes",
        "website": "https://www.mcdonalds.de/restaurant?url=neustadt-in-holstein-eutiner-str-57-59&/de",
        "wheelchair": "yes"
      }
    },
    {
      "type": "Feature",
      "geometry": {
        "type": "Point",
        "coordinates": [
          9.944192,
          53.7424305
        ]
      },
      "properties": {
        "id": 99789820,
        "osm_type": "way",
        "addr:city": "Quickborn",
        "addr:country": "DE",
        "addr:housenumber": "1",
        "addr:postcode": "25451",
        "addr:street": "Auf dem Halenberg",
        "amenity": "fast_food",
        "brand": "McDonald's",
        "brand:wikidata": "Q38076",
        "brand:wikipedia": "en:McDonald's",
        "building": "yes",
        "changing_table": "yes",
        "cuisine": "burger",
        "description": "Mit McCafé",
        "description:en": "With McCafé",
        "drive_through": "yes",
        "indoor_seating": "yes",
        "internet_access": "wlan",
        "internet_access:fee": "no",
        "kids_area": "yes",
        "name": "McDonald's",
        "opening_hours": "Su-Th 07:00-01:00, Fr 07:00-02:00, Sa 06:00-02:00",
        "operator": "D. C. Systemgastronomie",
        "outdoor_seating": "yes",
        "phone": "+49 4106 773006",
        "takeaway": "yes",
        "website": "https://www.mcdonalds.de/restaurant/quickborn-auf-dem-halenberg",
        "wheelchair": "yes"
      }
    },
    {
      "type": "Feature",
      "geometry": {
        "type": "Point",
        "coordinates": [
          11.179089,
          54.4427029
        ]
      },
      "properties": {
        "id": 101248823,
        "osm_type": "way",
        "addr:city": "Fehmarn",
        "addr:country": "DE",
        "addr:housenumber": "5",
        "addr:postcode": "23769",
        "addr:street": "Mummendorfer Weg",
        "addr:suburb": "Burg auf Fehmarn",
        "amenity": "fast_food",
        "brand": "McDonald's",
        "brand:wikidata": "Q38076",
        "brand:wikipedia": "en:McDonald's",
        "building": "yes",
        "cuisine": "burger",
        "indoor_seating": "yes",
        "name": "McDonald's",
        "outdoor_seating": "yes",
        "takeaway": "yes",
        "wheelchair": "yes"
      }
    },
    {
      "type": "Feature",
      "geometry": {
        "type": "Point",
        "coordinates": [
          9.5124574,
          53.9193647
        ]
      },
      "properties": {
        "id": 103028021,
        "osm_type": "way",
        "addr:city": "Itzehoe",
        "addr:country": "DE",
        "addr:housenumber": "6",
        "addr:postcode": "25524",
        "addr:street": "Am Brookhafen",
        "amenity": "fast_food",
        "brand": "McDonald's",
        "brand:wikidata": "Q38076",
        "brand:wikipedia": "en:McDonald's",
        "building": "yes",
        "cuisine": "burger",
        "name": "McDonald's",
        "opening_hours": "Mo-Fr 00:00-01:00,08:00-24:00; Sa,Su 00:00-24:00",
        "phone": "+49 4821 684000",
        "takeaway": "yes",
        "website": "https://www.mcdonalds.de/restaurant/itzehoe-am-brookhafen-6",
        "wheelchair": "yes"
      }
    },
    {
      "type": "Feature",
      "geometry": {
        "type": "Point",
        "coordinates": [
          10.6774931,
          53.8484808
        ]
      },
      "properties": {
        "id": 108157627,
        "osm_type": "way",
        "addr:city": "Lübeck",
        "addr:housenumber": "135",
        "addr:postcode": "23560",
        "addr:street": "Hinter den Kirschkaten",
        "amenity": "fast_food",
        "brand": "McDonald's",
        "brand:wikidata": "Q38076",
        "brand:wikipedia": "en:McDonald's",
        "building": "retail",
        "cuisine": "burger",
        "email": "50697@store.de.mcd.com",
        "internet_access": "wlan",
        "name": "McDonald's",
        "opening_hours": "Mo-Fr 08:00-24:00; Sa 00:00-01:00,08:00-24:00; Su 00:00-01:00,09:00-24:00",
        "operator": "McDonald's",
        "phone": "+49 451 2907306",
        "service": "drive-through",
        "source": "Bing",
        "takeaway": "yes",
        "wheelchair": "yes"
      }
    },
    {
      "type": "Feature",
      "geometry": {
        "type": "Point",
        "coordinates": [
          10.1389498,
          54.3015727
        ]
      },
      "properties": {
        "id": 121419608,
        "osm_type": "way",
        "addr:city": "Kiel",
        "addr:country": "DE",
        "addr:housenumber": "118",
        "addr:postcode": "24143",
        "addr:street": "Theodor-Heuss-Ring",
        "amenity": "fast_food",
        "brand": "McDonald's",
        "brand:wikidata": "Q38076",
        "brand:wikipedia": "en:McDonald's",
        "building": "commercial",
        "cuisine": "burger",
        "indoor_seating": "yes",
        "name": "McDonald's",
        "opening_hours": "24/7",
        "outdoor_seating": "yes",
        "takeaway": "yes",
        "website": "https://www.mcdonalds.de/",
        "wheelchair": "limited",
        "wheelchair:description": "keine Behindertentoillete"
      }
    },
    {
      "type": "Feature",
      "geometry": {
        "type": "Point",
        "coordinates": [
          10.6740766,
          53.8804703
        ]
      },
      "properties": {
        "id": 127628809,
        "osm_type": "way",
        "addr:city": "Lübeck",
        "addr:country": "DE",
        "addr:housenumber": "21b",
        "addr:postcode": "23554",
        "addr:street": "Bei der Lohmühle",
        "amenity": "fast_food",
        "brand": "McDonald's",
        "brand:wikidata": "Q38076",
        "brand:wikipedia": "en:McDonald's",
        "building": "retail",
        "cuisine": "burger",
        "name": "McDonald's",
        "opening_hours": "Mo-Su,PH 07:00-24:00",
        "operator": "Systemgastronomie Kurt Neubaumer e.K.",
        "phone": "+49 451 4082365",
        "service": "drive-through",
        "source": "Aerowest - local Geoserver",
        "takeaway": "yes",
        "website": "https://www.mcdonalds.de/restaurant/luebeck-bei-der-lohmuehle-21b",
        "wheelchair": "yes"
      }
    },
    {
      "type": "Feature",
      "geometry": {
        "type": "Point",
        "coordinates": [
          10.5021636,
          53.823146
        ]
      },
      "properties": {
        "id": 129446650,
        "osm_type": "way",
        "addr:city": "Reinfeld",
        "addr:country": "DE",
        "addr:housenumber": "5",
        "addr:postcode": "23858",
        "addr:street": "An der Autobahn",
        "amenity": "fast_food",
        "brand": "McDonald's",
        "brand:wikidata": "Q38076",
        "brand:wikipedia": "en:McDonald's",
        "building": "yes",
        "cuisine": "burger",
        "drive_through": "yes",
        "name": "McDonald's",
        "opening_hours": "24/7",
        "phone": "+49 4533 791733",
        "takeaway": "yes",
        "website": "https://www.mcdonalds.com/de/de-de/restaurant-suche.html/l/reinfeld/an-der-autobahn-5/643",
        "wheelchair": "yes"
      }
    },
    {
      "type": "Feature",
      "geometry": {
        "type": "Point",
        "coordinates": [
          9.9821939,
          54.0593006
        ]
      },
      "properties": {
        "id": 132405513,
        "osm_type": "way",
        "addr:city": "Neumünster",
        "addr:country": "DE",
        "addr:housenumber": "141",
        "addr:postcode": "24539",
        "addr:street": "Altonaer Straße",
        "air_conditioning": "yes",
        "amenity": "fast_food",
        "brand": "McDonald's",
        "brand:wikidata": "Q38076",
        "brand:wikipedia": "en:McDonald's",
        "building": "yes",
        "capacity": "100",
        "contact:fax": "+49 4321 81136",
        "contact:phone": "+49 4321 81108",
        "contact:website": "https://www.mcdonalds.com/de/de-de/restaurant-suche.html/l/neumunster/altonaer-strasse-141-143/462&cid=listing_0462",
        "cuisine": "burger",
        "delivery": "no",
        "drive_through": "yes",
        "internet_access": "wlan",
        "internet_access:fee": "no",
        "internet_access:ssid": "Telekom",
        "name": "McDonald's",
        "opening_hours": "Su-Th 08:00-01:00, Fr-Sa 08:00-03:00",
        "outdoor_seating": "yes",
        "payment:cash": "yes",
        "payment:contactless": "yes",
        "payment:credit_cards": "yes",
        "payment:debit_cards": "yes",
        "smoking": "outside",
        "takeaway": "yes",
        "wheelchair": "yes"
      }
    },
    {
      "type": "Feature",
      "geometry": {
        "type": "Point",
        "coordinates": [
          9.1208069,
          53.9001524
        ]
      },
      "properties": {
        "id": 144923993,
        "osm_type": "way",
        "addr:city": "Brunsbüttel",
        "addr:country": "DE",
        "addr:housenumber": "4",
        "addr:postcode": "25541",
        "addr:street": "Olof-Palme-Allee",
        "amenity": "fast_food",
        "brand": "McDonald's",
        "brand:wikidata": "Q38076",
        "brand:wikipedia": "en:McDonald's",
        "building": "yes",
        "contact:phone": "+49 4852 52095",
        "contact:website": "https://www.mcdonalds.com/de/de-de/restaurant-suche.html/l/brunsbuttel/olaf-palme-allee-4/882",
        "cuisine": "burger",
        "name": "McDonald's",
        "opening_hours": "Mo-Su 10:00-24:00",
        "operator": "Eugen Jüchter e.K.",
        "takeaway": "yes",
        "toilets:wheelchair": "no",
        "wheelchair": "yes"
      }
    },
    {
      "type": "Feature",
      "geometry": {
        "type": "Point",
        "coordinates": [
          9.1261173,
          54.1981804
        ]
      },
      "properties": {
        "id": 145130680,
        "osm_type": "way",
        "addr:city": "Heide",
        "addr:country": "DE",
        "addr:housenumber": "4",
        "addr:postcode": "25746",
        "addr:street": "Süderdamm",
        "amenity": "fast_food",
        "brand": "McDonald's",
        "brand:wikidata": "Q38076",
        "brand:wikipedia": "en:McDonald's",
        "building": "yes",
        "cuisine": "burger",
        "delivery": "no",
        "drive_through": "yes",
        "name": "McDonald's",
        "old_name": "Eugen Jüchter GmbH",
        "opening_hours": "Su-Th 08:00-01:00, Fr,Sa 08:00-03:00",
        "phone": "+49 481 88800",
        "takeaway": "yes",
        "toilets:wheelchair": "yes",
        "website": "https://www.mcdonalds.de/restaurant/heide-suederdamm-4",
        "wheelchair": "yes"
      }
    },
    {
      "type": "Feature",
      "geometry": {
        "type": "Point",
        "coordinates": [
          8.8783295,
          54.7599754
        ]
      },
      "properties": {
        "id": 145486400,
        "osm_type": "way",
        "addr:city": "Risum-Lindholm",
        "addr:country": "DE",
        "addr:housenumber": "5",
        "addr:postcode": "25920",
        "addr:street": "An der B 5",
        "amenity": "fast_food",
        "brand": "McDonald's",
        "brand:wikidata": "Q38076",
        "brand:wikipedia": "en:McDonald's",
        "building": "yes",
        "building:levels": "1",
        "cuisine": "burger",
        "drive_through": "yes",
        "name": "McDonald's",
        "takeaway": "yes"
      }
    },
    {
      "type": "Feature",
      "geometry": {
        "type": "Point",
        "coordinates": [
          9.0753841,
          54.4866869
        ]
      },
      "properties": {
        "id": 150900295,
        "osm_type": "way",
        "amenity": "fast_food",
        "brand": "McDonald's",
        "brand:wikidata": "Q38076",
        "brand:wikipedia": "en:McDonald's",
        "building": "yes",
        "cuisine": "burger",
        "indoor_seating": "yes",
        "name": "McDonald's",
        "outdoor_seating": "yes",
        "takeaway": "yes",
        "toilets:wheelchair": "no",
        "wheelchair": "yes"
      }
    },
    {
      "type": "Feature",
      "geometry": {
        "type": "Point",
        "coordinates": [
          10.2230791,
          54.2869558
        ]
      },
      "properties": {
        "id": 151351144,
        "osm_type": "way",
        "addr:city": "Schwentinental",
        "addr:country": "DE",
        "addr:housenumber": "4",
        "addr:postcode": "24223",
        "addr:street": "Dieselstraße",
        "amenity": "fast_food",
        "brand": "McDonald's",
        "brand:wikidata": "Q38076",
        "brand:wikipedia": "en:McDonald's",
        "building": "yes",
        "changing_table": "yes",
        "changing_table:location": "dedicated_room",
        "cuisine": "burger",
        "diet:vegan": "yes",
        "diet:vegetarian": "yes",
        "fax": "+49 4307 838802",
        "highchair": "yes",
        "kids_area": "yes",
        "kids_area:outdoor": "yes",
        "level": "0",
        "name": "McDonald's",
        "opening_hours": "Mo-Fr 08:00-24:00; Sa 08:00-05:00, Su 09:00-24:00",
        "operator": "Thomas Brand Systemgastronomie",
        "outdoor_seating": "yes",
        "phone": "+49 4307 838801",
        "takeaway": "yes",
        "toilets": "yes",
        "toilets:wheelchair": "no",
        "website": "https://www.mcdonalds.com/de/de-de/restaurant-suche.html/l/schwentinental/dieselstrasse-4/364",
        "wheelchair": "yes"
      }
    },
    {
      "type": "Feature",
      "geometry": {
        "type": "Point",
        "coordinates": [
          9.4854872,
          54.8025914
        ]
      },
      "properties": {
        "id": 166842941,
        "osm_type": "way",
        "addr:city": "Flensburg",
        "addr:country": "DE",
        "addr:housenumber": "2a",
        "addr:postcode": "24944",
        "addr:street": "Wasserlooslück",
        "amenity": "fast_food",
        "brand": "McDonald's",
        "brand:wikidata": "Q38076",
        "brand:wikipedia": "en:McDonald's",
        "building": "retail",
        "building:levels": "1",
        "cuisine": "burger",
        "diet:vegetarian": "yes",
        "drive_through": "yes",
        "internet_access": "wlan",
        "name": "McDonald's",
        "opening_hours": "Mo-Th,Su 09:00-24:00; Fr,Sa 09:00-01:00",
        "phone": "+49 461 31362699",
        "wheelchair": "yes"
      }
    },
    {
      "type": "Feature",
      "geometry": {
        "type": "Point",
        "coordinates": [
          10.3538965,
          53.4332195
        ]
      },
      "properties": {
        "id": 173739385,
        "osm_type": "way",
        "addr:city": "Geesthacht",
        "addr:country": "DE",
        "addr:housenumber": "119",
        "addr:postcode": "21502",
        "addr:street": "Düneberger Straße",
        "amenity": "fast_food",
        "brand": "McDonald's",
        "brand:wikidata": "Q38076",
        "brand:wikipedia": "en:McDonald's",
        "building": "retail",
        "building:levels": "1",
        "contact:phone": "+49 4152 8477477",
        "contact:website": "https://www.mcdonalds.de/restaurant?url=geesthacht-dueneberger-str-119&/de",
        "cuisine": "burger",
        "drive_through": "yes",
        "name": "McDonald's",
        "opening_hours": "Mo-Fr 00:00-01:00,07:00-24:00; Sa 07:00-24:00; Su 00:00-03:00,08:00-24:00",
        "operator": "McDonald's Deutschland LLC",
        "takeaway": "yes",
        "toilets:wheelchair": "no",
        "wheelchair": "yes"
      }
    },
    {
      "type": "Feature",
      "geometry": {
        "type": "Point",
        "coordinates": [
          10.2284103,
          53.5236522
        ]
      },
      "properties": {
        "id": 185818516,
        "osm_type": "way",
        "addr:city": "Glinde",
        "addr:country": "DE",
        "addr:housenumber": "1a",
        "addr:street": "Gutenbergstraße",
        "amenity": "fast_food",
        "brand": "McDonald's",
        "brand:wikidata": "Q38076",
        "brand:wikipedia": "en:McDonald's",
        "building": "yes",
        "check_date": "2025-04-13",
        "contact:phone": "+49 40 72813081",
        "contact:website": "https://www.mcdonalds.com/de/de-de/restaurant-suche.html/l/glinde/gutenbergstrasse-1a/1436",
        "cuisine": "burger",
        "drive_through": "yes",
        "name": "McDonald's",
        "opening_hours": "Mo-Fr 00:00-01:00,07:00-24:00; Sa 00:00-02:00,07:00-24:00; Su 00:00-02:00,08:00-24:00",
        "operator": "MK Systemgastronomie Glinde GmbH & Co. KG",
        "takeaway": "yes",
        "toilets:wheelchair": "yes",
        "wheelchair": "yes"
      }
    },
    {
      "type": "Feature",
      "geometry": {
        "type": "Point",
        "coordinates": [
          9.5754674,
          54.5307953
        ]
      },
      "properties": {
        "id": 190882808,
        "osm_type": "way",
        "addr:city": "Schleswig",
        "addr:country": "DE",
        "addr:housenumber": "1a",
        "addr:postcode": "24837",
        "addr:street": "Schleidörferstraße",
        "amenity": "fast_food",
        "brand": "McDonald's",
        "brand:wikidata": "Q38076",
        "brand:wikipedia": "en:McDonald's",
        "building": "yes",
        "cuisine": "burger",
        "diet:vegan": "yes",
        "diet:vegetarian": "yes",
        "drive_through": "yes",
        "fax": "+49 4621 953381",
        "highchair": "yes",
        "level": "0",
        "name": "McDonald's",
        "opening_hours": "Mo-Th 07:00-01:00, Fr,Sa 07:00-04:00, Su 08:00-01:00",
        "phone": "+49 4621 953380",
        "takeaway": "yes",
        "toilets": "yes",
        "toilets:wheelchair": "yes",
        "website": "https://www.mcdonalds.com/de/de-de/restaurant-suche.html/l/schleswig/schleidorfer-strasse-1a/686&cid=listing_0686",
        "wheelchair": "yes"
      }
    },
    {
      "type": "Feature",
      "geometry": {
        "type": "Point",
        "coordinates": [
          10.2711344,
          53.4888602
        ]
      },
      "properties": {
        "id": 313451483,
        "osm_type": "way",
        "addr:city": "Wentorf bei Hamburg",
        "addr:country": "DE",
        "addr:housenumber": "2",
        "addr:postcode": "21465",
        "addr:street": "Immenberg",
        "amenity": "fast_food",
        "brand": "McDonald's",
        "brand:wikidata": "Q38076",
        "brand:wikipedia": "en:McDonald's",
        "building": "yes",
        "cuisine": "burger",
        "drive_through": "yes",
        "name": "McDonald's",
        "takeaway": "yes",
        "wheelchair": "yes"
      }
    },
    {
      "type": "Feature",
      "geometry": {
        "type": "Point",
        "coordinates": [
          9.7936892,
          53.6637248
        ]
      },
      "properties": {
        "id": 339945828,
        "osm_type": "way",
        "addr:city": "Pinneberg",
        "addr:country": "DE",
        "addr:housenumber": "54",
        "addr:postcode": "25421",
        "addr:street": "Friedrich-Ebert-Straße",
        "amenity": "fast_food",
        "brand": "McDonald's",
        "brand:wikidata": "Q38076",
        "brand:wikipedia": "en:McDonald's",
        "building": "retail",
        "building:levels": "1",
        "check_date": "2025-07-07",
        "contact:fax": "+49 4101 375321",
        "contact:phone": "+49 4101 375320",
        "contact:website": "https://www.mcdonalds.com/de/de-de/restaurant-suche.html/l/pinneberg/friedrich-ebert-strasse-54/1393",
        "cuisine": "burger",
        "delivery": "yes",
        "drive_through": "yes",
        "internet_access": "wlan",
        "internet_access:fee": "no",
        "name": "McDonald's",
        "opening_hours": "Su-Th 08:00-01:00; Fr-Sa 08:00-02:00",
        "operator": "DCI Gastro KG",
        "outdoor_seating": "yes",
        "payment:apple_pay": "yes",
        "payment:cash": "yes",
        "payment:contactless": "yes",
        "payment:credit_cards": "yes",
        "payment:debit_cards": "yes",
        "payment:girocard": "yes",
        "payment:google_pay": "yes",
        "payment:mastercard": "yes",
        "payment:samsung_pay": "yes",
        "payment:visa": "yes",
        "ref:vatin": "DE320950913",
        "roof:levels": "1",
        "takeaway": "yes",
        "toilets:wheelchair": "yes",
        "wheelchair": "yes"
      }
    },
    {
      "type": "Feature",
      "geometry": {
        "type": "Point",
        "coordinates": [
          9.944577,
          54.1809298
        ]
      },
      "properties": {
        "id": 442339088,
        "osm_type": "way",
        "addr:city": "Dätgen",
        "addr:country": "DE",
        "addr:housenumber": "4",
        "addr:postcode": "24589",
        "addr:street": "Grotwisch",
        "amenity": "fast_food",
        "brand": "McDonald's",
        "brand:wikidata": "Q38076",
        "brand:wikipedia": "en:McDonald's",
        "building": "commercial",
        "building:levels": "1",
        "contact:website": "https://www.mcdonalds.de/restaurant?url=daetgen-grotwisch-4&/de",
        "cuisine": "burger",
        "diet:vegetarian": "no",
        "indoor_seating": "yes",
        "internet_access": "wlan",
        "internet_access:fee": "no",
        "name": "McDonald's",
        "opening_hours": "Su-Th 06:00-02:00, Fr 05:00-00:00; Sa 00:00-03:00",
        "outdoor_seating": "yes",
        "phone": "+49 4329 9136005",
        "takeaway": "yes",
        "wheelchair": "yes"
      }
    },
    {
      "type": "Feature",
      "geometry": {
        "type": "Point",
        "coordinates": [
          10.2883571,
          53.9338499
        ]
      },
      "properties": {
        "id": 627622293,
        "osm_type": "way",
        "addr:city": "Bad Segeberg",
        "addr:country": "DE",
        "addr:housenumber": "107",
        "addr:postcode": "23795",
        "addr:street": "Hamburger Straße",
        "amenity": "fast_food",
        "brand": "McDonald's",
        "brand:wikidata": "Q38076",
        "brand:wikipedia": "en:McDonald's",
        "building": "yes",
        "cuisine": "burger",
        "diet:vegetarian": "yes",
        "drive_through": "yes",
        "indoor_seating": "yes",
        "name": "McDonald's",
        "opening_hours": "24/7",
        "operator": "McDonald's Deutschland LLC",
        "outdoor_seating": "yes",
        "phone": "+49 4551 304383",
        "smoking": "outside",
        "takeaway": "yes",
        "website": "https://www.mcdonalds.de/restaurant/?id=1279",
        "wheelchair": "limited"
      }
    },
    {
      "type": "Feature",
      "geometry": {
        "type": "Point",
        "coordinates": [
          10.1324135,
          54.3154125
        ]
      },
      "properties": {
        "id": 718842426,
        "osm_type": "way",
        "amenity": "fast_food",
        "brand": "McDonald's",
        "brand:wikidata": "Q38076",
        "brand:wikipedia": "en:McDonald's",
        "check_date:opening_hours": "2025-05-28",
        "cuisine": "burger",
        "diet:vegetarian": "yes",
        "indoor": "room",
        "indoor_seating": "yes",
        "level": "1",
        "name": "McDonald's",
        "opening_hours:signed": "no",
        "outdoor_seating": "no",
        "smoking": "no",
        "start_date": "2023-11-14",
        "takeaway": "yes",
        "wheelchair": "yes"
      }
    },
    {
      "type": "Feature",
      "geometry": {
        "type": "Point",
        "coordinates": [
          8.907781,
          54.8834064
        ]
      },
      "properties": {
        "id": 1308614940,
        "osm_type": "way",
        "amenity": "fast_food",
        "branch": "Süderlügum",
        "brand": "McDonald's",
        "brand:wikidata": "Q38076",
        "brand:wikipedia": "en:McDonald's",
        "cuisine": "burger",
        "delivery": "no",
        "drive_through": "yes",
        "name": "McDonald's",
        "opening_hours": "Mo-Su 09:00-23:00",
        "payment:american_express": "yes",
        "payment:apple_pay": "yes",
        "payment:cash": "yes",
        "payment:contactless": "yes",
        "payment:dankort": "yes",
        "payment:google_pay": "yes",
        "payment:maestro": "yes",
        "payment:mastercard": "yes",
        "payment:visa": "yes",
        "start_date": "2022-09",
        "takeaway": "yes"
      }
    },
    {
      "type": "Feature",
      "geometry": {
        "type": "Point",
        "coordinates": [
          9.6504566,
          54.0758096
        ]
      },
      "properties": {
        "id": 1446986781,
        "osm_type": "way",
        "addr:city": "Hohenwestedt",
        "addr:housenumber": "1",
        "addr:postcode": "24594",
        "addr:street": "Sohrheide",
        "amenity": "fast_food",
        "brand": "McDonald's",
        "brand:wikidata": "Q38076",
        "brand:wikipedia": "en:McDonald's",
        "building": "commercial",
        "cuisine": "burger",
        "drive_through": "yes",
        "name": "McDonald's",
        "opening_hours": "Mo-Su 08:00-00:00",
        "payment:cash": "yes",
        "payment:girocard": "yes",
        "payment:maestro": "yes",
        "payment:mastercard": "yes",
        "payment:visa": "yes",
        "takeaway": "yes",
        "website": "https://www.mcdonalds.com/de/de-de/restaurant-suche.html/l/hohenwestedt/itzehoer-strasse/1904"
      }
    }
  ]
}