{
  "type": "FeatureCollection",
  "features": [
    {
      "type": "Feature",
      "geometry": {
        "type": "Point",
        "coordinates": [
          38.2704793,
          37.7722637
        ]
      },
      "properties": {
        "id": 4761200907,
        "osm_type": "node",
        "name": "Fırın"
      }
    },
    {
      "type": "Feature",
      "geometry": {
        "type": "Point",
        "coordinates": [
          38.2775492,
          37.763311
        ]
      },
      "properties": {
        "id": 5002966721,
        "osm_type": "node",
        "name": "Adam Gibi Bir Yer Cafe"
      }
    },
    {
      "type": "Feature",
      "geometry": {
        "type": "Point",
        "coordinates": [
          38.3236627,
          37.7672483
        ]
      },
      "properties": {
        "id": 5002984250,
        "osm_type": "node",
        "name": "Safir Cafe"
      }
    },
    {
      "type": "Feature",
      "geometry": {
        "type": "Point",
        "coordinates": [
          38.2760662,
          37.7618628
        ]
      },
      "properties": {
        "id": 5003738423,
        "osm_type": "node",
        "name": "Çardak Nargile Cafe"
      }
    },
    {
      "type": "Feature",
      "geometry": {
        "type": "Point",
        "coordinates": [
          38.2292233,
          37.7389909
        ]
      },
      "properties": {
        "id": 5018307484,
        "osm_type": "node"
      }
    },
    {
      "type": "Feature",
      "geometry": {
        "type": "Point",
        "coordinates": [
          37.6443106,
          37.7852513
        ]
      },
      "properties": {
        "id": 5251570223,
        "osm_type": "node",
        "name": "Hizmet - Pide & Lahmacun Firini"
      }
    },
    {
      "type": "Feature",
      "geometry": {
        "type": "Point",
        "coordinates": [
          38.2692967,
          37.7660651
        ]
      },
      "properties": {
        "id": 5991578985,
        "osm_type": "node",
        "name": "Burak Pide Fırını"
      }
    },
    {
      "type": "Feature",
      "geometry": {
        "type": "Point",
        "coordinates": [
          38.2680049,
          37.7649026
        ]
      },
      "properties": {
        "id": 5991579085,
        "osm_type": "node",
        "name": "Beyoğlu Unlu Mamulleri ve Ekmek Fırını",
        "opening_hours": "24/7"
      }
    },
    {
      "type": "Feature",
      "geometry": {
        "type": "Point",
        "coordinates": [
          38.2711648,
          37.7661522
        ]
      },
      "properties": {
        "id": 5991586785,
        "osm_type": "node",
        "name": "Hamur Adam Unlu Mamülleri Ekmek Fırını"
      }
    },
    {
      "type": "Feature",
      "geometry": {
        "type": "Point",
        "coordinates": [
          38.271937,
          37.7654062
        ]
      },
      "properties": {
        "id": 5991604187,
        "osm_type": "node",
        "name": "Mado",
        "brand": "Mado",
        "takeaway": "yes"
      }
    },
    {
      "type": "Feature",
      "geometry": {
        "type": "Point",
        "coordinates": [
          38.2704954,
          37.7668996
        ]
      },
      "properties": {
        "id": 5995961986,
        "osm_type": "node",
        "name": "Birtat Pide Fırını"
      }
    },
    {
      "type": "Feature",
      "geometry": {
        "type": "Point",
        "coordinates": [
          38.9639656,
          37.896177
        ]
      },
      "properties": {
        "id": 9565164290,
        "osm_type": "node"
      }
    },
    {
      "type": "Feature",
      "geometry": {
        "type": "Point",
        "coordinates": [
          38.6580005,
          37.9430699
        ]
      },
      "properties": {
        "id": 9798215109,
        "osm_type": "node"
      }
    },
    {
      "type": "Feature",
      "geometry": {
        "type": "Point",
        "coordinates": [
          38.2598696,
          37.9286655
        ]
      },
      "properties": {
        "id": 9861973518,
        "osm_type": "node",
        "name": "Çeşme başi"
      }
    },
    {
      "type": "Feature",
      "geometry": {
        "type": "Point",
        "coordinates": [
          38.2853625,
          37.769634
        ]
      },
      "properties": {
        "id": 10691488252,
        "osm_type": "node",
        "name": "Dinçerler Odun Ekmeği"
      }
    },
    {
      "type": "Feature",
      "geometry": {
        "type": "Point",
        "coordinates": [
          38.2771973,
          37.7625133
        ]
      },
      "properties": {
        "id": 10694831340,
        "osm_type": "node",
        "name": "Has Unlu Mamulleri"
      }
    },
    {
      "type": "Feature",
      "geometry": {
        "type": "Point",
        "coordinates": [
          38.266093,
          37.7667435
        ]
      },
      "properties": {
        "id": 10694864442,
        "osm_type": "node",
        "name": "Kardesler Fırını"
      }
    },
    {
      "type": "Feature",
      "geometry": {
        "type": "Point",
        "coordinates": [
          38.2711194,
          37.7586244
        ]
      },
      "properties": {
        "id": 10694890723,
        "osm_type": "node",
        "name": "Gaziantep Basak Unlu Mamulleri"
      }
    },
    {
      "type": "Feature",
      "geometry": {
        "type": "Point",
        "coordinates": [
          38.2854373,
          37.7694808
        ]
      },
      "properties": {
        "id": 10695140566,
        "osm_type": "node",
        "name": "Yesilyurt Fırını"
      }
    },
    {
      "type": "Feature",
      "geometry": {
        "type": "Point",
        "coordinates": [
          38.2802099,
          37.7621931
        ]
      },
      "properties": {
        "id": 10695168501,
        "osm_type": "node",
        "name": "Guclu Ekmek"
      }
    },
    {
      "type": "Feature",
      "geometry": {
        "type": "Point",
        "coordinates": [
          38.277813,
          37.7619344
        ]
      },
      "properties": {
        "id": 10695173949,
        "osm_type": "node",
        "name": "Saray Fırını"
      }
    },
    {
      "type": "Feature",
      "geometry": {
        "type": "Point",
        "coordinates": [
          37.6393176,
          37.7842601
        ]
      },
      "properties": {
        "id": 10697149740,
        "osm_type": "node",
        "name": "Akev Ekmek Fabrikası"
      }
    },
    {
      "type": "Feature",
      "geometry": {
        "type": "Point",
        "coordinates": [
          38.2701029,
          37.7686072
        ]
      },
      "properties": {
        "id": 10697186293,
        "osm_type": "node",
        "name": "Saglık Unlu Mamulleri"
      }
    },
    {
      "type": "Feature",
      "geometry": {
        "type": "Point",
        "coordinates": [
          38.6302766,
          37.7887311
        ]
      },
      "properties": {
        "id": 10697194698,
        "osm_type": "node",
        "name": "Kahta Ekmek Unlu Mamulleri"
      }
    },
    {
      "type": "Feature",
      "geometry": {
        "type": "Point",
        "coordinates": [
          38.2769305,
          37.7652592
        ]
      },
      "properties": {
        "id": 10697250034,
        "osm_type": "node",
        "name": "Tas Ekmek"
      }
    },
    {
      "type": "Feature",
      "geometry": {
        "type": "Point",
        "coordinates": [
          38.2551112,
          37.7581424
        ]
      },
      "properties": {
        "id": 10697257214,
        "osm_type": "node",
        "name": "Tutku Unlu Mamulleri"
      }
    },
    {
      "type": "Feature",
      "geometry": {
        "type": "Point",
        "coordinates": [
          38.2550784,
          37.7581104
        ]
      },
      "properties": {
        "id": 10697283521,
        "osm_type": "node",
        "name": "Alptekin Ekmek Fabrikası"
      }
    },
    {
      "type": "Feature",
      "geometry": {
        "type": "Point",
        "coordinates": [
          38.2772523,
          37.7656346
        ]
      },
      "properties": {
        "id": 10697309297,
        "osm_type": "node",
        "name": "Menekse Fırını"
      }
    },
    {
      "type": "Feature",
      "geometry": {
        "type": "Point",
        "coordinates": [
          38.2778761,
          37.7619261
        ]
      },
      "properties": {
        "id": 10698489912,
        "osm_type": "node",
        "name": "Vatan Fırını"
      }
    },
    {
      "type": "Feature",
      "geometry": {
        "type": "Point",
        "coordinates": [
          38.2796827,
          37.7598828
        ]
      },
      "properties": {
        "id": 10701923244,
        "osm_type": "node",
        "name": "Esensoy Ekmek"
      }
    },
    {
      "type": "Feature",
      "geometry": {
        "type": "Point",
        "coordinates": [
          38.2881134,
          37.756843
        ]
      },
      "properties": {
        "id": 10702079343,
        "osm_type": "node",
        "name": "Ozkanlar Ekmek ve Unlu Mamulleri"
      }
    },
    {
      "type": "Feature",
      "geometry": {
        "type": "Point",
        "coordinates": [
          38.2100576,
          37.7318964
        ]
      },
      "properties": {
        "id": 10703759585,
        "osm_type": "node",
        "name": "Yapıcılar Fırıncılık"
      }
    },
    {
      "type": "Feature",
      "geometry": {
        "type": "Point",
        "coordinates": [
          38.2707855,
          37.7603377
        ]
      },
      "properties": {
        "id": 10703763314,
        "osm_type": "node",
        "name": "Turgutreis Fırını"
      }
    },
    {
      "type": "Feature",
      "geometry": {
        "type": "Point",
        "coordinates": [
          38.271155,
          37.7610438
        ]
      },
      "properties": {
        "id": 10703765133,
        "osm_type": "node",
        "name": "Sonmez Fırını"
      }
    },
    {
      "type": "Feature",
      "geometry": {
        "type": "Point",
        "coordinates": [
          38.2293239,
          37.7417577
        ]
      },
      "properties": {
        "id": 10703775692,
        "osm_type": "node",
        "name": "Altın Ekmek"
      }
    },
    {
      "type": "Feature",
      "geometry": {
        "type": "Point",
        "coordinates": [
          38.2674551,
          37.7601093
        ]
      },
      "properties": {
        "id": 10703779511,
        "osm_type": "node",
        "name": "Ekmek Fabrikası"
      }
    },
    {
      "type": "Feature",
      "geometry": {
        "type": "Point",
        "coordinates": [
          38.2952821,
          37.7665124
        ]
      },
      "properties": {
        "id": 10703790391,
        "osm_type": "node",
        "name": "Yunus Pide Fırını"
      }
    },
    {
      "type": "Feature",
      "geometry": {
        "type": "Point",
        "coordinates": [
          38.2775742,
          37.7597228
        ]
      },
      "properties": {
        "id": 10703798482,
        "osm_type": "node",
        "name": "Gulec Fırını"
      }
    },
    {
      "type": "Feature",
      "geometry": {
        "type": "Point",
        "coordinates": [
          38.2752165,
          37.7693663
        ]
      },
      "properties": {
        "id": 10703806793,
        "osm_type": "node",
        "name": "Bilgicler Ekmek Fabrikası"
      }
    },
    {
      "type": "Feature",
      "geometry": {
        "type": "Point",
        "coordinates": [
          37.6602872,
          37.795346
        ]
      },
      "properties": {
        "id": 11140265445,
        "osm_type": "node",
        "name": "Satom cafe"
      }
    },
    {
      "type": "Feature",
      "geometry": {
        "type": "Point",
        "coordinates": [
          39.0315577,
          38.0283841
        ]
      },
      "properties": {
        "id": 12612779003,
        "osm_type": "node",
        "name": "Defne"
      }
    },
    {
      "type": "Feature",
      "geometry": {
        "type": "Point",
        "coordinates": [
          38.2290776,
          37.7459889
        ]
      },
      "properties": {
        "id": 297111258,
        "osm_type": "way",
        "name": "Dibek Kafe"
      }
    }
  ]
}