{
  "type": "FeatureCollection",
  "features": [
    {
      "type": "Feature",
      "geometry": {
        "type": "Point",
        "coordinates": [
          14.536756,
          53.2563068
        ]
      },
      "properties": {
        "id": 2125447090,
        "osm_type": "node",
        "shelter_type": "weather_shelter"
      }
    },
    {
      "type": "Feature",
      "geometry": {
        "type": "Point",
        "coordinates": [
          14.8655057,
          53.4919799
        ]
      },
      "properties": {
        "id": 2347035564,
        "osm_type": "node",
        "shelter_type": "weather_shelter"
      }
    },
    {
      "type": "Feature",
      "geometry": {
        "type": "Point",
        "coordinates": [
          14.7022467,
          53.5538197
        ]
      },
      "properties": {
        "id": 2359370966,
        "osm_type": "node",
        "shelter_type": "weather_shelter"
      }
    },
    {
      "type": "Feature",
      "geometry": {
        "type": "Point",
        "coordinates": [
          15.4388278,
          54.0760761
        ]
      },
      "properties": {
        "id": 2369179083,
        "osm_type": "node",
        "shelter_type": "lean_to",
        "covered": "yes"
      }
    },
    {
      "type": "Feature",
      "geometry": {
        "type": "Point",
        "coordinates": [
          16.2264113,
          54.2076719
        ]
      },
      "properties": {
        "id": 2402917527,
        "osm_type": "node",
        "shelter_type": "weather_shelter"
      }
    },
    {
      "type": "Feature",
      "geometry": {
        "type": "Point",
        "coordinates": [
          16.1851982,
          54.1916815
        ]
      },
      "properties": {
        "id": 2912909941,
        "osm_type": "node",
        "shelter_type": "weather_shelter"
      }
    },
    {
      "type": "Feature",
      "geometry": {
        "type": "Point",
        "coordinates": [
          14.834708,
          53.9279918
        ]
      },
      "properties": {
        "id": 2927246237,
        "osm_type": "node",
        "shelter_type": "weather_shelter"
      }
    },
    {
      "type": "Feature",
      "geometry": {
        "type": "Point",
        "coordinates": [
          15.713229,
          54.0378005
        ]
      },
      "properties": {
        "id": 3712349257,
        "osm_type": "node",
        "shelter_type": "weather_shelter"
      }
    },
    {
      "type": "Feature",
      "geometry": {
        "type": "Point",
        "coordinates": [
          16.1936468,
          53.8073193
        ]
      },
      "properties": {
        "id": 3936457049,
        "osm_type": "node",
        "shelter_type": "weather_shelter"
      }
    },
    {
      "type": "Feature",
      "geometry": {
        "type": "Point",
        "coordinates": [
          16.2914153,
          53.9379942
        ]
      },
      "properties": {
        "id": 3995810413,
        "osm_type": "node",
        "shelter_type": "weather_shelter"
      }
    },
    {
      "type": "Feature",
      "geometry": {
        "type": "Point",
        "coordinates": [
          15.6086529,
          53.5165416
        ]
      },
      "properties": {
        "id": 4010265473,
        "osm_type": "node",
        "name": "paśnik",
        "shelter_type": "weather_shelter"
      }
    },
    {
      "type": "Feature",
      "geometry": {
        "type": "Point",
        "coordinates": [
          14.5162096,
          53.500501
        ]
      },
      "properties": {
        "id": 4741320913,
        "osm_type": "node",
        "shelter_type": "weather_shelter"
      }
    },
    {
      "type": "Feature",
      "geometry": {
        "type": "Point",
        "coordinates": [
          15.0811768,
          53.1068061
        ]
      },
      "properties": {
        "id": 4751745696,
        "osm_type": "node",
        "name": "Szałas pasterzy",
        "shelter_type": "weather_shelter"
      }
    },
    {
      "type": "Feature",
      "geometry": {
        "type": "Point",
        "coordinates": [
          14.4976979,
          53.4804199
        ]
      },
      "properties": {
        "id": 4760705716,
        "osm_type": "node",
        "shelter_type": "weather_shelter"
      }
    },
    {
      "type": "Feature",
      "geometry": {
        "type": "Point",
        "coordinates": [
          14.6483208,
          53.7639664
        ]
      },
      "properties": {
        "id": 4926838973,
        "osm_type": "node",
        "shelter_type": "weather_shelter"
      }
    },
    {
      "type": "Feature",
      "geometry": {
        "type": "Point",
        "coordinates": [
          15.2172402,
          52.9881054
        ]
      },
      "properties": {
        "id": 4930595533,
        "osm_type": "node",
        "shelter_type": "weather_shelter"
      }
    },
    {
      "type": "Feature",
      "geometry": {
        "type": "Point",
        "coordinates": [
          16.1459947,
          53.8451229
        ]
      },
      "properties": {
        "id": 4932255536,
        "osm_type": "node",
        "shelter_type": "weather_shelter"
      }
    },
    {
      "type": "Feature",
      "geometry": {
        "type": "Point",
        "coordinates": [
          15.4066938,
          53.2693941
        ]
      },
      "properties": {
        "id": 4939209655,
        "osm_type": "node",
        "shelter_type": "weather_shelter"
      }
    },
    {
      "type": "Feature",
      "geometry": {
        "type": "Point",
        "coordinates": [
          15.4347195,
          53.3092517
        ]
      },
      "properties": {
        "id": 4939209897,
        "osm_type": "node",
        "shelter_type": "weather_shelter"
      }
    },
    {
      "type": "Feature",
      "geometry": {
        "type": "Point",
        "coordinates": [
          14.5265155,
          53.4874986
        ]
      },
      "properties": {
        "id": 5214501870,
        "osm_type": "node",
        "shelter_type": "weather_shelter"
      }
    },
    {
      "type": "Feature",
      "geometry": {
        "type": "Point",
        "coordinates": [
          14.7359629,
          53.3302369
        ]
      },
      "properties": {
        "id": 5214523190,
        "osm_type": "node",
        "shelter_type": "weather_shelter"
      }
    },
    {
      "type": "Feature",
      "geometry": {
        "type": "Point",
        "coordinates": [
          14.3765408,
          52.8720499
        ]
      },
      "properties": {
        "id": 5249414609,
        "osm_type": "node",
        "shelter_type": "weather_shelter"
      }
    },
    {
      "type": "Feature",
      "geometry": {
        "type": "Point",
        "coordinates": [
          14.5220973,
          52.9229795
        ]
      },
      "properties": {
        "id": 5249414621,
        "osm_type": "node",
        "shelter_type": "weather_shelter"
      }
    },
    {
      "type": "Feature",
      "geometry": {
        "type": "Point",
        "coordinates": [
          14.4319701,
          53.2799406
        ]
      },
      "properties": {
        "id": 5250897755,
        "osm_type": "node",
        "shelter_type": "weather_shelter"
      }
    },
    {
      "type": "Feature",
      "geometry": {
        "type": "Point",
        "coordinates": [
          16.595353,
          53.5912909
        ]
      },
      "properties": {
        "id": 5269765391,
        "osm_type": "node",
        "shelter_type": "weather_shelter"
      }
    },
    {
      "type": "Feature",
      "geometry": {
        "type": "Point",
        "coordinates": [
          16.4799013,
          53.5932403
        ]
      },
      "properties": {
        "id": 5270039405,
        "osm_type": "node",
        "shelter_type": "weather_shelter"
      }
    },
    {
      "type": "Feature",
      "geometry": {
        "type": "Point",
        "coordinates": [
          16.4824056,
          53.5931803
        ]
      },
      "properties": {
        "id": 5270039406,
        "osm_type": "node",
        "shelter_type": "weather_shelter"
      }
    },
    {
      "type": "Feature",
      "geometry": {
        "type": "Point",
        "coordinates": [
          16.4834793,
          53.5932647
        ]
      },
      "properties": {
        "id": 5270039408,
        "osm_type": "node",
        "shelter_type": "weather_shelter"
      }
    },
    {
      "type": "Feature",
      "geometry": {
        "type": "Point",
        "coordinates": [
          16.002676,
          53.5405091
        ]
      },
      "properties": {
        "id": 5271939281,
        "osm_type": "node",
        "shelter_type": "weather_shelter"
      }
    },
    {
      "type": "Feature",
      "geometry": {
        "type": "Point",
        "coordinates": [
          16.0028492,
          53.5405768
        ]
      },
      "properties": {
        "id": 5271939282,
        "osm_type": "node",
        "shelter_type": "weather_shelter"
      }
    },
    {
      "type": "Feature",
      "geometry": {
        "type": "Point",
        "coordinates": [
          16.107368,
          53.030628
        ]
      },
      "properties": {
        "id": 5519874663,
        "osm_type": "node",
        "shelter_type": "lean_to"
      }
    },
    {
      "type": "Feature",
      "geometry": {
        "type": "Point",
        "coordinates": [
          16.6807546,
          54.1481982
        ]
      },
      "properties": {
        "id": 5520791715,
        "osm_type": "node",
        "name": "Stanica myśliwska Nad Ruczajem",
        "shelter_type": "weather_shelter"
      }
    },
    {
      "type": "Feature",
      "geometry": {
        "type": "Point",
        "coordinates": [
          14.7135501,
          53.3179803
        ]
      },
      "properties": {
        "id": 5597364193,
        "osm_type": "node",
        "shelter_type": "weather_shelter"
      }
    },
    {
      "type": "Feature",
      "geometry": {
        "type": "Point",
        "coordinates": [
          14.5578924,
          53.9718226
        ]
      },
      "properties": {
        "id": 5663274398,
        "osm_type": "node",
        "shelter_type": "weather_shelter"
      }
    },
    {
      "type": "Feature",
      "geometry": {
        "type": "Point",
        "coordinates": [
          15.0092372,
          53.6109137
        ]
      },
      "properties": {
        "id": 5700444420,
        "osm_type": "node",
        "shelter_type": "weather_shelter"
      }
    },
    {
      "type": "Feature",
      "geometry": {
        "type": "Point",
        "coordinates": [
          16.0538202,
          53.8427286
        ]
      },
      "properties": {
        "id": 5794277583,
        "osm_type": "node",
        "shelter_type": "weather_shelter"
      }
    },
    {
      "type": "Feature",
      "geometry": {
        "type": "Point",
        "coordinates": [
          14.8856191,
          53.1191108
        ]
      },
      "properties": {
        "id": 5801983493,
        "osm_type": "node",
        "shelter_type": "weather_shelter"
      }
    },
    {
      "type": "Feature",
      "geometry": {
        "type": "Point",
        "coordinates": [
          14.5528233,
          53.5371089
        ]
      },
      "properties": {
        "id": 6001940613,
        "osm_type": "node",
        "shelter_type": "lean_to",
        "bench": "yes"
      }
    },
    {
      "type": "Feature",
      "geometry": {
        "type": "Point",
        "coordinates": [
          14.55361,
          53.5370902
        ]
      },
      "properties": {
        "id": 6001940614,
        "osm_type": "node",
        "shelter_type": "lean_to",
        "bench": "yes"
      }
    },
    {
      "type": "Feature",
      "geometry": {
        "type": "Point",
        "coordinates": [
          14.3764369,
          52.8724999
        ]
      },
      "properties": {
        "id": 6043387855,
        "osm_type": "node",
        "shelter_type": "weather_shelter"
      }
    },
    {
      "type": "Feature",
      "geometry": {
        "type": "Point",
        "coordinates": [
          16.3451763,
          53.8490114
        ]
      },
      "properties": {
        "id": 6057647486,
        "osm_type": "node",
        "shelter_type": "lean_to"
      }
    },
    {
      "type": "Feature",
      "geometry": {
        "type": "Point",
        "coordinates": [
          15.2601939,
          54.0766861
        ]
      },
      "properties": {
        "id": 6086539788,
        "osm_type": "node",
        "shelter_type": "weather_shelter"
      }
    },
    {
      "type": "Feature",
      "geometry": {
        "type": "Point",
        "coordinates": [
          14.9842413,
          53.7125533
        ]
      },
      "properties": {
        "id": 6117719432,
        "osm_type": "node",
        "shelter_type": "weather_shelter"
      }
    },
    {
      "type": "Feature",
      "geometry": {
        "type": "Point",
        "coordinates": [
          15.9557554,
          53.5746136
        ]
      },
      "properties": {
        "id": 6155723066,
        "osm_type": "node",
        "shelter_type": "weather_shelter"
      }
    },
    {
      "type": "Feature",
      "geometry": {
        "type": "Point",
        "coordinates": [
          15.7623567,
          53.2031639
        ]
      },
      "properties": {
        "id": 6189533550,
        "osm_type": "node",
        "shelter_type": "lean_to"
      }
    },
    {
      "type": "Feature",
      "geometry": {
        "type": "Point",
        "coordinates": [
          16.1174132,
          53.379857
        ]
      },
      "properties": {
        "id": 6225581405,
        "osm_type": "node",
        "name": "Hubertówka",
        "shelter_type": "weather_shelter"
      }
    },
    {
      "type": "Feature",
      "geometry": {
        "type": "Point",
        "coordinates": [
          14.3082893,
          52.7694119
        ]
      },
      "properties": {
        "id": 6320574850,
        "osm_type": "node",
        "shelter_type": "lean_to"
      }
    },
    {
      "type": "Feature",
      "geometry": {
        "type": "Point",
        "coordinates": [
          16.466383,
          53.270743
        ]
      },
      "properties": {
        "id": 6346790153,
        "osm_type": "node",
        "shelter_type": "lean_to"
      }
    },
    {
      "type": "Feature",
      "geometry": {
        "type": "Point",
        "coordinates": [
          16.3885372,
          54.4371749
        ]
      },
      "properties": {
        "id": 6414057627,
        "osm_type": "node",
        "shelter_type": "weather_shelter"
      }
    },
    {
      "type": "Feature",
      "geometry": {
        "type": "Point",
        "coordinates": [
          15.6267133,
          53.4201749
        ]
      },
      "properties": {
        "id": 6476134308,
        "osm_type": "node",
        "shelter_type": "weather_shelter",
        "bench": "yes"
      }
    },
    {
      "type": "Feature",
      "geometry": {
        "type": "Point",
        "coordinates": [
          15.2555276,
          53.659202
        ]
      },
      "properties": {
        "id": 6571999555,
        "osm_type": "node",
        "shelter_type": "weather_shelter"
      }
    },
    {
      "type": "Feature",
      "geometry": {
        "type": "Point",
        "coordinates": [
          16.763771,
          53.8245224
        ]
      },
      "properties": {
        "id": 6583834033,
        "osm_type": "node",
        "shelter_type": "weather_shelter"
      }
    },
    {
      "type": "Feature",
      "geometry": {
        "type": "Point",
        "coordinates": [
          16.1627044,
          53.5460421
        ]
      },
      "properties": {
        "id": 6768890471,
        "osm_type": "node",
        "name": "Kuźnia Żelisławski Zapiecek",
        "shelter_type": "weather_shelter"
      }
    },
    {
      "type": "Feature",
      "geometry": {
        "type": "Point",
        "coordinates": [
          16.2853117,
          53.8186338
        ]
      },
      "properties": {
        "id": 6769434957,
        "osm_type": "node",
        "shelter_type": "lean_to"
      }
    },
    {
      "type": "Feature",
      "geometry": {
        "type": "Point",
        "coordinates": [
          15.2982732,
          53.2297274
        ]
      },
      "properties": {
        "id": 7008944202,
        "osm_type": "node",
        "shelter_type": "weather_shelter"
      }
    },
    {
      "type": "Feature",
      "geometry": {
        "type": "Point",
        "coordinates": [
          14.6188007,
          53.8260549
        ]
      },
      "properties": {
        "id": 7028764310,
        "osm_type": "node",
        "shelter_type": "weather_shelter"
      }
    },
    {
      "type": "Feature",
      "geometry": {
        "type": "Point",
        "coordinates": [
          16.3398524,
          54.3557685
        ]
      },
      "properties": {
        "id": 7062979882,
        "osm_type": "node",
        "shelter_type": "weather_shelter"
      }
    },
    {
      "type": "Feature",
      "geometry": {
        "type": "Point",
        "coordinates": [
          15.1201859,
          52.9597691
        ]
      },
      "properties": {
        "id": 7122348950,
        "osm_type": "node",
        "shelter_type": "weather_shelter"
      }
    },
    {
      "type": "Feature",
      "geometry": {
        "type": "Point",
        "coordinates": [
          14.6613089,
          53.8073685
        ]
      },
      "properties": {
        "id": 7128241348,
        "osm_type": "node",
        "shelter_type": "weather_shelter"
      }
    },
    {
      "type": "Feature",
      "geometry": {
        "type": "Point",
        "coordinates": [
          15.9264243,
          53.2184735
        ]
      },
      "properties": {
        "id": 7146496730,
        "osm_type": "node",
        "shelter_type": "weather_shelter"
      }
    },
    {
      "type": "Feature",
      "geometry": {
        "type": "Point",
        "coordinates": [
          15.9009812,
          53.301807
        ]
      },
      "properties": {
        "id": 7149700875,
        "osm_type": "node",
        "shelter_type": "weather_shelter"
      }
    },
    {
      "type": "Feature",
      "geometry": {
        "type": "Point",
        "coordinates": [
          16.7142297,
          54.4699508
        ]
      },
      "properties": {
        "id": 7170211909,
        "osm_type": "node",
        "shelter_type": "weather_shelter"
      }
    },
    {
      "type": "Feature",
      "geometry": {
        "type": "Point",
        "coordinates": [
          16.6949533,
          54.4866287
        ]
      },
      "properties": {
        "id": 7170223814,
        "osm_type": "node",
        "shelter_type": "weather_shelter"
      }
    },
    {
      "type": "Feature",
      "geometry": {
        "type": "Point",
        "coordinates": [
          16.7344451,
          54.459793
        ]
      },
      "properties": {
        "id": 7173266977,
        "osm_type": "node",
        "shelter_type": "weather_shelter"
      }
    },
    {
      "type": "Feature",
      "geometry": {
        "type": "Point",
        "coordinates": [
          15.2101733,
          52.9906218
        ]
      },
      "properties": {
        "id": 7245862606,
        "osm_type": "node",
        "shelter_type": "weather_shelter"
      }
    },
    {
      "type": "Feature",
      "geometry": {
        "type": "Point",
        "coordinates": [
          16.684707,
          53.7930386
        ]
      },
      "properties": {
        "id": 7274110506,
        "osm_type": "node",
        "shelter_type": "weather_shelter"
      }
    },
    {
      "type": "Feature",
      "geometry": {
        "type": "Point",
        "coordinates": [
          16.6548131,
          54.4586842
        ]
      },
      "properties": {
        "id": 7282373170,
        "osm_type": "node",
        "shelter_type": "weather_shelter"
      }
    },
    {
      "type": "Feature",
      "geometry": {
        "type": "Point",
        "coordinates": [
          16.7218965,
          54.5233287
        ]
      },
      "properties": {
        "id": 7286025689,
        "osm_type": "node",
        "shelter_type": "weather_shelter"
      }
    },
    {
      "type": "Feature",
      "geometry": {
        "type": "Point",
        "coordinates": [
          14.8103625,
          53.3024389
        ]
      },
      "properties": {
        "id": 7320187314,
        "osm_type": "node",
        "shelter_type": "weather_shelter"
      }
    },
    {
      "type": "Feature",
      "geometry": {
        "type": "Point",
        "coordinates": [
          14.8728119,
          52.9361432
        ]
      },
      "properties": {
        "id": 7330951946,
        "osm_type": "node",
        "shelter_type": "weather_shelter"
      }
    },
    {
      "type": "Feature",
      "geometry": {
        "type": "Point",
        "coordinates": [
          15.7601755,
          53.2189454
        ]
      },
      "properties": {
        "id": 7500549877,
        "osm_type": "node",
        "shelter_type": "weather_shelter"
      }
    },
    {
      "type": "Feature",
      "geometry": {
        "type": "Point",
        "coordinates": [
          15.8834756,
          54.040775
        ]
      },
      "properties": {
        "id": 7717425670,
        "osm_type": "node",
        "shelter_type": "weather_shelter"
      }
    },
    {
      "type": "Feature",
      "geometry": {
        "type": "Point",
        "coordinates": [
          15.6296721,
          54.0822142
        ]
      },
      "properties": {
        "id": 7724300015,
        "osm_type": "node",
        "shelter_type": "weather_shelter"
      }
    },
    {
      "type": "Feature",
      "geometry": {
        "type": "Point",
        "coordinates": [
          15.3995443,
          53.4788529
        ]
      },
      "properties": {
        "id": 7730490225,
        "osm_type": "node",
        "shelter_type": "weather_shelter"
      }
    },
    {
      "type": "Feature",
      "geometry": {
        "type": "Point",
        "coordinates": [
          14.5943822,
          52.6769165
        ]
      },
      "properties": {
        "id": 7761830176,
        "osm_type": "node",
        "shelter_type": "weather_shelter"
      }
    },
    {
      "type": "Feature",
      "geometry": {
        "type": "Point",
        "coordinates": [
          14.8250104,
          53.6149675
        ]
      },
      "properties": {
        "id": 7777403619,
        "osm_type": "node",
        "shelter_type": "weather_shelter"
      }
    },
    {
      "type": "Feature",
      "geometry": {
        "type": "Point",
        "coordinates": [
          14.6072983,
          53.9131068
        ]
      },
      "properties": {
        "id": 7777730117,
        "osm_type": "node",
        "shelter_type": "weather_shelter"
      }
    },
    {
      "type": "Feature",
      "geometry": {
        "type": "Point",
        "coordinates": [
          16.3868803,
          54.3035042
        ]
      },
      "properties": {
        "id": 7961079139,
        "osm_type": "node",
        "shelter_type": "lean_to"
      }
    },
    {
      "type": "Feature",
      "geometry": {
        "type": "Point",
        "coordinates": [
          15.0934131,
          54.0515932
        ]
      },
      "properties": {
        "id": 8085884044,
        "osm_type": "node",
        "shelter_type": "weather_shelter"
      }
    },
    {
      "type": "Feature",
      "geometry": {
        "type": "Point",
        "coordinates": [
          14.3840019,
          53.1286784
        ]
      },
      "properties": {
        "id": 8158372180,
        "osm_type": "node",
        "shelter_type": "weather_shelter"
      }
    },
    {
      "type": "Feature",
      "geometry": {
        "type": "Point",
        "coordinates": [
          15.5669182,
          53.6335842
        ]
      },
      "properties": {
        "id": 8181269580,
        "osm_type": "node",
        "shelter_type": "weather_shelter"
      }
    },
    {
      "type": "Feature",
      "geometry": {
        "type": "Point",
        "coordinates": [
          15.4477018,
          53.7551847
        ]
      },
      "properties": {
        "id": 8232319242,
        "osm_type": "node",
        "shelter_type": "weather_shelter"
      }
    },
    {
      "type": "Feature",
      "geometry": {
        "type": "Point",
        "coordinates": [
          15.7552979,
          53.6226686
        ]
      },
      "properties": {
        "id": 8243574144,
        "osm_type": "node",
        "shelter_type": "weather_shelter"
      }
    },
    {
      "type": "Feature",
      "geometry": {
        "type": "Point",
        "coordinates": [
          15.821537,
          53.6168368
        ]
      },
      "properties": {
        "id": 8248075741,
        "osm_type": "node",
        "name": "Chata strażaka",
        "shelter_type": "weather_shelter"
      }
    },
    {
      "type": "Feature",
      "geometry": {
        "type": "Point",
        "coordinates": [
          16.7839063,
          54.0220797
        ]
      },
      "properties": {
        "id": 8286232615,
        "osm_type": "node",
        "shelter_type": "weather_shelter"
      }
    },
    {
      "type": "Feature",
      "geometry": {
        "type": "Point",
        "coordinates": [
          16.7806541,
          54.0337836
        ]
      },
      "properties": {
        "id": 8286232835,
        "osm_type": "node",
        "shelter_type": "weather_shelter"
      }
    },
    {
      "type": "Feature",
      "geometry": {
        "type": "Point",
        "coordinates": [
          16.695497,
          54.2137793
        ]
      },
      "properties": {
        "id": 8355660833,
        "osm_type": "node",
        "shelter_type": "weather_shelter"
      }
    },
    {
      "type": "Feature",
      "geometry": {
        "type": "Point",
        "coordinates": [
          16.6451529,
          54.2372251
        ]
      },
      "properties": {
        "id": 8357101729,
        "osm_type": "node",
        "shelter_type": "weather_shelter"
      }
    },
    {
      "type": "Feature",
      "geometry": {
        "type": "Point",
        "coordinates": [
          16.1510625,
          53.5248541
        ]
      },
      "properties": {
        "id": 8381805263,
        "osm_type": "node",
        "name": "Wiata biesiadna",
        "shelter_type": "weather_shelter"
      }
    },
    {
      "type": "Feature",
      "geometry": {
        "type": "Point",
        "coordinates": [
          16.734163,
          53.9674385
        ]
      },
      "properties": {
        "id": 8400690822,
        "osm_type": "node",
        "shelter_type": "weather_shelter"
      }
    },
    {
      "type": "Feature",
      "geometry": {
        "type": "Point",
        "coordinates": [
          16.475253,
          53.9899316
        ]
      },
      "properties": {
        "id": 8405110278,
        "osm_type": "node",
        "shelter_type": "weather_shelter"
      }
    },
    {
      "type": "Feature",
      "geometry": {
        "type": "Point",
        "coordinates": [
          14.735498,
          53.0159916
        ]
      },
      "properties": {
        "id": 8461207616,
        "osm_type": "node",
        "name": "Hubertówka",
        "shelter_type": "weather_shelter"
      }
    },
    {
      "type": "Feature",
      "geometry": {
        "type": "Point",
        "coordinates": [
          15.3180562,
          53.2959097
        ]
      },
      "properties": {
        "id": 8488347571,
        "osm_type": "node",
        "shelter_type": "weather_shelter"
      }
    },
    {
      "type": "Feature",
      "geometry": {
        "type": "Point",
        "coordinates": [
          15.3920994,
          53.3046369
        ]
      },
      "properties": {
        "id": 8488381524,
        "osm_type": "node",
        "shelter_type": "weather_shelter"
      }
    },
    {
      "type": "Feature",
      "geometry": {
        "type": "Point",
        "coordinates": [
          15.3685074,
          53.3085714
        ]
      },
      "properties": {
        "id": 8488381542,
        "osm_type": "node",
        "shelter_type": "weather_shelter"
      }
    },
    {
      "type": "Feature",
      "geometry": {
        "type": "Point",
        "coordinates": [
          14.7515933,
          52.9364664
        ]
      },
      "properties": {
        "id": 8488485204,
        "osm_type": "node",
        "shelter_type": "weather_shelter"
      }
    },
    {
      "type": "Feature",
      "geometry": {
        "type": "Point",
        "coordinates": [
          14.8275849,
          52.9395672
        ]
      },
      "properties": {
        "id": 8504756867,
        "osm_type": "node",
        "shelter_type": "weather_shelter"
      }
    },
    {
      "type": "Feature",
      "geometry": {
        "type": "Point",
        "coordinates": [
          14.8394825,
          52.9487818
        ]
      },
      "properties": {
        "id": 8504756875,
        "osm_type": "node",
        "shelter_type": "weather_shelter"
      }
    },
    {
      "type": "Feature",
      "geometry": {
        "type": "Point",
        "coordinates": [
          14.7674193,
          53.0951351
        ]
      },
      "properties": {
        "id": 8504767861,
        "osm_type": "node",
        "shelter_type": "weather_shelter"
      }
    },
    {
      "type": "Feature",
      "geometry": {
        "type": "Point",
        "coordinates": [
          14.7119503,
          52.7418442
        ]
      },
      "properties": {
        "id": 8518343055,
        "osm_type": "node",
        "shelter_type": "weather_shelter"
      }
    },
    {
      "type": "Feature",
      "geometry": {
        "type": "Point",
        "coordinates": [
          14.7108548,
          52.7441887
        ]
      },
      "properties": {
        "id": 8518343087,
        "osm_type": "node",
        "shelter_type": "weather_shelter"
      }
    },
    {
      "type": "Feature",
      "geometry": {
        "type": "Point",
        "coordinates": [
          16.1870036,
          53.2521592
        ]
      },
      "properties": {
        "id": 8521907446,
        "osm_type": "node",
        "shelter_type": "weather_shelter"
      }
    },
    {
      "type": "Feature",
      "geometry": {
        "type": "Point",
        "coordinates": [
          14.6041454,
          53.0995675
        ]
      },
      "properties": {
        "id": 8534143121,
        "osm_type": "node",
        "shelter_type": "weather_shelter"
      }
    },
    {
      "type": "Feature",
      "geometry": {
        "type": "Point",
        "coordinates": [
          14.5707499,
          53.9080398
        ]
      },
      "properties": {
        "id": 8558136194,
        "osm_type": "node",
        "shelter_type": "weather_shelter"
      }
    },
    {
      "type": "Feature",
      "geometry": {
        "type": "Point",
        "coordinates": [
          14.5172204,
          53.6076671
        ]
      },
      "properties": {
        "id": 8571417249,
        "osm_type": "node",
        "shelter_type": "weather_shelter"
      }
    },
    {
      "type": "Feature",
      "geometry": {
        "type": "Point",
        "coordinates": [
          14.5924912,
          52.914059
        ]
      },
      "properties": {
        "id": 8578885824,
        "osm_type": "node",
        "shelter_type": "weather_shelter"
      }
    },
    {
      "type": "Feature",
      "geometry": {
        "type": "Point",
        "coordinates": [
          14.8396299,
          53.5551855
        ]
      },
      "properties": {
        "id": 8657180269,
        "osm_type": "node",
        "shelter_type": "weather_shelter"
      }
    },
    {
      "type": "Feature",
      "geometry": {
        "type": "Point",
        "coordinates": [
          16.0395827,
          53.3028087
        ]
      },
      "properties": {
        "id": 8743524225,
        "osm_type": "node",
        "shelter_type": "weather_shelter"
      }
    },
    {
      "type": "Feature",
      "geometry": {
        "type": "Point",
        "coordinates": [
          14.6540115,
          53.6483612
        ]
      },
      "properties": {
        "id": 8760644638,
        "osm_type": "node",
        "shelter_type": "weather_shelter"
      }
    },
    {
      "type": "Feature",
      "geometry": {
        "type": "Point",
        "coordinates": [
          14.8381053,
          53.0820039
        ]
      },
      "properties": {
        "id": 8765527170,
        "osm_type": "node",
        "shelter_type": "weather_shelter"
      }
    },
    {
      "type": "Feature",
      "geometry": {
        "type": "Point",
        "coordinates": [
          15.443407,
          53.3229266
        ]
      },
      "properties": {
        "id": 8789273646,
        "osm_type": "node",
        "shelter_type": "weather_shelter"
      }
    },
    {
      "type": "Feature",
      "geometry": {
        "type": "Point",
        "coordinates": [
          14.6077425,
          52.9856273
        ]
      },
      "properties": {
        "id": 8789274927,
        "osm_type": "node",
        "shelter_type": "weather_shelter"
      }
    },
    {
      "type": "Feature",
      "geometry": {
        "type": "Point",
        "coordinates": [
          15.3905663,
          53.1574842
        ]
      },
      "properties": {
        "id": 8789290681,
        "osm_type": "node",
        "shelter_type": "weather_shelter"
      }
    },
    {
      "type": "Feature",
      "geometry": {
        "type": "Point",
        "coordinates": [
          14.683355,
          53.2697565
        ]
      },
      "properties": {
        "id": 8792347996,
        "osm_type": "node",
        "shelter_type": "weather_shelter"
      }
    },
    {
      "type": "Feature",
      "geometry": {
        "type": "Point",
        "coordinates": [
          14.673846,
          53.9058355
        ]
      },
      "properties": {
        "id": 8839096679,
        "osm_type": "node",
        "shelter_type": "weather_shelter"
      }
    },
    {
      "type": "Feature",
      "geometry": {
        "type": "Point",
        "coordinates": [
          14.7862407,
          53.0715353
        ]
      },
      "properties": {
        "id": 8852352420,
        "osm_type": "node",
        "shelter_type": "weather_shelter"
      }
    },
    {
      "type": "Feature",
      "geometry": {
        "type": "Point",
        "coordinates": [
          16.1255846,
          53.8884985
        ]
      },
      "properties": {
        "id": 8852452953,
        "osm_type": "node",
        "shelter_type": "weather_shelter"
      }
    },
    {
      "type": "Feature",
      "geometry": {
        "type": "Point",
        "coordinates": [
          14.2431508,
          52.8113028
        ]
      },
      "properties": {
        "id": 8872558846,
        "osm_type": "node",
        "shelter_type": "weather_shelter"
      }
    },
    {
      "type": "Feature",
      "geometry": {
        "type": "Point",
        "coordinates": [
          14.778352,
          53.2786528
        ]
      },
      "properties": {
        "id": 8880757742,
        "osm_type": "node",
        "shelter_type": "weather_shelter"
      }
    },
    {
      "type": "Feature",
      "geometry": {
        "type": "Point",
        "coordinates": [
          16.5715542,
          53.3494826
        ]
      },
      "properties": {
        "id": 8921329600,
        "osm_type": "node",
        "shelter_type": "weather_shelter"
      }
    },
    {
      "type": "Feature",
      "geometry": {
        "type": "Point",
        "coordinates": [
          14.4695323,
          53.3221538
        ]
      },
      "properties": {
        "id": 8925638752,
        "osm_type": "node",
        "shelter_type": "weather_shelter"
      }
    },
    {
      "type": "Feature",
      "geometry": {
        "type": "Point",
        "coordinates": [
          15.3243909,
          53.1777807
        ]
      },
      "properties": {
        "id": 8960339822,
        "osm_type": "node",
        "shelter_type": "weather_shelter"
      }
    },
    {
      "type": "Feature",
      "geometry": {
        "type": "Point",
        "coordinates": [
          14.8229115,
          53.3224052
        ]
      },
      "properties": {
        "id": 8983422144,
        "osm_type": "node",
        "shelter_type": "weather_shelter"
      }
    },
    {
      "type": "Feature",
      "geometry": {
        "type": "Point",
        "coordinates": [
          15.9592533,
          53.2704935
        ]
      },
      "properties": {
        "id": 8990681719,
        "osm_type": "node",
        "shelter_type": "weather_shelter"
      }
    },
    {
      "type": "Feature",
      "geometry": {
        "type": "Point",
        "coordinates": [
          14.9126445,
          53.2300411
        ]
      },
      "properties": {
        "id": 8990713819,
        "osm_type": "node",
        "shelter_type": "weather_shelter"
      }
    },
    {
      "type": "Feature",
      "geometry": {
        "type": "Point",
        "coordinates": [
          16.3320859,
          54.1453274
        ]
      },
      "properties": {
        "id": 8992250908,
        "osm_type": "node",
        "shelter_type": "weather_shelter"
      }
    },
    {
      "type": "Feature",
      "geometry": {
        "type": "Point",
        "coordinates": [
          16.3318909,
          54.1452398
        ]
      },
      "properties": {
        "id": 8992250909,
        "osm_type": "node",
        "shelter_type": "weather_shelter"
      }
    },
    {
      "type": "Feature",
      "geometry": {
        "type": "Point",
        "coordinates": [
          14.9889483,
          53.2015822
        ]
      },
      "properties": {
        "id": 8996110819,
        "osm_type": "node",
        "shelter_type": "weather_shelter"
      }
    },
    {
      "type": "Feature",
      "geometry": {
        "type": "Point",
        "coordinates": [
          15.2997537,
          53.1887885
        ]
      },
      "properties": {
        "id": 8996110892,
        "osm_type": "node",
        "shelter_type": "weather_shelter"
      }
    },
    {
      "type": "Feature",
      "geometry": {
        "type": "Point",
        "coordinates": [
          16.2772727,
          53.2278013
        ]
      },
      "properties": {
        "id": 8996158867,
        "osm_type": "node",
        "shelter_type": "weather_shelter"
      }
    },
    {
      "type": "Feature",
      "geometry": {
        "type": "Point",
        "coordinates": [
          15.9751294,
          53.4021932
        ]
      },
      "properties": {
        "id": 9009803961,
        "osm_type": "node",
        "shelter_type": "weather_shelter"
      }
    },
    {
      "type": "Feature",
      "geometry": {
        "type": "Point",
        "coordinates": [
          16.1678064,
          53.4420358
        ]
      },
      "properties": {
        "id": 9009902791,
        "osm_type": "node",
        "shelter_type": "weather_shelter"
      }
    },
    {
      "type": "Feature",
      "geometry": {
        "type": "Point",
        "coordinates": [
          16.2259221,
          53.5153971
        ]
      },
      "properties": {
        "id": 9015236070,
        "osm_type": "node",
        "shelter_type": "weather_shelter"
      }
    },
    {
      "type": "Feature",
      "geometry": {
        "type": "Point",
        "coordinates": [
          15.1481831,
          54.1127584
        ]
      },
      "properties": {
        "id": 9029225514,
        "osm_type": "node",
        "name": "Obóz Fino i Lenka",
        "shelter_type": "lean_to"
      }
    },
    {
      "type": "Feature",
      "geometry": {
        "type": "Point",
        "coordinates": [
          14.9556874,
          53.8463731
        ]
      },
      "properties": {
        "id": 9047200587,
        "osm_type": "node",
        "shelter_type": "weather_shelter"
      }
    },
    {
      "type": "Feature",
      "geometry": {
        "type": "Point",
        "coordinates": [
          14.6148468,
          53.2657996
        ]
      },
      "properties": {
        "id": 9173902568,
        "osm_type": "node",
        "shelter_type": "weather_shelter"
      }
    },
    {
      "type": "Feature",
      "geometry": {
        "type": "Point",
        "coordinates": [
          15.8613808,
          53.9802625
        ]
      },
      "properties": {
        "id": 9176954196,
        "osm_type": "node",
        "shelter_type": "weather_shelter"
      }
    },
    {
      "type": "Feature",
      "geometry": {
        "type": "Point",
        "coordinates": [
          14.514465,
          53.4741361
        ]
      },
      "properties": {
        "id": 9183662074,
        "osm_type": "node",
        "shelter_type": "weather_shelter"
      }
    },
    {
      "type": "Feature",
      "geometry": {
        "type": "Point",
        "coordinates": [
          14.7414794,
          53.5960202
        ]
      },
      "properties": {
        "id": 9190557560,
        "osm_type": "node",
        "shelter_type": "weather_shelter"
      }
    },
    {
      "type": "Feature",
      "geometry": {
        "type": "Point",
        "coordinates": [
          15.7095121,
          53.8956122
        ]
      },
      "properties": {
        "id": 9243959432,
        "osm_type": "node",
        "shelter_type": "weather_shelter"
      }
    },
    {
      "type": "Feature",
      "geometry": {
        "type": "Point",
        "coordinates": [
          15.1494001,
          53.2680175
        ]
      },
      "properties": {
        "id": 9244067768,
        "osm_type": "node",
        "shelter_type": "weather_shelter"
      }
    },
    {
      "type": "Feature",
      "geometry": {
        "type": "Point",
        "coordinates": [
          16.1523167,
          53.3182051
        ]
      },
      "properties": {
        "id": 9244146955,
        "osm_type": "node",
        "shelter_type": "weather_shelter"
      }
    },
    {
      "type": "Feature",
      "geometry": {
        "type": "Point",
        "coordinates": [
          15.734361,
          53.5881683
        ]
      },
      "properties": {
        "id": 9257827765,
        "osm_type": "node",
        "shelter_type": "weather_shelter"
      }
    },
    {
      "type": "Feature",
      "geometry": {
        "type": "Point",
        "coordinates": [
          15.0046332,
          53.8389668
        ]
      },
      "properties": {
        "id": 9381242507,
        "osm_type": "node",
        "shelter_type": "weather_shelter"
      }
    },
    {
      "type": "Feature",
      "geometry": {
        "type": "Point",
        "coordinates": [
          15.0139918,
          53.8573472
        ]
      },
      "properties": {
        "id": 9381243223,
        "osm_type": "node",
        "shelter_type": "weather_shelter"
      }
    },
    {
      "type": "Feature",
      "geometry": {
        "type": "Point",
        "coordinates": [
          14.7573718,
          53.66231
        ]
      },
      "properties": {
        "id": 9519292641,
        "osm_type": "node",
        "shelter_type": "lean_to",
        "operator": "Nadleśnictwo Goleniów"
      }
    },
    {
      "type": "Feature",
      "geometry": {
        "type": "Point",
        "coordinates": [
          15.0785418,
          53.6896847
        ]
      },
      "properties": {
        "id": 9559765065,
        "osm_type": "node",
        "shelter_type": "weather_shelter"
      }
    },
    {
      "type": "Feature",
      "geometry": {
        "type": "Point",
        "coordinates": [
          14.6181332,
          52.9619435
        ]
      },
      "properties": {
        "id": 9833011518,
        "osm_type": "node",
        "shelter_type": "weather_shelter"
      }
    },
    {
      "type": "Feature",
      "geometry": {
        "type": "Point",
        "coordinates": [
          14.3254845,
          52.7650428
        ]
      },
      "properties": {
        "id": 9838276243,
        "osm_type": "node",
        "shelter_type": "weather_shelter"
      }
    },
    {
      "type": "Feature",
      "geometry": {
        "type": "Point",
        "coordinates": [
          14.8007936,
          52.8926611
        ]
      },
      "properties": {
        "id": 9838543922,
        "osm_type": "node",
        "shelter_type": "weather_shelter"
      }
    },
    {
      "type": "Feature",
      "geometry": {
        "type": "Point",
        "coordinates": [
          15.4312999,
          54.0400018
        ]
      },
      "properties": {
        "id": 9882713013,
        "osm_type": "node",
        "name": "Koło łowieckie Łoś",
        "shelter_type": "basic_hut"
      }
    },
    {
      "type": "Feature",
      "geometry": {
        "type": "Point",
        "coordinates": [
          15.6722913,
          54.0551496
        ]
      },
      "properties": {
        "id": 10023456268,
        "osm_type": "node",
        "shelter_type": "weather_shelter"
      }
    },
    {
      "type": "Feature",
      "geometry": {
        "type": "Point",
        "coordinates": [
          16.6156037,
          53.6374445
        ]
      },
      "properties": {
        "id": 10028865999,
        "osm_type": "node",
        "shelter_type": "weather_shelter"
      }
    },
    {
      "type": "Feature",
      "geometry": {
        "type": "Point",
        "coordinates": [
          16.1567685,
          53.7752445
        ]
      },
      "properties": {
        "id": 10185764859,
        "osm_type": "node",
        "shelter_type": "weather_shelter"
      }
    },
    {
      "type": "Feature",
      "geometry": {
        "type": "Point",
        "coordinates": [
          16.2197254,
          53.7263439
        ]
      },
      "properties": {
        "id": 10795485398,
        "osm_type": "node",
        "shelter_type": "weather_shelter"
      }
    },
    {
      "type": "Feature",
      "geometry": {
        "type": "Point",
        "coordinates": [
          14.5585549,
          53.7295616
        ]
      },
      "properties": {
        "id": 10810903733,
        "osm_type": "node",
        "shelter_type": "weather_shelter"
      }
    },
    {
      "type": "Feature",
      "geometry": {
        "type": "Point",
        "coordinates": [
          14.9786917,
          53.8690428
        ]
      },
      "properties": {
        "id": 10833569384,
        "osm_type": "node",
        "shelter_type": "weather_shelter"
      }
    },
    {
      "type": "Feature",
      "geometry": {
        "type": "Point",
        "coordinates": [
          15.7313274,
          53.9488517
        ]
      },
      "properties": {
        "id": 10980350626,
        "osm_type": "node",
        "shelter_type": "weather_shelter"
      }
    },
    {
      "type": "Feature",
      "geometry": {
        "type": "Point",
        "coordinates": [
          14.7913067,
          53.45705
        ]
      },
      "properties": {
        "id": 11380024863,
        "osm_type": "node",
        "shelter_type": "lean_to"
      }
    },
    {
      "type": "Feature",
      "geometry": {
        "type": "Point",
        "coordinates": [
          15.5948255,
          54.1809513
        ]
      },
      "properties": {
        "id": 11423278047,
        "osm_type": "node",
        "shelter_type": "lean_to"
      }
    },
    {
      "type": "Feature",
      "geometry": {
        "type": "Point",
        "coordinates": [
          14.3456946,
          52.8894204
        ]
      },
      "properties": {
        "id": 11436679958,
        "osm_type": "node",
        "shelter_type": "weather_shelter"
      }
    },
    {
      "type": "Feature",
      "geometry": {
        "type": "Point",
        "coordinates": [
          15.36772,
          53.133221
        ]
      },
      "properties": {
        "id": 11665142203,
        "osm_type": "node",
        "shelter_type": "weather_shelter"
      }
    },
    {
      "type": "Feature",
      "geometry": {
        "type": "Point",
        "coordinates": [
          15.5812357,
          53.9636334
        ]
      },
      "properties": {
        "id": 11915130574,
        "osm_type": "node",
        "shelter_type": "weather_shelter"
      }
    },
    {
      "type": "Feature",
      "geometry": {
        "type": "Point",
        "coordinates": [
          15.596402,
          54.1813475
        ]
      },
      "properties": {
        "id": 11991455441,
        "osm_type": "node",
        "shelter_type": "lean_to"
      }
    },
    {
      "type": "Feature",
      "geometry": {
        "type": "Point",
        "coordinates": [
          14.929221,
          53.4676082
        ]
      },
      "properties": {
        "id": 12026572768,
        "osm_type": "node",
        "shelter_type": "weather_shelter"
      }
    },
    {
      "type": "Feature",
      "geometry": {
        "type": "Point",
        "coordinates": [
          14.8598765,
          53.6000923
        ]
      },
      "properties": {
        "id": 12053762417,
        "osm_type": "node",
        "shelter_type": "weather_shelter"
      }
    },
    {
      "type": "Feature",
      "geometry": {
        "type": "Point",
        "coordinates": [
          16.4739715,
          54.4499689
        ]
      },
      "properties": {
        "id": 12189694007,
        "osm_type": "node",
        "shelter_type": "weather_shelter"
      }
    },
    {
      "type": "Feature",
      "geometry": {
        "type": "Point",
        "coordinates": [
          15.9229709,
          53.2340434
        ]
      },
      "properties": {
        "id": 12534779926,
        "osm_type": "node",
        "shelter_type": "weather_shelter"
      }
    },
    {
      "type": "Feature",
      "geometry": {
        "type": "Point",
        "coordinates": [
          15.2638385,
          53.3807797
        ]
      },
      "properties": {
        "id": 12953192637,
        "osm_type": "node",
        "shelter_type": "lean_to"
      }
    },
    {
      "type": "Feature",
      "geometry": {
        "type": "Point",
        "coordinates": [
          15.3901526,
          53.951432
        ]
      },
      "properties": {
        "id": 12953430451,
        "osm_type": "node",
        "shelter_type": "weather_shelter"
      }
    },
    {
      "type": "Feature",
      "geometry": {
        "type": "Point",
        "coordinates": [
          15.2860078,
          53.3303049
        ]
      },
      "properties": {
        "id": 12997972052,
        "osm_type": "node",
        "shelter_type": "weather_shelter"
      }
    },
    {
      "type": "Feature",
      "geometry": {
        "type": "Point",
        "coordinates": [
          15.0093297,
          53.6109344
        ]
      },
      "properties": {
        "id": 13023387444,
        "osm_type": "node",
        "shelter_type": "weather_shelter"
      }
    },
    {
      "type": "Feature",
      "geometry": {
        "type": "Point",
        "coordinates": [
          14.7209068,
          53.2979428
        ]
      },
      "properties": {
        "id": 354682778,
        "osm_type": "way",
        "name": "Wiata edukacyjna LP",
        "shelter_type": "basic_hut"
      }
    },
    {
      "type": "Feature",
      "geometry": {
        "type": "Point",
        "coordinates": [
          15.6598701,
          54.064762
        ]
      },
      "properties": {
        "id": 592351892,
        "osm_type": "way",
        "shelter_type": "lean_to"
      }
    },
    {
      "type": "Feature",
      "geometry": {
        "type": "Point",
        "coordinates": [
          16.6967355,
          54.1187095
        ]
      },
      "properties": {
        "id": 621397739,
        "osm_type": "way",
        "name": "Chatka Puchatka",
        "shelter_type": "weather_shelter"
      }
    },
    {
      "type": "Feature",
      "geometry": {
        "type": "Point",
        "coordinates": [
          14.6640014,
          53.379694
        ]
      },
      "properties": {
        "id": 632623037,
        "osm_type": "way",
        "shelter_type": "weather_shelter"
      }
    },
    {
      "type": "Feature",
      "geometry": {
        "type": "Point",
        "coordinates": [
          15.0634129,
          54.0948512
        ]
      },
      "properties": {
        "id": 656268801,
        "osm_type": "way",
        "shelter_type": "weather_shelter"
      }
    },
    {
      "type": "Feature",
      "geometry": {
        "type": "Point",
        "coordinates": [
          14.4495243,
          53.9322325
        ]
      },
      "properties": {
        "id": 668505805,
        "osm_type": "way",
        "shelter_type": "lean_to"
      }
    },
    {
      "type": "Feature",
      "geometry": {
        "type": "Point",
        "coordinates": [
          14.4473699,
          53.9245272
        ]
      },
      "properties": {
        "id": 668539796,
        "osm_type": "way",
        "shelter_type": "lean_to"
      }
    },
    {
      "type": "Feature",
      "geometry": {
        "type": "Point",
        "coordinates": [
          15.5672404,
          53.5325749
        ]
      },
      "properties": {
        "id": 675208641,
        "osm_type": "way",
        "shelter_type": "lean_to"
      }
    },
    {
      "type": "Feature",
      "geometry": {
        "type": "Point",
        "coordinates": [
          14.4978204,
          53.3466088
        ]
      },
      "properties": {
        "id": 687957851,
        "osm_type": "way",
        "shelter_type": "weather_shelter"
      }
    },
    {
      "type": "Feature",
      "geometry": {
        "type": "Point",
        "coordinates": [
          14.4977426,
          53.3465432
        ]
      },
      "properties": {
        "id": 687957853,
        "osm_type": "way",
        "shelter_type": "weather_shelter"
      }
    },
    {
      "type": "Feature",
      "geometry": {
        "type": "Point",
        "coordinates": [
          14.9234644,
          53.7876183
        ]
      },
      "properties": {
        "id": 691596078,
        "osm_type": "way",
        "shelter_type": "lean_to"
      }
    },
    {
      "type": "Feature",
      "geometry": {
        "type": "Point",
        "coordinates": [
          14.4768406,
          53.4904493
        ]
      },
      "properties": {
        "id": 934551855,
        "osm_type": "way",
        "shelter_type": "weather_shelter"
      }
    },
    {
      "type": "Feature",
      "geometry": {
        "type": "Point",
        "coordinates": [
          14.6639858,
          53.4024006
        ]
      },
      "properties": {
        "id": 983655594,
        "osm_type": "way",
        "shelter_type": "weather_shelter"
      }
    },
    {
      "type": "Feature",
      "geometry": {
        "type": "Point",
        "coordinates": [
          14.6640864,
          53.402362
        ]
      },
      "properties": {
        "id": 983655595,
        "osm_type": "way",
        "shelter_type": "weather_shelter"
      }
    },
    {
      "type": "Feature",
      "geometry": {
        "type": "Point",
        "coordinates": [
          14.7626437,
          53.5766737
        ]
      },
      "properties": {
        "id": 1047507134,
        "osm_type": "way",
        "shelter_type": "weather_shelter"
      }
    },
    {
      "type": "Feature",
      "geometry": {
        "type": "Point",
        "coordinates": [
          14.7415436,
          53.5910269
        ]
      },
      "properties": {
        "id": 1047626685,
        "osm_type": "way",
        "shelter_type": "weather_shelter"
      }
    },
    {
      "type": "Feature",
      "geometry": {
        "type": "Point",
        "coordinates": [
          14.669722,
          53.4080223
        ]
      },
      "properties": {
        "id": 1079236785,
        "osm_type": "way",
        "shelter_type": "weather_shelter"
      }
    },
    {
      "type": "Feature",
      "geometry": {
        "type": "Point",
        "coordinates": [
          14.9739657,
          53.6580589
        ]
      },
      "properties": {
        "id": 1079804182,
        "osm_type": "way",
        "shelter_type": "weather_shelter"
      }
    },
    {
      "type": "Feature",
      "geometry": {
        "type": "Point",
        "coordinates": [
          14.4486685,
          53.9318009
        ]
      },
      "properties": {
        "id": 1136712307,
        "osm_type": "way",
        "shelter_type": "lean_to"
      }
    },
    {
      "type": "Feature",
      "geometry": {
        "type": "Point",
        "coordinates": [
          14.4491354,
          53.9320312
        ]
      },
      "properties": {
        "id": 1136712308,
        "osm_type": "way",
        "shelter_type": "lean_to"
      }
    },
    {
      "type": "Feature",
      "geometry": {
        "type": "Point",
        "coordinates": [
          14.4478111,
          53.9314104
        ]
      },
      "properties": {
        "id": 1136713534,
        "osm_type": "way",
        "shelter_type": "lean_to"
      }
    },
    {
      "type": "Feature",
      "geometry": {
        "type": "Point",
        "coordinates": [
          14.4483036,
          53.9316245
        ]
      },
      "properties": {
        "id": 1136713535,
        "osm_type": "way",
        "shelter_type": "lean_to"
      }
    },
    {
      "type": "Feature",
      "geometry": {
        "type": "Point",
        "coordinates": [
          15.8020767,
          53.5249134
        ]
      },
      "properties": {
        "id": 1215868238,
        "osm_type": "way",
        "name": "wigwam",
        "shelter_type": "weather_shelter"
      }
    },
    {
      "type": "Feature",
      "geometry": {
        "type": "Point",
        "coordinates": [
          15.9132409,
          53.8925856
        ]
      },
      "properties": {
        "id": 1273530995,
        "osm_type": "way",
        "shelter_type": "weather_shelter"
      }
    },
    {
      "type": "Feature",
      "geometry": {
        "type": "Point",
        "coordinates": [
          14.850496,
          53.6115021
        ]
      },
      "properties": {
        "id": 1301298269,
        "osm_type": "way",
        "shelter_type": "weather_shelter"
      }
    },
    {
      "type": "Feature",
      "geometry": {
        "type": "Point",
        "coordinates": [
          15.2488048,
          54.0588472
        ]
      },
      "properties": {
        "id": 1382598752,
        "osm_type": "way",
        "shelter_type": "weather_shelter",
        "bench": "yes"
      }
    },
    {
      "type": "Feature",
      "geometry": {
        "type": "Point",
        "coordinates": [
          16.2496578,
          53.1415655
        ]
      },
      "properties": {
        "id": 16923602,
        "osm_type": "relation",
        "shelter_type": "weather_shelter"
      }
    }
  ]
}