{
  "type": "FeatureCollection",
  "features": [
    {
      "type": "Feature",
      "geometry": {
        "type": "Point",
        "coordinates": [
          34.2528828,
          39.7417185
        ]
      },
      "properties": {
        "id": 1038144761,
        "osm_type": "node",
        "name": "Total",
        "brand": "Total"
      }
    },
    {
      "type": "Feature",
      "geometry": {
        "type": "Point",
        "coordinates": [
          34.2503174,
          39.7422814
        ]
      },
      "properties": {
        "id": 1038144792,
        "osm_type": "node",
        "name": "Termo",
        "brand": "termo"
      }
    },
    {
      "type": "Feature",
      "geometry": {
        "type": "Point",
        "coordinates": [
          34.8454948,
          39.8278493
        ]
      },
      "properties": {
        "id": 1787598828,
        "osm_type": "node",
        "name": "Best Oil"
      }
    },
    {
      "type": "Feature",
      "geometry": {
        "type": "Point",
        "coordinates": [
          34.8179436,
          39.8238987
        ]
      },
      "properties": {
        "id": 1787598987,
        "osm_type": "node"
      }
    },
    {
      "type": "Feature",
      "geometry": {
        "type": "Point",
        "coordinates": [
          34.8345894,
          39.8289578
        ]
      },
      "properties": {
        "id": 1787599910,
        "osm_type": "node",
        "name": "Qplus"
      }
    },
    {
      "type": "Feature",
      "geometry": {
        "type": "Point",
        "coordinates": [
          34.5015326,
          39.66339
        ]
      },
      "properties": {
        "id": 1787802080,
        "osm_type": "node"
      }
    },
    {
      "type": "Feature",
      "geometry": {
        "type": "Point",
        "coordinates": [
          34.7870138,
          39.8169386
        ]
      },
      "properties": {
        "id": 1787804531,
        "osm_type": "node",
        "name": "Total",
        "brand": "Total"
      }
    },
    {
      "type": "Feature",
      "geometry": {
        "type": "Point",
        "coordinates": [
          34.787022,
          39.8176184
        ]
      },
      "properties": {
        "id": 1787804594,
        "osm_type": "node",
        "name": "Aytemiz",
        "brand": "Aytemiz"
      }
    },
    {
      "type": "Feature",
      "geometry": {
        "type": "Point",
        "coordinates": [
          34.7852088,
          39.8173588
        ]
      },
      "properties": {
        "id": 1787804822,
        "osm_type": "node",
        "name": "Sunpet",
        "brand": "Sunpet"
      }
    },
    {
      "type": "Feature",
      "geometry": {
        "type": "Point",
        "coordinates": [
          34.789441,
          39.817833
        ]
      },
      "properties": {
        "id": 1792747200,
        "osm_type": "node",
        "name": "Petrol Ofisi",
        "brand": "Petrol Ofisi"
      }
    },
    {
      "type": "Feature",
      "geometry": {
        "type": "Point",
        "coordinates": [
          34.7901599,
          39.817936
        ]
      },
      "properties": {
        "id": 1792747293,
        "osm_type": "node",
        "name": "BP",
        "brand": "BP"
      }
    },
    {
      "type": "Feature",
      "geometry": {
        "type": "Point",
        "coordinates": [
          34.7877942,
          39.8176229
        ]
      },
      "properties": {
        "id": 1792747380,
        "osm_type": "node",
        "name": "Shell",
        "brand": "Shell"
      }
    },
    {
      "type": "Feature",
      "geometry": {
        "type": "Point",
        "coordinates": [
          34.4994113,
          39.6648527
        ]
      },
      "properties": {
        "id": 1825597031,
        "osm_type": "node"
      }
    },
    {
      "type": "Feature",
      "geometry": {
        "type": "Point",
        "coordinates": [
          34.4904933,
          39.6686378
        ]
      },
      "properties": {
        "id": 1825597041,
        "osm_type": "node"
      }
    },
    {
      "type": "Feature",
      "geometry": {
        "type": "Point",
        "coordinates": [
          34.5104147,
          39.6612692
        ]
      },
      "properties": {
        "id": 1825671709,
        "osm_type": "node"
      }
    },
    {
      "type": "Feature",
      "geometry": {
        "type": "Point",
        "coordinates": [
          35.2299483,
          39.1685524
        ]
      },
      "properties": {
        "id": 1826359856,
        "osm_type": "node"
      }
    },
    {
      "type": "Feature",
      "geometry": {
        "type": "Point",
        "coordinates": [
          35.2334338,
          39.1740658
        ]
      },
      "properties": {
        "id": 1826359877,
        "osm_type": "node"
      }
    },
    {
      "type": "Feature",
      "geometry": {
        "type": "Point",
        "coordinates": [
          35.2393804,
          39.206891
        ]
      },
      "properties": {
        "id": 1826360881,
        "osm_type": "node"
      }
    },
    {
      "type": "Feature",
      "geometry": {
        "type": "Point",
        "coordinates": [
          35.2376803,
          39.2084406
        ]
      },
      "properties": {
        "id": 1826360903,
        "osm_type": "node"
      }
    },
    {
      "type": "Feature",
      "geometry": {
        "type": "Point",
        "coordinates": [
          35.2378497,
          39.2100605
        ]
      },
      "properties": {
        "id": 1826360923,
        "osm_type": "node"
      }
    },
    {
      "type": "Feature",
      "geometry": {
        "type": "Point",
        "coordinates": [
          35.4380134,
          39.4087683
        ]
      },
      "properties": {
        "id": 1826604063,
        "osm_type": "node"
      }
    },
    {
      "type": "Feature",
      "geometry": {
        "type": "Point",
        "coordinates": [
          35.0992174,
          39.8190289
        ]
      },
      "properties": {
        "id": 1826696051,
        "osm_type": "node"
      }
    },
    {
      "type": "Feature",
      "geometry": {
        "type": "Point",
        "coordinates": [
          35.4877435,
          40.0792536
        ]
      },
      "properties": {
        "id": 2062648323,
        "osm_type": "node"
      }
    },
    {
      "type": "Feature",
      "geometry": {
        "type": "Point",
        "coordinates": [
          35.3627744,
          39.8117205
        ]
      },
      "properties": {
        "id": 2318409950,
        "osm_type": "node"
      }
    },
    {
      "type": "Feature",
      "geometry": {
        "type": "Point",
        "coordinates": [
          35.4354057,
          39.6813117
        ]
      },
      "properties": {
        "id": 2319407506,
        "osm_type": "node"
      }
    },
    {
      "type": "Feature",
      "geometry": {
        "type": "Point",
        "coordinates": [
          35.4248441,
          39.6849153
        ]
      },
      "properties": {
        "id": 2319407625,
        "osm_type": "node"
      }
    },
    {
      "type": "Feature",
      "geometry": {
        "type": "Point",
        "coordinates": [
          34.9553242,
          39.6150648
        ]
      },
      "properties": {
        "id": 2319675289,
        "osm_type": "node"
      }
    },
    {
      "type": "Feature",
      "geometry": {
        "type": "Point",
        "coordinates": [
          34.9521852,
          39.6201733
        ]
      },
      "properties": {
        "id": 2319675307,
        "osm_type": "node"
      }
    },
    {
      "type": "Feature",
      "geometry": {
        "type": "Point",
        "coordinates": [
          34.4579443,
          39.6828612
        ]
      },
      "properties": {
        "id": 2319676064,
        "osm_type": "node"
      }
    },
    {
      "type": "Feature",
      "geometry": {
        "type": "Point",
        "coordinates": [
          34.6104782,
          39.694508
        ]
      },
      "properties": {
        "id": 2319676355,
        "osm_type": "node",
        "name": "Shell",
        "brand": "Shell"
      }
    },
    {
      "type": "Feature",
      "geometry": {
        "type": "Point",
        "coordinates": [
          34.789466,
          39.5087414
        ]
      },
      "properties": {
        "id": 2319788215,
        "osm_type": "node"
      }
    },
    {
      "type": "Feature",
      "geometry": {
        "type": "Point",
        "coordinates": [
          35.6232859,
          39.303135
        ]
      },
      "properties": {
        "id": 2398045481,
        "osm_type": "node"
      }
    },
    {
      "type": "Feature",
      "geometry": {
        "type": "Point",
        "coordinates": [
          35.6282463,
          39.3038556
        ]
      },
      "properties": {
        "id": 2398045510,
        "osm_type": "node"
      }
    },
    {
      "type": "Feature",
      "geometry": {
        "type": "Point",
        "coordinates": [
          35.7121539,
          39.6914068
        ]
      },
      "properties": {
        "id": 2398220461,
        "osm_type": "node"
      }
    },
    {
      "type": "Feature",
      "geometry": {
        "type": "Point",
        "coordinates": [
          34.5566449,
          39.6601203
        ]
      },
      "properties": {
        "id": 2500959082,
        "osm_type": "node"
      }
    },
    {
      "type": "Feature",
      "geometry": {
        "type": "Point",
        "coordinates": [
          35.1131185,
          39.4642546
        ]
      },
      "properties": {
        "id": 2684760421,
        "osm_type": "node"
      }
    },
    {
      "type": "Feature",
      "geometry": {
        "type": "Point",
        "coordinates": [
          35.107024,
          39.4677682
        ]
      },
      "properties": {
        "id": 2684760612,
        "osm_type": "node"
      }
    },
    {
      "type": "Feature",
      "geometry": {
        "type": "Point",
        "coordinates": [
          35.0058276,
          39.211971
        ]
      },
      "properties": {
        "id": 2826923560,
        "osm_type": "node"
      }
    },
    {
      "type": "Feature",
      "geometry": {
        "type": "Point",
        "coordinates": [
          35.2878929,
          39.3163722
        ]
      },
      "properties": {
        "id": 2827314369,
        "osm_type": "node"
      }
    },
    {
      "type": "Feature",
      "geometry": {
        "type": "Point",
        "coordinates": [
          35.2478654,
          39.6164127
        ]
      },
      "properties": {
        "id": 2828311619,
        "osm_type": "node"
      }
    },
    {
      "type": "Feature",
      "geometry": {
        "type": "Point",
        "coordinates": [
          35.230919,
          39.6570977
        ]
      },
      "properties": {
        "id": 2828312423,
        "osm_type": "node"
      }
    },
    {
      "type": "Feature",
      "geometry": {
        "type": "Point",
        "coordinates": [
          35.0051114,
          39.8326959
        ]
      },
      "properties": {
        "id": 2828606785,
        "osm_type": "node"
      }
    },
    {
      "type": "Feature",
      "geometry": {
        "type": "Point",
        "coordinates": [
          34.9959503,
          39.8389413
        ]
      },
      "properties": {
        "id": 2828607483,
        "osm_type": "node"
      }
    },
    {
      "type": "Feature",
      "geometry": {
        "type": "Point",
        "coordinates": [
          34.9882428,
          39.8424731
        ]
      },
      "properties": {
        "id": 2828607724,
        "osm_type": "node"
      }
    },
    {
      "type": "Feature",
      "geometry": {
        "type": "Point",
        "coordinates": [
          35.2011908,
          40.1727976
        ]
      },
      "properties": {
        "id": 2872653442,
        "osm_type": "node"
      }
    },
    {
      "type": "Feature",
      "geometry": {
        "type": "Point",
        "coordinates": [
          35.2924955,
          39.8153104
        ]
      },
      "properties": {
        "id": 2962706673,
        "osm_type": "node"
      }
    },
    {
      "type": "Feature",
      "geometry": {
        "type": "Point",
        "coordinates": [
          35.515437,
          39.6721429
        ]
      },
      "properties": {
        "id": 3186700076,
        "osm_type": "node"
      }
    },
    {
      "type": "Feature",
      "geometry": {
        "type": "Point",
        "coordinates": [
          35.4823629,
          39.2300092
        ]
      },
      "properties": {
        "id": 3605720747,
        "osm_type": "node"
      }
    },
    {
      "type": "Feature",
      "geometry": {
        "type": "Point",
        "coordinates": [
          34.7598767,
          39.4909695
        ]
      },
      "properties": {
        "id": 3759174911,
        "osm_type": "node"
      }
    },
    {
      "type": "Feature",
      "geometry": {
        "type": "Point",
        "coordinates": [
          35.7918215,
          39.9937907
        ]
      },
      "properties": {
        "id": 4086816703,
        "osm_type": "node"
      }
    },
    {
      "type": "Feature",
      "geometry": {
        "type": "Point",
        "coordinates": [
          35.2111593,
          39.8043215
        ]
      },
      "properties": {
        "id": 4699019941,
        "osm_type": "node",
        "name": "Opet Sorgun"
      }
    },
    {
      "type": "Feature",
      "geometry": {
        "type": "Point",
        "coordinates": [
          34.7890004,
          39.81706
        ]
      },
      "properties": {
        "id": 4699022932,
        "osm_type": "node",
        "name": "Opet Yozgat Merkez",
        "brand": "Opet"
      }
    },
    {
      "type": "Feature",
      "geometry": {
        "type": "Point",
        "coordinates": [
          35.2353114,
          39.1765234
        ]
      },
      "properties": {
        "id": 4699022933,
        "osm_type": "node",
        "name": "Opet Boğazlıyan",
        "brand": "Opet"
      }
    },
    {
      "type": "Feature",
      "geometry": {
        "type": "Point",
        "coordinates": [
          35.8696713,
          39.6726848
        ]
      },
      "properties": {
        "id": 4710742706,
        "osm_type": "node"
      }
    },
    {
      "type": "Feature",
      "geometry": {
        "type": "Point",
        "coordinates": [
          35.37176,
          39.4961742
        ]
      },
      "properties": {
        "id": 4759230896,
        "osm_type": "node"
      }
    },
    {
      "type": "Feature",
      "geometry": {
        "type": "Point",
        "coordinates": [
          35.3658973,
          39.5049986
        ]
      },
      "properties": {
        "id": 4759231348,
        "osm_type": "node"
      }
    },
    {
      "type": "Feature",
      "geometry": {
        "type": "Point",
        "coordinates": [
          35.3586644,
          39.5105992
        ]
      },
      "properties": {
        "id": 4759231365,
        "osm_type": "node"
      }
    },
    {
      "type": "Feature",
      "geometry": {
        "type": "Point",
        "coordinates": [
          35.3577064,
          39.5119094
        ]
      },
      "properties": {
        "id": 4759231370,
        "osm_type": "node"
      }
    },
    {
      "type": "Feature",
      "geometry": {
        "type": "Point",
        "coordinates": [
          35.3463686,
          39.5197871
        ]
      },
      "properties": {
        "id": 4759231375,
        "osm_type": "node"
      }
    },
    {
      "type": "Feature",
      "geometry": {
        "type": "Point",
        "coordinates": [
          35.3474057,
          39.5192077
        ]
      },
      "properties": {
        "id": 4759231380,
        "osm_type": "node"
      }
    },
    {
      "type": "Feature",
      "geometry": {
        "type": "Point",
        "coordinates": [
          35.330546,
          39.5333197
        ]
      },
      "properties": {
        "id": 4759231408,
        "osm_type": "node"
      }
    },
    {
      "type": "Feature",
      "geometry": {
        "type": "Point",
        "coordinates": [
          35.3267067,
          39.5353715
        ]
      },
      "properties": {
        "id": 4759231413,
        "osm_type": "node"
      }
    },
    {
      "type": "Feature",
      "geometry": {
        "type": "Point",
        "coordinates": [
          35.3717672,
          39.4818627
        ]
      },
      "properties": {
        "id": 4759315335,
        "osm_type": "node"
      }
    },
    {
      "type": "Feature",
      "geometry": {
        "type": "Point",
        "coordinates": [
          35.371726,
          39.4845782
        ]
      },
      "properties": {
        "id": 4759315344,
        "osm_type": "node"
      }
    },
    {
      "type": "Feature",
      "geometry": {
        "type": "Point",
        "coordinates": [
          35.5089066,
          39.6854208
        ]
      },
      "properties": {
        "id": 4815643363,
        "osm_type": "node"
      }
    },
    {
      "type": "Feature",
      "geometry": {
        "type": "Point",
        "coordinates": [
          35.4893021,
          39.6749611
        ]
      },
      "properties": {
        "id": 4815643385,
        "osm_type": "node"
      }
    },
    {
      "type": "Feature",
      "geometry": {
        "type": "Point",
        "coordinates": [
          35.4291468,
          39.6837366
        ]
      },
      "properties": {
        "id": 4815643386,
        "osm_type": "node"
      }
    },
    {
      "type": "Feature",
      "geometry": {
        "type": "Point",
        "coordinates": [
          35.4146102,
          39.6868578
        ]
      },
      "properties": {
        "id": 4815643387,
        "osm_type": "node"
      }
    },
    {
      "type": "Feature",
      "geometry": {
        "type": "Point",
        "coordinates": [
          35.2148044,
          39.8021529
        ]
      },
      "properties": {
        "id": 4815643621,
        "osm_type": "node"
      }
    },
    {
      "type": "Feature",
      "geometry": {
        "type": "Point",
        "coordinates": [
          35.2020984,
          39.8061367
        ]
      },
      "properties": {
        "id": 4815643623,
        "osm_type": "node"
      }
    },
    {
      "type": "Feature",
      "geometry": {
        "type": "Point",
        "coordinates": [
          35.1996386,
          39.8075999
        ]
      },
      "properties": {
        "id": 4815643624,
        "osm_type": "node"
      }
    },
    {
      "type": "Feature",
      "geometry": {
        "type": "Point",
        "coordinates": [
          35.1866652,
          39.8138191
        ]
      },
      "properties": {
        "id": 4815643635,
        "osm_type": "node"
      }
    },
    {
      "type": "Feature",
      "geometry": {
        "type": "Point",
        "coordinates": [
          35.1800756,
          39.813178
        ]
      },
      "properties": {
        "id": 4815643640,
        "osm_type": "node",
        "name": "Shell",
        "brand": "Shell"
      }
    },
    {
      "type": "Feature",
      "geometry": {
        "type": "Point",
        "coordinates": [
          35.174959,
          39.8128079
        ]
      },
      "properties": {
        "id": 4815643645,
        "osm_type": "node"
      }
    },
    {
      "type": "Feature",
      "geometry": {
        "type": "Point",
        "coordinates": [
          35.1521036,
          39.8125752
        ]
      },
      "properties": {
        "id": 4815643652,
        "osm_type": "node"
      }
    },
    {
      "type": "Feature",
      "geometry": {
        "type": "Point",
        "coordinates": [
          35.1458013,
          39.8126582
        ]
      },
      "properties": {
        "id": 4815643653,
        "osm_type": "node"
      }
    },
    {
      "type": "Feature",
      "geometry": {
        "type": "Point",
        "coordinates": [
          35.1447613,
          39.8134833
        ]
      },
      "properties": {
        "id": 4815643654,
        "osm_type": "node"
      }
    },
    {
      "type": "Feature",
      "geometry": {
        "type": "Point",
        "coordinates": [
          35.5114871,
          40.0594374
        ]
      },
      "properties": {
        "id": 4835404945,
        "osm_type": "node"
      }
    },
    {
      "type": "Feature",
      "geometry": {
        "type": "Point",
        "coordinates": [
          35.513336,
          40.062604
        ]
      },
      "properties": {
        "id": 4835404972,
        "osm_type": "node"
      }
    },
    {
      "type": "Feature",
      "geometry": {
        "type": "Point",
        "coordinates": [
          35.2315902,
          39.7917315
        ]
      },
      "properties": {
        "id": 4847013699,
        "osm_type": "node"
      }
    },
    {
      "type": "Feature",
      "geometry": {
        "type": "Point",
        "coordinates": [
          35.2396197,
          39.7777634
        ]
      },
      "properties": {
        "id": 4847013914,
        "osm_type": "node"
      }
    },
    {
      "type": "Feature",
      "geometry": {
        "type": "Point",
        "coordinates": [
          34.8308993,
          39.8269515
        ]
      },
      "properties": {
        "id": 5058223815,
        "osm_type": "node",
        "name": "Moil",
        "brand": "Moil"
      }
    },
    {
      "type": "Feature",
      "geometry": {
        "type": "Point",
        "coordinates": [
          34.9339468,
          39.8609355
        ]
      },
      "properties": {
        "id": 5058233223,
        "osm_type": "node",
        "name": "Aytemiz",
        "brand": "Aytemiz"
      }
    },
    {
      "type": "Feature",
      "geometry": {
        "type": "Point",
        "coordinates": [
          35.2268942,
          39.7118242
        ]
      },
      "properties": {
        "id": 5409167975,
        "osm_type": "node"
      }
    },
    {
      "type": "Feature",
      "geometry": {
        "type": "Point",
        "coordinates": [
          35.229426,
          39.6383973
        ]
      },
      "properties": {
        "id": 5409171468,
        "osm_type": "node"
      }
    },
    {
      "type": "Feature",
      "geometry": {
        "type": "Point",
        "coordinates": [
          35.2933221,
          39.5698632
        ]
      },
      "properties": {
        "id": 5409171653,
        "osm_type": "node"
      }
    },
    {
      "type": "Feature",
      "geometry": {
        "type": "Point",
        "coordinates": [
          35.3745831,
          39.4941334
        ]
      },
      "properties": {
        "id": 5409171984,
        "osm_type": "node"
      }
    },
    {
      "type": "Feature",
      "geometry": {
        "type": "Point",
        "coordinates": [
          35.3701507,
          39.4755432
        ]
      },
      "properties": {
        "id": 5409171985,
        "osm_type": "node"
      }
    },
    {
      "type": "Feature",
      "geometry": {
        "type": "Point",
        "coordinates": [
          35.2411231,
          39.217146
        ]
      },
      "properties": {
        "id": 5409319125,
        "osm_type": "node"
      }
    },
    {
      "type": "Feature",
      "geometry": {
        "type": "Point",
        "coordinates": [
          35.2374531,
          39.1947144
        ]
      },
      "properties": {
        "id": 5409319130,
        "osm_type": "node"
      }
    },
    {
      "type": "Feature",
      "geometry": {
        "type": "Point",
        "coordinates": [
          35.2440585,
          39.1878614
        ]
      },
      "properties": {
        "id": 5409319153,
        "osm_type": "node"
      }
    },
    {
      "type": "Feature",
      "geometry": {
        "type": "Point",
        "coordinates": [
          35.2386769,
          39.1828578
        ]
      },
      "properties": {
        "id": 5409319169,
        "osm_type": "node"
      }
    },
    {
      "type": "Feature",
      "geometry": {
        "type": "Point",
        "coordinates": [
          35.230001,
          39.167153
        ]
      },
      "properties": {
        "id": 5409832947,
        "osm_type": "node"
      }
    },
    {
      "type": "Feature",
      "geometry": {
        "type": "Point",
        "coordinates": [
          34.8359027,
          39.7103832
        ]
      },
      "properties": {
        "id": 6092742982,
        "osm_type": "node",
        "name": "Milangaz"
      }
    },
    {
      "type": "Feature",
      "geometry": {
        "type": "Point",
        "coordinates": [
          35.1589215,
          39.8117111
        ]
      },
      "properties": {
        "id": 6868058775,
        "osm_type": "node"
      }
    },
    {
      "type": "Feature",
      "geometry": {
        "type": "Point",
        "coordinates": [
          34.9552096,
          39.9411832
        ]
      },
      "properties": {
        "id": 6908772157,
        "osm_type": "node",
        "name": "Remoil"
      }
    },
    {
      "type": "Feature",
      "geometry": {
        "type": "Point",
        "coordinates": [
          34.6460037,
          39.6872798
        ]
      },
      "properties": {
        "id": 7052889171,
        "osm_type": "node"
      }
    },
    {
      "type": "Feature",
      "geometry": {
        "type": "Point",
        "coordinates": [
          34.5000334,
          39.663923
        ]
      },
      "properties": {
        "id": 7055085120,
        "osm_type": "node"
      }
    },
    {
      "type": "Feature",
      "geometry": {
        "type": "Point",
        "coordinates": [
          34.4730004,
          39.677157
        ]
      },
      "properties": {
        "id": 7055085156,
        "osm_type": "node"
      }
    },
    {
      "type": "Feature",
      "geometry": {
        "type": "Point",
        "coordinates": [
          34.4699511,
          39.6786164
        ]
      },
      "properties": {
        "id": 7055085157,
        "osm_type": "node"
      }
    },
    {
      "type": "Feature",
      "geometry": {
        "type": "Point",
        "coordinates": [
          35.540039,
          39.245904
        ]
      },
      "properties": {
        "id": 7179738822,
        "osm_type": "node"
      }
    },
    {
      "type": "Feature",
      "geometry": {
        "type": "Point",
        "coordinates": [
          35.6324808,
          39.303996
        ]
      },
      "properties": {
        "id": 7179738866,
        "osm_type": "node"
      }
    },
    {
      "type": "Feature",
      "geometry": {
        "type": "Point",
        "coordinates": [
          35.629968,
          39.3035962
        ]
      },
      "properties": {
        "id": 7179738867,
        "osm_type": "node"
      }
    },
    {
      "type": "Feature",
      "geometry": {
        "type": "Point",
        "coordinates": [
          35.1859942,
          39.8138735
        ]
      },
      "properties": {
        "id": 7980764751,
        "osm_type": "node"
      }
    },
    {
      "type": "Feature",
      "geometry": {
        "type": "Point",
        "coordinates": [
          35.0234936,
          39.8288407
        ]
      },
      "properties": {
        "id": 7980771704,
        "osm_type": "node"
      }
    },
    {
      "type": "Feature",
      "geometry": {
        "type": "Point",
        "coordinates": [
          34.7790917,
          39.8350455
        ]
      },
      "properties": {
        "id": 7980802390,
        "osm_type": "node"
      }
    },
    {
      "type": "Feature",
      "geometry": {
        "type": "Point",
        "coordinates": [
          34.7838322,
          39.8073331
        ]
      },
      "properties": {
        "id": 7980802435,
        "osm_type": "node",
        "name": "Lukoil",
        "brand": "Lukoil"
      }
    },
    {
      "type": "Feature",
      "geometry": {
        "type": "Point",
        "coordinates": [
          35.5114717,
          40.062053
        ]
      },
      "properties": {
        "id": 7999845673,
        "osm_type": "node"
      }
    },
    {
      "type": "Feature",
      "geometry": {
        "type": "Point",
        "coordinates": [
          35.2907281,
          39.8079333
        ]
      },
      "properties": {
        "id": 8325430863,
        "osm_type": "node"
      }
    },
    {
      "type": "Feature",
      "geometry": {
        "type": "Point",
        "coordinates": [
          35.8768788,
          39.6628767
        ]
      },
      "properties": {
        "id": 8629177136,
        "osm_type": "node"
      }
    },
    {
      "type": "Feature",
      "geometry": {
        "type": "Point",
        "coordinates": [
          35.2284819,
          39.0647127
        ]
      },
      "properties": {
        "id": 9066021790,
        "osm_type": "node"
      }
    },
    {
      "type": "Feature",
      "geometry": {
        "type": "Point",
        "coordinates": [
          35.8834591,
          39.6595673
        ]
      },
      "properties": {
        "id": 9128657177,
        "osm_type": "node",
        "name": "Aytemiz",
        "brand": "Aytemiz"
      }
    },
    {
      "type": "Feature",
      "geometry": {
        "type": "Point",
        "coordinates": [
          35.8753223,
          39.694352
        ]
      },
      "properties": {
        "id": 9128657196,
        "osm_type": "node"
      }
    },
    {
      "type": "Feature",
      "geometry": {
        "type": "Point",
        "coordinates": [
          35.8330804,
          39.6565712
        ]
      },
      "properties": {
        "id": 9128933407,
        "osm_type": "node"
      }
    },
    {
      "type": "Feature",
      "geometry": {
        "type": "Point",
        "coordinates": [
          34.4802388,
          39.6484014
        ]
      },
      "properties": {
        "id": 9129018624,
        "osm_type": "node"
      }
    },
    {
      "type": "Feature",
      "geometry": {
        "type": "Point",
        "coordinates": [
          35.2421147,
          39.1940327
        ]
      },
      "properties": {
        "id": 9157902768,
        "osm_type": "node"
      }
    },
    {
      "type": "Feature",
      "geometry": {
        "type": "Point",
        "coordinates": [
          35.1231175,
          39.0661458
        ]
      },
      "properties": {
        "id": 9273814486,
        "osm_type": "node"
      }
    },
    {
      "type": "Feature",
      "geometry": {
        "type": "Point",
        "coordinates": [
          35.1371549,
          39.0806601
        ]
      },
      "properties": {
        "id": 9273814504,
        "osm_type": "node"
      }
    },
    {
      "type": "Feature",
      "geometry": {
        "type": "Point",
        "coordinates": [
          34.7855229,
          39.8175091
        ]
      },
      "properties": {
        "id": 10106606488,
        "osm_type": "node",
        "name": "Mogaz"
      }
    },
    {
      "type": "Feature",
      "geometry": {
        "type": "Point",
        "coordinates": [
          34.7880847,
          39.8185123
        ]
      },
      "properties": {
        "id": 10106606569,
        "osm_type": "node",
        "name": "Soil"
      }
    },
    {
      "type": "Feature",
      "geometry": {
        "type": "Point",
        "coordinates": [
          35.384985,
          39.5191487
        ]
      },
      "properties": {
        "id": 10682573307,
        "osm_type": "node"
      }
    },
    {
      "type": "Feature",
      "geometry": {
        "type": "Point",
        "coordinates": [
          35.182619,
          39.8422491
        ]
      },
      "properties": {
        "id": 10682593220,
        "osm_type": "node"
      }
    },
    {
      "type": "Feature",
      "geometry": {
        "type": "Point",
        "coordinates": [
          34.947601,
          39.4501104
        ]
      },
      "properties": {
        "id": 10820130968,
        "osm_type": "node"
      }
    },
    {
      "type": "Feature",
      "geometry": {
        "type": "Point",
        "coordinates": [
          35.3305395,
          39.5333391
        ]
      },
      "properties": {
        "id": 11171507909,
        "osm_type": "node"
      }
    },
    {
      "type": "Feature",
      "geometry": {
        "type": "Point",
        "coordinates": [
          34.7590304,
          39.5010268
        ]
      },
      "properties": {
        "id": 11176691375,
        "osm_type": "node"
      }
    },
    {
      "type": "Feature",
      "geometry": {
        "type": "Point",
        "coordinates": [
          35.0119705,
          39.2101416
        ]
      },
      "properties": {
        "id": 11182809276,
        "osm_type": "node"
      }
    },
    {
      "type": "Feature",
      "geometry": {
        "type": "Point",
        "coordinates": [
          35.7867322,
          39.9882228
        ]
      },
      "properties": {
        "id": 11549119684,
        "osm_type": "node",
        "name": "TP",
        "brand": "Türkiye Petrolleri"
      }
    },
    {
      "type": "Feature",
      "geometry": {
        "type": "Point",
        "coordinates": [
          35.7887193,
          39.9922454
        ]
      },
      "properties": {
        "id": 11549119686,
        "osm_type": "node",
        "brand": "Best"
      }
    },
    {
      "type": "Feature",
      "geometry": {
        "type": "Point",
        "coordinates": [
          35.507381,
          39.2387524
        ]
      },
      "properties": {
        "id": 11563421081,
        "osm_type": "node"
      }
    },
    {
      "type": "Feature",
      "geometry": {
        "type": "Point",
        "coordinates": [
          35.6192216,
          39.3022664
        ]
      },
      "properties": {
        "id": 12159873641,
        "osm_type": "node"
      }
    },
    {
      "type": "Feature",
      "geometry": {
        "type": "Point",
        "coordinates": [
          35.4699297,
          39.3745771
        ]
      },
      "properties": {
        "id": 12159914492,
        "osm_type": "node"
      }
    },
    {
      "type": "Feature",
      "geometry": {
        "type": "Point",
        "coordinates": [
          35.9807455,
          39.6362816
        ]
      },
      "properties": {
        "id": 12164920998,
        "osm_type": "node"
      }
    },
    {
      "type": "Feature",
      "geometry": {
        "type": "Point",
        "coordinates": [
          35.9844247,
          39.6371575
        ]
      },
      "properties": {
        "id": 12164920999,
        "osm_type": "node"
      }
    },
    {
      "type": "Feature",
      "geometry": {
        "type": "Point",
        "coordinates": [
          35.3729772,
          39.4958802
        ]
      },
      "properties": {
        "id": 12165108051,
        "osm_type": "node"
      }
    },
    {
      "type": "Feature",
      "geometry": {
        "type": "Point",
        "coordinates": [
          35.3552583,
          39.7026172
        ]
      },
      "properties": {
        "id": 12165369982,
        "osm_type": "node"
      }
    },
    {
      "type": "Feature",
      "geometry": {
        "type": "Point",
        "coordinates": [
          34.9818149,
          39.596159
        ]
      },
      "properties": {
        "id": 12168020098,
        "osm_type": "node"
      }
    },
    {
      "type": "Feature",
      "geometry": {
        "type": "Point",
        "coordinates": [
          35.1330959,
          39.3880539
        ]
      },
      "properties": {
        "id": 12168073060,
        "osm_type": "node"
      }
    },
    {
      "type": "Feature",
      "geometry": {
        "type": "Point",
        "coordinates": [
          35.1298853,
          39.7738419
        ]
      },
      "properties": {
        "id": 12169406780,
        "osm_type": "node"
      }
    },
    {
      "type": "Feature",
      "geometry": {
        "type": "Point",
        "coordinates": [
          35.0030022,
          39.8350821
        ]
      },
      "properties": {
        "id": 12169406794,
        "osm_type": "node"
      }
    },
    {
      "type": "Feature",
      "geometry": {
        "type": "Point",
        "coordinates": [
          34.949437,
          39.8567221
        ]
      },
      "properties": {
        "id": 12169406800,
        "osm_type": "node"
      }
    },
    {
      "type": "Feature",
      "geometry": {
        "type": "Point",
        "coordinates": [
          34.9272809,
          39.5210744
        ]
      },
      "properties": {
        "id": 12169430706,
        "osm_type": "node"
      }
    },
    {
      "type": "Feature",
      "geometry": {
        "type": "Point",
        "coordinates": [
          34.7577387,
          39.5039712
        ]
      },
      "properties": {
        "id": 12169430732,
        "osm_type": "node"
      }
    },
    {
      "type": "Feature",
      "geometry": {
        "type": "Point",
        "coordinates": [
          34.7564895,
          39.5097882
        ]
      },
      "properties": {
        "id": 12169430733,
        "osm_type": "node"
      }
    },
    {
      "type": "Feature",
      "geometry": {
        "type": "Point",
        "coordinates": [
          34.6828889,
          39.7051213
        ]
      },
      "properties": {
        "id": 12406907622,
        "osm_type": "node"
      }
    },
    {
      "type": "Feature",
      "geometry": {
        "type": "Point",
        "coordinates": [
          35.0961336,
          39.4724904
        ]
      },
      "properties": {
        "id": 1419327808,
        "osm_type": "way",
        "brand": "TP"
      }
    }
  ]
}