{
  "type": "FeatureCollection",
  "features": [
    {
      "type": "Feature",
      "geometry": {
        "type": "Point",
        "coordinates": [
          13.3429107,
          49.7283289
        ]
      },
      "properties": {
        "id": 273741653,
        "osm_type": "node",
        "name": "Tesco",
        "brand": "Tesco"
      }
    },
    {
      "type": "Feature",
      "geometry": {
        "type": "Point",
        "coordinates": [
          13.417949,
          49.7495905
        ]
      },
      "properties": {
        "id": 296658511,
        "osm_type": "node",
        "name": "Norma",
        "brand": "Norma",
        "check_date": "2025-12-28"
      }
    },
    {
      "type": "Feature",
      "geometry": {
        "type": "Point",
        "coordinates": [
          13.4053325,
          49.7346972
        ]
      },
      "properties": {
        "id": 296706020,
        "osm_type": "node",
        "name": "Penny",
        "brand": "Penny",
        "opening_hours": "Mo-Su 07:00-21:00"
      }
    },
    {
      "type": "Feature",
      "geometry": {
        "type": "Point",
        "coordinates": [
          13.3927746,
          49.7392094
        ]
      },
      "properties": {
        "id": 330862891,
        "osm_type": "node",
        "name": "Albert",
        "brand": "Albert",
        "opening_hours": "Mo-Su 07:00-21:00"
      }
    },
    {
      "type": "Feature",
      "geometry": {
        "type": "Point",
        "coordinates": [
          12.8517346,
          49.3420323
        ]
      },
      "properties": {
        "id": 389023442,
        "osm_type": "node",
        "name": "Travel Free Shop (Duty Free Shop)"
      }
    },
    {
      "type": "Feature",
      "geometry": {
        "type": "Point",
        "coordinates": [
          13.5856449,
          49.7433277
        ]
      },
      "properties": {
        "id": 444716483,
        "osm_type": "node",
        "name": "Penny",
        "brand": "Penny"
      }
    },
    {
      "type": "Feature",
      "geometry": {
        "type": "Point",
        "coordinates": [
          12.9812408,
          49.8813643
        ]
      },
      "properties": {
        "id": 447625582,
        "osm_type": "node",
        "name": "COOP Potraviny"
      }
    },
    {
      "type": "Feature",
      "geometry": {
        "type": "Point",
        "coordinates": [
          13.2312597,
          49.1383192
        ]
      },
      "properties": {
        "id": 570590545,
        "osm_type": "node",
        "name": "Coop",
        "brand": "Coop",
        "opening_hours": "Mo-Fr 07:00-18:00; Sa 07:00-17:00; Su 07:00-16:00",
        "check_date": "2025-08-04"
      }
    },
    {
      "type": "Feature",
      "geometry": {
        "type": "Point",
        "coordinates": [
          12.7163193,
          49.4191174
        ]
      },
      "properties": {
        "id": 603648481,
        "osm_type": "node",
        "name": "Liskova",
        "opening_hours": "Mo-Su 08:00-20:00"
      }
    },
    {
      "type": "Feature",
      "geometry": {
        "type": "Point",
        "coordinates": [
          13.387162,
          49.7367286
        ]
      },
      "properties": {
        "id": 710623369,
        "osm_type": "node",
        "name": "Billa",
        "brand": "Billa",
        "opening_hours": "Mo-Sa 07:00-20:00; Su 08:00-20:00"
      }
    },
    {
      "type": "Feature",
      "geometry": {
        "type": "Point",
        "coordinates": [
          12.5300043,
          49.6578027
        ]
      },
      "properties": {
        "id": 872576541,
        "osm_type": "node",
        "name": "Travel Free",
        "opening_hours": "Mo-Su 08:30-21:00"
      }
    },
    {
      "type": "Feature",
      "geometry": {
        "type": "Point",
        "coordinates": [
          13.1039808,
          49.5919612
        ]
      },
      "properties": {
        "id": 913890120,
        "osm_type": "node",
        "name": "TRIO supermarket"
      }
    },
    {
      "type": "Feature",
      "geometry": {
        "type": "Point",
        "coordinates": [
          13.1049582,
          49.5965758
        ]
      },
      "properties": {
        "id": 913890187,
        "osm_type": "node",
        "name": "PENNY",
        "brand": "PENNY",
        "opening_hours": "07:00-20:00"
      }
    },
    {
      "type": "Feature",
      "geometry": {
        "type": "Point",
        "coordinates": [
          13.4375236,
          49.7456046
        ]
      },
      "properties": {
        "id": 938489272,
        "osm_type": "node",
        "name": "Tesco Extra",
        "brand": "Tesco Extra",
        "check_date": "2026-02-23"
      }
    },
    {
      "type": "Feature",
      "geometry": {
        "type": "Point",
        "coordinates": [
          13.3292462,
          49.7433233
        ]
      },
      "properties": {
        "id": 942069156,
        "osm_type": "node",
        "name": "Albert",
        "brand": "Albert",
        "opening_hours": "Mo-Su 07:00-21:00"
      }
    },
    {
      "type": "Feature",
      "geometry": {
        "type": "Point",
        "coordinates": [
          13.4247334,
          49.7004427
        ]
      },
      "properties": {
        "id": 1234413956,
        "osm_type": "node",
        "name": "Albert",
        "brand": "Albert",
        "opening_hours": "Mo-Su 07:00-22:00"
      }
    },
    {
      "type": "Feature",
      "geometry": {
        "type": "Point",
        "coordinates": [
          13.6478248,
          49.7112736
        ]
      },
      "properties": {
        "id": 1251355607,
        "osm_type": "node",
        "name": "COOP TIP",
        "brand": "COOP Hořovice, družstvo",
        "opening_hours": "Mo-Fr 07:00-17:00; Sa 07:00-11:00; Su 08:00-11:00"
      }
    },
    {
      "type": "Feature",
      "geometry": {
        "type": "Point",
        "coordinates": [
          13.6004995,
          49.7387964
        ]
      },
      "properties": {
        "id": 1283019296,
        "osm_type": "node",
        "name": "Kaufland",
        "brand": "Kaufland",
        "opening_hours": "Mo-Su 07:00-22:00",
        "check_date": "2026-02-23"
      }
    },
    {
      "type": "Feature",
      "geometry": {
        "type": "Point",
        "coordinates": [
          13.5991243,
          49.7396434
        ]
      },
      "properties": {
        "id": 1283020011,
        "osm_type": "node",
        "name": "Billa",
        "brand": "Billa",
        "opening_hours": "Mo-Sa 07:00-20:00; Su 08:00-20:00",
        "check_date": "2026-03-01"
      }
    },
    {
      "type": "Feature",
      "geometry": {
        "type": "Point",
        "coordinates": [
          13.7727522,
          49.8600403
        ]
      },
      "properties": {
        "id": 1398204630,
        "osm_type": "node",
        "name": "Coop Tip",
        "brand": "COOP Hořovice, družstvo",
        "opening_hours": "Mo-Th 07:00-17:30; Fr 07:00-18:00; Sa 08:00-12:00; Su 08:00-11:00"
      }
    },
    {
      "type": "Feature",
      "geometry": {
        "type": "Point",
        "coordinates": [
          13.3737713,
          49.9096563
        ]
      },
      "properties": {
        "id": 1448328203,
        "osm_type": "node"
      }
    },
    {
      "type": "Feature",
      "geometry": {
        "type": "Point",
        "coordinates": [
          13.3902713,
          49.8244213
        ]
      },
      "properties": {
        "id": 1448400061,
        "osm_type": "node",
        "name": "Hájek-kaktusy",
        "opening_hours": "24/7"
      }
    },
    {
      "type": "Feature",
      "geometry": {
        "type": "Point",
        "coordinates": [
          13.755671,
          49.736569
        ]
      },
      "properties": {
        "id": 1574538462,
        "osm_type": "node",
        "name": "PLUS JIP",
        "opening_hours": "Mo-Fr 06:00-20:00; Sa,Su 07:00-20:00"
      }
    },
    {
      "type": "Feature",
      "geometry": {
        "type": "Point",
        "coordinates": [
          13.3660379,
          49.7724594
        ]
      },
      "properties": {
        "id": 1770328242,
        "osm_type": "node",
        "name": "Albert",
        "brand": "Albert",
        "opening_hours": "Mo-Su 07:00-21:00"
      }
    },
    {
      "type": "Feature",
      "geometry": {
        "type": "Point",
        "coordinates": [
          13.5815671,
          49.4830432
        ]
      },
      "properties": {
        "id": 1834268490,
        "osm_type": "node",
        "name": "Norma",
        "brand": "Norma",
        "opening_hours": "Mo-Su 07:00-20:00"
      }
    },
    {
      "type": "Feature",
      "geometry": {
        "type": "Point",
        "coordinates": [
          12.7310835,
          49.8936062
        ]
      },
      "properties": {
        "id": 2143899091,
        "osm_type": "node",
        "name": "Smíšené zboží",
        "opening_hours": "Mo-Sa 07:00-20:00; Su 08:00-20:00"
      }
    },
    {
      "type": "Feature",
      "geometry": {
        "type": "Point",
        "coordinates": [
          13.2024646,
          49.6539322
        ]
      },
      "properties": {
        "id": 2289998960,
        "osm_type": "node",
        "name": "JIP",
        "opening_hours": "Mo-Fr 07:00-18:00; Sa-Su 07:00-15:00"
      }
    },
    {
      "type": "Feature",
      "geometry": {
        "type": "Point",
        "coordinates": [
          12.5578568,
          49.8962654
        ]
      },
      "properties": {
        "id": 2309848936,
        "osm_type": "node",
        "name": "Travel Free"
      }
    },
    {
      "type": "Feature",
      "geometry": {
        "type": "Point",
        "coordinates": [
          13.5935861,
          49.7348542
        ]
      },
      "properties": {
        "id": 2444957852,
        "osm_type": "node",
        "name": "Albert",
        "brand": "Albert",
        "opening_hours": "Mo-Su 07:00-20:00"
      }
    },
    {
      "type": "Feature",
      "geometry": {
        "type": "Point",
        "coordinates": [
          12.9470657,
          49.5271037
        ]
      },
      "properties": {
        "id": 2466525080,
        "osm_type": "node",
        "name": "Coop Tip",
        "brand": "Coop Tip",
        "opening_hours": "Mo-Fr 07:00-18:00; Sa 07:00-13:00; PH off"
      }
    },
    {
      "type": "Feature",
      "geometry": {
        "type": "Point",
        "coordinates": [
          12.7159892,
          49.4185704
        ]
      },
      "properties": {
        "id": 2516489388,
        "osm_type": "node",
        "name": "Travel Free Shop"
      }
    },
    {
      "type": "Feature",
      "geometry": {
        "type": "Point",
        "coordinates": [
          13.6317317,
          49.215337
        ]
      },
      "properties": {
        "id": 2517753568,
        "osm_type": "node",
        "name": "coop"
      }
    },
    {
      "type": "Feature",
      "geometry": {
        "type": "Point",
        "coordinates": [
          13.6209738,
          49.2667768
        ]
      },
      "properties": {
        "id": 2517759258,
        "osm_type": "node",
        "name": "Coop"
      }
    },
    {
      "type": "Feature",
      "geometry": {
        "type": "Point",
        "coordinates": [
          13.702785,
          49.3211833
        ]
      },
      "properties": {
        "id": 2517788494,
        "osm_type": "node",
        "name": "Medulík",
        "opening_hours": "24/7"
      }
    },
    {
      "type": "Feature",
      "geometry": {
        "type": "Point",
        "coordinates": [
          13.6591043,
          49.5232942
        ]
      },
      "properties": {
        "id": 2526144652,
        "osm_type": "node",
        "name": "Smíšené zboží"
      }
    },
    {
      "type": "Feature",
      "geometry": {
        "type": "Point",
        "coordinates": [
          12.6319469,
          49.797719
        ]
      },
      "properties": {
        "id": 2558705130,
        "osm_type": "node",
        "name": "Plus",
        "opening_hours": "Mo-Fr 07:00-19:00; Sa,Su 08:00-19:00"
      }
    },
    {
      "type": "Feature",
      "geometry": {
        "type": "Point",
        "coordinates": [
          12.6342961,
          49.7987564
        ]
      },
      "properties": {
        "id": 2558722335,
        "osm_type": "node",
        "name": "Billa",
        "brand": "Billa",
        "opening_hours": "07:00-20:00"
      }
    },
    {
      "type": "Feature",
      "geometry": {
        "type": "Point",
        "coordinates": [
          13.3547928,
          49.7630521
        ]
      },
      "properties": {
        "id": 2985400511,
        "osm_type": "node",
        "name": "Albert",
        "brand": "Albert",
        "opening_hours": "Mo-Su 07:00-21:00"
      }
    },
    {
      "type": "Feature",
      "geometry": {
        "type": "Point",
        "coordinates": [
          13.5881791,
          49.7433054
        ]
      },
      "properties": {
        "id": 3849797337,
        "osm_type": "node",
        "name": "Lidl",
        "brand": "Lidl",
        "opening_hours": "Mo-Sa 07:00-21:00; Su 08:00-21:00"
      }
    },
    {
      "type": "Feature",
      "geometry": {
        "type": "Point",
        "coordinates": [
          13.2969819,
          49.6548449
        ]
      },
      "properties": {
        "id": 3887638160,
        "osm_type": "node",
        "name": "Penny Market",
        "brand": "Penny",
        "opening_hours": "07:00-20:00"
      }
    },
    {
      "type": "Feature",
      "geometry": {
        "type": "Point",
        "coordinates": [
          12.6404365,
          49.8033567
        ]
      },
      "properties": {
        "id": 3921044363,
        "osm_type": "node",
        "name": "Tesco",
        "brand": "Tesco"
      }
    },
    {
      "type": "Feature",
      "geometry": {
        "type": "Point",
        "coordinates": [
          12.6358589,
          49.8024379
        ]
      },
      "properties": {
        "id": 3921044364,
        "osm_type": "node",
        "name": "Lidl",
        "brand": "Lidl",
        "opening_hours": "Mo-Sa 07:00-20:00; Su 08:00-20:00"
      }
    },
    {
      "type": "Feature",
      "geometry": {
        "type": "Point",
        "coordinates": [
          13.2093986,
          49.1245474
        ]
      },
      "properties": {
        "id": 3956268188,
        "osm_type": "node",
        "name": "Travel Free"
      }
    },
    {
      "type": "Feature",
      "geometry": {
        "type": "Point",
        "coordinates": [
          13.2023744,
          49.7132733
        ]
      },
      "properties": {
        "id": 4178305710,
        "osm_type": "node",
        "name": "Lidl",
        "brand": "Lidl",
        "opening_hours": "Mo-Sa 07:00-20:00; Su 08:00-20:00"
      }
    },
    {
      "type": "Feature",
      "geometry": {
        "type": "Point",
        "coordinates": [
          13.3756749,
          49.7800825
        ]
      },
      "properties": {
        "id": 4312766690,
        "osm_type": "node",
        "name": "Flop Top",
        "opening_hours": "Mo-Fr 06:30-18:00, Sa 07:00-12:00, Su 07:00-12:00"
      }
    },
    {
      "type": "Feature",
      "geometry": {
        "type": "Point",
        "coordinates": [
          13.3705483,
          49.7793278
        ]
      },
      "properties": {
        "id": 4312799393,
        "osm_type": "node",
        "name": "Norma",
        "brand": "Norma",
        "opening_hours": "Mo-Su 07:00-20:00"
      }
    },
    {
      "type": "Feature",
      "geometry": {
        "type": "Point",
        "coordinates": [
          13.7563148,
          49.7357709
        ]
      },
      "properties": {
        "id": 4377793154,
        "osm_type": "node",
        "name": "Billa",
        "brand": "Billa",
        "opening_hours": "Mo-Fr 07:00-18:00; Sa 07:00-17:00; Su 08:00-15:00"
      }
    },
    {
      "type": "Feature",
      "geometry": {
        "type": "Point",
        "coordinates": [
          13.5945389,
          49.7427623
        ]
      },
      "properties": {
        "id": 4377793155,
        "osm_type": "node",
        "name": "Coop",
        "brand": "Coop",
        "opening_hours": "Mo-Fr 06:30-18:00; Sa 07:00-12:00; Su 08:00-11:00",
        "check_date": "2026-02-23"
      }
    },
    {
      "type": "Feature",
      "geometry": {
        "type": "Point",
        "coordinates": [
          13.5208599,
          49.2322304
        ]
      },
      "properties": {
        "id": 4398497110,
        "osm_type": "node",
        "name": "Albert",
        "brand": "Albert",
        "opening_hours": "Mo-Su 07:00-20:00"
      }
    },
    {
      "type": "Feature",
      "geometry": {
        "type": "Point",
        "coordinates": [
          13.515718,
          49.2301892
        ]
      },
      "properties": {
        "id": 4398497113,
        "osm_type": "node",
        "name": "Coop Tip",
        "brand": "Coop Tip",
        "opening_hours": "Mo-Th 06:30-18:00; Fr 06:30-19:00; Sa 07:00-13:00; Su 14:00-18:00"
      }
    },
    {
      "type": "Feature",
      "geometry": {
        "type": "Point",
        "coordinates": [
          12.9411691,
          49.5287032
        ]
      },
      "properties": {
        "id": 4398497117,
        "osm_type": "node",
        "name": "PLUS JIP",
        "opening_hours": "Mo-Su 07:00-19:00"
      }
    },
    {
      "type": "Feature",
      "geometry": {
        "type": "Point",
        "coordinates": [
          13.3687719,
          49.7494485
        ]
      },
      "properties": {
        "id": 4416360921,
        "osm_type": "node",
        "name": "Albert",
        "brand": "Albert",
        "opening_hours": "Mo-Su 07:00-21:00",
        "check_date": "2025-07-20"
      }
    },
    {
      "type": "Feature",
      "geometry": {
        "type": "Point",
        "coordinates": [
          13.3618014,
          49.7280766
        ]
      },
      "properties": {
        "id": 4416593492,
        "osm_type": "node",
        "name": "Kaufland",
        "brand": "Kaufland",
        "opening_hours": "Mo-Su 07:00-22:00"
      }
    },
    {
      "type": "Feature",
      "geometry": {
        "type": "Point",
        "coordinates": [
          13.392613,
          49.7469568
        ]
      },
      "properties": {
        "id": 4609508299,
        "osm_type": "node",
        "name": "Penny",
        "brand": "Penny",
        "opening_hours": "Mo-Su 07:00-21:00",
        "check_date": "2025-12-27"
      }
    },
    {
      "type": "Feature",
      "geometry": {
        "type": "Point",
        "coordinates": [
          13.3774772,
          49.7530203
        ]
      },
      "properties": {
        "id": 4614484069,
        "osm_type": "node",
        "name": "Kaufland",
        "brand": "Kaufland",
        "opening_hours": "Mo-Su 07:00-22:00"
      }
    },
    {
      "type": "Feature",
      "geometry": {
        "type": "Point",
        "coordinates": [
          12.9273712,
          49.4399011
        ]
      },
      "properties": {
        "id": 4635804225,
        "osm_type": "node",
        "name": "Albert",
        "brand": "Albert",
        "opening_hours": "Mo-Su 07:00-20:00"
      }
    },
    {
      "type": "Feature",
      "geometry": {
        "type": "Point",
        "coordinates": [
          13.4014136,
          49.7319514
        ]
      },
      "properties": {
        "id": 5107421801,
        "osm_type": "node",
        "name": "Billa",
        "brand": "Billa",
        "opening_hours": "Mo-Sa 07:00-21:00; Su 08:00-21:00"
      }
    },
    {
      "type": "Feature",
      "geometry": {
        "type": "Point",
        "coordinates": [
          13.3848882,
          49.7445854
        ]
      },
      "properties": {
        "id": 5736911784,
        "osm_type": "node",
        "name": "Lidl",
        "brand": "Lidl",
        "opening_hours": "Mo-Sa 07:00-22:00, Su 08:00-22:00"
      }
    },
    {
      "type": "Feature",
      "geometry": {
        "type": "Point",
        "coordinates": [
          13.1674522,
          49.6427718
        ]
      },
      "properties": {
        "id": 6169741812,
        "osm_type": "node",
        "name": "Penny",
        "brand": "Penny",
        "opening_hours": "07:00-20:00"
      }
    },
    {
      "type": "Feature",
      "geometry": {
        "type": "Point",
        "coordinates": [
          12.937139,
          49.5282795
        ]
      },
      "properties": {
        "id": 6169741834,
        "osm_type": "node",
        "name": "Penny",
        "brand": "Penny",
        "opening_hours": "07:00-20:00"
      }
    },
    {
      "type": "Feature",
      "geometry": {
        "type": "Point",
        "coordinates": [
          13.2203239,
          49.7165752
        ]
      },
      "properties": {
        "id": 6169741876,
        "osm_type": "node",
        "name": "Billa",
        "brand": "Billa",
        "opening_hours": "Mo-Sa 07:00-20:00; Su 08:00-20:00"
      }
    },
    {
      "type": "Feature",
      "geometry": {
        "type": "Point",
        "coordinates": [
          13.2069182,
          49.7134986
        ]
      },
      "properties": {
        "id": 6169741877,
        "osm_type": "node",
        "name": "PENNY",
        "brand": "PENNY",
        "opening_hours": "07:00-20:00"
      }
    },
    {
      "type": "Feature",
      "geometry": {
        "type": "Point",
        "coordinates": [
          13.2071208,
          49.1234823
        ]
      },
      "properties": {
        "id": 6204996972,
        "osm_type": "node",
        "name": "Free One Shop",
        "opening_hours": "Mo-Su 08:30-20:30",
        "check_date": "2025-12-08"
      }
    },
    {
      "type": "Feature",
      "geometry": {
        "type": "Point",
        "coordinates": [
          13.3272507,
          49.820192
        ]
      },
      "properties": {
        "id": 6218167160,
        "osm_type": "node",
        "name": "Marfen - Potraviny a smíšené zboží",
        "opening_hours": "Mo-Fr 08:00-12:00,14:00-17:00"
      }
    },
    {
      "type": "Feature",
      "geometry": {
        "type": "Point",
        "coordinates": [
          13.3296261,
          49.8209786
        ]
      },
      "properties": {
        "id": 6264143825,
        "osm_type": "node",
        "name": "Můj obchod - Potraviny Ledce",
        "opening_hours": "Mo-Su 08:00-16:30; Sa 08:00-11:00"
      }
    },
    {
      "type": "Feature",
      "geometry": {
        "type": "Point",
        "coordinates": [
          13.6060779,
          49.6094334
        ]
      },
      "properties": {
        "id": 6337279305,
        "osm_type": "node",
        "name": "Potraviny Mírová",
        "opening_hours": "Mo-Sa 06:30-20:00; Su 07:00-20:00"
      }
    },
    {
      "type": "Feature",
      "geometry": {
        "type": "Point",
        "coordinates": [
          13.695266,
          49.9196673
        ]
      },
      "properties": {
        "id": 6573099024,
        "osm_type": "node",
        "name": "Smíšené zboží Mlečice"
      }
    },
    {
      "type": "Feature",
      "geometry": {
        "type": "Point",
        "coordinates": [
          13.5193116,
          49.2308585
        ]
      },
      "properties": {
        "id": 6955043634,
        "osm_type": "node",
        "name": "Coop Tuty",
        "brand": "Coop Tuty"
      }
    },
    {
      "type": "Feature",
      "geometry": {
        "type": "Point",
        "coordinates": [
          13.3686715,
          49.7415149
        ]
      },
      "properties": {
        "id": 7532994682,
        "osm_type": "node",
        "name": "Potraviny Skrétova",
        "opening_hours": "Mo-Su 07:00-22:00"
      }
    },
    {
      "type": "Feature",
      "geometry": {
        "type": "Point",
        "coordinates": [
          13.0388658,
          49.3901406
        ]
      },
      "properties": {
        "id": 7634275675,
        "osm_type": "node",
        "name": "Coop Tuty",
        "brand": "Coop Tuty",
        "opening_hours": "Mo-Fr 06:00-18:30; Sa 07:00-12:00; Su 07:00-11:00"
      }
    },
    {
      "type": "Feature",
      "geometry": {
        "type": "Point",
        "coordinates": [
          12.9166509,
          49.4389025
        ]
      },
      "properties": {
        "id": 8592276948,
        "osm_type": "node",
        "name": "Coop Tip",
        "brand": "Coop Tip",
        "opening_hours": "Mo-Fr 06:00-16:30; Sa 07:00-12:00; PH off"
      }
    },
    {
      "type": "Feature",
      "geometry": {
        "type": "Point",
        "coordinates": [
          12.7166362,
          49.5912612
        ]
      },
      "properties": {
        "id": 8922794417,
        "osm_type": "node",
        "name": "COOP Jednota",
        "brand": "COOP Jednota",
        "opening_hours": "Mo-Fr 07:00-15:30; Sa 07:00-11:00"
      }
    },
    {
      "type": "Feature",
      "geometry": {
        "type": "Point",
        "coordinates": [
          12.8505335,
          49.3434776
        ]
      },
      "properties": {
        "id": 9150668523,
        "osm_type": "node",
        "name": "Global Free"
      }
    },
    {
      "type": "Feature",
      "geometry": {
        "type": "Point",
        "coordinates": [
          12.852832,
          49.3437007
        ]
      },
      "properties": {
        "id": 9150668553,
        "osm_type": "node",
        "name": "Grenze Markt",
        "opening_hours": "Mo-Su 08:00-20:30"
      }
    },
    {
      "type": "Feature",
      "geometry": {
        "type": "Point",
        "coordinates": [
          13.1974093,
          49.5607566
        ]
      },
      "properties": {
        "id": 9234881284,
        "osm_type": "node",
        "name": "Coop - Tuty"
      }
    },
    {
      "type": "Feature",
      "geometry": {
        "type": "Point",
        "coordinates": [
          13.1968106,
          49.5600716
        ]
      },
      "properties": {
        "id": 9236350021,
        "osm_type": "node",
        "name": "CBA"
      }
    },
    {
      "type": "Feature",
      "geometry": {
        "type": "Point",
        "coordinates": [
          13.0389064,
          49.3909309
        ]
      },
      "properties": {
        "id": 9300366059,
        "osm_type": "node",
        "name": "JIP"
      }
    },
    {
      "type": "Feature",
      "geometry": {
        "type": "Point",
        "coordinates": [
          13.5360092,
          49.5845989
        ]
      },
      "properties": {
        "id": 9481300700,
        "osm_type": "node",
        "name": "Penny",
        "opening_hours": "PH,Mo-Su 07:00-20:00"
      }
    },
    {
      "type": "Feature",
      "geometry": {
        "type": "Point",
        "coordinates": [
          13.381016,
          49.7787233
        ]
      },
      "properties": {
        "id": 9587396669,
        "osm_type": "node",
        "name": "Lidl",
        "brand": "Lidl",
        "opening_hours": "Mo-Sa 07:00-21:00; Su 08:00-21:00"
      }
    },
    {
      "type": "Feature",
      "geometry": {
        "type": "Point",
        "coordinates": [
          13.7163506,
          49.4033762
        ]
      },
      "properties": {
        "id": 9869954887,
        "osm_type": "node",
        "name": "eso market potraviny",
        "opening_hours": "Mo-Fr 06:00-19:00; Sa, Su 07:00-19:00"
      }
    },
    {
      "type": "Feature",
      "geometry": {
        "type": "Point",
        "coordinates": [
          13.3471716,
          49.7730452
        ]
      },
      "properties": {
        "id": 10103743751,
        "osm_type": "node",
        "name": "Lidl",
        "brand": "Lidl",
        "opening_hours": "Mo-Sa 07:00-21:00; Su 08:00-21:00"
      }
    },
    {
      "type": "Feature",
      "geometry": {
        "type": "Point",
        "coordinates": [
          13.3673019,
          49.7763234
        ]
      },
      "properties": {
        "id": 10114825548,
        "osm_type": "node",
        "name": "PENNY",
        "brand": "PENNY",
        "opening_hours": "Mo-Su 07:00-21:00"
      }
    },
    {
      "type": "Feature",
      "geometry": {
        "type": "Point",
        "coordinates": [
          13.3688824,
          49.7788794
        ]
      },
      "properties": {
        "id": 10114847220,
        "osm_type": "node",
        "name": "Albert",
        "brand": "Albert",
        "opening_hours": "Mo-Su 07:00-22:00"
      }
    },
    {
      "type": "Feature",
      "geometry": {
        "type": "Point",
        "coordinates": [
          13.367474,
          49.776268
        ]
      },
      "properties": {
        "id": 10204823604,
        "osm_type": "node",
        "name": "Košík - farmářské potraviny",
        "opening_hours": "Mo-Fr 07:30-17:30"
      }
    },
    {
      "type": "Feature",
      "geometry": {
        "type": "Point",
        "coordinates": [
          13.3682294,
          49.7758784
        ]
      },
      "properties": {
        "id": 10205699561,
        "osm_type": "node",
        "name": "Farmářský obchod a bistro U Lidušky",
        "opening_hours": "Mo-Fr 07:00-18:00; Sa 08:00-12:00"
      }
    },
    {
      "type": "Feature",
      "geometry": {
        "type": "Point",
        "coordinates": [
          13.294487,
          49.3910756
        ]
      },
      "properties": {
        "id": 10934909792,
        "osm_type": "node",
        "name": "Potraviny Tyršova"
      }
    },
    {
      "type": "Feature",
      "geometry": {
        "type": "Point",
        "coordinates": [
          13.2942523,
          49.3980995
        ]
      },
      "properties": {
        "id": 10935008809,
        "osm_type": "node"
      }
    },
    {
      "type": "Feature",
      "geometry": {
        "type": "Point",
        "coordinates": [
          12.7779753,
          49.7166055
        ]
      },
      "properties": {
        "id": 10975973615,
        "osm_type": "node",
        "name": "PENNY",
        "brand": "PENNY"
      }
    },
    {
      "type": "Feature",
      "geometry": {
        "type": "Point",
        "coordinates": [
          13.3620495,
          49.775029
        ]
      },
      "properties": {
        "id": 11556212951,
        "osm_type": "node",
        "name": "Billa",
        "brand": "Billa",
        "opening_hours": "Mo-Sa 07:00-21:00, Su 08:00-21:00"
      }
    },
    {
      "type": "Feature",
      "geometry": {
        "type": "Point",
        "coordinates": [
          12.9902449,
          49.7532937
        ]
      },
      "properties": {
        "id": 11895343931,
        "osm_type": "node",
        "name": "Billa",
        "brand": "Billa"
      }
    },
    {
      "type": "Feature",
      "geometry": {
        "type": "Point",
        "coordinates": [
          13.7027088,
          49.3211317
        ]
      },
      "properties": {
        "id": 12107773629,
        "osm_type": "node",
        "name": "Elektro Němec-Němcová",
        "opening_hours": "Mo-Fr 09:00-17:00"
      }
    },
    {
      "type": "Feature",
      "geometry": {
        "type": "Point",
        "coordinates": [
          13.2967876,
          49.6557229
        ]
      },
      "properties": {
        "id": 12899886474,
        "osm_type": "node",
        "name": "Market Center",
        "opening_hours": "Mo-Sa 07:00-20:00; Su 08:00-19:00"
      }
    },
    {
      "type": "Feature",
      "geometry": {
        "type": "Point",
        "coordinates": [
          12.7175196,
          49.419611
        ]
      },
      "properties": {
        "id": 13092998700,
        "osm_type": "node",
        "name": "CQ plus"
      }
    },
    {
      "type": "Feature",
      "geometry": {
        "type": "Point",
        "coordinates": [
          13.3691853,
          49.7786821
        ]
      },
      "properties": {
        "id": 13289832940,
        "osm_type": "node",
        "name": "Mix Markt",
        "brand": "Mix Markt",
        "opening_hours": "Mo-Su 09:00-20:00"
      }
    },
    {
      "type": "Feature",
      "geometry": {
        "type": "Point",
        "coordinates": [
          13.4007422,
          49.7472491
        ]
      },
      "properties": {
        "id": 13289873777,
        "osm_type": "node",
        "name": "Mix Markt",
        "brand": "Mix Markt",
        "opening_hours": "Mo-Su 09:00-20:00"
      }
    },
    {
      "type": "Feature",
      "geometry": {
        "type": "Point",
        "coordinates": [
          13.404183,
          49.7497272
        ]
      },
      "properties": {
        "id": 13404215902,
        "osm_type": "node",
        "name": "Billa",
        "brand": "Billa",
        "check_date": "2025-12-25"
      }
    },
    {
      "type": "Feature",
      "geometry": {
        "type": "Point",
        "coordinates": [
          13.4160549,
          49.7526266
        ]
      },
      "properties": {
        "id": 13410179275,
        "osm_type": "node",
        "name": "Coop",
        "brand": "Coop",
        "check_date": "2025-12-27"
      }
    },
    {
      "type": "Feature",
      "geometry": {
        "type": "Point",
        "coordinates": [
          13.3494393,
          49.7720574
        ]
      },
      "properties": {
        "id": 13478897819,
        "osm_type": "node",
        "name": "Kaufland",
        "brand": "Kaufland",
        "opening_hours": "Mo-Su 07:00-22:00"
      }
    },
    {
      "type": "Feature",
      "geometry": {
        "type": "Point",
        "coordinates": [
          13.3641587,
          49.7678428
        ]
      },
      "properties": {
        "id": 13510634420,
        "osm_type": "node",
        "name": "Coop",
        "brand": "Coop",
        "opening_hours": "Mo-Fr 07:00-18:30;Sa 07:00-12:00"
      }
    },
    {
      "type": "Feature",
      "geometry": {
        "type": "Point",
        "coordinates": [
          12.9367762,
          49.4393628
        ]
      },
      "properties": {
        "id": 23038245,
        "osm_type": "way",
        "name": "Penny",
        "brand": "Penny",
        "opening_hours": "07:00-20:00",
        "check_date": "2025-08-15"
      }
    },
    {
      "type": "Feature",
      "geometry": {
        "type": "Point",
        "coordinates": [
          12.9304309,
          49.4468378
        ]
      },
      "properties": {
        "id": 23039545,
        "osm_type": "way",
        "name": "Penny Market",
        "brand": "Penny",
        "opening_hours": "07:00-20:00"
      }
    },
    {
      "type": "Feature",
      "geometry": {
        "type": "Point",
        "coordinates": [
          13.3488934,
          49.7777789
        ]
      },
      "properties": {
        "id": 30436015,
        "osm_type": "way",
        "name": "Globus",
        "brand": "Globus",
        "opening_hours": "Mo-Su 08:00-21:00; PH off",
        "check_date": "2026-02-01"
      }
    },
    {
      "type": "Feature",
      "geometry": {
        "type": "Point",
        "coordinates": [
          12.9268407,
          49.4426964
        ]
      },
      "properties": {
        "id": 34870280,
        "osm_type": "way",
        "name": "Kaufland",
        "brand": "Kaufland",
        "opening_hours": "Mo-Su 07:00-22:00",
        "check_date": "2023-12-28"
      }
    },
    {
      "type": "Feature",
      "geometry": {
        "type": "Point",
        "coordinates": [
          13.3280094,
          49.5823414
        ]
      },
      "properties": {
        "id": 41204376,
        "osm_type": "way",
        "name": "Billa",
        "brand": "Billa",
        "opening_hours": "Mo-Sa 07:00-20:00; Su 08:00-20:00"
      }
    },
    {
      "type": "Feature",
      "geometry": {
        "type": "Point",
        "coordinates": [
          13.3280251,
          49.5815268
        ]
      },
      "properties": {
        "id": 41204380,
        "osm_type": "way",
        "name": "Penny",
        "brand": "Penny",
        "opening_hours": "Mo-Su 07:00-20:00"
      }
    },
    {
      "type": "Feature",
      "geometry": {
        "type": "Point",
        "coordinates": [
          13.4005082,
          49.7471236
        ]
      },
      "properties": {
        "id": 43843928,
        "osm_type": "way",
        "name": "Albert",
        "brand": "Albert",
        "opening_hours": "Mo-Su 07:00-21:00",
        "check_date": "2026-01-19"
      }
    },
    {
      "type": "Feature",
      "geometry": {
        "type": "Point",
        "coordinates": [
          13.3789724,
          49.7343324
        ]
      },
      "properties": {
        "id": 45255901,
        "osm_type": "way",
        "name": "Lidl",
        "brand": "Lidl",
        "opening_hours": "Mo-Sa 07:00-21:00; Su 08:00-21:00"
      }
    },
    {
      "type": "Feature",
      "geometry": {
        "type": "Point",
        "coordinates": [
          13.372751,
          49.7394982
        ]
      },
      "properties": {
        "id": 51771426,
        "osm_type": "way",
        "name": "Norma",
        "brand": "Norma",
        "opening_hours": "Mo-Su 07:00-21:00"
      }
    },
    {
      "type": "Feature",
      "geometry": {
        "type": "Point",
        "coordinates": [
          13.3784671,
          49.7262152
        ]
      },
      "properties": {
        "id": 55966732,
        "osm_type": "way",
        "name": "PENNY",
        "brand": "PENNY",
        "opening_hours": "Mo-Su 07:00-21:00"
      }
    },
    {
      "type": "Feature",
      "geometry": {
        "type": "Point",
        "coordinates": [
          13.5216358,
          49.2403129
        ]
      },
      "properties": {
        "id": 59396001,
        "osm_type": "way",
        "name": "Lidl",
        "brand": "Lidl",
        "opening_hours": "Mo-Sa 07:00-21:00; Su 08:00-21:00",
        "check_date": "2023-07-24"
      }
    },
    {
      "type": "Feature",
      "geometry": {
        "type": "Point",
        "coordinates": [
          13.5219352,
          49.2396377
        ]
      },
      "properties": {
        "id": 59396010,
        "osm_type": "way",
        "name": "JIP potraviny Cash&Carry",
        "opening_hours": "07:00-20:00",
        "check_date": "2023-07-24"
      }
    },
    {
      "type": "Feature",
      "geometry": {
        "type": "Point",
        "coordinates": [
          13.5221517,
          49.2411691
        ]
      },
      "properties": {
        "id": 71376803,
        "osm_type": "way",
        "name": "Tesco",
        "brand": "Tesco"
      }
    },
    {
      "type": "Feature",
      "geometry": {
        "type": "Point",
        "coordinates": [
          13.3648105,
          49.7731481
        ]
      },
      "properties": {
        "id": 72937501,
        "osm_type": "way",
        "name": "Lidl",
        "brand": "Lidl",
        "opening_hours": "Mo-Sa 07:00-21:00; Su 08:00-21:00"
      }
    },
    {
      "type": "Feature",
      "geometry": {
        "type": "Point",
        "coordinates": [
          13.3238352,
          49.7454711
        ]
      },
      "properties": {
        "id": 72944097,
        "osm_type": "way",
        "name": "Penny",
        "brand": "Penny",
        "opening_hours": "Mo-Su 07:00-21:00"
      }
    },
    {
      "type": "Feature",
      "geometry": {
        "type": "Point",
        "coordinates": [
          13.3401246,
          49.7441794
        ]
      },
      "properties": {
        "id": 72944332,
        "osm_type": "way",
        "name": "Lidl",
        "brand": "Lidl",
        "opening_hours": "Mo-Sa 07:00-22:00; Su 08:00-22:00"
      }
    },
    {
      "type": "Feature",
      "geometry": {
        "type": "Point",
        "coordinates": [
          13.524824,
          49.2383848
        ]
      },
      "properties": {
        "id": 79406720,
        "osm_type": "way",
        "name": "Penny",
        "brand": "Penny",
        "opening_hours": "Mo-Sa 07:00-20:00"
      }
    },
    {
      "type": "Feature",
      "geometry": {
        "type": "Point",
        "coordinates": [
          13.5210039,
          49.2385221
        ]
      },
      "properties": {
        "id": 101700624,
        "osm_type": "way",
        "name": "Albert",
        "brand": "Albert"
      }
    },
    {
      "type": "Feature",
      "geometry": {
        "type": "Point",
        "coordinates": [
          13.4262726,
          49.7585835
        ]
      },
      "properties": {
        "id": 109343205,
        "osm_type": "way",
        "name": "Penny",
        "brand": "Penny",
        "opening_hours": "07:00-21:00",
        "check_date": "2026-01-20"
      }
    },
    {
      "type": "Feature",
      "geometry": {
        "type": "Point",
        "coordinates": [
          13.368812,
          49.7788495
        ]
      },
      "properties": {
        "id": 109352366,
        "osm_type": "way",
        "name": "Albert",
        "brand": "Albert",
        "opening_hours": "Mo-Su 07:00-22:00"
      }
    },
    {
      "type": "Feature",
      "geometry": {
        "type": "Point",
        "coordinates": [
          13.3725165,
          49.7669707
        ]
      },
      "properties": {
        "id": 109440644,
        "osm_type": "way",
        "name": "Albert",
        "brand": "Albert",
        "opening_hours": "Mo-Su 07:00-21:00"
      }
    },
    {
      "type": "Feature",
      "geometry": {
        "type": "Point",
        "coordinates": [
          13.3751755,
          49.7670115
        ]
      },
      "properties": {
        "id": 109461339,
        "osm_type": "way",
        "name": "Penny",
        "brand": "Penny",
        "opening_hours": "Mo-Su 07:00-21:00"
      }
    },
    {
      "type": "Feature",
      "geometry": {
        "type": "Point",
        "coordinates": [
          13.4160709,
          49.6962855
        ]
      },
      "properties": {
        "id": 109676570,
        "osm_type": "way"
      }
    },
    {
      "type": "Feature",
      "geometry": {
        "type": "Point",
        "coordinates": [
          13.3244145,
          49.7633004
        ]
      },
      "properties": {
        "id": 110350278,
        "osm_type": "way",
        "name": "COOP Jednota",
        "brand": "COOP Jednota",
        "opening_hours": "Mo-Fr 07:00-16:00; Sa 07:00-11:00"
      }
    },
    {
      "type": "Feature",
      "geometry": {
        "type": "Point",
        "coordinates": [
          13.3815491,
          49.8958585
        ]
      },
      "properties": {
        "id": 128537222,
        "osm_type": "way",
        "name": "Coop",
        "brand": "Coop"
      }
    },
    {
      "type": "Feature",
      "geometry": {
        "type": "Point",
        "coordinates": [
          13.3920005,
          49.8088621
        ]
      },
      "properties": {
        "id": 128626515,
        "osm_type": "way",
        "name": "PENNY",
        "brand": "PENNY"
      }
    },
    {
      "type": "Feature",
      "geometry": {
        "type": "Point",
        "coordinates": [
          13.3929539,
          49.8185279
        ]
      },
      "properties": {
        "id": 128628165,
        "osm_type": "way",
        "name": "Lidl",
        "brand": "Lidl",
        "opening_hours": "Mo-Sa 07:00-20:00; Su 08:00-20:00"
      }
    },
    {
      "type": "Feature",
      "geometry": {
        "type": "Point",
        "coordinates": [
          12.8003145,
          49.5107127
        ]
      },
      "properties": {
        "id": 141515710,
        "osm_type": "way",
        "name": "BALA - Potraviny - Večerka",
        "brand": "BALA",
        "opening_hours": "Mo-Su 06:30-20:00"
      }
    },
    {
      "type": "Feature",
      "geometry": {
        "type": "Point",
        "coordinates": [
          13.702799,
          49.3210615
        ]
      },
      "properties": {
        "id": 142287743,
        "osm_type": "way"
      }
    },
    {
      "type": "Feature",
      "geometry": {
        "type": "Point",
        "coordinates": [
          13.7010186,
          49.3244708
        ]
      },
      "properties": {
        "id": 142288943,
        "osm_type": "way",
        "name": "Albert",
        "brand": "Albert",
        "opening_hours": "Mo-Su 07:00-20:00"
      }
    },
    {
      "type": "Feature",
      "geometry": {
        "type": "Point",
        "coordinates": [
          12.7864199,
          49.4469759
        ]
      },
      "properties": {
        "id": 143875941,
        "osm_type": "way",
        "name": "COOP",
        "opening_hours": "Mo,We 07:00-12:00; Tu,Fr 07:30-12:00,12:30-16:00; Th 07:30-12:00,12:30-15:30; Sa 07:00-10:00"
      }
    },
    {
      "type": "Feature",
      "geometry": {
        "type": "Point",
        "coordinates": [
          13.4110624,
          49.7504296
        ]
      },
      "properties": {
        "id": 155351208,
        "osm_type": "way",
        "name": "Lidl",
        "brand": "Lidl",
        "opening_hours": "Mo-Sa 07:00-21:00; Su 08:00-21:00",
        "check_date": "2025-12-25"
      }
    },
    {
      "type": "Feature",
      "geometry": {
        "type": "Point",
        "coordinates": [
          12.8812846,
          49.5894146
        ]
      },
      "properties": {
        "id": 160034029,
        "osm_type": "way",
        "name": "COOP Jednota",
        "brand": "COOP Jednota",
        "opening_hours": "Mo-Tu,Th 06:00-12:00; We,Fr 06:00-12:00,13:00-15:30; Sa 07:00-09:30"
      }
    },
    {
      "type": "Feature",
      "geometry": {
        "type": "Point",
        "coordinates": [
          13.7673995,
          49.8520726
        ]
      },
      "properties": {
        "id": 161119716,
        "osm_type": "way",
        "name": "Billa",
        "brand": "Billa",
        "opening_hours": "Mo-Fr 07:00-19:00; Sa 07:00-17:00; Su,PH 08:00-15:00"
      }
    },
    {
      "type": "Feature",
      "geometry": {
        "type": "Point",
        "coordinates": [
          13.7691631,
          49.8595401
        ]
      },
      "properties": {
        "id": 161120304,
        "osm_type": "way",
        "name": "U Kima",
        "opening_hours": "Mo-Fr 06:00-21:00; Sa-Su 07:00-21:00"
      }
    },
    {
      "type": "Feature",
      "geometry": {
        "type": "Point",
        "coordinates": [
          13.0359389,
          49.3889117
        ]
      },
      "properties": {
        "id": 164973121,
        "osm_type": "way",
        "name": "Tesco",
        "brand": "Tesco",
        "opening_hours": "Mo-Su 07:00-20:00"
      }
    },
    {
      "type": "Feature",
      "geometry": {
        "type": "Point",
        "coordinates": [
          13.2965513,
          49.3821225
        ]
      },
      "properties": {
        "id": 171126617,
        "osm_type": "way",
        "name": "Albert",
        "brand": "Albert",
        "opening_hours": "Mo-Su 08:00-21:00"
      }
    },
    {
      "type": "Feature",
      "geometry": {
        "type": "Point",
        "coordinates": [
          13.287542,
          49.3988495
        ]
      },
      "properties": {
        "id": 171229949,
        "osm_type": "way",
        "name": "Billa",
        "brand": "Billa"
      }
    },
    {
      "type": "Feature",
      "geometry": {
        "type": "Point",
        "coordinates": [
          13.2947863,
          49.3880954
        ]
      },
      "properties": {
        "id": 171229951,
        "osm_type": "way",
        "name": "Kaufland",
        "brand": "Kaufland",
        "opening_hours": "Mo-Su 07:00-22:00"
      }
    },
    {
      "type": "Feature",
      "geometry": {
        "type": "Point",
        "coordinates": [
          13.2865462,
          49.3949402
        ]
      },
      "properties": {
        "id": 171229952,
        "osm_type": "way",
        "name": "Lidl",
        "brand": "Lidl",
        "opening_hours": "Mo-Sa 07:00-21:00; Su 08:00-21:00"
      }
    },
    {
      "type": "Feature",
      "geometry": {
        "type": "Point",
        "coordinates": [
          13.2858434,
          49.3929102
        ]
      },
      "properties": {
        "id": 171229964,
        "osm_type": "way",
        "name": "Tesco",
        "brand": "Tesco",
        "opening_hours": "Mo-Su 06:00-22:00"
      }
    },
    {
      "type": "Feature",
      "geometry": {
        "type": "Point",
        "coordinates": [
          13.2860363,
          49.3955514
        ]
      },
      "properties": {
        "id": 171229971,
        "osm_type": "way",
        "name": "Penny Market",
        "brand": "Penny",
        "opening_hours": "Mo-Su 07:00-20:00"
      }
    },
    {
      "type": "Feature",
      "geometry": {
        "type": "Point",
        "coordinates": [
          13.2337968,
          49.9920608
        ]
      },
      "properties": {
        "id": 192400121,
        "osm_type": "way",
        "name": "Coop Tuty",
        "brand": "Coop Tuty"
      }
    },
    {
      "type": "Feature",
      "geometry": {
        "type": "Point",
        "coordinates": [
          13.4885638,
          49.9815468
        ]
      },
      "properties": {
        "id": 193776186,
        "osm_type": "way",
        "name": "Coop",
        "brand": "Coop",
        "opening_hours": "Mo-Su 07:00-18:00"
      }
    },
    {
      "type": "Feature",
      "geometry": {
        "type": "Point",
        "coordinates": [
          13.4903816,
          49.9800733
        ]
      },
      "properties": {
        "id": 193967846,
        "osm_type": "way",
        "name": "Penny",
        "brand": "Penny",
        "opening_hours": "07:00-20:00"
      }
    },
    {
      "type": "Feature",
      "geometry": {
        "type": "Point",
        "coordinates": [
          13.7823698,
          49.8220529
        ]
      },
      "properties": {
        "id": 197159221,
        "osm_type": "way",
        "name": "COOP Jednota",
        "brand": "COOP Jednota",
        "opening_hours": "Mo-Fr 07:30-16:00; Sa-Su 07:30-11:00"
      }
    },
    {
      "type": "Feature",
      "geometry": {
        "type": "Point",
        "coordinates": [
          12.7336333,
          49.8660771
        ]
      },
      "properties": {
        "id": 206263914,
        "osm_type": "way",
        "name": "Lidl",
        "brand": "Lidl",
        "opening_hours": "Mo-Sa 07:00-21:00; Su 08:00-21:00"
      }
    },
    {
      "type": "Feature",
      "geometry": {
        "type": "Point",
        "coordinates": [
          12.7364482,
          49.8652333
        ]
      },
      "properties": {
        "id": 206263918,
        "osm_type": "way",
        "name": "Penny Market",
        "brand": "Penny",
        "opening_hours": "07:00-20:00"
      }
    },
    {
      "type": "Feature",
      "geometry": {
        "type": "Point",
        "coordinates": [
          12.7358195,
          49.8632493
        ]
      },
      "properties": {
        "id": 206263925,
        "osm_type": "way",
        "name": "Tesco",
        "brand": "Tesco"
      }
    },
    {
      "type": "Feature",
      "geometry": {
        "type": "Point",
        "coordinates": [
          12.6363727,
          49.7955073
        ]
      },
      "properties": {
        "id": 208292870,
        "osm_type": "way",
        "name": "Penny",
        "brand": "PENNY",
        "opening_hours": "07:00-20:00"
      }
    },
    {
      "type": "Feature",
      "geometry": {
        "type": "Point",
        "coordinates": [
          12.9963023,
          49.7529961
        ]
      },
      "properties": {
        "id": 208773873,
        "osm_type": "way",
        "name": "Penny Market",
        "brand": "Penny",
        "opening_hours": "07:00-20:00"
      }
    },
    {
      "type": "Feature",
      "geometry": {
        "type": "Point",
        "coordinates": [
          12.9959735,
          49.7545011
        ]
      },
      "properties": {
        "id": 208777307,
        "osm_type": "way",
        "name": "Lidl",
        "brand": "Lidl",
        "opening_hours": "Mo-Sa 07:00-20:00; Su 08:00-20:00"
      }
    },
    {
      "type": "Feature",
      "geometry": {
        "type": "Point",
        "coordinates": [
          13.5128825,
          49.7185373
        ]
      },
      "properties": {
        "id": 232244186,
        "osm_type": "way"
      }
    },
    {
      "type": "Feature",
      "geometry": {
        "type": "Point",
        "coordinates": [
          13.1489636,
          49.8829456
        ]
      },
      "properties": {
        "id": 250578069,
        "osm_type": "way",
        "name": "COOP"
      }
    },
    {
      "type": "Feature",
      "geometry": {
        "type": "Point",
        "coordinates": [
          12.5332227,
          49.6597797
        ]
      },
      "properties": {
        "id": 266896132,
        "osm_type": "way"
      }
    },
    {
      "type": "Feature",
      "geometry": {
        "type": "Point",
        "coordinates": [
          12.5325924,
          49.6595205
        ]
      },
      "properties": {
        "id": 266896162,
        "osm_type": "way"
      }
    },
    {
      "type": "Feature",
      "geometry": {
        "type": "Point",
        "coordinates": [
          12.5339918,
          49.6597524
        ]
      },
      "properties": {
        "id": 266896622,
        "osm_type": "way"
      }
    },
    {
      "type": "Feature",
      "geometry": {
        "type": "Point",
        "coordinates": [
          12.5771633,
          49.5847326
        ]
      },
      "properties": {
        "id": 321414145,
        "osm_type": "way",
        "name": "Travel Free"
      }
    },
    {
      "type": "Feature",
      "geometry": {
        "type": "Point",
        "coordinates": [
          13.7026212,
          49.3222272
        ]
      },
      "properties": {
        "id": 378017817,
        "osm_type": "way",
        "name": "PENNY",
        "brand": "PENNY"
      }
    },
    {
      "type": "Feature",
      "geometry": {
        "type": "Point",
        "coordinates": [
          13.7322799,
          49.7888449
        ]
      },
      "properties": {
        "id": 387077871,
        "osm_type": "way",
        "name": "COOP Jednota",
        "brand": "COOP Jednota"
      }
    },
    {
      "type": "Feature",
      "geometry": {
        "type": "Point",
        "coordinates": [
          13.1017196,
          49.5960009
        ]
      },
      "properties": {
        "id": 458504776,
        "osm_type": "way",
        "name": "Lidl",
        "brand": "Lidl",
        "opening_hours": "Mo-Sa 07:00-20:00; Su 08:00-20:00",
        "check_date": "2026-02-24"
      }
    },
    {
      "type": "Feature",
      "geometry": {
        "type": "Point",
        "coordinates": [
          12.8515794,
          49.3427345
        ]
      },
      "properties": {
        "id": 738974643,
        "osm_type": "way",
        "name": "Free One Shop",
        "check_date": "2026-02-27"
      }
    },
    {
      "type": "Feature",
      "geometry": {
        "type": "Point",
        "coordinates": [
          13.3856747,
          49.8918083
        ]
      },
      "properties": {
        "id": 806401157,
        "osm_type": "way",
        "name": "Norma",
        "brand": "Norma"
      }
    },
    {
      "type": "Feature",
      "geometry": {
        "type": "Point",
        "coordinates": [
          13.5837288,
          49.4819906
        ]
      },
      "properties": {
        "id": 929560546,
        "osm_type": "way",
        "name": "Billa",
        "brand": "Billa"
      }
    },
    {
      "type": "Feature",
      "geometry": {
        "type": "Point",
        "coordinates": [
          13.3505548,
          49.7310986
        ]
      },
      "properties": {
        "id": 1009056330,
        "osm_type": "way",
        "name": "Lidl",
        "brand": "Lidl"
      }
    },
    {
      "type": "Feature",
      "geometry": {
        "type": "Point",
        "coordinates": [
          13.0730829,
          49.559113
        ]
      },
      "properties": {
        "id": 1451751389,
        "osm_type": "way",
        "name": "Norma",
        "brand": "Norma",
        "opening_hours": "Mo-Su 07:00-20:00"
      }
    }
  ]
}