{
  "type": "FeatureCollection",
  "features": [
    {
      "type": "Feature",
      "geometry": {
        "type": "Point",
        "coordinates": [
          42.1255162,
          38.4229914
        ]
      },
      "properties": {
        "id": 3804573722,
        "osm_type": "node",
        "name": "BİM",
        "brand": "BİM",
        "opening_hours": "Mo-Su 09:00-21:00"
      }
    },
    {
      "type": "Feature",
      "geometry": {
        "type": "Point",
        "coordinates": [
          42.1245508,
          38.422695
        ]
      },
      "properties": {
        "id": 3804573755,
        "osm_type": "node",
        "name": "Adabağ AVM"
      }
    },
    {
      "type": "Feature",
      "geometry": {
        "type": "Point",
        "coordinates": [
          42.2829045,
          38.4992569
        ]
      },
      "properties": {
        "id": 3804574040,
        "osm_type": "node",
        "name": "BİM",
        "brand": "BİM",
        "opening_hours": "Mo-Su 09:00-21:00"
      }
    },
    {
      "type": "Feature",
      "geometry": {
        "type": "Point",
        "coordinates": [
          42.2880969,
          38.4912484
        ]
      },
      "properties": {
        "id": 3804773338,
        "osm_type": "node",
        "name": "BİM",
        "brand": "BİM",
        "opening_hours": "Mo-Su 09:00-21:00"
      }
    },
    {
      "type": "Feature",
      "geometry": {
        "type": "Point",
        "coordinates": [
          42.2879048,
          38.4909227
        ]
      },
      "properties": {
        "id": 3804773347,
        "osm_type": "node",
        "name": "A101",
        "brand": "A101",
        "opening_hours": "Mo-Su 09:00-21:30"
      }
    },
    {
      "type": "Feature",
      "geometry": {
        "type": "Point",
        "coordinates": [
          42.4739914,
          38.7501668
        ]
      },
      "properties": {
        "id": 3967782950,
        "osm_type": "node",
        "name": "BİM",
        "brand": "BİM",
        "opening_hours": "Mo-Su 09:00-21:00"
      }
    },
    {
      "type": "Feature",
      "geometry": {
        "type": "Point",
        "coordinates": [
          42.4987567,
          38.7539104
        ]
      },
      "properties": {
        "id": 3967795521,
        "osm_type": "node",
        "name": "A101",
        "brand": "A101",
        "opening_hours": "Mo-Su 09:00-21:30"
      }
    },
    {
      "type": "Feature",
      "geometry": {
        "type": "Point",
        "coordinates": [
          42.4255525,
          38.2239806
        ]
      },
      "properties": {
        "id": 5430671803,
        "osm_type": "node",
        "name": "A101",
        "brand": "A101",
        "opening_hours": "Mo-Su 09:00-21:30"
      }
    },
    {
      "type": "Feature",
      "geometry": {
        "type": "Point",
        "coordinates": [
          42.2818612,
          38.5019929
        ]
      },
      "properties": {
        "id": 6115494093,
        "osm_type": "node",
        "name": "Migros",
        "brand": "Migros"
      }
    },
    {
      "type": "Feature",
      "geometry": {
        "type": "Point",
        "coordinates": [
          42.1745365,
          38.4853661
        ]
      },
      "properties": {
        "id": 6745416785,
        "osm_type": "node",
        "name": "BİM",
        "brand": "BİM",
        "opening_hours": "Mo-Su 09:00-21:00"
      }
    },
    {
      "type": "Feature",
      "geometry": {
        "type": "Point",
        "coordinates": [
          42.1659469,
          38.4781569
        ]
      },
      "properties": {
        "id": 6746341685,
        "osm_type": "node",
        "name": "A101",
        "brand": "A101",
        "opening_hours": "Mo-Su 09:00-21:30"
      }
    },
    {
      "type": "Feature",
      "geometry": {
        "type": "Point",
        "coordinates": [
          42.4233857,
          38.2235144
        ]
      },
      "properties": {
        "id": 7098736594,
        "osm_type": "node",
        "name": "Şok",
        "brand": "Şok"
      }
    },
    {
      "type": "Feature",
      "geometry": {
        "type": "Point",
        "coordinates": [
          42.4161565,
          38.2211724
        ]
      },
      "properties": {
        "id": 7098745985,
        "osm_type": "node",
        "name": "A101",
        "brand": "A101",
        "opening_hours": "Mo-Su 09:00-21:30"
      }
    },
    {
      "type": "Feature",
      "geometry": {
        "type": "Point",
        "coordinates": [
          42.1087913,
          38.4018602
        ]
      },
      "properties": {
        "id": 7626731606,
        "osm_type": "node",
        "name": "Danış Büfe"
      }
    },
    {
      "type": "Feature",
      "geometry": {
        "type": "Point",
        "coordinates": [
          42.108633,
          38.401922
        ]
      },
      "properties": {
        "id": 7626731608,
        "osm_type": "node",
        "name": "Çınar Market"
      }
    },
    {
      "type": "Feature",
      "geometry": {
        "type": "Point",
        "coordinates": [
          42.2972356,
          38.4849343
        ]
      },
      "properties": {
        "id": 7626731622,
        "osm_type": "node",
        "name": "Çağlayan Market"
      }
    },
    {
      "type": "Feature",
      "geometry": {
        "type": "Point",
        "coordinates": [
          42.2967819,
          38.4850725
        ]
      },
      "properties": {
        "id": 7626731623,
        "osm_type": "node",
        "name": "Hisar Ticaret"
      }
    },
    {
      "type": "Feature",
      "geometry": {
        "type": "Point",
        "coordinates": [
          42.291583,
          38.4886001
        ]
      },
      "properties": {
        "id": 7626731655,
        "osm_type": "node",
        "name": "Seç Market"
      }
    },
    {
      "type": "Feature",
      "geometry": {
        "type": "Point",
        "coordinates": [
          42.2906634,
          38.4897064
        ]
      },
      "properties": {
        "id": 7626748490,
        "osm_type": "node",
        "name": "Heves Gıda Pazarlama"
      }
    },
    {
      "type": "Feature",
      "geometry": {
        "type": "Point",
        "coordinates": [
          42.2905843,
          38.4898231
        ]
      },
      "properties": {
        "id": 7626748497,
        "osm_type": "node",
        "name": "Şok",
        "brand": "Şok"
      }
    },
    {
      "type": "Feature",
      "geometry": {
        "type": "Point",
        "coordinates": [
          42.2902069,
          38.4902176
        ]
      },
      "properties": {
        "id": 7908818332,
        "osm_type": "node",
        "name": "Halk Market"
      }
    },
    {
      "type": "Feature",
      "geometry": {
        "type": "Point",
        "coordinates": [
          42.2892771,
          38.4915324
        ]
      },
      "properties": {
        "id": 7908818342,
        "osm_type": "node",
        "name": "Kılıçkan Market"
      }
    },
    {
      "type": "Feature",
      "geometry": {
        "type": "Point",
        "coordinates": [
          42.2875956,
          38.4937093
        ]
      },
      "properties": {
        "id": 7909083057,
        "osm_type": "node",
        "name": "Kiler Market"
      }
    },
    {
      "type": "Feature",
      "geometry": {
        "type": "Point",
        "coordinates": [
          42.2863812,
          38.4954213
        ]
      },
      "properties": {
        "id": 7909083084,
        "osm_type": "node",
        "name": "Pınar Market"
      }
    },
    {
      "type": "Feature",
      "geometry": {
        "type": "Point",
        "coordinates": [
          42.2850584,
          38.4971024
        ]
      },
      "properties": {
        "id": 7909113887,
        "osm_type": "node",
        "name": "Pınar Market"
      }
    },
    {
      "type": "Feature",
      "geometry": {
        "type": "Point",
        "coordinates": [
          42.2848896,
          38.4972847
        ]
      },
      "properties": {
        "id": 7909113890,
        "osm_type": "node",
        "name": "Gürcüoğulları Süpermarket"
      }
    },
    {
      "type": "Feature",
      "geometry": {
        "type": "Point",
        "coordinates": [
          42.4183271,
          38.2225976
        ]
      },
      "properties": {
        "id": 8390251417,
        "osm_type": "node",
        "name": "BİM",
        "brand": "BİM",
        "opening_hours": "Mo-Su 09:00-21:00"
      }
    },
    {
      "type": "Feature",
      "geometry": {
        "type": "Point",
        "coordinates": [
          42.4214553,
          38.2227583
        ]
      },
      "properties": {
        "id": 8390251517,
        "osm_type": "node",
        "name": "A101",
        "brand": "A101",
        "opening_hours": "Mo-Su 09:00-21:30"
      }
    },
    {
      "type": "Feature",
      "geometry": {
        "type": "Point",
        "coordinates": [
          42.2865263,
          38.4962237
        ]
      },
      "properties": {
        "id": 9446627488,
        "osm_type": "node",
        "name": "Migros",
        "brand": "Migros"
      }
    },
    {
      "type": "Feature",
      "geometry": {
        "type": "Point",
        "coordinates": [
          42.1098355,
          38.4093178
        ]
      },
      "properties": {
        "id": 9724265554,
        "osm_type": "node",
        "name": "BİM",
        "brand": "BİM",
        "opening_hours": "Mo-Su 09:00-21:00"
      }
    },
    {
      "type": "Feature",
      "geometry": {
        "type": "Point",
        "coordinates": [
          42.1099506,
          38.4096401
        ]
      },
      "properties": {
        "id": 9724279604,
        "osm_type": "node",
        "name": "Şok",
        "brand": "Şok"
      }
    },
    {
      "type": "Feature",
      "geometry": {
        "type": "Point",
        "coordinates": [
          42.1668779,
          38.4789679
        ]
      },
      "properties": {
        "id": 9724316027,
        "osm_type": "node",
        "name": "Şok",
        "brand": "Şok"
      }
    },
    {
      "type": "Feature",
      "geometry": {
        "type": "Point",
        "coordinates": [
          42.1414405,
          38.4411153
        ]
      },
      "properties": {
        "id": 9724323809,
        "osm_type": "node",
        "name": "Şok",
        "brand": "Şok"
      }
    },
    {
      "type": "Feature",
      "geometry": {
        "type": "Point",
        "coordinates": [
          42.1331775,
          38.4317079
        ]
      },
      "properties": {
        "id": 9724323816,
        "osm_type": "node",
        "name": "Nokta Market"
      }
    },
    {
      "type": "Feature",
      "geometry": {
        "type": "Point",
        "coordinates": [
          42.2827083,
          38.4995351
        ]
      },
      "properties": {
        "id": 11015689906,
        "osm_type": "node",
        "name": "A101",
        "brand": "A101",
        "opening_hours": "Mo-Su 09:00-21:30"
      }
    },
    {
      "type": "Feature",
      "geometry": {
        "type": "Point",
        "coordinates": [
          42.2800847,
          38.4993045
        ]
      },
      "properties": {
        "id": 11015811306,
        "osm_type": "node",
        "name": "Şok",
        "brand": "Şok"
      }
    },
    {
      "type": "Feature",
      "geometry": {
        "type": "Point",
        "coordinates": [
          42.2797133,
          38.499161
        ]
      },
      "properties": {
        "id": 11015845905,
        "osm_type": "node",
        "name": "BİM",
        "brand": "BİM",
        "opening_hours": "Mo-Su 09:00-21:00"
      }
    },
    {
      "type": "Feature",
      "geometry": {
        "type": "Point",
        "coordinates": [
          42.2799582,
          38.5012102
        ]
      },
      "properties": {
        "id": 11015846105,
        "osm_type": "node",
        "name": "A101",
        "brand": "A101",
        "opening_hours": "Mo-Su 09:00-21:30"
      }
    },
    {
      "type": "Feature",
      "geometry": {
        "type": "Point",
        "coordinates": [
          42.2777562,
          38.5116821
        ]
      },
      "properties": {
        "id": 11015846106,
        "osm_type": "node",
        "name": "2A Gross"
      }
    },
    {
      "type": "Feature",
      "geometry": {
        "type": "Point",
        "coordinates": [
          42.1515234,
          38.4624039
        ]
      },
      "properties": {
        "id": 11016165205,
        "osm_type": "node",
        "name": "Şok",
        "brand": "Şok"
      }
    },
    {
      "type": "Feature",
      "geometry": {
        "type": "Point",
        "coordinates": [
          42.2875371,
          38.4931653
        ]
      },
      "properties": {
        "id": 12012974961,
        "osm_type": "node",
        "name": "Şok",
        "brand": "Şok"
      }
    },
    {
      "type": "Feature",
      "geometry": {
        "type": "Point",
        "coordinates": [
          42.2783819,
          38.5141745
        ]
      },
      "properties": {
        "id": 12112303002,
        "osm_type": "node",
        "name": "A101",
        "opening_hours": "Mo-Su 09:00-21:30"
      }
    },
    {
      "type": "Feature",
      "geometry": {
        "type": "Point",
        "coordinates": [
          42.2790501,
          38.5090455
        ]
      },
      "properties": {
        "id": 12112303003,
        "osm_type": "node",
        "name": "Kooperatif Market"
      }
    },
    {
      "type": "Feature",
      "geometry": {
        "type": "Point",
        "coordinates": [
          42.2799423,
          38.5056255
        ]
      },
      "properties": {
        "id": 12112322001,
        "osm_type": "node",
        "name": "Şok",
        "brand": "Şok"
      }
    },
    {
      "type": "Feature",
      "geometry": {
        "type": "Point",
        "coordinates": [
          42.2845354,
          38.4990385
        ]
      },
      "properties": {
        "id": 12707464880,
        "osm_type": "node",
        "name": "A101",
        "brand": "A101"
      }
    }
  ]
}