{
  "type": "FeatureCollection",
  "features": [
    {
      "type": "Feature",
      "geometry": {
        "type": "Point",
        "coordinates": [
          11.0854341,
          59.2750473
        ]
      },
      "properties": {
        "id": 415680441,
        "osm_type": "node",
        "name": "McDonald's Klokkegården",
        "brand": "McDonald's",
        "opening_hours": "24/7",
        "phone": "+47 69145800",
        "brand:wikidata": "Q38076",
        "chain": "mcdonalds"
      }
    },
    {
      "type": "Feature",
      "geometry": {
        "type": "Point",
        "coordinates": [
          10.9385045,
          59.2134864
        ]
      },
      "properties": {
        "id": 794628707,
        "osm_type": "node",
        "name": "McDonald's Bryggeriveien",
        "brand": "McDonald's",
        "opening_hours": "Mo-Th 10:00-22:30, Fr-Sa 10:00-23:00, Su 11:00-21:00",
        "phone": "+47 69312700",
        "brand:wikidata": "Q38076",
        "chain": "mcdonalds"
      }
    },
    {
      "type": "Feature",
      "geometry": {
        "type": "Point",
        "coordinates": [
          10.8423043,
          59.3571683
        ]
      },
      "properties": {
        "id": 1666946090,
        "osm_type": "node",
        "name": "McDonald's Råde",
        "brand": "McDonald's",
        "opening_hours": "Mo-Sa 09:00-23:00; Su 10:00-23:00",
        "phone": "+47 90165257",
        "chain": "mcdonalds"
      }
    },
    {
      "type": "Feature",
      "geometry": {
        "type": "Point",
        "coordinates": [
          11.3834493,
          59.1214329
        ]
      },
      "properties": {
        "id": 6027204230,
        "osm_type": "node",
        "name": "Burger King",
        "brand": "Burger King",
        "opening_hours": "Mo-Fr 10:00-23:00; Sa 09:00-23:00; Su 11:00-23:00",
        "brand:wikidata": "Q177054",
        "chain": "burger_king"
      }
    },
    {
      "type": "Feature",
      "geometry": {
        "type": "Point",
        "coordinates": [
          10.9661164,
          59.2372229
        ]
      },
      "properties": {
        "id": 7056025846,
        "osm_type": "node",
        "name": "McDonald's Råbekken",
        "brand": "McDonald's",
        "opening_hours": "24/7",
        "phone": "+47 97743820",
        "chain": "mcdonalds"
      }
    },
    {
      "type": "Feature",
      "geometry": {
        "type": "Point",
        "coordinates": [
          10.7024987,
          59.4458616
        ]
      },
      "properties": {
        "id": 7056025847,
        "osm_type": "node",
        "name": "McDonald's Mosseporten",
        "brand": "McDonald's",
        "opening_hours": "Mo-Fr 07:00-23:00, Sa 08:00-23:00, Su 09:00-23:00",
        "phone": "+47 69250044",
        "brand:wikidata": "Q38076",
        "chain": "mcdonalds"
      }
    },
    {
      "type": "Feature",
      "geometry": {
        "type": "Point",
        "coordinates": [
          11.279242,
          59.578398
        ]
      },
      "properties": {
        "id": 7205130643,
        "osm_type": "node",
        "name": "McDonald's Morenen",
        "brand": "McDonald's",
        "opening_hours": "Mo-Su 07:00-01:00",
        "brand:wikidata": "Q38076",
        "chain": "mcdonalds"
      }
    },
    {
      "type": "Feature",
      "geometry": {
        "type": "Point",
        "coordinates": [
          10.9352834,
          59.2131321
        ]
      },
      "properties": {
        "id": 7592826084,
        "osm_type": "node",
        "name": "Burger King",
        "brand": "Burger King",
        "opening_hours": "Mo-Su,PH 10:00-22:00",
        "website": "https://burgerking.no/restaurants/fredrikstad",
        "brand:wikidata": "Q177054",
        "chain": "burger_king"
      }
    },
    {
      "type": "Feature",
      "geometry": {
        "type": "Point",
        "coordinates": [
          10.7501494,
          59.3873373
        ]
      },
      "properties": {
        "id": 8975658365,
        "osm_type": "node",
        "name": "McDonald's Rygge",
        "brand": "McDonald's",
        "opening_hours": "Mo-Su 09:00-24:00",
        "phone": "+47 90747490",
        "brand:wikidata": "Q38076",
        "chain": "mcdonalds"
      }
    },
    {
      "type": "Feature",
      "geometry": {
        "type": "Point",
        "coordinates": [
          11.270151,
          59.129971
        ]
      },
      "properties": {
        "id": 10110555672,
        "osm_type": "node",
        "name": "McDonald's Halden",
        "brand": "McDonald's",
        "opening_hours": "Mo-Su 08:00-23:00",
        "phone": "+47 69 00 14 90",
        "brand:wikidata": "Q38076",
        "chain": "mcdonalds"
      }
    },
    {
      "type": "Feature",
      "geometry": {
        "type": "Point",
        "coordinates": [
          10.9554228,
          59.3241371
        ]
      },
      "properties": {
        "id": 300613583,
        "osm_type": "way",
        "name": "Burger King",
        "brand": "Burger King",
        "opening_hours": "Mo-Fr 08:00-21:00; Sa 08:00-20:00; Su 10:00-21:00",
        "phone": "+4769147304",
        "website": "https://www.marche-restaurants.com/no/marche-solli",
        "operator": "Marché",
        "brand:wikidata": "Q177054",
        "chain": "burger_king"
      }
    },
    {
      "type": "Feature",
      "geometry": {
        "type": "Point",
        "coordinates": [
          11.2701445,
          59.1299742
        ]
      },
      "properties": {
        "id": 755372598,
        "osm_type": "way",
        "name": "McDonald's Halden",
        "brand": "McDonald's",
        "opening_hours": "Mo-Su 07:00-01:00",
        "phone": "+47 40 00 14 32",
        "brand:wikidata": "Q38076",
        "chain": "mcdonalds"
      }
    },
    {
      "type": "Feature",
      "geometry": {
        "type": "Point",
        "coordinates": [
          10.7056825,
          59.424883
        ]
      },
      "properties": {
        "id": 975120774,
        "osm_type": "way",
        "name": "Burger King",
        "brand": "Burger King",
        "brand:wikidata": "Q177054",
        "chain": "burger_king"
      }
    }
  ]
}