{
  "type": "FeatureCollection",
  "features": [
    {
      "type": "Feature",
      "geometry": {
        "type": "Point",
        "coordinates": [
          21.5919854,
          50.6409741
        ]
      },
      "properties": {
        "id": 2599995886,
        "osm_type": "node",
        "name": "Żródełko \"Łokietek\""
      }
    },
    {
      "type": "Feature",
      "geometry": {
        "type": "Point",
        "coordinates": [
          20.5980031,
          50.8767178
        ]
      },
      "properties": {
        "id": 2791106339,
        "osm_type": "node"
      }
    },
    {
      "type": "Feature",
      "geometry": {
        "type": "Point",
        "coordinates": [
          20.4622953,
          50.7996646
        ]
      },
      "properties": {
        "id": 2974821329,
        "osm_type": "node"
      }
    },
    {
      "type": "Feature",
      "geometry": {
        "type": "Point",
        "coordinates": [
          20.4619838,
          50.7997532
        ]
      },
      "properties": {
        "id": 2974821330,
        "osm_type": "node"
      }
    },
    {
      "type": "Feature",
      "geometry": {
        "type": "Point",
        "coordinates": [
          20.4617875,
          50.7998039
        ]
      },
      "properties": {
        "id": 2974821331,
        "osm_type": "node"
      }
    },
    {
      "type": "Feature",
      "geometry": {
        "type": "Point",
        "coordinates": [
          20.4616139,
          50.7998562
        ]
      },
      "properties": {
        "id": 2974821332,
        "osm_type": "node"
      }
    },
    {
      "type": "Feature",
      "geometry": {
        "type": "Point",
        "coordinates": [
          21.2913549,
          50.9457841
        ]
      },
      "properties": {
        "id": 3662715127,
        "osm_type": "node"
      }
    },
    {
      "type": "Feature",
      "geometry": {
        "type": "Point",
        "coordinates": [
          20.8574224,
          51.1059084
        ]
      },
      "properties": {
        "id": 4241937744,
        "osm_type": "node",
        "name": "Zastępczy punkt poboru wody",
        "operator": "Miejskie Przedsiębiorstwo Wodociągów i Kanalizacji Spółka z o.o."
      }
    },
    {
      "type": "Feature",
      "geometry": {
        "type": "Point",
        "coordinates": [
          20.5538538,
          50.8536966
        ]
      },
      "properties": {
        "id": 4718791001,
        "osm_type": "node",
        "name": "Ujęcie wody"
      }
    },
    {
      "type": "Feature",
      "geometry": {
        "type": "Point",
        "coordinates": [
          20.5466058,
          50.8394296
        ]
      },
      "properties": {
        "id": 5286673419,
        "osm_type": "node"
      }
    },
    {
      "type": "Feature",
      "geometry": {
        "type": "Point",
        "coordinates": [
          21.0421009,
          50.6745999
        ]
      },
      "properties": {
        "id": 5591818008,
        "osm_type": "node",
        "indoor": "yes"
      }
    },
    {
      "type": "Feature",
      "geometry": {
        "type": "Point",
        "coordinates": [
          20.7133319,
          50.4585795
        ]
      },
      "properties": {
        "id": 6133452727,
        "osm_type": "node",
        "name": "Anna"
      }
    },
    {
      "type": "Feature",
      "geometry": {
        "type": "Point",
        "coordinates": [
          20.7171961,
          50.4584934
        ]
      },
      "properties": {
        "id": 6133454379,
        "osm_type": "node",
        "name": "Henryk"
      }
    },
    {
      "type": "Feature",
      "geometry": {
        "type": "Point",
        "coordinates": [
          20.7179297,
          50.4561835
        ]
      },
      "properties": {
        "id": 6133467480,
        "osm_type": "node",
        "name": "Michał"
      }
    },
    {
      "type": "Feature",
      "geometry": {
        "type": "Point",
        "coordinates": [
          20.7182744,
          50.4553192
        ]
      },
      "properties": {
        "id": 6133467481,
        "osm_type": "node",
        "name": "Aleksander"
      }
    },
    {
      "type": "Feature",
      "geometry": {
        "type": "Point",
        "coordinates": [
          20.723249,
          50.4546234
        ]
      },
      "properties": {
        "id": 6133467636,
        "osm_type": "node",
        "name": "Ignacy"
      }
    },
    {
      "type": "Feature",
      "geometry": {
        "type": "Point",
        "coordinates": [
          20.7148158,
          50.4544647
        ]
      },
      "properties": {
        "id": 6133468488,
        "osm_type": "node",
        "name": "Wiesława"
      }
    },
    {
      "type": "Feature",
      "geometry": {
        "type": "Point",
        "coordinates": [
          20.7279477,
          50.4540975
        ]
      },
      "properties": {
        "id": 6133475066,
        "osm_type": "node",
        "name": "Małgorzata"
      }
    },
    {
      "type": "Feature",
      "geometry": {
        "type": "Point",
        "coordinates": [
          20.6239078,
          50.867909
        ]
      },
      "properties": {
        "id": 6727300021,
        "osm_type": "node",
        "fee": "no",
        "operator": "Wodociągi Kieleckie"
      }
    },
    {
      "type": "Feature",
      "geometry": {
        "type": "Point",
        "coordinates": [
          20.6301967,
          50.8705215
        ]
      },
      "properties": {
        "id": 6727768112,
        "osm_type": "node"
      }
    },
    {
      "type": "Feature",
      "geometry": {
        "type": "Point",
        "coordinates": [
          20.6355541,
          50.8684966
        ]
      },
      "properties": {
        "id": 8287829864,
        "osm_type": "node"
      }
    },
    {
      "type": "Feature",
      "geometry": {
        "type": "Point",
        "coordinates": [
          20.7354086,
          50.4657562
        ]
      },
      "properties": {
        "id": 8576444024,
        "osm_type": "node",
        "name": "Nowy Nurek"
      }
    },
    {
      "type": "Feature",
      "geometry": {
        "type": "Point",
        "coordinates": [
          20.4624421,
          50.7999346
        ]
      },
      "properties": {
        "id": 10904385054,
        "osm_type": "node"
      }
    },
    {
      "type": "Feature",
      "geometry": {
        "type": "Point",
        "coordinates": [
          20.7248873,
          50.8658088
        ]
      },
      "properties": {
        "id": 11083921708,
        "osm_type": "node"
      }
    },
    {
      "type": "Feature",
      "geometry": {
        "type": "Point",
        "coordinates": [
          20.3483378,
          50.8570025
        ]
      },
      "properties": {
        "id": 11343770073,
        "osm_type": "node",
        "access": "yes",
        "fee": "no"
      }
    },
    {
      "type": "Feature",
      "geometry": {
        "type": "Point",
        "coordinates": [
          20.6718819,
          50.3416029
        ]
      },
      "properties": {
        "id": 12009827908,
        "osm_type": "node"
      }
    },
    {
      "type": "Feature",
      "geometry": {
        "type": "Point",
        "coordinates": [
          20.6731508,
          50.3491939
        ]
      },
      "properties": {
        "id": 12694658818,
        "osm_type": "node",
        "indoor": "no"
      }
    },
    {
      "type": "Feature",
      "geometry": {
        "type": "Point",
        "coordinates": [
          20.4087611,
          51.1906717
        ]
      },
      "properties": {
        "id": 12749960855,
        "osm_type": "node"
      }
    },
    {
      "type": "Feature",
      "geometry": {
        "type": "Point",
        "coordinates": [
          20.6109495,
          50.8581064
        ]
      },
      "properties": {
        "id": 13257533917,
        "osm_type": "node"
      }
    },
    {
      "type": "Feature",
      "geometry": {
        "type": "Point",
        "coordinates": [
          20.501646,
          50.4321875
        ]
      },
      "properties": {
        "id": 298572083,
        "osm_type": "way",
        "name": "Ujęcie wody dla wsi"
      }
    },
    {
      "type": "Feature",
      "geometry": {
        "type": "Point",
        "coordinates": [
          20.5595689,
          50.8563031
        ]
      },
      "properties": {
        "id": 356930187,
        "osm_type": "way",
        "name": "Ujęcie wody"
      }
    }
  ]
}