{
  "type": "FeatureCollection",
  "features": [
    {
      "type": "Feature",
      "geometry": {
        "type": "Point",
        "coordinates": [
          36.3442464,
          41.2703371
        ]
      },
      "properties": {
        "id": 1935548537,
        "osm_type": "node"
      }
    },
    {
      "type": "Feature",
      "geometry": {
        "type": "Point",
        "coordinates": [
          36.3331351,
          41.2893514
        ]
      },
      "properties": {
        "id": 1976887658,
        "osm_type": "node"
      }
    },
    {
      "type": "Feature",
      "geometry": {
        "type": "Point",
        "coordinates": [
          36.3528052,
          41.2767972
        ]
      },
      "properties": {
        "id": 2773052601,
        "osm_type": "node"
      }
    },
    {
      "type": "Feature",
      "geometry": {
        "type": "Point",
        "coordinates": [
          36.2255971,
          41.3718183
        ]
      },
      "properties": {
        "id": 3168673872,
        "osm_type": "node"
      }
    },
    {
      "type": "Feature",
      "geometry": {
        "type": "Point",
        "coordinates": [
          36.1916842,
          41.3985349
        ]
      },
      "properties": {
        "id": 3168899620,
        "osm_type": "node"
      }
    },
    {
      "type": "Feature",
      "geometry": {
        "type": "Point",
        "coordinates": [
          36.3642332,
          41.2748321
        ]
      },
      "properties": {
        "id": 3883802274,
        "osm_type": "node"
      }
    },
    {
      "type": "Feature",
      "geometry": {
        "type": "Point",
        "coordinates": [
          36.1762227,
          41.4203935
        ]
      },
      "properties": {
        "id": 3883853400,
        "osm_type": "node"
      }
    },
    {
      "type": "Feature",
      "geometry": {
        "type": "Point",
        "coordinates": [
          36.3400481,
          41.2881483
        ]
      },
      "properties": {
        "id": 3979156857,
        "osm_type": "node"
      }
    },
    {
      "type": "Feature",
      "geometry": {
        "type": "Point",
        "coordinates": [
          36.3522822,
          41.2806495
        ]
      },
      "properties": {
        "id": 4141136126,
        "osm_type": "node"
      }
    },
    {
      "type": "Feature",
      "geometry": {
        "type": "Point",
        "coordinates": [
          36.2688278,
          41.3393167
        ]
      },
      "properties": {
        "id": 4141198342,
        "osm_type": "node"
      }
    },
    {
      "type": "Feature",
      "geometry": {
        "type": "Point",
        "coordinates": [
          36.2651041,
          41.3407587
        ]
      },
      "properties": {
        "id": 4141198344,
        "osm_type": "node"
      }
    },
    {
      "type": "Feature",
      "geometry": {
        "type": "Point",
        "coordinates": [
          36.2595121,
          41.3433607
        ]
      },
      "properties": {
        "id": 4141198348,
        "osm_type": "node"
      }
    },
    {
      "type": "Feature",
      "geometry": {
        "type": "Point",
        "coordinates": [
          36.2561462,
          41.3447541
        ]
      },
      "properties": {
        "id": 4141198357,
        "osm_type": "node"
      }
    },
    {
      "type": "Feature",
      "geometry": {
        "type": "Point",
        "coordinates": [
          36.2531442,
          41.3467062
        ]
      },
      "properties": {
        "id": 4141198371,
        "osm_type": "node"
      }
    },
    {
      "type": "Feature",
      "geometry": {
        "type": "Point",
        "coordinates": [
          36.3456218,
          41.2858379
        ]
      },
      "properties": {
        "id": 4172949376,
        "osm_type": "node"
      }
    },
    {
      "type": "Feature",
      "geometry": {
        "type": "Point",
        "coordinates": [
          36.9715095,
          41.2081422
        ]
      },
      "properties": {
        "id": 4284885107,
        "osm_type": "node"
      }
    },
    {
      "type": "Feature",
      "geometry": {
        "type": "Point",
        "coordinates": [
          36.9436507,
          41.2131296
        ]
      },
      "properties": {
        "id": 4560004489,
        "osm_type": "node"
      }
    },
    {
      "type": "Feature",
      "geometry": {
        "type": "Point",
        "coordinates": [
          36.3192231,
          41.3230984
        ]
      },
      "properties": {
        "id": 4625416891,
        "osm_type": "node"
      }
    },
    {
      "type": "Feature",
      "geometry": {
        "type": "Point",
        "coordinates": [
          36.349374,
          41.2652074
        ]
      },
      "properties": {
        "id": 4899343696,
        "osm_type": "node"
      }
    },
    {
      "type": "Feature",
      "geometry": {
        "type": "Point",
        "coordinates": [
          35.4591177,
          41.1424324
        ]
      },
      "properties": {
        "id": 5156890931,
        "osm_type": "node"
      }
    },
    {
      "type": "Feature",
      "geometry": {
        "type": "Point",
        "coordinates": [
          35.3460757,
          41.2098524
        ]
      },
      "properties": {
        "id": 5156899464,
        "osm_type": "node"
      }
    },
    {
      "type": "Feature",
      "geometry": {
        "type": "Point",
        "coordinates": [
          36.9755636,
          41.2907926
        ]
      },
      "properties": {
        "id": 5920421091,
        "osm_type": "node"
      }
    },
    {
      "type": "Feature",
      "geometry": {
        "type": "Point",
        "coordinates": [
          36.2312682,
          41.3724847
        ]
      },
      "properties": {
        "id": 6261819414,
        "osm_type": "node"
      }
    },
    {
      "type": "Feature",
      "geometry": {
        "type": "Point",
        "coordinates": [
          36.0869368,
          41.5252239
        ]
      },
      "properties": {
        "id": 6362742924,
        "osm_type": "node"
      }
    },
    {
      "type": "Feature",
      "geometry": {
        "type": "Point",
        "coordinates": [
          35.9049073,
          41.5579493
        ]
      },
      "properties": {
        "id": 6984492890,
        "osm_type": "node"
      }
    },
    {
      "type": "Feature",
      "geometry": {
        "type": "Point",
        "coordinates": [
          36.3330466,
          41.2943218
        ]
      },
      "properties": {
        "id": 6986901185,
        "osm_type": "node"
      }
    },
    {
      "type": "Feature",
      "geometry": {
        "type": "Point",
        "coordinates": [
          36.3000935,
          41.3287897
        ]
      },
      "properties": {
        "id": 6988172813,
        "osm_type": "node"
      }
    },
    {
      "type": "Feature",
      "geometry": {
        "type": "Point",
        "coordinates": [
          36.3362524,
          41.2958652
        ]
      },
      "properties": {
        "id": 6988172816,
        "osm_type": "node"
      }
    },
    {
      "type": "Feature",
      "geometry": {
        "type": "Point",
        "coordinates": [
          36.3623192,
          41.2764759
        ]
      },
      "properties": {
        "id": 7988986444,
        "osm_type": "node"
      }
    },
    {
      "type": "Feature",
      "geometry": {
        "type": "Point",
        "coordinates": [
          36.3922559,
          41.245704
        ]
      },
      "properties": {
        "id": 8579865953,
        "osm_type": "node"
      }
    },
    {
      "type": "Feature",
      "geometry": {
        "type": "Point",
        "coordinates": [
          36.4623216,
          41.2043925
        ]
      },
      "properties": {
        "id": 8580189900,
        "osm_type": "node"
      }
    },
    {
      "type": "Feature",
      "geometry": {
        "type": "Point",
        "coordinates": [
          36.3398815,
          41.2816726
        ]
      },
      "properties": {
        "id": 8580504659,
        "osm_type": "node"
      }
    },
    {
      "type": "Feature",
      "geometry": {
        "type": "Point",
        "coordinates": [
          36.2635209,
          41.3414534
        ]
      },
      "properties": {
        "id": 9881522178,
        "osm_type": "node"
      }
    },
    {
      "type": "Feature",
      "geometry": {
        "type": "Point",
        "coordinates": [
          36.3316121,
          41.2997761
        ]
      },
      "properties": {
        "id": 10655242586,
        "osm_type": "node"
      }
    },
    {
      "type": "Feature",
      "geometry": {
        "type": "Point",
        "coordinates": [
          36.2766099,
          41.336415
        ]
      },
      "properties": {
        "id": 10655244803,
        "osm_type": "node"
      }
    },
    {
      "type": "Feature",
      "geometry": {
        "type": "Point",
        "coordinates": [
          36.2837836,
          41.3339304
        ]
      },
      "properties": {
        "id": 10655264620,
        "osm_type": "node"
      }
    },
    {
      "type": "Feature",
      "geometry": {
        "type": "Point",
        "coordinates": [
          35.4437162,
          41.6606971
        ]
      },
      "properties": {
        "id": 11055015495,
        "osm_type": "node",
        "name": "Tuvalet"
      }
    },
    {
      "type": "Feature",
      "geometry": {
        "type": "Point",
        "coordinates": [
          36.1132826,
          41.5942038
        ]
      },
      "properties": {
        "id": 13098686901,
        "osm_type": "node"
      }
    },
    {
      "type": "Feature",
      "geometry": {
        "type": "Point",
        "coordinates": [
          36.0356067,
          41.6699039
        ]
      },
      "properties": {
        "id": 274044963,
        "osm_type": "way"
      }
    },
    {
      "type": "Feature",
      "geometry": {
        "type": "Point",
        "coordinates": [
          36.3169059,
          41.3224561
        ]
      },
      "properties": {
        "id": 333773084,
        "osm_type": "way"
      }
    },
    {
      "type": "Feature",
      "geometry": {
        "type": "Point",
        "coordinates": [
          36.3251785,
          41.3209926
        ]
      },
      "properties": {
        "id": 333773785,
        "osm_type": "way"
      }
    },
    {
      "type": "Feature",
      "geometry": {
        "type": "Point",
        "coordinates": [
          36.244744,
          41.3450244
        ]
      },
      "properties": {
        "id": 917846685,
        "osm_type": "way"
      }
    },
    {
      "type": "Feature",
      "geometry": {
        "type": "Point",
        "coordinates": [
          36.3553235,
          41.2694023
        ]
      },
      "properties": {
        "id": 1125997427,
        "osm_type": "way"
      }
    },
    {
      "type": "Feature",
      "geometry": {
        "type": "Point",
        "coordinates": [
          36.2324062,
          41.3638673
        ]
      },
      "properties": {
        "id": 1480023726,
        "osm_type": "way",
        "access": "yes"
      }
    }
  ]
}