{
  "type": "FeatureCollection",
  "features": [
    {
      "type": "Feature",
      "geometry": {
        "type": "Point",
        "coordinates": [
          24.7121641,
          42.869531
        ]
      },
      "properties": {
        "id": 392868042,
        "osm_type": "node",
        "name": "Нанси"
      }
    },
    {
      "type": "Feature",
      "geometry": {
        "type": "Point",
        "coordinates": [
          24.0682365,
          43.1668498
        ]
      },
      "properties": {
        "id": 517317758,
        "osm_type": "node"
      }
    },
    {
      "type": "Feature",
      "geometry": {
        "type": "Point",
        "coordinates": [
          24.3449294,
          42.8491488
        ]
      },
      "properties": {
        "id": 1576448743,
        "osm_type": "node"
      }
    },
    {
      "type": "Feature",
      "geometry": {
        "type": "Point",
        "coordinates": [
          24.7179383,
          43.1320331
        ]
      },
      "properties": {
        "id": 1934981835,
        "osm_type": "node",
        "name": "Младежки дом"
      }
    },
    {
      "type": "Feature",
      "geometry": {
        "type": "Point",
        "coordinates": [
          24.7120515,
          42.8744653
        ]
      },
      "properties": {
        "id": 4196914189,
        "osm_type": "node",
        "name": "Орион",
        "opening_hours": "Mo-Su 06:00-23:00"
      }
    },
    {
      "type": "Feature",
      "geometry": {
        "type": "Point",
        "coordinates": [
          24.710661,
          42.8717856
        ]
      },
      "properties": {
        "id": 4320672224,
        "osm_type": "node",
        "name": "Максима"
      }
    },
    {
      "type": "Feature",
      "geometry": {
        "type": "Point",
        "coordinates": [
          24.2682917,
          42.9512762
        ]
      },
      "properties": {
        "id": 4376779589,
        "osm_type": "node",
        "name": "При Фердо",
        "opening_hours": "24/7"
      }
    },
    {
      "type": "Feature",
      "geometry": {
        "type": "Point",
        "coordinates": [
          24.7695738,
          42.8460306
        ]
      },
      "properties": {
        "id": 4500008500,
        "osm_type": "node"
      }
    },
    {
      "type": "Feature",
      "geometry": {
        "type": "Point",
        "coordinates": [
          24.7698593,
          42.8468011
        ]
      },
      "properties": {
        "id": 4500009323,
        "osm_type": "node"
      }
    },
    {
      "type": "Feature",
      "geometry": {
        "type": "Point",
        "coordinates": [
          24.1638134,
          43.2043915
        ]
      },
      "properties": {
        "id": 4798895621,
        "osm_type": "node"
      }
    },
    {
      "type": "Feature",
      "geometry": {
        "type": "Point",
        "coordinates": [
          24.2746413,
          42.9138912
        ]
      },
      "properties": {
        "id": 6388662848,
        "osm_type": "node",
        "name": "Игрището"
      }
    },
    {
      "type": "Feature",
      "geometry": {
        "type": "Point",
        "coordinates": [
          24.7169516,
          43.132133
        ]
      },
      "properties": {
        "id": 6832341903,
        "osm_type": "node",
        "name": "Iron",
        "outdoor_seating": "yes"
      }
    },
    {
      "type": "Feature",
      "geometry": {
        "type": "Point",
        "coordinates": [
          24.7175378,
          43.1316447
        ]
      },
      "properties": {
        "id": 9066572205,
        "osm_type": "node",
        "name": "Bakery Boutique",
        "opening_hours": "Mo-Su 08:00-20:00",
        "outdoor_seating": "yes"
      }
    },
    {
      "type": "Feature",
      "geometry": {
        "type": "Point",
        "coordinates": [
          24.7166232,
          43.1323633
        ]
      },
      "properties": {
        "id": 9066572216,
        "osm_type": "node",
        "name": "Кафе на пясък \"Покрит Мост\"",
        "opening_hours": "Mo-Su 09:00-19:00; PH open"
      }
    },
    {
      "type": "Feature",
      "geometry": {
        "type": "Point",
        "coordinates": [
          24.7170923,
          43.1322663
        ]
      },
      "properties": {
        "id": 9066590022,
        "osm_type": "node",
        "name": "The Red",
        "outdoor_seating": "yes"
      }
    },
    {
      "type": "Feature",
      "geometry": {
        "type": "Point",
        "coordinates": [
          24.7178497,
          43.1311321
        ]
      },
      "properties": {
        "id": 9066590045,
        "osm_type": "node",
        "name": "Люляк"
      }
    },
    {
      "type": "Feature",
      "geometry": {
        "type": "Point",
        "coordinates": [
          24.2883014,
          43.0356292
        ]
      },
      "properties": {
        "id": 9914721288,
        "osm_type": "node"
      }
    },
    {
      "type": "Feature",
      "geometry": {
        "type": "Point",
        "coordinates": [
          24.2863011,
          42.9115649
        ]
      },
      "properties": {
        "id": 10170852890,
        "osm_type": "node",
        "name": "Тетевен"
      }
    },
    {
      "type": "Feature",
      "geometry": {
        "type": "Point",
        "coordinates": [
          24.6942771,
          42.8632391
        ]
      },
      "properties": {
        "id": 10170858176,
        "osm_type": "node",
        "name": "Хлебоизкусителница"
      }
    },
    {
      "type": "Feature",
      "geometry": {
        "type": "Point",
        "coordinates": [
          24.7716583,
          42.8806113
        ]
      },
      "properties": {
        "id": 10221091855,
        "osm_type": "node"
      }
    },
    {
      "type": "Feature",
      "geometry": {
        "type": "Point",
        "coordinates": [
          24.2677358,
          42.9178391
        ]
      },
      "properties": {
        "id": 11218313706,
        "osm_type": "node",
        "name": "One Coffee",
        "opening_hours": "Mo-Su 06:00-21:00",
        "check_date": "2025-10-05"
      }
    },
    {
      "type": "Feature",
      "geometry": {
        "type": "Point",
        "coordinates": [
          24.7103791,
          42.885168
        ]
      },
      "properties": {
        "id": 12608146792,
        "osm_type": "node"
      }
    },
    {
      "type": "Feature",
      "geometry": {
        "type": "Point",
        "coordinates": [
          24.7801864,
          42.8627272
        ]
      },
      "properties": {
        "id": 13057734935,
        "osm_type": "node",
        "name": "Maira",
        "opening_hours": "PH off",
        "outdoor_seating": "yes",
        "check_date": "2025-08-08"
      }
    },
    {
      "type": "Feature",
      "geometry": {
        "type": "Point",
        "coordinates": [
          24.7124076,
          42.8850661
        ]
      },
      "properties": {
        "id": 13136663662,
        "osm_type": "node"
      }
    },
    {
      "type": "Feature",
      "geometry": {
        "type": "Point",
        "coordinates": [
          24.7127436,
          42.8885418
        ]
      },
      "properties": {
        "id": 13137172288,
        "osm_type": "node",
        "name": "Family Bakery BBA"
      }
    },
    {
      "type": "Feature",
      "geometry": {
        "type": "Point",
        "coordinates": [
          24.713105,
          42.8880794
        ]
      },
      "properties": {
        "id": 13186475337,
        "osm_type": "node",
        "name": "Закуски Фантазия"
      }
    },
    {
      "type": "Feature",
      "geometry": {
        "type": "Point",
        "coordinates": [
          24.7128714,
          42.8901799
        ]
      },
      "properties": {
        "id": 13186528840,
        "osm_type": "node"
      }
    },
    {
      "type": "Feature",
      "geometry": {
        "type": "Point",
        "coordinates": [
          24.7675326,
          42.8419366
        ]
      },
      "properties": {
        "id": 453240058,
        "osm_type": "way"
      }
    },
    {
      "type": "Feature",
      "geometry": {
        "type": "Point",
        "coordinates": [
          24.7201583,
          43.1467547
        ]
      },
      "properties": {
        "id": 488199277,
        "osm_type": "way",
        "name": "Пекарна Мелиса-2"
      }
    },
    {
      "type": "Feature",
      "geometry": {
        "type": "Point",
        "coordinates": [
          24.7170875,
          43.1316399
        ]
      },
      "properties": {
        "id": 590756216,
        "osm_type": "way",
        "name": "Малката орбита"
      }
    },
    {
      "type": "Feature",
      "geometry": {
        "type": "Point",
        "coordinates": [
          24.7180375,
          43.1308104
        ]
      },
      "properties": {
        "id": 590756227,
        "osm_type": "way",
        "name": "Вароша"
      }
    },
    {
      "type": "Feature",
      "geometry": {
        "type": "Point",
        "coordinates": [
          24.7075216,
          43.1375687
        ]
      },
      "properties": {
        "id": 591838713,
        "osm_type": "way",
        "name": "Маскарело"
      }
    },
    {
      "type": "Feature",
      "geometry": {
        "type": "Point",
        "coordinates": [
          24.7203274,
          43.1475626
        ]
      },
      "properties": {
        "id": 592340855,
        "osm_type": "way",
        "name": "Пекарна Мелиса"
      }
    }
  ]
}