{
  "type": "FeatureCollection",
  "features": [
    {
      "type": "Feature",
      "geometry": {
        "type": "Point",
        "coordinates": [
          -8.0637959,
          41.108041
        ]
      },
      "properties": {
        "id": 12475978915,
        "osm_type": "node",
        "name": "Lavandeira Douro Nature & Wellness"
      }
    },
    {
      "type": "Feature",
      "geometry": {
        "type": "Point",
        "coordinates": [
          -7.8794735,
          41.2367368
        ]
      },
      "properties": {
        "id": 698683307,
        "osm_type": "way",
        "name": "Abrigo da Ermida"
      }
    },
    {
      "type": "Feature",
      "geometry": {
        "type": "Point",
        "coordinates": [
          -7.9115116,
          41.2308358
        ]
      },
      "properties": {
        "id": 1000676036,
        "osm_type": "way",
        "name": "Abrigo do Teixo"
      }
    },
    {
      "type": "Feature",
      "geometry": {
        "type": "Point",
        "coordinates": [
          -8.5743025,
          41.1516793
        ]
      },
      "properties": {
        "id": 1065477042,
        "osm_type": "way",
        "shelter_type": "lean_to"
      }
    },
    {
      "type": "Feature",
      "geometry": {
        "type": "Point",
        "coordinates": [
          -8.6027182,
          41.1811551
        ]
      },
      "properties": {
        "id": 1091262200,
        "osm_type": "way",
        "shelter_type": "weather_shelter",
        "bench": "no"
      }
    },
    {
      "type": "Feature",
      "geometry": {
        "type": "Point",
        "coordinates": [
          -8.4818724,
          41.3561004
        ]
      },
      "properties": {
        "id": 1467127677,
        "osm_type": "way",
        "shelter_type": "weather_shelter",
        "covered": "yes"
      }
    }
  ]
}