{
  "type": "FeatureCollection",
  "features": [
    {
      "type": "Feature",
      "geometry": {
        "type": "Point",
        "coordinates": [
          23.7866498,
          42.9059511
        ]
      },
      "properties": {
        "id": 830505130,
        "osm_type": "node",
        "name": "Пицария Виктория",
        "cuisine": "pizza",
        "chain": "unknown"
      }
    },
    {
      "type": "Feature",
      "geometry": {
        "type": "Point",
        "coordinates": [
          23.7890094,
          42.9068628
        ]
      },
      "properties": {
        "id": 830505161,
        "osm_type": "node",
        "chain": "unknown"
      }
    },
    {
      "type": "Feature",
      "geometry": {
        "type": "Point",
        "coordinates": [
          23.7891289,
          42.9069053
        ]
      },
      "properties": {
        "id": 830505172,
        "osm_type": "node",
        "name": "Бърза закуска Бургерът",
        "cuisine": "burger",
        "chain": "unknown"
      }
    },
    {
      "type": "Feature",
      "geometry": {
        "type": "Point",
        "coordinates": [
          23.6062646,
          42.2650277
        ]
      },
      "properties": {
        "id": 1383527076,
        "osm_type": "node",
        "name": "Pizza Napoli",
        "chain": "unknown"
      }
    },
    {
      "type": "Feature",
      "geometry": {
        "type": "Point",
        "coordinates": [
          23.7885859,
          42.9088833
        ]
      },
      "properties": {
        "id": 2816413326,
        "osm_type": "node",
        "name": "О`кей",
        "opening_hours": "Mo-Fr 07:00-17:00",
        "cuisine": "regional",
        "chain": "unknown"
      }
    },
    {
      "type": "Feature",
      "geometry": {
        "type": "Point",
        "coordinates": [
          23.5556248,
          42.3367839
        ]
      },
      "properties": {
        "id": 2982679757,
        "osm_type": "node",
        "chain": "unknown"
      }
    },
    {
      "type": "Feature",
      "geometry": {
        "type": "Point",
        "coordinates": [
          24.3583346,
          42.641317
        ]
      },
      "properties": {
        "id": 3172177888,
        "osm_type": "node",
        "name": "Пицария\"Бай Маньо\"",
        "chain": "unknown"
      }
    },
    {
      "type": "Feature",
      "geometry": {
        "type": "Point",
        "coordinates": [
          23.0457599,
          43.0163106
        ]
      },
      "properties": {
        "id": 4496763241,
        "osm_type": "node",
        "chain": "unknown"
      }
    },
    {
      "type": "Feature",
      "geometry": {
        "type": "Point",
        "coordinates": [
          23.0470897,
          43.0163715
        ]
      },
      "properties": {
        "id": 4568256344,
        "osm_type": "node",
        "chain": "unknown"
      }
    },
    {
      "type": "Feature",
      "geometry": {
        "type": "Point",
        "coordinates": [
          23.0471145,
          43.0166733
        ]
      },
      "properties": {
        "id": 4568256761,
        "osm_type": "node",
        "chain": "unknown"
      }
    },
    {
      "type": "Feature",
      "geometry": {
        "type": "Point",
        "coordinates": [
          23.0381621,
          42.8549618
        ]
      },
      "properties": {
        "id": 4874854126,
        "osm_type": "node",
        "name": "Djani’s Pizza",
        "cuisine": "pizza",
        "chain": "unknown"
      }
    },
    {
      "type": "Feature",
      "geometry": {
        "type": "Point",
        "coordinates": [
          23.6060569,
          42.2654282
        ]
      },
      "properties": {
        "id": 5325659621,
        "osm_type": "node",
        "name": "Subway",
        "brand": "Subway",
        "brand:wikidata": "Q244457",
        "cuisine": "sandwich",
        "chain": "unknown"
      }
    },
    {
      "type": "Feature",
      "geometry": {
        "type": "Point",
        "coordinates": [
          23.7954471,
          42.907943
        ]
      },
      "properties": {
        "id": 5530208977,
        "osm_type": "node",
        "cuisine": "regional",
        "chain": "unknown"
      }
    },
    {
      "type": "Feature",
      "geometry": {
        "type": "Point",
        "coordinates": [
          23.7943514,
          42.9077421
        ]
      },
      "properties": {
        "id": 5596182822,
        "osm_type": "node",
        "cuisine": "arab",
        "chain": "unknown"
      }
    },
    {
      "type": "Feature",
      "geometry": {
        "type": "Point",
        "coordinates": [
          23.7954347,
          42.90795
        ]
      },
      "properties": {
        "id": 5596202023,
        "osm_type": "node",
        "cuisine": "regional",
        "chain": "unknown"
      }
    },
    {
      "type": "Feature",
      "geometry": {
        "type": "Point",
        "coordinates": [
          23.7950992,
          42.907913
        ]
      },
      "properties": {
        "id": 5596207021,
        "osm_type": "node",
        "cuisine": "arab",
        "chain": "unknown"
      }
    },
    {
      "type": "Feature",
      "geometry": {
        "type": "Point",
        "coordinates": [
          23.9114262,
          42.896978
        ]
      },
      "properties": {
        "id": 5598705323,
        "osm_type": "node",
        "name": "Розова долина 2",
        "cuisine": "regional",
        "chain": "unknown"
      }
    },
    {
      "type": "Feature",
      "geometry": {
        "type": "Point",
        "coordinates": [
          23.7921027,
          42.906595
        ]
      },
      "properties": {
        "id": 5963860319,
        "osm_type": "node",
        "name": "Burger при клюкарките",
        "cuisine": "burger",
        "chain": "unknown"
      }
    },
    {
      "type": "Feature",
      "geometry": {
        "type": "Point",
        "coordinates": [
          23.2159498,
          42.8103107
        ]
      },
      "properties": {
        "id": 6561162386,
        "osm_type": "node",
        "chain": "unknown"
      }
    },
    {
      "type": "Feature",
      "geometry": {
        "type": "Point",
        "coordinates": [
          24.0248637,
          42.9573006
        ]
      },
      "properties": {
        "id": 6683964885,
        "osm_type": "node",
        "name": "Viva",
        "opening_hours": "24/7",
        "chain": "unknown"
      }
    },
    {
      "type": "Feature",
      "geometry": {
        "type": "Point",
        "coordinates": [
          23.911124,
          42.8974988
        ]
      },
      "properties": {
        "id": 7824880500,
        "osm_type": "node",
        "chain": "unknown"
      }
    },
    {
      "type": "Feature",
      "geometry": {
        "type": "Point",
        "coordinates": [
          23.5557452,
          42.3377397
        ]
      },
      "properties": {
        "id": 7923625433,
        "osm_type": "node",
        "name": "Джой",
        "phone": "+359 89 780 226",
        "cuisine": "pizza",
        "chain": "unknown"
      }
    },
    {
      "type": "Feature",
      "geometry": {
        "type": "Point",
        "coordinates": [
          23.6228089,
          42.4110446
        ]
      },
      "properties": {
        "id": 8937255940,
        "osm_type": "node",
        "name": "Дивото зове",
        "chain": "unknown"
      }
    },
    {
      "type": "Feature",
      "geometry": {
        "type": "Point",
        "coordinates": [
          22.934946,
          42.9235191
        ]
      },
      "properties": {
        "id": 9090876657,
        "osm_type": "node",
        "name": "Скара на дървени въглища",
        "cuisine": "barbecue",
        "chain": "unknown"
      }
    },
    {
      "type": "Feature",
      "geometry": {
        "type": "Point",
        "coordinates": [
          22.9291195,
          42.9211616
        ]
      },
      "properties": {
        "id": 9197844963,
        "osm_type": "node",
        "cuisine": "banitsa",
        "chain": "unknown"
      }
    },
    {
      "type": "Feature",
      "geometry": {
        "type": "Point",
        "coordinates": [
          22.9289547,
          42.9210463
        ]
      },
      "properties": {
        "id": 9197844964,
        "osm_type": "node",
        "opening_hours": "Mo-Sa 06:00-14:00; Su off",
        "cuisine": "banitsa",
        "chain": "unknown"
      }
    },
    {
      "type": "Feature",
      "geometry": {
        "type": "Point",
        "coordinates": [
          23.58324,
          42.6238638
        ]
      },
      "properties": {
        "id": 9669550394,
        "osm_type": "node",
        "chain": "unknown"
      }
    },
    {
      "type": "Feature",
      "geometry": {
        "type": "Point",
        "coordinates": [
          23.5570981,
          42.3379563
        ]
      },
      "properties": {
        "id": 9909344262,
        "osm_type": "node",
        "chain": "unknown"
      }
    },
    {
      "type": "Feature",
      "geometry": {
        "type": "Point",
        "coordinates": [
          23.2167878,
          42.8102187
        ]
      },
      "properties": {
        "id": 10050399077,
        "osm_type": "node",
        "name": "Djani's Pizza",
        "opening_hours": "Mo-Su 07:00-22:00",
        "chain": "unknown"
      }
    },
    {
      "type": "Feature",
      "geometry": {
        "type": "Point",
        "coordinates": [
          23.6399326,
          42.6428573
        ]
      },
      "properties": {
        "id": 10054534509,
        "osm_type": "node",
        "chain": "unknown"
      }
    },
    {
      "type": "Feature",
      "geometry": {
        "type": "Point",
        "coordinates": [
          23.7058425,
          42.6942017
        ]
      },
      "properties": {
        "id": 10180724612,
        "osm_type": "node",
        "chain": "unknown"
      }
    },
    {
      "type": "Feature",
      "geometry": {
        "type": "Point",
        "coordinates": [
          23.5518613,
          42.3369366
        ]
      },
      "properties": {
        "id": 10762181673,
        "osm_type": "node",
        "name": "Пица на парче",
        "cuisine": "pizza",
        "chain": "unknown"
      }
    },
    {
      "type": "Feature",
      "geometry": {
        "type": "Point",
        "coordinates": [
          23.7915302,
          42.9082739
        ]
      },
      "properties": {
        "id": 10945550339,
        "osm_type": "node",
        "name": "Fantasy",
        "chain": "unknown"
      }
    },
    {
      "type": "Feature",
      "geometry": {
        "type": "Point",
        "coordinates": [
          22.9321315,
          42.9212933
        ]
      },
      "properties": {
        "id": 11051511734,
        "osm_type": "node",
        "chain": "unknown"
      }
    },
    {
      "type": "Feature",
      "geometry": {
        "type": "Point",
        "coordinates": [
          23.7865029,
          42.9083112
        ]
      },
      "properties": {
        "id": 11062143977,
        "osm_type": "node",
        "name": "Баничарница",
        "chain": "unknown"
      }
    },
    {
      "type": "Feature",
      "geometry": {
        "type": "Point",
        "coordinates": [
          24.1396928,
          42.7129059
        ]
      },
      "properties": {
        "id": 11078672816,
        "osm_type": "node",
        "cuisine": "burger",
        "chain": "unknown"
      }
    },
    {
      "type": "Feature",
      "geometry": {
        "type": "Point",
        "coordinates": [
          23.4137576,
          42.3666413
        ]
      },
      "properties": {
        "id": 11235713205,
        "osm_type": "node",
        "chain": "unknown"
      }
    },
    {
      "type": "Feature",
      "geometry": {
        "type": "Point",
        "coordinates": [
          23.9185198,
          42.8946764
        ]
      },
      "properties": {
        "id": 11287727903,
        "osm_type": "node",
        "name": "Бърза закуска \"При Банзата\"",
        "chain": "unknown"
      }
    },
    {
      "type": "Feature",
      "geometry": {
        "type": "Point",
        "coordinates": [
          23.788945,
          42.9093477
        ]
      },
      "properties": {
        "id": 11294706694,
        "osm_type": "node",
        "name": "Pizza кът",
        "cuisine": "pizza",
        "chain": "unknown"
      }
    },
    {
      "type": "Feature",
      "geometry": {
        "type": "Point",
        "coordinates": [
          23.0384345,
          42.8544952
        ]
      },
      "properties": {
        "id": 11552209712,
        "osm_type": "node",
        "name": "Наш,та скара",
        "chain": "unknown"
      }
    },
    {
      "type": "Feature",
      "geometry": {
        "type": "Point",
        "coordinates": [
          23.5956611,
          42.6050975
        ]
      },
      "properties": {
        "id": 11644964821,
        "osm_type": "node",
        "name": "super pizza novi-han",
        "opening_hours": "Mo-Su 10:00-22:00",
        "phone": "+359 87 755 6557",
        "website": "https://www.facebook.com/people/Super-Pizza-%D0%9D%D0%BE%D0%B2%D0%B8-%D0%A5%D0%B0%D0%BD/100076215211199/",
        "cuisine": "pizza",
        "chain": "unknown"
      }
    },
    {
      "type": "Feature",
      "geometry": {
        "type": "Point",
        "coordinates": [
          23.7039974,
          42.6944289
        ]
      },
      "properties": {
        "id": 11884399633,
        "osm_type": "node",
        "chain": "unknown"
      }
    },
    {
      "type": "Feature",
      "geometry": {
        "type": "Point",
        "coordinates": [
          23.7946465,
          42.908004
        ]
      },
      "properties": {
        "id": 11969198193,
        "osm_type": "node",
        "chain": "unknown"
      }
    },
    {
      "type": "Feature",
      "geometry": {
        "type": "Point",
        "coordinates": [
          23.8730567,
          42.3870968
        ]
      },
      "properties": {
        "id": 12388236923,
        "osm_type": "node",
        "chain": "unknown"
      }
    },
    {
      "type": "Feature",
      "geometry": {
        "type": "Point",
        "coordinates": [
          23.03817,
          42.8514209
        ]
      },
      "properties": {
        "id": 12473756075,
        "osm_type": "node",
        "chain": "unknown"
      }
    },
    {
      "type": "Feature",
      "geometry": {
        "type": "Point",
        "coordinates": [
          24.1311257,
          42.7089175
        ]
      },
      "properties": {
        "id": 12971741488,
        "osm_type": "node",
        "chain": "unknown"
      }
    },
    {
      "type": "Feature",
      "geometry": {
        "type": "Point",
        "coordinates": [
          23.7856461,
          42.9036397
        ]
      },
      "properties": {
        "id": 13012127649,
        "osm_type": "node",
        "name": "Sweet Fantasy",
        "chain": "unknown"
      }
    },
    {
      "type": "Feature",
      "geometry": {
        "type": "Point",
        "coordinates": [
          23.9016541,
          42.9038443
        ]
      },
      "properties": {
        "id": 13013766297,
        "osm_type": "node",
        "name": "Кът за бързо хранене край езерото",
        "chain": "unknown"
      }
    },
    {
      "type": "Feature",
      "geometry": {
        "type": "Point",
        "coordinates": [
          23.0387289,
          42.8555377
        ]
      },
      "properties": {
        "id": 13062243686,
        "osm_type": "node",
        "chain": "unknown"
      }
    },
    {
      "type": "Feature",
      "geometry": {
        "type": "Point",
        "coordinates": [
          23.7863112,
          42.9024348
        ]
      },
      "properties": {
        "id": 13068420964,
        "osm_type": "node",
        "name": "Tacos",
        "chain": "unknown"
      }
    },
    {
      "type": "Feature",
      "geometry": {
        "type": "Point",
        "coordinates": [
          23.7854955,
          42.9077845
        ]
      },
      "properties": {
        "id": 13068420968,
        "osm_type": "node",
        "chain": "unknown"
      }
    },
    {
      "type": "Feature",
      "geometry": {
        "type": "Point",
        "coordinates": [
          23.7860624,
          42.9023681
        ]
      },
      "properties": {
        "id": 13068420969,
        "osm_type": "node",
        "name": "Пуканки",
        "chain": "unknown"
      }
    },
    {
      "type": "Feature",
      "geometry": {
        "type": "Point",
        "coordinates": [
          22.934812,
          42.9192028
        ]
      },
      "properties": {
        "id": 13279469981,
        "osm_type": "node",
        "chain": "unknown"
      }
    },
    {
      "type": "Feature",
      "geometry": {
        "type": "Point",
        "coordinates": [
          22.9294544,
          42.9214836
        ]
      },
      "properties": {
        "id": 13279469982,
        "osm_type": "node",
        "cuisine": "bbq",
        "chain": "unknown"
      }
    },
    {
      "type": "Feature",
      "geometry": {
        "type": "Point",
        "coordinates": [
          22.9324341,
          42.9219203
        ]
      },
      "properties": {
        "id": 13731661320,
        "osm_type": "node",
        "chain": "unknown"
      }
    },
    {
      "type": "Feature",
      "geometry": {
        "type": "Point",
        "coordinates": [
          24.1593037,
          42.7142513
        ]
      },
      "properties": {
        "id": 149869478,
        "osm_type": "way",
        "chain": "unknown"
      }
    },
    {
      "type": "Feature",
      "geometry": {
        "type": "Point",
        "coordinates": [
          24.0772081,
          42.7514627
        ]
      },
      "properties": {
        "id": 262589812,
        "osm_type": "way",
        "name": "х. Кашана",
        "phone": "+359 88 271 4416;0878539160;0882966497",
        "chain": "unknown"
      }
    },
    {
      "type": "Feature",
      "geometry": {
        "type": "Point",
        "coordinates": [
          23.7946997,
          42.9067364
        ]
      },
      "properties": {
        "id": 339180944,
        "osm_type": "way",
        "name": "Фиеста Фуд",
        "opening_hours": "Mo-Su 07:00-21:00",
        "phone": "+359 89 544 9881",
        "chain": "unknown"
      }
    },
    {
      "type": "Feature",
      "geometry": {
        "type": "Point",
        "coordinates": [
          23.2161496,
          42.8104337
        ]
      },
      "properties": {
        "id": 502482384,
        "osm_type": "way",
        "name": "Стрийт 29",
        "operator": "Корект 29 ООД",
        "cuisine": "kebab",
        "chain": "unknown"
      }
    },
    {
      "type": "Feature",
      "geometry": {
        "type": "Point",
        "coordinates": [
          23.785915,
          42.9071591
        ]
      },
      "properties": {
        "id": 675432035,
        "osm_type": "way",
        "name": "Evergreen",
        "chain": "unknown"
      }
    },
    {
      "type": "Feature",
      "geometry": {
        "type": "Point",
        "coordinates": [
          24.0246136,
          42.9567015
        ]
      },
      "properties": {
        "id": 1094565140,
        "osm_type": "way",
        "name": "KFC",
        "brand": "KFC",
        "opening_hours": "11:00-20:00",
        "phone": "+359 89 301 7166",
        "website": "https://kfc.bg/",
        "operator": "АМРЕСТ ЕООД",
        "brand:wikidata": "Q524757",
        "cuisine": "chicken",
        "chain": "unknown"
      }
    },
    {
      "type": "Feature",
      "geometry": {
        "type": "Point",
        "coordinates": [
          23.5578101,
          42.3373031
        ]
      },
      "properties": {
        "id": 1175899312,
        "osm_type": "way",
        "chain": "unknown"
      }
    },
    {
      "type": "Feature",
      "geometry": {
        "type": "Point",
        "coordinates": [
          24.1398229,
          42.7127962
        ]
      },
      "properties": {
        "id": 1193546838,
        "osm_type": "way",
        "name": "Пици, баници, закуски",
        "cuisine": "pizza",
        "chain": "unknown"
      }
    },
    {
      "type": "Feature",
      "geometry": {
        "type": "Point",
        "coordinates": [
          23.2132285,
          42.8094926
        ]
      },
      "properties": {
        "id": 1303753314,
        "osm_type": "way",
        "cuisine": "barbecue",
        "chain": "unknown"
      }
    }
  ]
}