{
  "type": "FeatureCollection",
  "features": [
    {
      "type": "Feature",
      "geometry": {
        "type": "Point",
        "coordinates": [
          23.1251186,
          42.7976358
        ]
      },
      "properties": {
        "id": 340027046,
        "osm_type": "node"
      }
    },
    {
      "type": "Feature",
      "geometry": {
        "type": "Point",
        "coordinates": [
          23.1446528,
          42.7793979
        ]
      },
      "properties": {
        "id": 344657116,
        "osm_type": "node",
        "name": "Магазин \"Жарковата къща\""
      }
    },
    {
      "type": "Feature",
      "geometry": {
        "type": "Point",
        "coordinates": [
          23.1453908,
          42.7788184
        ]
      },
      "properties": {
        "id": 344657170,
        "osm_type": "node",
        "name": "Магазин \"При Силва\""
      }
    },
    {
      "type": "Feature",
      "geometry": {
        "type": "Point",
        "coordinates": [
          23.1201366,
          42.7815004
        ]
      },
      "properties": {
        "id": 344657877,
        "osm_type": "node"
      }
    },
    {
      "type": "Feature",
      "geometry": {
        "type": "Point",
        "coordinates": [
          23.1118646,
          42.7797365
        ]
      },
      "properties": {
        "id": 344658016,
        "osm_type": "node"
      }
    },
    {
      "type": "Feature",
      "geometry": {
        "type": "Point",
        "coordinates": [
          23.146799,
          42.7951472
        ]
      },
      "properties": {
        "id": 344658868,
        "osm_type": "node"
      }
    },
    {
      "type": "Feature",
      "geometry": {
        "type": "Point",
        "coordinates": [
          23.8512073,
          42.432174
        ]
      },
      "properties": {
        "id": 660137109,
        "osm_type": "node"
      }
    },
    {
      "type": "Feature",
      "geometry": {
        "type": "Point",
        "coordinates": [
          23.8528888,
          42.4328149
        ]
      },
      "properties": {
        "id": 660137119,
        "osm_type": "node",
        "opening_hours": "08:00-19:30",
        "check_date": "2023-05-21"
      }
    },
    {
      "type": "Feature",
      "geometry": {
        "type": "Point",
        "coordinates": [
          23.6054099,
          42.265807
        ]
      },
      "properties": {
        "id": 1383645121,
        "osm_type": "node",
        "name": "Lira",
        "opening_hours": "Mo-Th 08:30-21:30; Fr-Su 08:30-22:30",
        "check_date": "2024-03-02"
      }
    },
    {
      "type": "Feature",
      "geometry": {
        "type": "Point",
        "coordinates": [
          23.5559215,
          42.3329552
        ]
      },
      "properties": {
        "id": 2162716961,
        "osm_type": "node",
        "name": "Т-Маркет",
        "brand": "Т-Маркет"
      }
    },
    {
      "type": "Feature",
      "geometry": {
        "type": "Point",
        "coordinates": [
          23.3300632,
          43.0405863
        ]
      },
      "properties": {
        "id": 2258202009,
        "osm_type": "node"
      }
    },
    {
      "type": "Feature",
      "geometry": {
        "type": "Point",
        "coordinates": [
          23.5830396,
          42.6243378
        ]
      },
      "properties": {
        "id": 2384050785,
        "osm_type": "node",
        "name": "Магазин СВА"
      }
    },
    {
      "type": "Feature",
      "geometry": {
        "type": "Point",
        "coordinates": [
          24.1739436,
          42.7030574
        ]
      },
      "properties": {
        "id": 2417681843,
        "osm_type": "node",
        "name": "Т Маркет"
      }
    },
    {
      "type": "Feature",
      "geometry": {
        "type": "Point",
        "coordinates": [
          23.5201086,
          42.3898994
        ]
      },
      "properties": {
        "id": 2974296500,
        "osm_type": "node",
        "name": "Bravo"
      }
    },
    {
      "type": "Feature",
      "geometry": {
        "type": "Point",
        "coordinates": [
          23.6014722,
          42.6686277
        ]
      },
      "properties": {
        "id": 3993693079,
        "osm_type": "node"
      }
    },
    {
      "type": "Feature",
      "geometry": {
        "type": "Point",
        "coordinates": [
          23.6052831,
          42.265469
        ]
      },
      "properties": {
        "id": 4047774023,
        "osm_type": "node",
        "name": "Aldo",
        "opening_hours": "08:30-24:00",
        "check_date": "2024-03-02"
      }
    },
    {
      "type": "Feature",
      "geometry": {
        "type": "Point",
        "coordinates": [
          24.357788,
          42.6397454
        ]
      },
      "properties": {
        "id": 4407727903,
        "osm_type": "node",
        "name": "Оникс трейд"
      }
    },
    {
      "type": "Feature",
      "geometry": {
        "type": "Point",
        "coordinates": [
          24.0556246,
          42.6596501
        ]
      },
      "properties": {
        "id": 4421860889,
        "osm_type": "node",
        "name": "Интерстрой НМ"
      }
    },
    {
      "type": "Feature",
      "geometry": {
        "type": "Point",
        "coordinates": [
          23.9900828,
          42.6916645
        ]
      },
      "properties": {
        "id": 4477034502,
        "osm_type": "node"
      }
    },
    {
      "type": "Feature",
      "geometry": {
        "type": "Point",
        "coordinates": [
          23.9897757,
          42.6917256
        ]
      },
      "properties": {
        "id": 4477034505,
        "osm_type": "node"
      }
    },
    {
      "type": "Feature",
      "geometry": {
        "type": "Point",
        "coordinates": [
          23.3433724,
          42.9638627
        ]
      },
      "properties": {
        "id": 4485483641,
        "osm_type": "node",
        "name": "Grocery Outlet"
      }
    },
    {
      "type": "Feature",
      "geometry": {
        "type": "Point",
        "coordinates": [
          23.3430636,
          42.9635293
        ]
      },
      "properties": {
        "id": 4485483646,
        "osm_type": "node",
        "name": "Grocery Outlet"
      }
    },
    {
      "type": "Feature",
      "geometry": {
        "type": "Point",
        "coordinates": [
          23.0425223,
          43.0161183
        ]
      },
      "properties": {
        "id": 4494431919,
        "osm_type": "node"
      }
    },
    {
      "type": "Feature",
      "geometry": {
        "type": "Point",
        "coordinates": [
          23.0463782,
          43.0145413
        ]
      },
      "properties": {
        "id": 4494600051,
        "osm_type": "node",
        "name": "Мургаш"
      }
    },
    {
      "type": "Feature",
      "geometry": {
        "type": "Point",
        "coordinates": [
          23.0473532,
          43.0120444
        ]
      },
      "properties": {
        "id": 4494600069,
        "osm_type": "node",
        "name": "Ред Маркет"
      }
    },
    {
      "type": "Feature",
      "geometry": {
        "type": "Point",
        "coordinates": [
          23.0474677,
          43.0151936
        ]
      },
      "properties": {
        "id": 4494600082,
        "osm_type": "node",
        "name": "Фреш Маркет",
        "brand": "Фреш Маркет"
      }
    },
    {
      "type": "Feature",
      "geometry": {
        "type": "Point",
        "coordinates": [
          23.0485768,
          43.0170222
        ]
      },
      "properties": {
        "id": 4494600083,
        "osm_type": "node",
        "name": "Пепе"
      }
    },
    {
      "type": "Feature",
      "geometry": {
        "type": "Point",
        "coordinates": [
          23.0477663,
          43.0068144
        ]
      },
      "properties": {
        "id": 4494608156,
        "osm_type": "node",
        "name": "Митика",
        "opening_hours": "07:00-22:00",
        "check_date": "2024-02-17"
      }
    },
    {
      "type": "Feature",
      "geometry": {
        "type": "Point",
        "coordinates": [
          23.0416514,
          43.0103849
        ]
      },
      "properties": {
        "id": 4496998697,
        "osm_type": "node"
      }
    },
    {
      "type": "Feature",
      "geometry": {
        "type": "Point",
        "coordinates": [
          23.6298771,
          42.5959754
        ]
      },
      "properties": {
        "id": 4511496589,
        "osm_type": "node",
        "name": "Хранителен магазин \"Сентрал парк\"",
        "opening_hours": "Mo-Su 10:00-22:00"
      }
    },
    {
      "type": "Feature",
      "geometry": {
        "type": "Point",
        "coordinates": [
          23.7606464,
          42.3106777
        ]
      },
      "properties": {
        "id": 4561530329,
        "osm_type": "node",
        "name": "Galaxi"
      }
    },
    {
      "type": "Feature",
      "geometry": {
        "type": "Point",
        "coordinates": [
          23.7101703,
          42.5594637
        ]
      },
      "properties": {
        "id": 4585112997,
        "osm_type": "node",
        "name": "Хранителен магазин"
      }
    },
    {
      "type": "Feature",
      "geometry": {
        "type": "Point",
        "coordinates": [
          23.2245588,
          42.8029841
        ]
      },
      "properties": {
        "id": 4676171552,
        "osm_type": "node",
        "name": "CBA",
        "brand": "CBA"
      }
    },
    {
      "type": "Feature",
      "geometry": {
        "type": "Point",
        "coordinates": [
          23.7919454,
          42.9076205
        ]
      },
      "properties": {
        "id": 4901890080,
        "osm_type": "node",
        "name": "Европа"
      }
    },
    {
      "type": "Feature",
      "geometry": {
        "type": "Point",
        "coordinates": [
          23.2144108,
          42.8126965
        ]
      },
      "properties": {
        "id": 5079622259,
        "osm_type": "node",
        "name": "Денонощен магазин"
      }
    },
    {
      "type": "Feature",
      "geometry": {
        "type": "Point",
        "coordinates": [
          23.8165297,
          42.4376855
        ]
      },
      "properties": {
        "id": 5263812193,
        "osm_type": "node",
        "name": "Хранителни стоки"
      }
    },
    {
      "type": "Feature",
      "geometry": {
        "type": "Point",
        "coordinates": [
          23.6405972,
          42.6423345
        ]
      },
      "properties": {
        "id": 5477286778,
        "osm_type": "node",
        "name": "Бурлекс",
        "brand": "Бурлекс",
        "opening_hours": "Mo-Su 07:00-21:00"
      }
    },
    {
      "type": "Feature",
      "geometry": {
        "type": "Point",
        "coordinates": [
          23.9134574,
          42.8972662
        ]
      },
      "properties": {
        "id": 5516694270,
        "osm_type": "node",
        "name": "Биляна",
        "opening_hours": "Mo-Su 08:00-20:30"
      }
    },
    {
      "type": "Feature",
      "geometry": {
        "type": "Point",
        "coordinates": [
          23.9181286,
          42.8948591
        ]
      },
      "properties": {
        "id": 5516694275,
        "osm_type": "node"
      }
    },
    {
      "type": "Feature",
      "geometry": {
        "type": "Point",
        "coordinates": [
          23.7964909,
          42.9080098
        ]
      },
      "properties": {
        "id": 5530208982,
        "osm_type": "node",
        "name": "Молтен"
      }
    },
    {
      "type": "Feature",
      "geometry": {
        "type": "Point",
        "coordinates": [
          23.2024165,
          42.8102618
        ]
      },
      "properties": {
        "id": 5719643392,
        "osm_type": "node",
        "name": "Търговски център"
      }
    },
    {
      "type": "Feature",
      "geometry": {
        "type": "Point",
        "coordinates": [
          23.9110397,
          42.3570027
        ]
      },
      "properties": {
        "id": 6181345273,
        "osm_type": "node"
      }
    },
    {
      "type": "Feature",
      "geometry": {
        "type": "Point",
        "coordinates": [
          23.2127123,
          42.8091655
        ]
      },
      "properties": {
        "id": 6561150313,
        "osm_type": "node",
        "name": "Billa",
        "brand": "Billa",
        "opening_hours": "Mo-Su 07:30-22:00"
      }
    },
    {
      "type": "Feature",
      "geometry": {
        "type": "Point",
        "coordinates": [
          24.1802548,
          42.699766
        ]
      },
      "properties": {
        "id": 6593179162,
        "osm_type": "node",
        "name": "Моят магазин"
      }
    },
    {
      "type": "Feature",
      "geometry": {
        "type": "Point",
        "coordinates": [
          24.0503202,
          42.9587307
        ]
      },
      "properties": {
        "id": 6604515647,
        "osm_type": "node"
      }
    },
    {
      "type": "Feature",
      "geometry": {
        "type": "Point",
        "coordinates": [
          24.2627253,
          42.7353204
        ]
      },
      "properties": {
        "id": 6647204145,
        "osm_type": "node"
      }
    },
    {
      "type": "Feature",
      "geometry": {
        "type": "Point",
        "coordinates": [
          23.3471436,
          42.9617923
        ]
      },
      "properties": {
        "id": 6900315770,
        "osm_type": "node",
        "name": "Фреш маркет",
        "brand": "Фреш Маркет",
        "opening_hours": "Mo-Su 08:00-22:00"
      }
    },
    {
      "type": "Feature",
      "geometry": {
        "type": "Point",
        "coordinates": [
          23.3517219,
          42.9596679
        ]
      },
      "properties": {
        "id": 6900337587,
        "osm_type": "node",
        "name": "Магазин Аванти"
      }
    },
    {
      "type": "Feature",
      "geometry": {
        "type": "Point",
        "coordinates": [
          23.7652522,
          42.3109286
        ]
      },
      "properties": {
        "id": 6915573272,
        "osm_type": "node",
        "name": "КООП"
      }
    },
    {
      "type": "Feature",
      "geometry": {
        "type": "Point",
        "coordinates": [
          24.3602945,
          42.6418961
        ]
      },
      "properties": {
        "id": 6920245288,
        "osm_type": "node"
      }
    },
    {
      "type": "Feature",
      "geometry": {
        "type": "Point",
        "coordinates": [
          24.3608225,
          42.6318964
        ]
      },
      "properties": {
        "id": 6924684186,
        "osm_type": "node",
        "name": "Elit"
      }
    },
    {
      "type": "Feature",
      "geometry": {
        "type": "Point",
        "coordinates": [
          24.3601249,
          42.6326041
        ]
      },
      "properties": {
        "id": 6924702285,
        "osm_type": "node",
        "name": "Mini"
      }
    },
    {
      "type": "Feature",
      "geometry": {
        "type": "Point",
        "coordinates": [
          24.3597854,
          42.6421911
        ]
      },
      "properties": {
        "id": 6924702386,
        "osm_type": "node"
      }
    },
    {
      "type": "Feature",
      "geometry": {
        "type": "Point",
        "coordinates": [
          23.6048745,
          42.2685454
        ]
      },
      "properties": {
        "id": 7212909140,
        "osm_type": "node"
      }
    },
    {
      "type": "Feature",
      "geometry": {
        "type": "Point",
        "coordinates": [
          23.5911608,
          42.6060806
        ]
      },
      "properties": {
        "id": 7985365140,
        "osm_type": "node",
        "name": "Б Маркет"
      }
    },
    {
      "type": "Feature",
      "geometry": {
        "type": "Point",
        "coordinates": [
          23.36942,
          42.8647763
        ]
      },
      "properties": {
        "id": 8107475086,
        "osm_type": "node",
        "name": "Хранителен магазин"
      }
    },
    {
      "type": "Feature",
      "geometry": {
        "type": "Point",
        "coordinates": [
          23.3698482,
          42.8674415
        ]
      },
      "properties": {
        "id": 8107475087,
        "osm_type": "node",
        "name": "Хранителен магазин"
      }
    },
    {
      "type": "Feature",
      "geometry": {
        "type": "Point",
        "coordinates": [
          23.61069,
          42.5346428
        ]
      },
      "properties": {
        "id": 8223370751,
        "osm_type": "node"
      }
    },
    {
      "type": "Feature",
      "geometry": {
        "type": "Point",
        "coordinates": [
          23.2024121,
          42.7607896
        ]
      },
      "properties": {
        "id": 8995173782,
        "osm_type": "node"
      }
    },
    {
      "type": "Feature",
      "geometry": {
        "type": "Point",
        "coordinates": [
          22.9411111,
          42.9154634
        ]
      },
      "properties": {
        "id": 9087887359,
        "osm_type": "node",
        "name": "CBA Kome",
        "brand": "CBA Kome",
        "opening_hours": "08:00-22:00"
      }
    },
    {
      "type": "Feature",
      "geometry": {
        "type": "Point",
        "coordinates": [
          23.1451769,
          42.778438
        ]
      },
      "properties": {
        "id": 9554183274,
        "osm_type": "node",
        "name": "\"Магазин 8\""
      }
    },
    {
      "type": "Feature",
      "geometry": {
        "type": "Point",
        "coordinates": [
          23.7524272,
          42.479568
        ]
      },
      "properties": {
        "id": 9759856603,
        "osm_type": "node"
      }
    },
    {
      "type": "Feature",
      "geometry": {
        "type": "Point",
        "coordinates": [
          23.8176394,
          42.4353101
        ]
      },
      "properties": {
        "id": 9759877322,
        "osm_type": "node"
      }
    },
    {
      "type": "Feature",
      "geometry": {
        "type": "Point",
        "coordinates": [
          24.0029107,
          42.843342
        ]
      },
      "properties": {
        "id": 9936535171,
        "osm_type": "node",
        "name": "Иви"
      }
    },
    {
      "type": "Feature",
      "geometry": {
        "type": "Point",
        "coordinates": [
          23.1967157,
          42.7648744
        ]
      },
      "properties": {
        "id": 9955368903,
        "osm_type": "node",
        "name": "Фреш Маркет",
        "brand": "Фреш Маркет"
      }
    },
    {
      "type": "Feature",
      "geometry": {
        "type": "Point",
        "coordinates": [
          23.2173546,
          42.8101426
        ]
      },
      "properties": {
        "id": 10050353552,
        "osm_type": "node",
        "name": "CBA",
        "brand": "CBA",
        "check_date": "2022-12-23"
      }
    },
    {
      "type": "Feature",
      "geometry": {
        "type": "Point",
        "coordinates": [
          23.346932,
          42.9598698
        ]
      },
      "properties": {
        "id": 10221053209,
        "osm_type": "node",
        "name": "ReFresh"
      }
    },
    {
      "type": "Feature",
      "geometry": {
        "type": "Point",
        "coordinates": [
          23.0381876,
          42.8550751
        ]
      },
      "properties": {
        "id": 10584490205,
        "osm_type": "node"
      }
    },
    {
      "type": "Feature",
      "geometry": {
        "type": "Point",
        "coordinates": [
          23.5496764,
          42.3370514
        ]
      },
      "properties": {
        "id": 10762181812,
        "osm_type": "node",
        "name": "My Market"
      }
    },
    {
      "type": "Feature",
      "geometry": {
        "type": "Point",
        "coordinates": [
          23.5615182,
          42.3234923
        ]
      },
      "properties": {
        "id": 10762198754,
        "osm_type": "node"
      }
    },
    {
      "type": "Feature",
      "geometry": {
        "type": "Point",
        "coordinates": [
          24.1634695,
          42.7034437
        ]
      },
      "properties": {
        "id": 11509493361,
        "osm_type": "node",
        "name": "Billa",
        "brand": "Billa",
        "opening_hours": "Mo-Su 07:30-22:00"
      }
    },
    {
      "type": "Feature",
      "geometry": {
        "type": "Point",
        "coordinates": [
          23.6064408,
          42.2658519
        ]
      },
      "properties": {
        "id": 11685221067,
        "osm_type": "node",
        "name": "Рила",
        "opening_hours": "24/7",
        "check_date": "2024-03-02"
      }
    },
    {
      "type": "Feature",
      "geometry": {
        "type": "Point",
        "coordinates": [
          23.5907072,
          42.655695
        ]
      },
      "properties": {
        "id": 11723449705,
        "osm_type": "node",
        "name": "Lidl",
        "brand": "Lidl"
      }
    },
    {
      "type": "Feature",
      "geometry": {
        "type": "Point",
        "coordinates": [
          23.7109255,
          42.5561418
        ]
      },
      "properties": {
        "id": 12101136078,
        "osm_type": "node",
        "name": "Бурлекс",
        "brand": "Бурлекс"
      }
    },
    {
      "type": "Feature",
      "geometry": {
        "type": "Point",
        "coordinates": [
          23.8153574,
          42.4399699
        ]
      },
      "properties": {
        "id": 13084356601,
        "osm_type": "node",
        "name": "Фреш маркет"
      }
    },
    {
      "type": "Feature",
      "geometry": {
        "type": "Point",
        "coordinates": [
          23.8717608,
          42.9124873
        ]
      },
      "properties": {
        "id": 13415598217,
        "osm_type": "node"
      }
    },
    {
      "type": "Feature",
      "geometry": {
        "type": "Point",
        "coordinates": [
          23.2292663,
          42.7992546
        ]
      },
      "properties": {
        "id": 13580034369,
        "osm_type": "node",
        "name": "Lidl",
        "brand": "Lidl"
      }
    },
    {
      "type": "Feature",
      "geometry": {
        "type": "Point",
        "coordinates": [
          23.8509658,
          42.3113216
        ]
      },
      "properties": {
        "id": 62120533,
        "osm_type": "way",
        "name": "Борсата"
      }
    },
    {
      "type": "Feature",
      "geometry": {
        "type": "Point",
        "coordinates": [
          23.2173686,
          42.8105302
        ]
      },
      "properties": {
        "id": 205021926,
        "osm_type": "way",
        "name": "Стефи център"
      }
    },
    {
      "type": "Feature",
      "geometry": {
        "type": "Point",
        "coordinates": [
          23.2156288,
          42.8099171
        ]
      },
      "properties": {
        "id": 205022694,
        "osm_type": "way",
        "name": "ProMarket"
      }
    },
    {
      "type": "Feature",
      "geometry": {
        "type": "Point",
        "coordinates": [
          23.555896,
          42.3329281
        ]
      },
      "properties": {
        "id": 206267601,
        "osm_type": "way"
      }
    },
    {
      "type": "Feature",
      "geometry": {
        "type": "Point",
        "coordinates": [
          23.5551228,
          42.3348031
        ]
      },
      "properties": {
        "id": 206514351,
        "osm_type": "way",
        "name": "Billa",
        "brand": "Billa",
        "opening_hours": "Mo-Su 07:30-22:00",
        "check_date": "2024-02-25"
      }
    },
    {
      "type": "Feature",
      "geometry": {
        "type": "Point",
        "coordinates": [
          23.1970712,
          42.7627193
        ]
      },
      "properties": {
        "id": 206650876,
        "osm_type": "way",
        "name": "HOT Market"
      }
    },
    {
      "type": "Feature",
      "geometry": {
        "type": "Point",
        "coordinates": [
          23.8583803,
          42.3091883
        ]
      },
      "properties": {
        "id": 227930453,
        "osm_type": "way",
        "name": "Т-Маркет",
        "brand": "Т-Маркет"
      }
    },
    {
      "type": "Feature",
      "geometry": {
        "type": "Point",
        "coordinates": [
          23.8044213,
          42.9114062
        ]
      },
      "properties": {
        "id": 260125972,
        "osm_type": "way",
        "name": "Kaufland",
        "brand": "Kaufland",
        "opening_hours": "Mo-Sa 07:00-21:00; Su 08:00-21:00"
      }
    },
    {
      "type": "Feature",
      "geometry": {
        "type": "Point",
        "coordinates": [
          23.7717453,
          42.7054679
        ]
      },
      "properties": {
        "id": 273130642,
        "osm_type": "way"
      }
    },
    {
      "type": "Feature",
      "geometry": {
        "type": "Point",
        "coordinates": [
          23.3508798,
          42.9598996
        ]
      },
      "properties": {
        "id": 284015752,
        "osm_type": "way",
        "name": "CBA",
        "brand": "CBA"
      }
    },
    {
      "type": "Feature",
      "geometry": {
        "type": "Point",
        "coordinates": [
          23.5994344,
          42.6707328
        ]
      },
      "properties": {
        "id": 364708356,
        "osm_type": "way",
        "name": "Бурлекс",
        "brand": "Бурлекс"
      }
    },
    {
      "type": "Feature",
      "geometry": {
        "type": "Point",
        "coordinates": [
          23.5985845,
          42.6709843
        ]
      },
      "properties": {
        "id": 396619048,
        "osm_type": "way",
        "name": "Бурлекс",
        "brand": "Бурлекс"
      }
    },
    {
      "type": "Feature",
      "geometry": {
        "type": "Point",
        "coordinates": [
          23.5980349,
          42.671612
        ]
      },
      "properties": {
        "id": 396713522,
        "osm_type": "way"
      }
    },
    {
      "type": "Feature",
      "geometry": {
        "type": "Point",
        "coordinates": [
          23.5982173,
          42.6715463
        ]
      },
      "properties": {
        "id": 396713524,
        "osm_type": "way"
      }
    },
    {
      "type": "Feature",
      "geometry": {
        "type": "Point",
        "coordinates": [
          23.9929786,
          42.6964111
        ]
      },
      "properties": {
        "id": 451040091,
        "osm_type": "way"
      }
    },
    {
      "type": "Feature",
      "geometry": {
        "type": "Point",
        "coordinates": [
          23.0364756,
          43.0159937
        ]
      },
      "properties": {
        "id": 454632991,
        "osm_type": "way",
        "name": "Пепе"
      }
    },
    {
      "type": "Feature",
      "geometry": {
        "type": "Point",
        "coordinates": [
          23.0390023,
          42.85226
        ]
      },
      "properties": {
        "id": 495754124,
        "osm_type": "way"
      }
    },
    {
      "type": "Feature",
      "geometry": {
        "type": "Point",
        "coordinates": [
          22.8448002,
          42.993097
        ]
      },
      "properties": {
        "id": 502032885,
        "osm_type": "way",
        "name": "Travel Free"
      }
    },
    {
      "type": "Feature",
      "geometry": {
        "type": "Point",
        "coordinates": [
          23.2133559,
          42.8186575
        ]
      },
      "properties": {
        "id": 502484773,
        "osm_type": "way",
        "name": "Минимаркет Ханчето"
      }
    },
    {
      "type": "Feature",
      "geometry": {
        "type": "Point",
        "coordinates": [
          23.2241759,
          42.8182836
        ]
      },
      "properties": {
        "id": 504237026,
        "osm_type": "way"
      }
    },
    {
      "type": "Feature",
      "geometry": {
        "type": "Point",
        "coordinates": [
          22.9287534,
          42.9212885
        ]
      },
      "properties": {
        "id": 505245251,
        "osm_type": "way",
        "name": "Фреш Маркет",
        "brand": "Фреш Маркет",
        "opening_hours": "07:00-21:00",
        "check_date": "2026-04-12"
      }
    },
    {
      "type": "Feature",
      "geometry": {
        "type": "Point",
        "coordinates": [
          23.5966258,
          42.6638349
        ]
      },
      "properties": {
        "id": 505867827,
        "osm_type": "way",
        "name": "Фантастико",
        "brand": "Фантастико",
        "opening_hours": "07:30-22:00"
      }
    },
    {
      "type": "Feature",
      "geometry": {
        "type": "Point",
        "coordinates": [
          23.2141788,
          42.8131117
        ]
      },
      "properties": {
        "id": 538554226,
        "osm_type": "way",
        "name": "Т-Маркет",
        "brand": "Т-Маркет"
      }
    },
    {
      "type": "Feature",
      "geometry": {
        "type": "Point",
        "coordinates": [
          23.9110577,
          42.8974364
        ]
      },
      "properties": {
        "id": 557399988,
        "osm_type": "way",
        "name": "Диа Маркет"
      }
    },
    {
      "type": "Feature",
      "geometry": {
        "type": "Point",
        "coordinates": [
          23.9110577,
          42.897349
        ]
      },
      "properties": {
        "id": 557399989,
        "osm_type": "way"
      }
    },
    {
      "type": "Feature",
      "geometry": {
        "type": "Point",
        "coordinates": [
          23.914346,
          42.8875903
        ]
      },
      "properties": {
        "id": 588479527,
        "osm_type": "way"
      }
    },
    {
      "type": "Feature",
      "geometry": {
        "type": "Point",
        "coordinates": [
          23.5553725,
          42.3341784
        ]
      },
      "properties": {
        "id": 682666280,
        "osm_type": "way",
        "name": "Lidl",
        "brand": "Lidl",
        "opening_hours": "Mo-Sa 08:30-21:00; Su 09:00-21:00"
      }
    },
    {
      "type": "Feature",
      "geometry": {
        "type": "Point",
        "coordinates": [
          23.3471732,
          42.9619287
        ]
      },
      "properties": {
        "id": 737036312,
        "osm_type": "way",
        "opening_hours": "Mo-Sa 08:00-20:00"
      }
    },
    {
      "type": "Feature",
      "geometry": {
        "type": "Point",
        "coordinates": [
          23.3517353,
          42.9596562
        ]
      },
      "properties": {
        "id": 737038158,
        "osm_type": "way",
        "name": "Магазин Аванти"
      }
    },
    {
      "type": "Feature",
      "geometry": {
        "type": "Point",
        "coordinates": [
          24.2592168,
          42.735023
        ]
      },
      "properties": {
        "id": 745472776,
        "osm_type": "way"
      }
    },
    {
      "type": "Feature",
      "geometry": {
        "type": "Point",
        "coordinates": [
          24.2604512,
          42.7349761
        ]
      },
      "properties": {
        "id": 745472778,
        "osm_type": "way",
        "name": "КООП"
      }
    },
    {
      "type": "Feature",
      "geometry": {
        "type": "Point",
        "coordinates": [
          23.1482373,
          42.8434978
        ]
      },
      "properties": {
        "id": 855360329,
        "osm_type": "way",
        "name": "Фреш",
        "brand": "Фреш Маркет"
      }
    },
    {
      "type": "Feature",
      "geometry": {
        "type": "Point",
        "coordinates": [
          23.6125858,
          42.5348885
        ]
      },
      "properties": {
        "id": 884243506,
        "osm_type": "way"
      }
    },
    {
      "type": "Feature",
      "geometry": {
        "type": "Point",
        "coordinates": [
          23.2044647,
          42.7589794
        ]
      },
      "properties": {
        "id": 895527754,
        "osm_type": "way",
        "name": "Фреш Маркет Божурище"
      }
    },
    {
      "type": "Feature",
      "geometry": {
        "type": "Point",
        "coordinates": [
          23.1974763,
          42.7682032
        ]
      },
      "properties": {
        "id": 971880788,
        "osm_type": "way"
      }
    },
    {
      "type": "Feature",
      "geometry": {
        "type": "Point",
        "coordinates": [
          23.8024815,
          42.9101577
        ]
      },
      "properties": {
        "id": 1139639506,
        "osm_type": "way",
        "name": "Lidl",
        "brand": "Lidl",
        "opening_hours": "Mo-Sa 09:00-21:00; Su 09:00-20:30"
      }
    },
    {
      "type": "Feature",
      "geometry": {
        "type": "Point",
        "coordinates": [
          23.7853782,
          42.9079859
        ]
      },
      "properties": {
        "id": 1139639508,
        "osm_type": "way",
        "name": "Фантастико",
        "brand": "Фантастико",
        "opening_hours": "07:30-22:00"
      }
    },
    {
      "type": "Feature",
      "geometry": {
        "type": "Point",
        "coordinates": [
          24.0038294,
          42.8388007
        ]
      },
      "properties": {
        "id": 1161170236,
        "osm_type": "way",
        "name": "Т-Маркет",
        "brand": "Т-Маркет",
        "opening_hours": "08:00-22:00"
      }
    },
    {
      "type": "Feature",
      "geometry": {
        "type": "Point",
        "coordinates": [
          23.5985734,
          42.6692807
        ]
      },
      "properties": {
        "id": 1173613534,
        "osm_type": "way",
        "name": "Т-Маркет",
        "brand": "Т-Маркет"
      }
    },
    {
      "type": "Feature",
      "geometry": {
        "type": "Point",
        "coordinates": [
          23.526236,
          42.6671836
        ]
      },
      "properties": {
        "id": 1454753924,
        "osm_type": "way",
        "name": "Нико 2",
        "opening_hours": "Mo-Fr 07:30-21:00 Sa-Su 8:00-21:00"
      }
    }
  ]
}