{
  "type": "FeatureCollection",
  "features": [
    {
      "type": "Feature",
      "geometry": {
        "type": "Point",
        "coordinates": [
          21.6151038,
          40.7659312
        ]
      },
      "properties": {
        "id": 1001073067,
        "osm_type": "node"
      }
    },
    {
      "type": "Feature",
      "geometry": {
        "type": "Point",
        "coordinates": [
          21.6171691,
          40.7686046
        ]
      },
      "properties": {
        "id": 1001073071,
        "osm_type": "node",
        "name": "Μίμης"
      }
    },
    {
      "type": "Feature",
      "geometry": {
        "type": "Point",
        "coordinates": [
          21.1409721,
          40.1942895
        ]
      },
      "properties": {
        "id": 1450527329,
        "osm_type": "node"
      }
    },
    {
      "type": "Feature",
      "geometry": {
        "type": "Point",
        "coordinates": [
          21.7896233,
          40.3310954
        ]
      },
      "properties": {
        "id": 1523392530,
        "osm_type": "node",
        "name": "Corner"
      }
    },
    {
      "type": "Feature",
      "geometry": {
        "type": "Point",
        "coordinates": [
          21.7900417,
          40.3296129
        ]
      },
      "properties": {
        "id": 1523394443,
        "osm_type": "node",
        "name": "Lighthouse"
      }
    },
    {
      "type": "Feature",
      "geometry": {
        "type": "Point",
        "coordinates": [
          21.7915035,
          40.3278586
        ]
      },
      "properties": {
        "id": 1523396273,
        "osm_type": "node",
        "name": "Piksida"
      }
    },
    {
      "type": "Feature",
      "geometry": {
        "type": "Point",
        "coordinates": [
          21.7893389,
          40.3305146
        ]
      },
      "properties": {
        "id": 1523411302,
        "osm_type": "node",
        "name": "Ρωξάνη"
      }
    },
    {
      "type": "Feature",
      "geometry": {
        "type": "Point",
        "coordinates": [
          21.7934939,
          40.3266109
        ]
      },
      "properties": {
        "id": 1523445266,
        "osm_type": "node",
        "name": "Mister Stamatis"
      }
    },
    {
      "type": "Feature",
      "geometry": {
        "type": "Point",
        "coordinates": [
          21.4095694,
          40.7819661
        ]
      },
      "properties": {
        "id": 1525653201,
        "osm_type": "node",
        "name": "Νέο Πάρκο"
      }
    },
    {
      "type": "Feature",
      "geometry": {
        "type": "Point",
        "coordinates": [
          21.5003401,
          40.824826
        ]
      },
      "properties": {
        "id": 1854079451,
        "osm_type": "node",
        "name": "Καφενείο"
      }
    },
    {
      "type": "Feature",
      "geometry": {
        "type": "Point",
        "coordinates": [
          21.5002877,
          40.8245521
        ]
      },
      "properties": {
        "id": 1854113272,
        "osm_type": "node",
        "name": "Καφενείο"
      }
    },
    {
      "type": "Feature",
      "geometry": {
        "type": "Point",
        "coordinates": [
          21.7863651,
          40.3005009
        ]
      },
      "properties": {
        "id": 2081318397,
        "osm_type": "node",
        "name": "Δια Ταύτα"
      }
    },
    {
      "type": "Feature",
      "geometry": {
        "type": "Point",
        "coordinates": [
          21.1196731,
          40.5239698
        ]
      },
      "properties": {
        "id": 2329319102,
        "osm_type": "node",
        "name": "Γωνια",
        "outdoor_seating": "yes"
      }
    },
    {
      "type": "Feature",
      "geometry": {
        "type": "Point",
        "coordinates": [
          21.5741204,
          40.2373586
        ]
      },
      "properties": {
        "id": 2429329093,
        "osm_type": "node",
        "outdoor_seating": "yes"
      }
    },
    {
      "type": "Feature",
      "geometry": {
        "type": "Point",
        "coordinates": [
          21.4829864,
          40.7828023
        ]
      },
      "properties": {
        "id": 2726610950,
        "osm_type": "node",
        "name": "Αρτοποιείο"
      }
    },
    {
      "type": "Feature",
      "geometry": {
        "type": "Point",
        "coordinates": [
          21.4858593,
          40.7814472
        ]
      },
      "properties": {
        "id": 2726611257,
        "osm_type": "node",
        "name": "Αρτοποιείο"
      }
    },
    {
      "type": "Feature",
      "geometry": {
        "type": "Point",
        "coordinates": [
          21.1404325,
          40.8359729
        ]
      },
      "properties": {
        "id": 3066795068,
        "osm_type": "node"
      }
    },
    {
      "type": "Feature",
      "geometry": {
        "type": "Point",
        "coordinates": [
          22.142995,
          40.2585525
        ]
      },
      "properties": {
        "id": 3067940706,
        "osm_type": "node"
      }
    },
    {
      "type": "Feature",
      "geometry": {
        "type": "Point",
        "coordinates": [
          22.144057,
          40.2608921
        ]
      },
      "properties": {
        "id": 3067942314,
        "osm_type": "node"
      }
    },
    {
      "type": "Feature",
      "geometry": {
        "type": "Point",
        "coordinates": [
          21.4300538,
          40.0828527
        ]
      },
      "properties": {
        "id": 3074052147,
        "osm_type": "node",
        "name": "ο φούρνος της γειτονιάς"
      }
    },
    {
      "type": "Feature",
      "geometry": {
        "type": "Point",
        "coordinates": [
          21.259668,
          40.4500857
        ]
      },
      "properties": {
        "id": 3238693718,
        "osm_type": "node",
        "name": "Daily Corner",
        "opening_hours": "08:30-01:00"
      }
    },
    {
      "type": "Feature",
      "geometry": {
        "type": "Point",
        "coordinates": [
          21.0808868,
          40.349451
        ]
      },
      "properties": {
        "id": 3281932257,
        "osm_type": "node",
        "name": "Καφενείο Λάγγας"
      }
    },
    {
      "type": "Feature",
      "geometry": {
        "type": "Point",
        "coordinates": [
          21.5049487,
          40.622033
        ]
      },
      "properties": {
        "id": 3662663901,
        "osm_type": "node"
      }
    },
    {
      "type": "Feature",
      "geometry": {
        "type": "Point",
        "coordinates": [
          21.4086932,
          40.7785194
        ]
      },
      "properties": {
        "id": 3759716037,
        "osm_type": "node",
        "name": "Mikel",
        "brand": "Mikel",
        "takeaway": "yes"
      }
    },
    {
      "type": "Feature",
      "geometry": {
        "type": "Point",
        "coordinates": [
          21.4273081,
          40.0847456
        ]
      },
      "properties": {
        "id": 4364679451,
        "osm_type": "node",
        "name": "Πραλινετο"
      }
    },
    {
      "type": "Feature",
      "geometry": {
        "type": "Point",
        "coordinates": [
          21.4054282,
          40.7779044
        ]
      },
      "properties": {
        "id": 4579364489,
        "osm_type": "node",
        "name": "Goose"
      }
    },
    {
      "type": "Feature",
      "geometry": {
        "type": "Point",
        "coordinates": [
          21.6623805,
          40.2963429
        ]
      },
      "properties": {
        "id": 4878962751,
        "osm_type": "node"
      }
    },
    {
      "type": "Feature",
      "geometry": {
        "type": "Point",
        "coordinates": [
          21.7404091,
          40.1346979
        ]
      },
      "properties": {
        "id": 5058015222,
        "osm_type": "node"
      }
    },
    {
      "type": "Feature",
      "geometry": {
        "type": "Point",
        "coordinates": [
          21.7390129,
          40.1349096
        ]
      },
      "properties": {
        "id": 5058015229,
        "osm_type": "node"
      }
    },
    {
      "type": "Feature",
      "geometry": {
        "type": "Point",
        "coordinates": [
          21.8193376,
          40.1645749
        ]
      },
      "properties": {
        "id": 5058033431,
        "osm_type": "node"
      }
    },
    {
      "type": "Feature",
      "geometry": {
        "type": "Point",
        "coordinates": [
          21.7487842,
          40.2309212
        ]
      },
      "properties": {
        "id": 5058074383,
        "osm_type": "node",
        "name": "Πλάτανος"
      }
    },
    {
      "type": "Feature",
      "geometry": {
        "type": "Point",
        "coordinates": [
          21.8035265,
          40.3030295
        ]
      },
      "properties": {
        "id": 5058074400,
        "osm_type": "node",
        "name": "bamboo.coffee"
      }
    },
    {
      "type": "Feature",
      "geometry": {
        "type": "Point",
        "coordinates": [
          21.7980907,
          40.299408
        ]
      },
      "properties": {
        "id": 5058074403,
        "osm_type": "node",
        "name": "FIKA"
      }
    },
    {
      "type": "Feature",
      "geometry": {
        "type": "Point",
        "coordinates": [
          21.7777317,
          40.2872865
        ]
      },
      "properties": {
        "id": 5058074412,
        "osm_type": "node",
        "name": "Camelot",
        "opening_hours": "Mo-Su 09:00-15:00"
      }
    },
    {
      "type": "Feature",
      "geometry": {
        "type": "Point",
        "coordinates": [
          21.7998774,
          40.3001464
        ]
      },
      "properties": {
        "id": 5058084316,
        "osm_type": "node",
        "name": "4Coffee"
      }
    },
    {
      "type": "Feature",
      "geometry": {
        "type": "Point",
        "coordinates": [
          21.788601,
          40.2999156
        ]
      },
      "properties": {
        "id": 5071069071,
        "osm_type": "node",
        "name": "Blue Castle"
      }
    },
    {
      "type": "Feature",
      "geometry": {
        "type": "Point",
        "coordinates": [
          21.7877001,
          40.2996001
        ]
      },
      "properties": {
        "id": 5071069072,
        "osm_type": "node",
        "name": "Φλου cafe bar"
      }
    },
    {
      "type": "Feature",
      "geometry": {
        "type": "Point",
        "coordinates": [
          21.7839602,
          40.2929036
        ]
      },
      "properties": {
        "id": 5088104265,
        "osm_type": "node",
        "name": "Memory cafe"
      }
    },
    {
      "type": "Feature",
      "geometry": {
        "type": "Point",
        "coordinates": [
          21.9853662,
          40.3731688
        ]
      },
      "properties": {
        "id": 5230098223,
        "osm_type": "node"
      }
    },
    {
      "type": "Feature",
      "geometry": {
        "type": "Point",
        "coordinates": [
          22.0780326,
          40.2591725
        ]
      },
      "properties": {
        "id": 5331335490,
        "osm_type": "node",
        "name": "Καφετέρια-Πολυχώρος \"Άλσος\""
      }
    },
    {
      "type": "Feature",
      "geometry": {
        "type": "Point",
        "coordinates": [
          21.1287812,
          40.8096419
        ]
      },
      "properties": {
        "id": 5375846831,
        "osm_type": "node"
      }
    },
    {
      "type": "Feature",
      "geometry": {
        "type": "Point",
        "coordinates": [
          21.8058072,
          39.9206903
        ]
      },
      "properties": {
        "id": 5666182825,
        "osm_type": "node"
      }
    },
    {
      "type": "Feature",
      "geometry": {
        "type": "Point",
        "coordinates": [
          21.7701197,
          39.9108984
        ]
      },
      "properties": {
        "id": 5666182826,
        "osm_type": "node"
      }
    },
    {
      "type": "Feature",
      "geometry": {
        "type": "Point",
        "coordinates": [
          21.8063021,
          39.9249262
        ]
      },
      "properties": {
        "id": 5666236121,
        "osm_type": "node"
      }
    },
    {
      "type": "Feature",
      "geometry": {
        "type": "Point",
        "coordinates": [
          21.8100935,
          39.9247155
        ]
      },
      "properties": {
        "id": 5667319122,
        "osm_type": "node"
      }
    },
    {
      "type": "Feature",
      "geometry": {
        "type": "Point",
        "coordinates": [
          21.785422,
          40.2999105
        ]
      },
      "properties": {
        "id": 5768668611,
        "osm_type": "node",
        "name": "Café Τιάννης"
      }
    },
    {
      "type": "Feature",
      "geometry": {
        "type": "Point",
        "coordinates": [
          21.7973283,
          40.3014662
        ]
      },
      "properties": {
        "id": 5790611533,
        "osm_type": "node",
        "name": "Delightful"
      }
    },
    {
      "type": "Feature",
      "geometry": {
        "type": "Point",
        "coordinates": [
          21.0214056,
          40.2220261
        ]
      },
      "properties": {
        "id": 5810569231,
        "osm_type": "node",
        "name": "Kafeneio"
      }
    },
    {
      "type": "Feature",
      "geometry": {
        "type": "Point",
        "coordinates": [
          21.1250312,
          40.0575896
        ]
      },
      "properties": {
        "id": 5814078081,
        "osm_type": "node"
      }
    },
    {
      "type": "Feature",
      "geometry": {
        "type": "Point",
        "coordinates": [
          21.7826903,
          40.2999281
        ]
      },
      "properties": {
        "id": 6126369941,
        "osm_type": "node",
        "name": "Κιμωλία"
      }
    },
    {
      "type": "Feature",
      "geometry": {
        "type": "Point",
        "coordinates": [
          21.4147281,
          40.788154
        ]
      },
      "properties": {
        "id": 6174573623,
        "osm_type": "node",
        "name": "Δημάκης"
      }
    },
    {
      "type": "Feature",
      "geometry": {
        "type": "Point",
        "coordinates": [
          21.4080536,
          40.7815897
        ]
      },
      "properties": {
        "id": 6180221027,
        "osm_type": "node"
      }
    },
    {
      "type": "Feature",
      "geometry": {
        "type": "Point",
        "coordinates": [
          21.4057065,
          40.7776865
        ]
      },
      "properties": {
        "id": 6180256116,
        "osm_type": "node",
        "name": "Fratelli Coffe Bar"
      }
    },
    {
      "type": "Feature",
      "geometry": {
        "type": "Point",
        "coordinates": [
          21.4029533,
          40.7786584
        ]
      },
      "properties": {
        "id": 6183165168,
        "osm_type": "node",
        "name": "Βράγκος"
      }
    },
    {
      "type": "Feature",
      "geometry": {
        "type": "Point",
        "coordinates": [
          21.406628,
          40.7790249
        ]
      },
      "properties": {
        "id": 6183165174,
        "osm_type": "node",
        "name": "KAFFE"
      }
    },
    {
      "type": "Feature",
      "geometry": {
        "type": "Point",
        "coordinates": [
          21.4071457,
          40.7791977
        ]
      },
      "properties": {
        "id": 6183165176,
        "osm_type": "node"
      }
    },
    {
      "type": "Feature",
      "geometry": {
        "type": "Point",
        "coordinates": [
          21.4129664,
          40.7814484
        ]
      },
      "properties": {
        "id": 6183255335,
        "osm_type": "node",
        "name": "Βέλτσης"
      }
    },
    {
      "type": "Feature",
      "geometry": {
        "type": "Point",
        "coordinates": [
          21.412431,
          40.7832465
        ]
      },
      "properties": {
        "id": 6183255346,
        "osm_type": "node",
        "name": "Ζιώγας"
      }
    },
    {
      "type": "Feature",
      "geometry": {
        "type": "Point",
        "coordinates": [
          21.4107006,
          40.7830779
        ]
      },
      "properties": {
        "id": 6183255349,
        "osm_type": "node",
        "name": "Μίσκας"
      }
    },
    {
      "type": "Feature",
      "geometry": {
        "type": "Point",
        "coordinates": [
          21.4079011,
          40.7813702
        ]
      },
      "properties": {
        "id": 6183255356,
        "osm_type": "node"
      }
    },
    {
      "type": "Feature",
      "geometry": {
        "type": "Point",
        "coordinates": [
          21.4081843,
          40.781006
        ]
      },
      "properties": {
        "id": 6183255358,
        "osm_type": "node",
        "name": "Φλου"
      }
    },
    {
      "type": "Feature",
      "geometry": {
        "type": "Point",
        "coordinates": [
          21.4067435,
          40.7808051
        ]
      },
      "properties": {
        "id": 6183255362,
        "osm_type": "node"
      }
    },
    {
      "type": "Feature",
      "geometry": {
        "type": "Point",
        "coordinates": [
          21.406312,
          40.7799354
        ]
      },
      "properties": {
        "id": 6183255366,
        "osm_type": "node"
      }
    },
    {
      "type": "Feature",
      "geometry": {
        "type": "Point",
        "coordinates": [
          21.4087758,
          40.7814053
        ]
      },
      "properties": {
        "id": 6194999600,
        "osm_type": "node"
      }
    },
    {
      "type": "Feature",
      "geometry": {
        "type": "Point",
        "coordinates": [
          21.7874976,
          40.3012783
        ]
      },
      "properties": {
        "id": 6207773501,
        "osm_type": "node",
        "name": "Le Roi"
      }
    },
    {
      "type": "Feature",
      "geometry": {
        "type": "Point",
        "coordinates": [
          21.6959792,
          40.311985
        ]
      },
      "properties": {
        "id": 6346761902,
        "osm_type": "node"
      }
    },
    {
      "type": "Feature",
      "geometry": {
        "type": "Point",
        "coordinates": [
          22.0707745,
          40.2554001
        ]
      },
      "properties": {
        "id": 6425642385,
        "osm_type": "node",
        "name": "Allez Day café bar"
      }
    },
    {
      "type": "Feature",
      "geometry": {
        "type": "Point",
        "coordinates": [
          21.5544532,
          40.3173092
        ]
      },
      "properties": {
        "id": 6431079089,
        "osm_type": "node"
      }
    },
    {
      "type": "Feature",
      "geometry": {
        "type": "Point",
        "coordinates": [
          21.5535079,
          40.3186319
        ]
      },
      "properties": {
        "id": 6431079986,
        "osm_type": "node"
      }
    },
    {
      "type": "Feature",
      "geometry": {
        "type": "Point",
        "coordinates": [
          21.1834655,
          40.5346638
        ]
      },
      "properties": {
        "id": 6431080185,
        "osm_type": "node"
      }
    },
    {
      "type": "Feature",
      "geometry": {
        "type": "Point",
        "coordinates": [
          21.2613529,
          40.5218925
        ]
      },
      "properties": {
        "id": 6436735768,
        "osm_type": "node",
        "name": "Mikel",
        "brand": "Mikel",
        "takeaway": "yes",
        "outdoor_seating": "yes"
      }
    },
    {
      "type": "Feature",
      "geometry": {
        "type": "Point",
        "coordinates": [
          21.2569316,
          40.5201221
        ]
      },
      "properties": {
        "id": 6436735775,
        "osm_type": "node",
        "name": "Plaza",
        "outdoor_seating": "yes"
      }
    },
    {
      "type": "Feature",
      "geometry": {
        "type": "Point",
        "coordinates": [
          21.0806653,
          40.578182
        ]
      },
      "properties": {
        "id": 6438767940,
        "osm_type": "node",
        "outdoor_seating": "yes"
      }
    },
    {
      "type": "Feature",
      "geometry": {
        "type": "Point",
        "coordinates": [
          21.750473,
          40.7237728
        ]
      },
      "properties": {
        "id": 6653488531,
        "osm_type": "node",
        "name": "Cool Water"
      }
    },
    {
      "type": "Feature",
      "geometry": {
        "type": "Point",
        "coordinates": [
          21.2821469,
          39.898385
        ]
      },
      "properties": {
        "id": 6807640110,
        "osm_type": "node",
        "name": "Μπαλτσος",
        "outdoor_seating": "yes"
      }
    },
    {
      "type": "Feature",
      "geometry": {
        "type": "Point",
        "coordinates": [
          21.7917824,
          40.301726
        ]
      },
      "properties": {
        "id": 8234714323,
        "osm_type": "node"
      }
    },
    {
      "type": "Feature",
      "geometry": {
        "type": "Point",
        "coordinates": [
          21.196665,
          40.4851787
        ]
      },
      "properties": {
        "id": 8951504800,
        "osm_type": "node",
        "name": "Β. ΥΦΑΝΤΙΔΗΣ & ΣΙΑ Ο.Ε.Β.Ε.",
        "outdoor_seating": "yes"
      }
    },
    {
      "type": "Feature",
      "geometry": {
        "type": "Point",
        "coordinates": [
          21.0155147,
          40.4771521
        ]
      },
      "properties": {
        "id": 8986440428,
        "osm_type": "node",
        "name": "Παραδοσιακό Καφενείο \"το Χιονάτο\"",
        "opening_hours": "Mo-Su 08:00-22:00",
        "outdoor_seating": "yes"
      }
    },
    {
      "type": "Feature",
      "geometry": {
        "type": "Point",
        "coordinates": [
          21.9140201,
          40.2573674
        ]
      },
      "properties": {
        "id": 9008224917,
        "osm_type": "node",
        "name": "H AEK"
      }
    },
    {
      "type": "Feature",
      "geometry": {
        "type": "Point",
        "coordinates": [
          21.4307623,
          40.0842652
        ]
      },
      "properties": {
        "id": 9028720365,
        "osm_type": "node",
        "name": "Κιβωτός τον Γεύσεων"
      }
    },
    {
      "type": "Feature",
      "geometry": {
        "type": "Point",
        "coordinates": [
          21.4275899,
          40.0842754
        ]
      },
      "properties": {
        "id": 9032172251,
        "osm_type": "node",
        "name": "Cafe 535",
        "takeaway": "no"
      }
    },
    {
      "type": "Feature",
      "geometry": {
        "type": "Point",
        "coordinates": [
          21.4291616,
          40.0838136
        ]
      },
      "properties": {
        "id": 9062412989,
        "osm_type": "node",
        "name": "Cafe Island",
        "opening_hours": "PH,Mo-Su 06:00-22:00"
      }
    },
    {
      "type": "Feature",
      "geometry": {
        "type": "Point",
        "coordinates": [
          21.4289618,
          40.0835602
        ]
      },
      "properties": {
        "id": 9062412992,
        "osm_type": "node",
        "name": "ΜΑΡΚΟΠΟΥΛΟΣ"
      }
    },
    {
      "type": "Feature",
      "geometry": {
        "type": "Point",
        "coordinates": [
          21.4266363,
          40.0833355
        ]
      },
      "properties": {
        "id": 9062413000,
        "osm_type": "node",
        "name": "Zoomserie"
      }
    },
    {
      "type": "Feature",
      "geometry": {
        "type": "Point",
        "coordinates": [
          21.4259925,
          40.0849403
        ]
      },
      "properties": {
        "id": 9062413008,
        "osm_type": "node",
        "name": "Cafe Republic"
      }
    },
    {
      "type": "Feature",
      "geometry": {
        "type": "Point",
        "coordinates": [
          21.4276756,
          40.0847392
        ]
      },
      "properties": {
        "id": 9062427818,
        "osm_type": "node",
        "name": "Loco Cafe"
      }
    },
    {
      "type": "Feature",
      "geometry": {
        "type": "Point",
        "coordinates": [
          21.4277848,
          40.0748122
        ]
      },
      "properties": {
        "id": 9094704068,
        "osm_type": "node"
      }
    },
    {
      "type": "Feature",
      "geometry": {
        "type": "Point",
        "coordinates": [
          21.1677065,
          40.4981663
        ]
      },
      "properties": {
        "id": 9221714497,
        "osm_type": "node",
        "name": "Friends Internet Cafe",
        "opening_hours": "Mo-Su 08:00-24:00"
      }
    },
    {
      "type": "Feature",
      "geometry": {
        "type": "Point",
        "coordinates": [
          21.780036,
          40.2707935
        ]
      },
      "properties": {
        "id": 9238073804,
        "osm_type": "node"
      }
    },
    {
      "type": "Feature",
      "geometry": {
        "type": "Point",
        "coordinates": [
          21.8082849,
          39.9261847
        ]
      },
      "properties": {
        "id": 9661443016,
        "osm_type": "node",
        "name": "Εὖ Καφέ"
      }
    },
    {
      "type": "Feature",
      "geometry": {
        "type": "Point",
        "coordinates": [
          21.444168,
          40.2051199
        ]
      },
      "properties": {
        "id": 9730059737,
        "osm_type": "node"
      }
    },
    {
      "type": "Feature",
      "geometry": {
        "type": "Point",
        "coordinates": [
          21.8660665,
          40.0590819
        ]
      },
      "properties": {
        "id": 9805626365,
        "osm_type": "node"
      }
    },
    {
      "type": "Feature",
      "geometry": {
        "type": "Point",
        "coordinates": [
          21.8664707,
          40.0589838
        ]
      },
      "properties": {
        "id": 9805626366,
        "osm_type": "node"
      }
    },
    {
      "type": "Feature",
      "geometry": {
        "type": "Point",
        "coordinates": [
          21.8663625,
          40.0587729
        ]
      },
      "properties": {
        "id": 9805626367,
        "osm_type": "node",
        "name": "Tithorabar",
        "outdoor_seating": "yes"
      }
    },
    {
      "type": "Feature",
      "geometry": {
        "type": "Point",
        "coordinates": [
          21.8220062,
          39.9798652
        ]
      },
      "properties": {
        "id": 9805784587,
        "osm_type": "node"
      }
    },
    {
      "type": "Feature",
      "geometry": {
        "type": "Point",
        "coordinates": [
          21.8222161,
          39.9799233
        ]
      },
      "properties": {
        "id": 9805784588,
        "osm_type": "node"
      }
    },
    {
      "type": "Feature",
      "geometry": {
        "type": "Point",
        "coordinates": [
          21.4076969,
          40.7796126
        ]
      },
      "properties": {
        "id": 9909733639,
        "osm_type": "node",
        "name": "Art",
        "outdoor_seating": "yes"
      }
    },
    {
      "type": "Feature",
      "geometry": {
        "type": "Point",
        "coordinates": [
          21.2643935,
          40.519195
        ]
      },
      "properties": {
        "id": 9914777743,
        "osm_type": "node",
        "name": "Stardust",
        "outdoor_seating": "yes"
      }
    },
    {
      "type": "Feature",
      "geometry": {
        "type": "Point",
        "coordinates": [
          21.2645261,
          40.5191316
        ]
      },
      "properties": {
        "id": 9914777749,
        "osm_type": "node",
        "name": "Zaza"
      }
    },
    {
      "type": "Feature",
      "geometry": {
        "type": "Point",
        "coordinates": [
          21.2657006,
          40.517966
        ]
      },
      "properties": {
        "id": 9914777752,
        "osm_type": "node",
        "name": "Ηδιστον"
      }
    },
    {
      "type": "Feature",
      "geometry": {
        "type": "Point",
        "coordinates": [
          21.262202,
          40.5223275
        ]
      },
      "properties": {
        "id": 9914777758,
        "osm_type": "node",
        "name": "El grano de cafe",
        "outdoor_seating": "yes"
      }
    },
    {
      "type": "Feature",
      "geometry": {
        "type": "Point",
        "coordinates": [
          21.2641784,
          40.519374
        ]
      },
      "properties": {
        "id": 9914777759,
        "osm_type": "node",
        "name": "State Coffee",
        "outdoor_seating": "yes"
      }
    },
    {
      "type": "Feature",
      "geometry": {
        "type": "Point",
        "coordinates": [
          21.2631105,
          40.5202476
        ]
      },
      "properties": {
        "id": 9914777761,
        "osm_type": "node",
        "name": "The Passenger",
        "outdoor_seating": "yes"
      }
    },
    {
      "type": "Feature",
      "geometry": {
        "type": "Point",
        "coordinates": [
          21.2660815,
          40.5152826
        ]
      },
      "properties": {
        "id": 9914777763,
        "osm_type": "node",
        "name": "Εν Καιρώ",
        "outdoor_seating": "yes"
      }
    },
    {
      "type": "Feature",
      "geometry": {
        "type": "Point",
        "coordinates": [
          21.262638,
          40.5224241
        ]
      },
      "properties": {
        "id": 9914777766,
        "osm_type": "node",
        "name": "Coffee Brown"
      }
    },
    {
      "type": "Feature",
      "geometry": {
        "type": "Point",
        "coordinates": [
          21.2636442,
          40.5228842
        ]
      },
      "properties": {
        "id": 9915327204,
        "osm_type": "node",
        "name": "Άσπρο Πάτο",
        "outdoor_seating": "yes"
      }
    },
    {
      "type": "Feature",
      "geometry": {
        "type": "Point",
        "coordinates": [
          21.261576,
          40.5222285
        ]
      },
      "properties": {
        "id": 9915327207,
        "osm_type": "node",
        "name": "Susami",
        "opening_hours": "Mo-Sa 06:40-20:30; Su 10:00-18:00"
      }
    },
    {
      "type": "Feature",
      "geometry": {
        "type": "Point",
        "coordinates": [
          21.2641446,
          40.5234083
        ]
      },
      "properties": {
        "id": 9915337224,
        "osm_type": "node",
        "name": "Λαζαρου Ι."
      }
    },
    {
      "type": "Feature",
      "geometry": {
        "type": "Point",
        "coordinates": [
          21.2606422,
          40.5217537
        ]
      },
      "properties": {
        "id": 9915337229,
        "osm_type": "node",
        "outdoor_seating": "yes"
      }
    },
    {
      "type": "Feature",
      "geometry": {
        "type": "Point",
        "coordinates": [
          21.2620545,
          40.5218691
        ]
      },
      "properties": {
        "id": 9915337233,
        "osm_type": "node",
        "name": "Bouquillon"
      }
    },
    {
      "type": "Feature",
      "geometry": {
        "type": "Point",
        "coordinates": [
          21.2638345,
          40.5230048
        ]
      },
      "properties": {
        "id": 9915337239,
        "osm_type": "node",
        "name": "Πλατεια",
        "outdoor_seating": "yes"
      }
    },
    {
      "type": "Feature",
      "geometry": {
        "type": "Point",
        "coordinates": [
          21.2610921,
          40.5218367
        ]
      },
      "properties": {
        "id": 9915337240,
        "osm_type": "node",
        "name": "Iris"
      }
    },
    {
      "type": "Feature",
      "geometry": {
        "type": "Point",
        "coordinates": [
          21.2598553,
          40.5217266
        ]
      },
      "properties": {
        "id": 9915337248,
        "osm_type": "node",
        "outdoor_seating": "yes"
      }
    },
    {
      "type": "Feature",
      "geometry": {
        "type": "Point",
        "coordinates": [
          21.262315,
          40.5217202
        ]
      },
      "properties": {
        "id": 9915337251,
        "osm_type": "node"
      }
    },
    {
      "type": "Feature",
      "geometry": {
        "type": "Point",
        "coordinates": [
          21.3975035,
          40.8493155
        ]
      },
      "properties": {
        "id": 9915753776,
        "osm_type": "node",
        "outdoor_seating": "yes"
      }
    },
    {
      "type": "Feature",
      "geometry": {
        "type": "Point",
        "coordinates": [
          21.3978924,
          40.8494616
        ]
      },
      "properties": {
        "id": 9915753777,
        "osm_type": "node",
        "outdoor_seating": "yes"
      }
    },
    {
      "type": "Feature",
      "geometry": {
        "type": "Point",
        "coordinates": [
          21.3982183,
          40.8495864
        ]
      },
      "properties": {
        "id": 9915753778,
        "osm_type": "node"
      }
    },
    {
      "type": "Feature",
      "geometry": {
        "type": "Point",
        "coordinates": [
          21.455344,
          40.6895914
        ]
      },
      "properties": {
        "id": 9915779658,
        "osm_type": "node",
        "outdoor_seating": "yes"
      }
    },
    {
      "type": "Feature",
      "geometry": {
        "type": "Point",
        "coordinates": [
          21.2626613,
          40.5224864
        ]
      },
      "properties": {
        "id": 9920491887,
        "osm_type": "node",
        "name": "Αποστόλης"
      }
    },
    {
      "type": "Feature",
      "geometry": {
        "type": "Point",
        "coordinates": [
          21.3263055,
          40.2635188
        ]
      },
      "properties": {
        "id": 9920491888,
        "osm_type": "node",
        "name": "Αρωμα",
        "outdoor_seating": "yes"
      }
    },
    {
      "type": "Feature",
      "geometry": {
        "type": "Point",
        "coordinates": [
          21.2453645,
          40.5012695
        ]
      },
      "properties": {
        "id": 9920554755,
        "osm_type": "node",
        "outdoor_seating": "yes"
      }
    },
    {
      "type": "Feature",
      "geometry": {
        "type": "Point",
        "coordinates": [
          21.2450615,
          40.5011043
        ]
      },
      "properties": {
        "id": 9920554759,
        "osm_type": "node"
      }
    },
    {
      "type": "Feature",
      "geometry": {
        "type": "Point",
        "coordinates": [
          21.2467244,
          40.5017814
        ]
      },
      "properties": {
        "id": 9920554762,
        "osm_type": "node"
      }
    },
    {
      "type": "Feature",
      "geometry": {
        "type": "Point",
        "coordinates": [
          21.252746,
          40.5078711
        ]
      },
      "properties": {
        "id": 9920554764,
        "osm_type": "node"
      }
    },
    {
      "type": "Feature",
      "geometry": {
        "type": "Point",
        "coordinates": [
          21.2586107,
          40.4506749
        ]
      },
      "properties": {
        "id": 9920608163,
        "osm_type": "node",
        "outdoor_seating": "yes"
      }
    },
    {
      "type": "Feature",
      "geometry": {
        "type": "Point",
        "coordinates": [
          21.2584081,
          40.4540469
        ]
      },
      "properties": {
        "id": 9920608168,
        "osm_type": "node",
        "name": "Coffee Power"
      }
    },
    {
      "type": "Feature",
      "geometry": {
        "type": "Point",
        "coordinates": [
          21.2579713,
          40.4543151
        ]
      },
      "properties": {
        "id": 9920608175,
        "osm_type": "node",
        "outdoor_seating": "yes"
      }
    },
    {
      "type": "Feature",
      "geometry": {
        "type": "Point",
        "coordinates": [
          21.2620613,
          40.4484228
        ]
      },
      "properties": {
        "id": 9920608195,
        "osm_type": "node",
        "outdoor_seating": "yes"
      }
    },
    {
      "type": "Feature",
      "geometry": {
        "type": "Point",
        "coordinates": [
          21.2584618,
          40.4515232
        ]
      },
      "properties": {
        "id": 9920608198,
        "osm_type": "node"
      }
    },
    {
      "type": "Feature",
      "geometry": {
        "type": "Point",
        "coordinates": [
          21.3251026,
          40.2635862
        ]
      },
      "properties": {
        "id": 9920896466,
        "osm_type": "node",
        "outdoor_seating": "yes"
      }
    },
    {
      "type": "Feature",
      "geometry": {
        "type": "Point",
        "coordinates": [
          21.325671,
          40.2633354
        ]
      },
      "properties": {
        "id": 9920927072,
        "osm_type": "node",
        "name": "Coffee House",
        "outdoor_seating": "yes"
      }
    },
    {
      "type": "Feature",
      "geometry": {
        "type": "Point",
        "coordinates": [
          21.3265178,
          40.2626174
        ]
      },
      "properties": {
        "id": 9920927073,
        "osm_type": "node",
        "outdoor_seating": "yes"
      }
    },
    {
      "type": "Feature",
      "geometry": {
        "type": "Point",
        "coordinates": [
          21.3262936,
          40.2629184
        ]
      },
      "properties": {
        "id": 9920927074,
        "osm_type": "node",
        "outdoor_seating": "yes"
      }
    },
    {
      "type": "Feature",
      "geometry": {
        "type": "Point",
        "coordinates": [
          21.3266457,
          40.2629118
        ]
      },
      "properties": {
        "id": 9920927075,
        "osm_type": "node",
        "outdoor_seating": "yes"
      }
    },
    {
      "type": "Feature",
      "geometry": {
        "type": "Point",
        "coordinates": [
          21.3262097,
          40.2627081
        ]
      },
      "properties": {
        "id": 9920927076,
        "osm_type": "node",
        "name": "Mirror",
        "outdoor_seating": "yes"
      }
    },
    {
      "type": "Feature",
      "geometry": {
        "type": "Point",
        "coordinates": [
          21.3254443,
          40.26261
        ]
      },
      "properties": {
        "id": 9920927077,
        "osm_type": "node",
        "outdoor_seating": "yes"
      }
    },
    {
      "type": "Feature",
      "geometry": {
        "type": "Point",
        "coordinates": [
          21.3257282,
          40.2624227
        ]
      },
      "properties": {
        "id": 9920927081,
        "osm_type": "node",
        "name": "Gordon's",
        "outdoor_seating": "yes"
      }
    },
    {
      "type": "Feature",
      "geometry": {
        "type": "Point",
        "coordinates": [
          21.3263178,
          40.2622594
        ]
      },
      "properties": {
        "id": 9921138164,
        "osm_type": "node",
        "name": "Οδομα",
        "outdoor_seating": "yes"
      }
    },
    {
      "type": "Feature",
      "geometry": {
        "type": "Point",
        "coordinates": [
          21.2645867,
          40.1127851
        ]
      },
      "properties": {
        "id": 9921879349,
        "osm_type": "node",
        "name": "Κωστης",
        "outdoor_seating": "yes"
      }
    },
    {
      "type": "Feature",
      "geometry": {
        "type": "Point",
        "coordinates": [
          21.2640929,
          40.1478917
        ]
      },
      "properties": {
        "id": 9921879359,
        "osm_type": "node",
        "name": "Η Τσιουμα",
        "outdoor_seating": "yes"
      }
    },
    {
      "type": "Feature",
      "geometry": {
        "type": "Point",
        "coordinates": [
          21.2653196,
          40.1128549
        ]
      },
      "properties": {
        "id": 9922361125,
        "osm_type": "node",
        "name": "Αχιλλέας",
        "outdoor_seating": "yes"
      }
    },
    {
      "type": "Feature",
      "geometry": {
        "type": "Point",
        "coordinates": [
          21.2646358,
          40.1125562
        ]
      },
      "properties": {
        "id": 9922361127,
        "osm_type": "node",
        "outdoor_seating": "yes"
      }
    },
    {
      "type": "Feature",
      "geometry": {
        "type": "Point",
        "coordinates": [
          21.1162236,
          39.9789386
        ]
      },
      "properties": {
        "id": 9924478665,
        "osm_type": "node",
        "name": "Κουβατας",
        "outdoor_seating": "yes"
      }
    },
    {
      "type": "Feature",
      "geometry": {
        "type": "Point",
        "coordinates": [
          21.116562,
          39.9786247
        ]
      },
      "properties": {
        "id": 9924535390,
        "osm_type": "node",
        "name": "Το Μεσοχώρ",
        "outdoor_seating": "yes"
      }
    },
    {
      "type": "Feature",
      "geometry": {
        "type": "Point",
        "coordinates": [
          21.1163543,
          39.9787365
        ]
      },
      "properties": {
        "id": 9924535395,
        "osm_type": "node",
        "outdoor_seating": "yes"
      }
    },
    {
      "type": "Feature",
      "geometry": {
        "type": "Point",
        "coordinates": [
          21.7883372,
          40.3014934
        ]
      },
      "properties": {
        "id": 10040765826,
        "osm_type": "node",
        "name": "Mikel",
        "brand": "Mikel",
        "takeaway": "yes",
        "outdoor_seating": "yes"
      }
    },
    {
      "type": "Feature",
      "geometry": {
        "type": "Point",
        "coordinates": [
          21.7871198,
          40.3014784
        ]
      },
      "properties": {
        "id": 10040765834,
        "osm_type": "node",
        "name": "Βατρακούκος",
        "outdoor_seating": "yes"
      }
    },
    {
      "type": "Feature",
      "geometry": {
        "type": "Point",
        "coordinates": [
          21.4151993,
          40.7834059
        ]
      },
      "properties": {
        "id": 10186447691,
        "osm_type": "node",
        "name": "Mocha"
      }
    },
    {
      "type": "Feature",
      "geometry": {
        "type": "Point",
        "coordinates": [
          21.4169059,
          40.7836744
        ]
      },
      "properties": {
        "id": 10195837671,
        "osm_type": "node",
        "name": "Coffee Train"
      }
    },
    {
      "type": "Feature",
      "geometry": {
        "type": "Point",
        "coordinates": [
          21.6795383,
          40.6902134
        ]
      },
      "properties": {
        "id": 11019916405,
        "osm_type": "node"
      }
    },
    {
      "type": "Feature",
      "geometry": {
        "type": "Point",
        "coordinates": [
          21.2712638,
          40.5170718
        ]
      },
      "properties": {
        "id": 11357950369,
        "osm_type": "node",
        "name": "Idees Art Cafe-Wine bar-Food & Shop",
        "outdoor_seating": "yes"
      }
    },
    {
      "type": "Feature",
      "geometry": {
        "type": "Point",
        "coordinates": [
          21.4829146,
          40.7833841
        ]
      },
      "properties": {
        "id": 11376135288,
        "osm_type": "node"
      }
    },
    {
      "type": "Feature",
      "geometry": {
        "type": "Point",
        "coordinates": [
          21.4833596,
          40.7828524
        ]
      },
      "properties": {
        "id": 11376140730,
        "osm_type": "node"
      }
    },
    {
      "type": "Feature",
      "geometry": {
        "type": "Point",
        "coordinates": [
          21.778813,
          40.2724432
        ]
      },
      "properties": {
        "id": 11782255414,
        "osm_type": "node",
        "name": "Γεύσεις Γης"
      }
    },
    {
      "type": "Feature",
      "geometry": {
        "type": "Point",
        "coordinates": [
          21.7848332,
          40.2965883
        ]
      },
      "properties": {
        "id": 11828493929,
        "osm_type": "node",
        "name": "Mikel",
        "opening_hours": "Mo-Su 05:00-23:00"
      }
    },
    {
      "type": "Feature",
      "geometry": {
        "type": "Point",
        "coordinates": [
          21.5423994,
          40.7906889
        ]
      },
      "properties": {
        "id": 11886853240,
        "osm_type": "node"
      }
    },
    {
      "type": "Feature",
      "geometry": {
        "type": "Point",
        "coordinates": [
          21.5432226,
          40.791064
        ]
      },
      "properties": {
        "id": 11886853241,
        "osm_type": "node",
        "name": "Μιγκος"
      }
    },
    {
      "type": "Feature",
      "geometry": {
        "type": "Point",
        "coordinates": [
          21.7484468,
          40.2446709
        ]
      },
      "properties": {
        "id": 11933391844,
        "osm_type": "node",
        "name": "Saloon",
        "outdoor_seating": "yes"
      }
    },
    {
      "type": "Feature",
      "geometry": {
        "type": "Point",
        "coordinates": [
          21.7852793,
          40.3052995
        ]
      },
      "properties": {
        "id": 12000173005,
        "osm_type": "node",
        "name": "Στου Λάβα",
        "outdoor_seating": "yes"
      }
    },
    {
      "type": "Feature",
      "geometry": {
        "type": "Point",
        "coordinates": [
          21.6859632,
          39.9022298
        ]
      },
      "properties": {
        "id": 12136343583,
        "osm_type": "node"
      }
    },
    {
      "type": "Feature",
      "geometry": {
        "type": "Point",
        "coordinates": [
          21.7930305,
          40.2947016
        ]
      },
      "properties": {
        "id": 12147214801,
        "osm_type": "node",
        "name": "Καφε Γραμμές \"The Green Wagon\"",
        "opening_hours": "Mo-Su 08:30-01:00",
        "outdoor_seating": "no"
      }
    },
    {
      "type": "Feature",
      "geometry": {
        "type": "Point",
        "coordinates": [
          21.257685,
          40.5200184
        ]
      },
      "properties": {
        "id": 12192551659,
        "osm_type": "node",
        "name": "Maestro caffe",
        "outdoor_seating": "yes"
      }
    },
    {
      "type": "Feature",
      "geometry": {
        "type": "Point",
        "coordinates": [
          21.2572185,
          40.5197499
        ]
      },
      "properties": {
        "id": 12192551660,
        "osm_type": "node",
        "name": "The Mall",
        "opening_hours": "24/7",
        "outdoor_seating": "yes"
      }
    },
    {
      "type": "Feature",
      "geometry": {
        "type": "Point",
        "coordinates": [
          21.0604547,
          40.4151294
        ]
      },
      "properties": {
        "id": 12192631538,
        "osm_type": "node",
        "name": "Cafe bar YIEBO",
        "outdoor_seating": "yes"
      }
    },
    {
      "type": "Feature",
      "geometry": {
        "type": "Point",
        "coordinates": [
          21.2651432,
          40.5226841
        ]
      },
      "properties": {
        "id": 12194867583,
        "osm_type": "node",
        "name": "#PORTO#"
      }
    },
    {
      "type": "Feature",
      "geometry": {
        "type": "Point",
        "coordinates": [
          21.0848117,
          40.5163586
        ]
      },
      "properties": {
        "id": 12198547868,
        "osm_type": "node",
        "name": "Booca cafe snack bar",
        "opening_hours": "Mo-Su 08:30-14:00",
        "outdoor_seating": "yes"
      }
    },
    {
      "type": "Feature",
      "geometry": {
        "type": "Point",
        "coordinates": [
          21.2657808,
          40.51981
        ]
      },
      "properties": {
        "id": 12198590787,
        "osm_type": "node",
        "name": "Ζήδρος"
      }
    },
    {
      "type": "Feature",
      "geometry": {
        "type": "Point",
        "coordinates": [
          21.2667525,
          40.5196896
        ]
      },
      "properties": {
        "id": 12198590796,
        "osm_type": "node",
        "name": "Καφέ+"
      }
    },
    {
      "type": "Feature",
      "geometry": {
        "type": "Point",
        "coordinates": [
          21.2657927,
          40.5179296
        ]
      },
      "properties": {
        "id": 12204818837,
        "osm_type": "node",
        "name": "Estrella Kastoria",
        "opening_hours": "Mo-Su 09:00-23:00",
        "outdoor_seating": "yes"
      }
    },
    {
      "type": "Feature",
      "geometry": {
        "type": "Point",
        "coordinates": [
          21.3317256,
          40.4345539
        ]
      },
      "properties": {
        "id": 12205076233,
        "osm_type": "node",
        "name": "Καφενείο \"Το παραδοσιακό\""
      }
    },
    {
      "type": "Feature",
      "geometry": {
        "type": "Point",
        "coordinates": [
          21.2750327,
          40.5154269
        ]
      },
      "properties": {
        "id": 12208875296,
        "osm_type": "node",
        "name": "Ταξειδιάρης γάτος",
        "outdoor_seating": "yes"
      }
    },
    {
      "type": "Feature",
      "geometry": {
        "type": "Point",
        "coordinates": [
          21.2715517,
          40.5166783
        ]
      },
      "properties": {
        "id": 12208966807,
        "osm_type": "node",
        "name": "Μπιζ μπιζέ",
        "outdoor_seating": "yes"
      }
    },
    {
      "type": "Feature",
      "geometry": {
        "type": "Point",
        "coordinates": [
          21.268198,
          40.5174912
        ]
      },
      "properties": {
        "id": 12208966841,
        "osm_type": "node",
        "name": "CAFE 108 Ρόντσης Κυριάκος"
      }
    },
    {
      "type": "Feature",
      "geometry": {
        "type": "Point",
        "coordinates": [
          21.2678655,
          40.5205774
        ]
      },
      "properties": {
        "id": 12208966846,
        "osm_type": "node",
        "name": "Oasis"
      }
    },
    {
      "type": "Feature",
      "geometry": {
        "type": "Point",
        "coordinates": [
          21.2646576,
          40.5234126
        ]
      },
      "properties": {
        "id": 12208966881,
        "osm_type": "node",
        "name": "Σουλάτσο"
      }
    },
    {
      "type": "Feature",
      "geometry": {
        "type": "Point",
        "coordinates": [
          21.2642299,
          40.5240049
        ]
      },
      "properties": {
        "id": 12208966883,
        "osm_type": "node",
        "name": "MyCorner Καστοριά"
      }
    },
    {
      "type": "Feature",
      "geometry": {
        "type": "Point",
        "coordinates": [
          21.2631264,
          40.5225237
        ]
      },
      "properties": {
        "id": 12209587231,
        "osm_type": "node",
        "name": "Abraam's Wines & Tales",
        "outdoor_seating": "yes"
      }
    },
    {
      "type": "Feature",
      "geometry": {
        "type": "Point",
        "coordinates": [
          21.26304,
          40.522697
        ]
      },
      "properties": {
        "id": 12209587232,
        "osm_type": "node",
        "name": "Τριών Μηνών Μαμούθ"
      }
    },
    {
      "type": "Feature",
      "geometry": {
        "type": "Point",
        "coordinates": [
          21.2631808,
          40.5223892
        ]
      },
      "properties": {
        "id": 12209587235,
        "osm_type": "node",
        "name": "MOSAICO social house"
      }
    },
    {
      "type": "Feature",
      "geometry": {
        "type": "Point",
        "coordinates": [
          21.2607793,
          40.5219044
        ]
      },
      "properties": {
        "id": 12216054452,
        "osm_type": "node",
        "name": "ΒΟΟΟγάτσα"
      }
    },
    {
      "type": "Feature",
      "geometry": {
        "type": "Point",
        "coordinates": [
          21.2526712,
          40.5119909
        ]
      },
      "properties": {
        "id": 12218975890,
        "osm_type": "node",
        "name": "Sunday"
      }
    },
    {
      "type": "Feature",
      "geometry": {
        "type": "Point",
        "coordinates": [
          21.2553707,
          40.5174587
        ]
      },
      "properties": {
        "id": 12218975897,
        "osm_type": "node",
        "name": "Θέα Δήμητρα",
        "outdoor_seating": "yes"
      }
    },
    {
      "type": "Feature",
      "geometry": {
        "type": "Point",
        "coordinates": [
          21.2638791,
          40.5215002
        ]
      },
      "properties": {
        "id": 12231733471,
        "osm_type": "node",
        "name": "Ο Ανθός",
        "outdoor_seating": "yes"
      }
    },
    {
      "type": "Feature",
      "geometry": {
        "type": "Point",
        "coordinates": [
          21.2653376,
          40.5182763
        ]
      },
      "properties": {
        "id": 12231733496,
        "osm_type": "node",
        "name": "Καφέ Αλέα"
      }
    },
    {
      "type": "Feature",
      "geometry": {
        "type": "Point",
        "coordinates": [
          21.2665177,
          40.5165921
        ]
      },
      "properties": {
        "id": 12231733500,
        "osm_type": "node",
        "name": "Valeur Coffee & More",
        "opening_hours": "Mo-Su 10:00-24:00"
      }
    },
    {
      "type": "Feature",
      "geometry": {
        "type": "Point",
        "coordinates": [
          21.2461464,
          40.5023116
        ]
      },
      "properties": {
        "id": 12232659494,
        "osm_type": "node",
        "name": "ΑΡΤΟΠΟΙΕΊΑ ΠΑΠΑΒΑΣΙΛΕΊΟΥ"
      }
    },
    {
      "type": "Feature",
      "geometry": {
        "type": "Point",
        "coordinates": [
          21.2470864,
          40.5011679
        ]
      },
      "properties": {
        "id": 12232680405,
        "osm_type": "node",
        "name": "KAFE SNACK BILLIS"
      }
    },
    {
      "type": "Feature",
      "geometry": {
        "type": "Point",
        "coordinates": [
          21.2480663,
          40.5018435
        ]
      },
      "properties": {
        "id": 12232680408,
        "osm_type": "node",
        "name": "GaLLERY - All Day Cafe + Bar"
      }
    },
    {
      "type": "Feature",
      "geometry": {
        "type": "Point",
        "coordinates": [
          21.2576104,
          40.5199807
        ]
      },
      "properties": {
        "id": 12237751074,
        "osm_type": "node",
        "name": "Envy",
        "outdoor_seating": "yes"
      }
    },
    {
      "type": "Feature",
      "geometry": {
        "type": "Point",
        "coordinates": [
          21.2887666,
          40.4812643
        ]
      },
      "properties": {
        "id": 12237751103,
        "osm_type": "node",
        "name": "Cafe-take away"
      }
    },
    {
      "type": "Feature",
      "geometry": {
        "type": "Point",
        "coordinates": [
          21.2890801,
          40.4811571
        ]
      },
      "properties": {
        "id": 12237751104,
        "osm_type": "node",
        "name": "EQUAL COFFEE - BAKERY"
      }
    },
    {
      "type": "Feature",
      "geometry": {
        "type": "Point",
        "coordinates": [
          21.1641539,
          40.5000126
        ]
      },
      "properties": {
        "id": 12254856764,
        "osm_type": "node",
        "name": "Αλεξάνδρος"
      }
    },
    {
      "type": "Feature",
      "geometry": {
        "type": "Point",
        "coordinates": [
          21.1614609,
          40.5020196
        ]
      },
      "properties": {
        "id": 12254856790,
        "osm_type": "node",
        "name": "CoffeeLand",
        "opening_hours": "Mo-Su 05:30-23:30",
        "outdoor_seating": "yes"
      }
    },
    {
      "type": "Feature",
      "geometry": {
        "type": "Point",
        "coordinates": [
          21.1606336,
          40.502927
        ]
      },
      "properties": {
        "id": 12254856792,
        "osm_type": "node",
        "name": "Coffee Power",
        "opening_hours": "Mo-Su 06:00-22:00",
        "outdoor_seating": "yes"
      }
    },
    {
      "type": "Feature",
      "geometry": {
        "type": "Point",
        "coordinates": [
          21.1444158,
          40.4903883
        ]
      },
      "properties": {
        "id": 12270462908,
        "osm_type": "node",
        "name": "Sunset Pool Cafe"
      }
    },
    {
      "type": "Feature",
      "geometry": {
        "type": "Point",
        "coordinates": [
          21.4314193,
          40.0843113
        ]
      },
      "properties": {
        "id": 12298283772,
        "osm_type": "node",
        "name": "Mikel",
        "brand": "Mikel"
      }
    },
    {
      "type": "Feature",
      "geometry": {
        "type": "Point",
        "coordinates": [
          21.4320684,
          40.0844077
        ]
      },
      "properties": {
        "id": 12298283773,
        "osm_type": "node",
        "name": "Bruno",
        "brand": "Bruno"
      }
    },
    {
      "type": "Feature",
      "geometry": {
        "type": "Point",
        "coordinates": [
          21.4306194,
          40.0842107
        ]
      },
      "properties": {
        "id": 12298296443,
        "osm_type": "node",
        "name": "Coffee Lab"
      }
    },
    {
      "type": "Feature",
      "geometry": {
        "type": "Point",
        "coordinates": [
          21.4307146,
          40.0839573
        ]
      },
      "properties": {
        "id": 12298296444,
        "osm_type": "node",
        "name": "Mikel"
      }
    },
    {
      "type": "Feature",
      "geometry": {
        "type": "Point",
        "coordinates": [
          21.7921914,
          40.2951932
        ]
      },
      "properties": {
        "id": 12419203668,
        "osm_type": "node",
        "name": "Da Capo"
      }
    },
    {
      "type": "Feature",
      "geometry": {
        "type": "Point",
        "coordinates": [
          21.7883458,
          40.3023736
        ]
      },
      "properties": {
        "id": 12435597774,
        "osm_type": "node",
        "name": "Kaklidis"
      }
    },
    {
      "type": "Feature",
      "geometry": {
        "type": "Point",
        "coordinates": [
          21.7898055,
          40.29994
        ]
      },
      "properties": {
        "id": 12438581439,
        "osm_type": "node",
        "name": "Kaklidis"
      }
    },
    {
      "type": "Feature",
      "geometry": {
        "type": "Point",
        "coordinates": [
          21.7941819,
          40.2983759
        ]
      },
      "properties": {
        "id": 12439561366,
        "osm_type": "node",
        "name": "Kaklidis"
      }
    },
    {
      "type": "Feature",
      "geometry": {
        "type": "Point",
        "coordinates": [
          21.7978399,
          40.2991042
        ]
      },
      "properties": {
        "id": 12439891680,
        "osm_type": "node",
        "name": "Kaklidis"
      }
    },
    {
      "type": "Feature",
      "geometry": {
        "type": "Point",
        "coordinates": [
          21.7875765,
          40.3014062
        ]
      },
      "properties": {
        "id": 12458735602,
        "osm_type": "node",
        "name": "Q Garden",
        "opening_hours": "Mo-Su 10:00-00:00"
      }
    },
    {
      "type": "Feature",
      "geometry": {
        "type": "Point",
        "coordinates": [
          21.789673,
          40.299232
        ]
      },
      "properties": {
        "id": 12459040702,
        "osm_type": "node",
        "name": "The Cups Coffee Workshop",
        "opening_hours": "Mo-Su 07:00-21:30"
      }
    },
    {
      "type": "Feature",
      "geometry": {
        "type": "Point",
        "coordinates": [
          21.7887472,
          40.3005276
        ]
      },
      "properties": {
        "id": 12459040901,
        "osm_type": "node",
        "name": "Γεωργάκας Αρτοπωλείον",
        "opening_hours": "Mo-Sa 06:00-16:00"
      }
    },
    {
      "type": "Feature",
      "geometry": {
        "type": "Point",
        "coordinates": [
          21.7847424,
          40.2975517
        ]
      },
      "properties": {
        "id": 12459153906,
        "osm_type": "node",
        "name": "Coffee Berry",
        "opening_hours": "Mo-Su 05:30-21:00"
      }
    },
    {
      "type": "Feature",
      "geometry": {
        "type": "Point",
        "coordinates": [
          21.7862975,
          40.2962438
        ]
      },
      "properties": {
        "id": 12459153908,
        "osm_type": "node",
        "name": "Coffee Island",
        "opening_hours": "Mo-Sa 05:30-22:00; Su 07:00-22:00"
      }
    },
    {
      "type": "Feature",
      "geometry": {
        "type": "Point",
        "coordinates": [
          21.782686,
          40.2918717
        ]
      },
      "properties": {
        "id": 12459154002,
        "osm_type": "node",
        "name": "Bruno Box Kozani",
        "opening_hours": "Mo-Su 05:00-23:00"
      }
    },
    {
      "type": "Feature",
      "geometry": {
        "type": "Point",
        "coordinates": [
          21.7843812,
          40.2951203
        ]
      },
      "properties": {
        "id": 12464993255,
        "osm_type": "node",
        "name": "Κορκάς"
      }
    },
    {
      "type": "Feature",
      "geometry": {
        "type": "Point",
        "coordinates": [
          21.4591205,
          40.1087347
        ]
      },
      "properties": {
        "id": 12466618877,
        "osm_type": "node",
        "name": "Πίνδος καφέ σνακ",
        "takeaway": "yes",
        "outdoor_seating": "yes"
      }
    },
    {
      "type": "Feature",
      "geometry": {
        "type": "Point",
        "coordinates": [
          21.2645373,
          40.5236601
        ]
      },
      "properties": {
        "id": 12635215177,
        "osm_type": "node",
        "name": "Λε Καφενε",
        "outdoor_seating": "yes"
      }
    },
    {
      "type": "Feature",
      "geometry": {
        "type": "Point",
        "coordinates": [
          21.7879649,
          40.2988967
        ]
      },
      "properties": {
        "id": 12639384396,
        "osm_type": "node",
        "name": "Γάκη"
      }
    },
    {
      "type": "Feature",
      "geometry": {
        "type": "Point",
        "coordinates": [
          21.4773451,
          40.1790949
        ]
      },
      "properties": {
        "id": 12801739781,
        "osm_type": "node"
      }
    },
    {
      "type": "Feature",
      "geometry": {
        "type": "Point",
        "coordinates": [
          21.3876891,
          40.3125208
        ]
      },
      "properties": {
        "id": 12818895854,
        "osm_type": "node"
      }
    },
    {
      "type": "Feature",
      "geometry": {
        "type": "Point",
        "coordinates": [
          21.6721409,
          40.2984903
        ]
      },
      "properties": {
        "id": 12853342222,
        "osm_type": "node",
        "name": "Cafe Xristos"
      }
    },
    {
      "type": "Feature",
      "geometry": {
        "type": "Point",
        "coordinates": [
          21.6703211,
          40.3060564
        ]
      },
      "properties": {
        "id": 12853919425,
        "osm_type": "node",
        "name": "A A"
      }
    },
    {
      "type": "Feature",
      "geometry": {
        "type": "Point",
        "coordinates": [
          21.67004,
          40.3061207
        ]
      },
      "properties": {
        "id": 12853919426,
        "osm_type": "node",
        "name": "Το Μικιό"
      }
    },
    {
      "type": "Feature",
      "geometry": {
        "type": "Point",
        "coordinates": [
          21.620333,
          39.9479503
        ]
      },
      "properties": {
        "id": 12880553615,
        "osm_type": "node",
        "name": "VIP Espresso Bar",
        "outdoor_seating": "yes"
      }
    },
    {
      "type": "Feature",
      "geometry": {
        "type": "Point",
        "coordinates": [
          21.6200656,
          39.9478499
        ]
      },
      "properties": {
        "id": 12880553625,
        "osm_type": "node",
        "name": "Saccaria",
        "outdoor_seating": "yes"
      }
    },
    {
      "type": "Feature",
      "geometry": {
        "type": "Point",
        "coordinates": [
          21.6206438,
          39.9481038
        ]
      },
      "properties": {
        "id": 12880553627,
        "osm_type": "node",
        "name": "Utopia",
        "outdoor_seating": "yes"
      }
    },
    {
      "type": "Feature",
      "geometry": {
        "type": "Point",
        "coordinates": [
          21.6211319,
          39.9486072
        ]
      },
      "properties": {
        "id": 12880553630,
        "osm_type": "node",
        "outdoor_seating": "yes"
      }
    },
    {
      "type": "Feature",
      "geometry": {
        "type": "Point",
        "coordinates": [
          21.6202019,
          39.9479084
        ]
      },
      "properties": {
        "id": 12880553631,
        "osm_type": "node",
        "name": "Hollywood Coffee Bar",
        "outdoor_seating": "yes"
      }
    },
    {
      "type": "Feature",
      "geometry": {
        "type": "Point",
        "coordinates": [
          21.5921383,
          40.1799616
        ]
      },
      "properties": {
        "id": 12881378423,
        "osm_type": "node",
        "outdoor_seating": "yes"
      }
    },
    {
      "type": "Feature",
      "geometry": {
        "type": "Point",
        "coordinates": [
          21.6005733,
          40.2024683
        ]
      },
      "properties": {
        "id": 12881555406,
        "osm_type": "node",
        "outdoor_seating": "yes"
      }
    },
    {
      "type": "Feature",
      "geometry": {
        "type": "Point",
        "coordinates": [
          21.5563116,
          40.2528054
        ]
      },
      "properties": {
        "id": 12882954064,
        "osm_type": "node",
        "outdoor_seating": "yes"
      }
    },
    {
      "type": "Feature",
      "geometry": {
        "type": "Point",
        "coordinates": [
          21.5556217,
          40.2524358
        ]
      },
      "properties": {
        "id": 12882954065,
        "osm_type": "node"
      }
    },
    {
      "type": "Feature",
      "geometry": {
        "type": "Point",
        "coordinates": [
          21.5553681,
          40.2526353
        ]
      },
      "properties": {
        "id": 12882954068,
        "osm_type": "node",
        "name": "Ο Πλάτανος",
        "outdoor_seating": "yes"
      }
    },
    {
      "type": "Feature",
      "geometry": {
        "type": "Point",
        "coordinates": [
          21.5553836,
          40.2527217
        ]
      },
      "properties": {
        "id": 12882954074,
        "osm_type": "node",
        "name": "Το Σοκάκι",
        "outdoor_seating": "yes"
      }
    },
    {
      "type": "Feature",
      "geometry": {
        "type": "Point",
        "coordinates": [
          21.5553939,
          40.2524478
        ]
      },
      "properties": {
        "id": 12882954076,
        "osm_type": "node",
        "name": "Σώκρατης",
        "outdoor_seating": "yes"
      }
    },
    {
      "type": "Feature",
      "geometry": {
        "type": "Point",
        "coordinates": [
          21.5514547,
          40.2591104
        ]
      },
      "properties": {
        "id": 12883410674,
        "osm_type": "node",
        "outdoor_seating": "yes"
      }
    },
    {
      "type": "Feature",
      "geometry": {
        "type": "Point",
        "coordinates": [
          21.5478093,
          40.2623401
        ]
      },
      "properties": {
        "id": 12883410679,
        "osm_type": "node",
        "outdoor_seating": "yes"
      }
    },
    {
      "type": "Feature",
      "geometry": {
        "type": "Point",
        "coordinates": [
          21.547576,
          40.2625395
        ]
      },
      "properties": {
        "id": 12883410680,
        "osm_type": "node",
        "outdoor_seating": "yes"
      }
    },
    {
      "type": "Feature",
      "geometry": {
        "type": "Point",
        "coordinates": [
          21.5525672,
          40.258241
        ]
      },
      "properties": {
        "id": 12883410901,
        "osm_type": "node",
        "name": "Ωττας"
      }
    },
    {
      "type": "Feature",
      "geometry": {
        "type": "Point",
        "coordinates": [
          21.5559273,
          40.253147
        ]
      },
      "properties": {
        "id": 12883410915,
        "osm_type": "node",
        "name": "Sunrise",
        "outdoor_seating": "yes"
      }
    },
    {
      "type": "Feature",
      "geometry": {
        "type": "Point",
        "coordinates": [
          21.4987874,
          40.434053
        ]
      },
      "properties": {
        "id": 12883865593,
        "osm_type": "node",
        "outdoor_seating": "yes"
      }
    },
    {
      "type": "Feature",
      "geometry": {
        "type": "Point",
        "coordinates": [
          21.5251936,
          40.4538753
        ]
      },
      "properties": {
        "id": 12886367520,
        "osm_type": "node",
        "name": "Στον Αλέκα",
        "outdoor_seating": "yes"
      }
    },
    {
      "type": "Feature",
      "geometry": {
        "type": "Point",
        "coordinates": [
          21.2630657,
          40.458917
        ]
      },
      "properties": {
        "id": 12887026778,
        "osm_type": "node",
        "name": "Créma",
        "outdoor_seating": "yes"
      }
    },
    {
      "type": "Feature",
      "geometry": {
        "type": "Point",
        "coordinates": [
          21.4682689,
          40.5354458
        ]
      },
      "properties": {
        "id": 12887026787,
        "osm_type": "node",
        "name": "La Cali",
        "outdoor_seating": "yes"
      }
    },
    {
      "type": "Feature",
      "geometry": {
        "type": "Point",
        "coordinates": [
          21.4684458,
          40.5354613
        ]
      },
      "properties": {
        "id": 12887073333,
        "osm_type": "node",
        "outdoor_seating": "yes"
      }
    },
    {
      "type": "Feature",
      "geometry": {
        "type": "Point",
        "coordinates": [
          21.4692259,
          40.534904
        ]
      },
      "properties": {
        "id": 12887073335,
        "osm_type": "node",
        "outdoor_seating": "yes"
      }
    },
    {
      "type": "Feature",
      "geometry": {
        "type": "Point",
        "coordinates": [
          21.1572236,
          40.5053378
        ]
      },
      "properties": {
        "id": 12888241863,
        "osm_type": "node",
        "outdoor_seating": "yes"
      }
    },
    {
      "type": "Feature",
      "geometry": {
        "type": "Point",
        "coordinates": [
          21.1574562,
          40.504526
        ]
      },
      "properties": {
        "id": 12888241870,
        "osm_type": "node",
        "name": "Κοκοβιδη"
      }
    },
    {
      "type": "Feature",
      "geometry": {
        "type": "Point",
        "coordinates": [
          21.190338,
          40.4878593
        ]
      },
      "properties": {
        "id": 12888241898,
        "osm_type": "node",
        "outdoor_seating": "yes"
      }
    },
    {
      "type": "Feature",
      "geometry": {
        "type": "Point",
        "coordinates": [
          21.1572997,
          40.5048465
        ]
      },
      "properties": {
        "id": 12888241899,
        "osm_type": "node",
        "name": "Το Πανεπιστημιο",
        "outdoor_seating": "yes"
      }
    },
    {
      "type": "Feature",
      "geometry": {
        "type": "Point",
        "coordinates": [
          21.1598825,
          40.5034288
        ]
      },
      "properties": {
        "id": 12888253313,
        "osm_type": "node",
        "name": "Έλα Αδακα",
        "outdoor_seating": "yes"
      }
    },
    {
      "type": "Feature",
      "geometry": {
        "type": "Point",
        "coordinates": [
          21.1203659,
          40.5252987
        ]
      },
      "properties": {
        "id": 12888280473,
        "osm_type": "node",
        "outdoor_seating": "yes"
      }
    },
    {
      "type": "Feature",
      "geometry": {
        "type": "Point",
        "coordinates": [
          21.256949,
          40.4543643
        ]
      },
      "properties": {
        "id": 12900212301,
        "osm_type": "node"
      }
    },
    {
      "type": "Feature",
      "geometry": {
        "type": "Point",
        "coordinates": [
          21.2410016,
          40.5048698
        ]
      },
      "properties": {
        "id": 12905234020,
        "osm_type": "node",
        "name": "Delice",
        "outdoor_seating": "yes"
      }
    },
    {
      "type": "Feature",
      "geometry": {
        "type": "Point",
        "coordinates": [
          21.2550188,
          40.5166359
        ]
      },
      "properties": {
        "id": 12905342709,
        "osm_type": "node",
        "name": "Bruno",
        "outdoor_seating": "yes"
      }
    },
    {
      "type": "Feature",
      "geometry": {
        "type": "Point",
        "coordinates": [
          21.2425815,
          40.5049787
        ]
      },
      "properties": {
        "id": 12905342711,
        "osm_type": "node",
        "name": "Η Άννα"
      }
    },
    {
      "type": "Feature",
      "geometry": {
        "type": "Point",
        "coordinates": [
          21.2556691,
          40.5179297
        ]
      },
      "properties": {
        "id": 12905342712,
        "osm_type": "node",
        "name": "De-Tox",
        "outdoor_seating": "yes"
      }
    },
    {
      "type": "Feature",
      "geometry": {
        "type": "Point",
        "coordinates": [
          21.2415881,
          40.5048987
        ]
      },
      "properties": {
        "id": 12905342715,
        "osm_type": "node",
        "name": "Αρτοσπιτο"
      }
    },
    {
      "type": "Feature",
      "geometry": {
        "type": "Point",
        "coordinates": [
          21.2586036,
          40.521086
        ]
      },
      "properties": {
        "id": 12905478739,
        "osm_type": "node",
        "name": "Θεά Δήμητρα",
        "outdoor_seating": "yes"
      }
    },
    {
      "type": "Feature",
      "geometry": {
        "type": "Point",
        "coordinates": [
          21.2566402,
          40.519849
        ]
      },
      "properties": {
        "id": 12905478753,
        "osm_type": "node",
        "name": "Θέα Δήμητρα",
        "outdoor_seating": "yes"
      }
    },
    {
      "type": "Feature",
      "geometry": {
        "type": "Point",
        "coordinates": [
          21.2534925,
          40.5170524
        ]
      },
      "properties": {
        "id": 12907900369,
        "osm_type": "node",
        "name": "I Love Cafe",
        "takeaway": "only"
      }
    },
    {
      "type": "Feature",
      "geometry": {
        "type": "Point",
        "coordinates": [
          21.1999937,
          40.6228578
        ]
      },
      "properties": {
        "id": 12908938486,
        "osm_type": "node",
        "name": "Κολιαμανης",
        "outdoor_seating": "yes"
      }
    },
    {
      "type": "Feature",
      "geometry": {
        "type": "Point",
        "coordinates": [
          21.2005736,
          40.6228422
        ]
      },
      "properties": {
        "id": 12909855200,
        "osm_type": "node",
        "name": "Woodpecker",
        "outdoor_seating": "yes"
      }
    },
    {
      "type": "Feature",
      "geometry": {
        "type": "Point",
        "coordinates": [
          21.0846325,
          40.6369436
        ]
      },
      "properties": {
        "id": 12909868605,
        "osm_type": "node",
        "name": "Krystal"
      }
    },
    {
      "type": "Feature",
      "geometry": {
        "type": "Point",
        "coordinates": [
          21.5463124,
          40.2637881
        ]
      },
      "properties": {
        "id": 12941581318,
        "osm_type": "node",
        "outdoor_seating": "yes"
      }
    },
    {
      "type": "Feature",
      "geometry": {
        "type": "Point",
        "coordinates": [
          21.5562084,
          40.2526069
        ]
      },
      "properties": {
        "id": 12941581324,
        "osm_type": "node",
        "outdoor_seating": "yes"
      }
    },
    {
      "type": "Feature",
      "geometry": {
        "type": "Point",
        "coordinates": [
          21.5628161,
          40.237718
        ]
      },
      "properties": {
        "id": 12941581340,
        "osm_type": "node",
        "outdoor_seating": "yes"
      }
    },
    {
      "type": "Feature",
      "geometry": {
        "type": "Point",
        "coordinates": [
          21.9716198,
          40.2192881
        ]
      },
      "properties": {
        "id": 12943420023,
        "osm_type": "node",
        "name": "Calma Waterski"
      }
    },
    {
      "type": "Feature",
      "geometry": {
        "type": "Point",
        "coordinates": [
          21.1932381,
          40.4862876
        ]
      },
      "properties": {
        "id": 12964543856,
        "osm_type": "node",
        "name": "Tesoro",
        "opening_hours": "Mo-Su 17:30-24:00"
      }
    },
    {
      "type": "Feature",
      "geometry": {
        "type": "Point",
        "coordinates": [
          21.1934419,
          40.4866671
        ]
      },
      "properties": {
        "id": 12964543857,
        "osm_type": "node",
        "name": "Camelot",
        "opening_hours": "Mo-Su 16:00-02:00"
      }
    },
    {
      "type": "Feature",
      "geometry": {
        "type": "Point",
        "coordinates": [
          21.2600735,
          40.5380403
        ]
      },
      "properties": {
        "id": 12964693111,
        "osm_type": "node",
        "name": "ARTION BAKEHOUSE&COFFEE"
      }
    },
    {
      "type": "Feature",
      "geometry": {
        "type": "Point",
        "coordinates": [
          21.2617105,
          40.5223834
        ]
      },
      "properties": {
        "id": 12964914044,
        "osm_type": "node",
        "name": "Καφενείο «Το Διεθνές»"
      }
    },
    {
      "type": "Feature",
      "geometry": {
        "type": "Point",
        "coordinates": [
          21.789169,
          40.3301474
        ]
      },
      "properties": {
        "id": 12965821881,
        "osm_type": "node",
        "name": "Coffee Island",
        "takeaway": "yes"
      }
    },
    {
      "type": "Feature",
      "geometry": {
        "type": "Point",
        "coordinates": [
          21.5089296,
          40.3397191
        ]
      },
      "properties": {
        "id": 12981939854,
        "osm_type": "node",
        "name": "Μύλος",
        "outdoor_seating": "yes"
      }
    },
    {
      "type": "Feature",
      "geometry": {
        "type": "Point",
        "coordinates": [
          21.1914683,
          40.4872199
        ]
      },
      "properties": {
        "id": 13013713817,
        "osm_type": "node",
        "outdoor_seating": "yes"
      }
    },
    {
      "type": "Feature",
      "geometry": {
        "type": "Point",
        "coordinates": [
          21.0188742,
          40.1044258
        ]
      },
      "properties": {
        "id": 13018769773,
        "osm_type": "node",
        "name": "Ο Φούρνοςω της Σαμαρίνας"
      }
    },
    {
      "type": "Feature",
      "geometry": {
        "type": "Point",
        "coordinates": [
          21.0187488,
          40.1044567
        ]
      },
      "properties": {
        "id": 13018769783,
        "osm_type": "node",
        "name": "Tamam",
        "outdoor_seating": "yes"
      }
    },
    {
      "type": "Feature",
      "geometry": {
        "type": "Point",
        "coordinates": [
          21.0192012,
          40.1039932
        ]
      },
      "properties": {
        "id": 13020363811,
        "osm_type": "node",
        "outdoor_seating": "yes"
      }
    },
    {
      "type": "Feature",
      "geometry": {
        "type": "Point",
        "coordinates": [
          21.0193923,
          40.1044371
        ]
      },
      "properties": {
        "id": 13020363814,
        "osm_type": "node",
        "name": "Πάσχος",
        "outdoor_seating": "yes"
      }
    },
    {
      "type": "Feature",
      "geometry": {
        "type": "Point",
        "coordinates": [
          21.122552,
          40.057664
        ]
      },
      "properties": {
        "id": 13020736015,
        "osm_type": "node",
        "name": "Casa La Smixi",
        "outdoor_seating": "yes"
      }
    },
    {
      "type": "Feature",
      "geometry": {
        "type": "Point",
        "coordinates": [
          21.2688465,
          40.0295325
        ]
      },
      "properties": {
        "id": 13021195842,
        "osm_type": "node",
        "outdoor_seating": "yes"
      }
    },
    {
      "type": "Feature",
      "geometry": {
        "type": "Point",
        "coordinates": [
          21.316994,
          39.980099
        ]
      },
      "properties": {
        "id": 13026364695,
        "osm_type": "node"
      }
    },
    {
      "type": "Feature",
      "geometry": {
        "type": "Point",
        "coordinates": [
          21.2658278,
          40.5219343
        ]
      },
      "properties": {
        "id": 13026511020,
        "osm_type": "node",
        "name": "Ο Γράμμος"
      }
    },
    {
      "type": "Feature",
      "geometry": {
        "type": "Point",
        "coordinates": [
          21.2801758,
          39.8998164
        ]
      },
      "properties": {
        "id": 13026769773,
        "osm_type": "node",
        "name": "Breati"
      }
    },
    {
      "type": "Feature",
      "geometry": {
        "type": "Point",
        "coordinates": [
          21.2799344,
          39.9001359
        ]
      },
      "properties": {
        "id": 13026769775,
        "osm_type": "node",
        "name": "Ο Τεραστιος",
        "outdoor_seating": "yes"
      }
    },
    {
      "type": "Feature",
      "geometry": {
        "type": "Point",
        "coordinates": [
          21.8167406,
          40.3088565
        ]
      },
      "properties": {
        "id": 13027010205,
        "osm_type": "node",
        "name": "Il Toto"
      }
    },
    {
      "type": "Feature",
      "geometry": {
        "type": "Point",
        "coordinates": [
          21.8128449,
          40.3080342
        ]
      },
      "properties": {
        "id": 13027018133,
        "osm_type": "node",
        "name": "Cantina by Cups",
        "takeaway": "yes"
      }
    },
    {
      "type": "Feature",
      "geometry": {
        "type": "Point",
        "coordinates": [
          21.7973035,
          40.299122
        ]
      },
      "properties": {
        "id": 13048833117,
        "osm_type": "node",
        "name": "Mikel",
        "brand": "Mikel",
        "takeaway": "yes"
      }
    },
    {
      "type": "Feature",
      "geometry": {
        "type": "Point",
        "coordinates": [
          21.7971,
          40.3020554
        ]
      },
      "properties": {
        "id": 13048833120,
        "osm_type": "node",
        "name": "Σπιρτόκουτο"
      }
    },
    {
      "type": "Feature",
      "geometry": {
        "type": "Point",
        "coordinates": [
          21.805343,
          40.3036835
        ]
      },
      "properties": {
        "id": 13049525564,
        "osm_type": "node",
        "name": "Bruno"
      }
    },
    {
      "type": "Feature",
      "geometry": {
        "type": "Point",
        "coordinates": [
          21.7882557,
          40.3006735
        ]
      },
      "properties": {
        "id": 13058152971,
        "osm_type": "node",
        "name": "Lief Coffee"
      }
    },
    {
      "type": "Feature",
      "geometry": {
        "type": "Point",
        "coordinates": [
          21.7886728,
          40.301324
        ]
      },
      "properties": {
        "id": 13058195422,
        "osm_type": "node",
        "name": "Εστία"
      }
    },
    {
      "type": "Feature",
      "geometry": {
        "type": "Point",
        "coordinates": [
          21.7885239,
          40.3013189
        ]
      },
      "properties": {
        "id": 13058195423,
        "osm_type": "node",
        "name": "Κορδώσης"
      }
    },
    {
      "type": "Feature",
      "geometry": {
        "type": "Point",
        "coordinates": [
          21.7891271,
          40.3041826
        ]
      },
      "properties": {
        "id": 13071071064,
        "osm_type": "node",
        "name": "Ophélia"
      }
    },
    {
      "type": "Feature",
      "geometry": {
        "type": "Point",
        "coordinates": [
          21.7870662,
          40.3013414
        ]
      },
      "properties": {
        "id": 13072680632,
        "osm_type": "node",
        "name": "Detox"
      }
    },
    {
      "type": "Feature",
      "geometry": {
        "type": "Point",
        "coordinates": [
          21.8002278,
          40.3005092
        ]
      },
      "properties": {
        "id": 13436072950,
        "osm_type": "node",
        "name": "Espresso World"
      }
    },
    {
      "type": "Feature",
      "geometry": {
        "type": "Point",
        "coordinates": [
          21.7383432,
          40.2539036
        ]
      },
      "properties": {
        "id": 13541876030,
        "osm_type": "node",
        "name": "Οι ζύμες της Φανής"
      }
    },
    {
      "type": "Feature",
      "geometry": {
        "type": "Point",
        "coordinates": [
          21.8246701,
          40.3279579
        ]
      },
      "properties": {
        "id": 13624744491,
        "osm_type": "node",
        "name": "Piazza"
      }
    },
    {
      "type": "Feature",
      "geometry": {
        "type": "Point",
        "coordinates": [
          21.1816679,
          40.5348522
        ]
      },
      "properties": {
        "id": 298579649,
        "osm_type": "way",
        "name": "Καφέ Λεού"
      }
    },
    {
      "type": "Feature",
      "geometry": {
        "type": "Point",
        "coordinates": [
          21.2724778,
          40.5152489
        ]
      },
      "properties": {
        "id": 374658476,
        "osm_type": "way",
        "name": "Δημοτικό Αναψυκτήριο"
      }
    },
    {
      "type": "Feature",
      "geometry": {
        "type": "Point",
        "coordinates": [
          21.2210489,
          40.1688741
        ]
      },
      "properties": {
        "id": 378228593,
        "osm_type": "way",
        "name": "Καφενείο"
      }
    },
    {
      "type": "Feature",
      "geometry": {
        "type": "Point",
        "coordinates": [
          21.2646752,
          40.5190963
        ]
      },
      "properties": {
        "id": 381225051,
        "osm_type": "way",
        "name": "63 cafe bar",
        "opening_hours": "Mo-Su 10:00-24:00",
        "outdoor_seating": "yes"
      }
    },
    {
      "type": "Feature",
      "geometry": {
        "type": "Point",
        "coordinates": [
          21.2648121,
          40.5188669
        ]
      },
      "properties": {
        "id": 381225821,
        "osm_type": "way",
        "name": "Day Din",
        "opening_hours": "Mo-Su 09:00-24:00",
        "outdoor_seating": "yes"
      }
    },
    {
      "type": "Feature",
      "geometry": {
        "type": "Point",
        "coordinates": [
          21.017888,
          40.7417446
        ]
      },
      "properties": {
        "id": 944968671,
        "osm_type": "way",
        "name": "Ο Τσελεμεντές"
      }
    },
    {
      "type": "Feature",
      "geometry": {
        "type": "Point",
        "coordinates": [
          21.0315246,
          40.8289252
        ]
      },
      "properties": {
        "id": 945364648,
        "osm_type": "way",
        "name": "Εκλεκτή Γη"
      }
    },
    {
      "type": "Feature",
      "geometry": {
        "type": "Point",
        "coordinates": [
          21.0313043,
          40.829237
        ]
      },
      "properties": {
        "id": 945364654,
        "osm_type": "way",
        "name": "ο Πέτρος"
      }
    },
    {
      "type": "Feature",
      "geometry": {
        "type": "Point",
        "coordinates": [
          21.1313967,
          40.7398271
        ]
      },
      "properties": {
        "id": 961244385,
        "osm_type": "way",
        "name": "Μάυρος Γάτος",
        "outdoor_seating": "yes"
      }
    },
    {
      "type": "Feature",
      "geometry": {
        "type": "Point",
        "coordinates": [
          21.1911759,
          40.487272
        ]
      },
      "properties": {
        "id": 968052827,
        "osm_type": "way",
        "name": "Κυριζάκης Δημήτρης"
      }
    },
    {
      "type": "Feature",
      "geometry": {
        "type": "Point",
        "coordinates": [
          21.202491,
          40.1390715
        ]
      },
      "properties": {
        "id": 972785585,
        "osm_type": "way",
        "name": "Πέρασμα"
      }
    },
    {
      "type": "Feature",
      "geometry": {
        "type": "Point",
        "coordinates": [
          21.2017504,
          40.1391647
        ]
      },
      "properties": {
        "id": 972787089,
        "osm_type": "way"
      }
    },
    {
      "type": "Feature",
      "geometry": {
        "type": "Point",
        "coordinates": [
          21.137097,
          40.1270969
        ]
      },
      "properties": {
        "id": 974116764,
        "osm_type": "way",
        "name": "Τσότσας"
      }
    },
    {
      "type": "Feature",
      "geometry": {
        "type": "Point",
        "coordinates": [
          21.1374927,
          40.1271218
        ]
      },
      "properties": {
        "id": 974116774,
        "osm_type": "way",
        "name": "Πλάτανος"
      }
    },
    {
      "type": "Feature",
      "geometry": {
        "type": "Point",
        "coordinates": [
          21.2069785,
          40.2103945
        ]
      },
      "properties": {
        "id": 974925416,
        "osm_type": "way",
        "name": "Καφενείο Μόρφης"
      }
    },
    {
      "type": "Feature",
      "geometry": {
        "type": "Point",
        "coordinates": [
          21.1869892,
          40.2026973
        ]
      },
      "properties": {
        "id": 974926140,
        "osm_type": "way",
        "name": "Καφενείο"
      }
    },
    {
      "type": "Feature",
      "geometry": {
        "type": "Point",
        "coordinates": [
          21.1814337,
          40.1644197
        ]
      },
      "properties": {
        "id": 975884902,
        "osm_type": "way"
      }
    },
    {
      "type": "Feature",
      "geometry": {
        "type": "Point",
        "coordinates": [
          21.8652729,
          40.2913722
        ]
      },
      "properties": {
        "id": 986274349,
        "osm_type": "way",
        "name": "Baron cafe"
      }
    },
    {
      "type": "Feature",
      "geometry": {
        "type": "Point",
        "coordinates": [
          21.8664338,
          40.2886848
        ]
      },
      "properties": {
        "id": 986274350,
        "osm_type": "way",
        "name": "Αρτοποιείο Καραλίγκα"
      }
    },
    {
      "type": "Feature",
      "geometry": {
        "type": "Point",
        "coordinates": [
          21.8640476,
          40.2908223
        ]
      },
      "properties": {
        "id": 986274352,
        "osm_type": "way",
        "name": "Senses Cafe"
      }
    },
    {
      "type": "Feature",
      "geometry": {
        "type": "Point",
        "coordinates": [
          21.8643936,
          40.2908795
        ]
      },
      "properties": {
        "id": 986274353,
        "osm_type": "way"
      }
    },
    {
      "type": "Feature",
      "geometry": {
        "type": "Point",
        "coordinates": [
          21.2759916,
          40.5225533
        ]
      },
      "properties": {
        "id": 987901408,
        "osm_type": "way",
        "name": "Προφήτης Ηλίας Lounge Cafe"
      }
    },
    {
      "type": "Feature",
      "geometry": {
        "type": "Point",
        "coordinates": [
          22.0119774,
          40.191245
        ]
      },
      "properties": {
        "id": 998676597,
        "osm_type": "way",
        "name": "8 ΓΩΝΟ"
      }
    },
    {
      "type": "Feature",
      "geometry": {
        "type": "Point",
        "coordinates": [
          21.7803263,
          40.2711307
        ]
      },
      "properties": {
        "id": 1000810647,
        "osm_type": "way",
        "name": "El Clasico",
        "outdoor_seating": "yes"
      }
    },
    {
      "type": "Feature",
      "geometry": {
        "type": "Point",
        "coordinates": [
          21.7788509,
          40.270925
        ]
      },
      "properties": {
        "id": 1000810651,
        "osm_type": "way",
        "name": "Τα Κουμπαράκια",
        "outdoor_seating": "yes"
      }
    },
    {
      "type": "Feature",
      "geometry": {
        "type": "Point",
        "coordinates": [
          21.8301478,
          40.226963
        ]
      },
      "properties": {
        "id": 1001430676,
        "osm_type": "way",
        "name": "Έναστρο",
        "outdoor_seating": "yes"
      }
    },
    {
      "type": "Feature",
      "geometry": {
        "type": "Point",
        "coordinates": [
          21.9674683,
          40.2391478
        ]
      },
      "properties": {
        "id": 1001944998,
        "osm_type": "way",
        "name": "Ostria",
        "opening_hours": "Κάθε μέρα από τις 10:00 έως πολύ αργά το βράδυ",
        "outdoor_seating": "yes"
      }
    },
    {
      "type": "Feature",
      "geometry": {
        "type": "Point",
        "coordinates": [
          21.168056,
          40.4976872
        ]
      },
      "properties": {
        "id": 1164475531,
        "osm_type": "way",
        "name": "Velvet Coffee Bar",
        "outdoor_seating": "yes"
      }
    },
    {
      "type": "Feature",
      "geometry": {
        "type": "Point",
        "coordinates": [
          21.7906479,
          40.2835301
        ]
      },
      "properties": {
        "id": 1270794647,
        "osm_type": "way"
      }
    },
    {
      "type": "Feature",
      "geometry": {
        "type": "Point",
        "coordinates": [
          21.7411333,
          40.2901337
        ]
      },
      "properties": {
        "id": 1272696687,
        "osm_type": "way",
        "name": "Aslan",
        "outdoor_seating": "yes"
      }
    },
    {
      "type": "Feature",
      "geometry": {
        "type": "Point",
        "coordinates": [
          21.1414357,
          40.8357374
        ]
      },
      "properties": {
        "id": 1278419326,
        "osm_type": "way"
      }
    },
    {
      "type": "Feature",
      "geometry": {
        "type": "Point",
        "coordinates": [
          21.1389769,
          40.7897086
        ]
      },
      "properties": {
        "id": 1278540219,
        "osm_type": "way",
        "outdoor_seating": "yes"
      }
    },
    {
      "type": "Feature",
      "geometry": {
        "type": "Point",
        "coordinates": [
          21.1386439,
          40.7898771
        ]
      },
      "properties": {
        "id": 1278540220,
        "osm_type": "way",
        "outdoor_seating": "yes"
      }
    },
    {
      "type": "Feature",
      "geometry": {
        "type": "Point",
        "coordinates": [
          21.788504,
          40.3197277
        ]
      },
      "properties": {
        "id": 1286655727,
        "osm_type": "way",
        "name": "Nefeli Hotel cafe",
        "outdoor_seating": "yes"
      }
    },
    {
      "type": "Feature",
      "geometry": {
        "type": "Point",
        "coordinates": [
          21.2581865,
          40.5347199
        ]
      },
      "properties": {
        "id": 1318782696,
        "osm_type": "way",
        "name": "De-Tox Cafe",
        "takeaway": "only",
        "outdoor_seating": "yes"
      }
    },
    {
      "type": "Feature",
      "geometry": {
        "type": "Point",
        "coordinates": [
          21.2853679,
          40.5054888
        ]
      },
      "properties": {
        "id": 1320083145,
        "osm_type": "way",
        "name": "Revel Coffee & More",
        "opening_hours": "Mo-Su 09:00-24:00",
        "outdoor_seating": "yes"
      }
    },
    {
      "type": "Feature",
      "geometry": {
        "type": "Point",
        "coordinates": [
          21.133614,
          40.4862204
        ]
      },
      "properties": {
        "id": 1326193000,
        "osm_type": "way",
        "name": "Καφενείο"
      }
    },
    {
      "type": "Feature",
      "geometry": {
        "type": "Point",
        "coordinates": [
          21.8097032,
          40.306336
        ]
      },
      "properties": {
        "id": 1335745828,
        "osm_type": "way",
        "name": "Ο φούρνος με τα ξύλα"
      }
    },
    {
      "type": "Feature",
      "geometry": {
        "type": "Point",
        "coordinates": [
          21.2845284,
          40.0040301
        ]
      },
      "properties": {
        "id": 1393991490,
        "osm_type": "way"
      }
    },
    {
      "type": "Feature",
      "geometry": {
        "type": "Point",
        "coordinates": [
          21.505462,
          40.6216662
        ]
      },
      "properties": {
        "id": 1427477966,
        "osm_type": "way",
        "name": "Αρτοποιείο Άρτος Ημών"
      }
    }
  ]
}