{
  "type": "FeatureCollection",
  "features": [
    {
      "type": "Feature",
      "geometry": {
        "type": "Point",
        "coordinates": [
          18.9676117,
          45.6780426
        ]
      },
      "properties": {
        "id": 5744288853,
        "osm_type": "node"
      }
    },
    {
      "type": "Feature",
      "geometry": {
        "type": "Point",
        "coordinates": [
          19.1145252,
          45.7859038
        ]
      },
      "properties": {
        "id": 13448368847,
        "osm_type": "node"
      }
    },
    {
      "type": "Feature",
      "geometry": {
        "type": "Point",
        "coordinates": [
          19.0317506,
          45.6792971
        ]
      },
      "properties": {
        "id": 306870380,
        "osm_type": "way",
        "name": "WC"
      }
    },
    {
      "type": "Feature",
      "geometry": {
        "type": "Point",
        "coordinates": [
          18.9530798,
          45.6849761
        ]
      },
      "properties": {
        "id": 306896949,
        "osm_type": "way"
      }
    }
  ]
}