{
  "type": "FeatureCollection",
  "features": [
    {
      "type": "Feature",
      "geometry": {
        "type": "Point",
        "coordinates": [
          15.1990069,
          50.0227713
        ]
      },
      "properties": {
        "id": 1918529535,
        "osm_type": "node",
        "vending": "drinks",
        "operator": "Eko voda",
        "check_date": "2025-04-03"
      }
    },
    {
      "type": "Feature",
      "geometry": {
        "type": "Point",
        "coordinates": [
          14.7364704,
          50.1746028
        ]
      },
      "properties": {
        "id": 2109574522,
        "osm_type": "node",
        "vending": "water"
      }
    },
    {
      "type": "Feature",
      "geometry": {
        "type": "Point",
        "coordinates": [
          14.6990438,
          50.2570279
        ]
      },
      "properties": {
        "id": 3174484381,
        "osm_type": "node",
        "vending": "water"
      }
    },
    {
      "type": "Feature",
      "geometry": {
        "type": "Point",
        "coordinates": [
          14.8414864,
          50.2026319
        ]
      },
      "properties": {
        "id": 3327983420,
        "osm_type": "node",
        "vending": "drinks"
      }
    },
    {
      "type": "Feature",
      "geometry": {
        "type": "Point",
        "coordinates": [
          14.4046153,
          50.1665231
        ]
      },
      "properties": {
        "id": 4896960875,
        "osm_type": "node",
        "vending": "drinks"
      }
    },
    {
      "type": "Feature",
      "geometry": {
        "type": "Point",
        "coordinates": [
          14.5713751,
          49.8558957
        ]
      },
      "properties": {
        "id": 4911503775,
        "osm_type": "node",
        "name": "mlékomat",
        "vending": "milk"
      }
    },
    {
      "type": "Feature",
      "geometry": {
        "type": "Point",
        "coordinates": [
          14.9294398,
          49.712739
        ]
      },
      "properties": {
        "id": 6402185488,
        "osm_type": "node",
        "vending": "milk",
        "operator": "Mlékomat - Rolnická společnost a.s."
      }
    },
    {
      "type": "Feature",
      "geometry": {
        "type": "Point",
        "coordinates": [
          14.4831076,
          49.9719258
        ]
      },
      "properties": {
        "id": 7255780941,
        "osm_type": "node",
        "vending": "milk"
      }
    },
    {
      "type": "Feature",
      "geometry": {
        "type": "Point",
        "coordinates": [
          14.9086526,
          50.4364523
        ]
      },
      "properties": {
        "id": 7815161287,
        "osm_type": "node",
        "vending": "coffee"
      }
    },
    {
      "type": "Feature",
      "geometry": {
        "type": "Point",
        "coordinates": [
          14.9086896,
          50.4364444
        ]
      },
      "properties": {
        "id": 7815161288,
        "osm_type": "node",
        "opening_hours": "08:00-20:00",
        "vending": "drinks",
        "check_date": "2023-08-07"
      }
    },
    {
      "type": "Feature",
      "geometry": {
        "type": "Point",
        "coordinates": [
          14.3136036,
          50.2388532
        ]
      },
      "properties": {
        "id": 7819479513,
        "osm_type": "node",
        "vending": "sweets;drinks",
        "check_date": "2022-08-18"
      }
    },
    {
      "type": "Feature",
      "geometry": {
        "type": "Point",
        "coordinates": [
          14.7446684,
          50.1598326
        ]
      },
      "properties": {
        "id": 9038856200,
        "osm_type": "node",
        "vending": "water"
      }
    },
    {
      "type": "Feature",
      "geometry": {
        "type": "Point",
        "coordinates": [
          14.7540139,
          50.1582072
        ]
      },
      "properties": {
        "id": 9038856202,
        "osm_type": "node",
        "vending": "coffee"
      }
    },
    {
      "type": "Feature",
      "geometry": {
        "type": "Point",
        "coordinates": [
          14.7539846,
          50.1582042
        ]
      },
      "properties": {
        "id": 9038856203,
        "osm_type": "node",
        "vending": "drinks;food"
      }
    },
    {
      "type": "Feature",
      "geometry": {
        "type": "Point",
        "coordinates": [
          15.4622878,
          49.8608731
        ]
      },
      "properties": {
        "id": 9082404771,
        "osm_type": "node",
        "vending": "milk",
        "operator": "Farma Hostovlice"
      }
    },
    {
      "type": "Feature",
      "geometry": {
        "type": "Point",
        "coordinates": [
          13.8772642,
          50.1395034
        ]
      },
      "properties": {
        "id": 9094122798,
        "osm_type": "node",
        "vending": "milk"
      }
    },
    {
      "type": "Feature",
      "geometry": {
        "type": "Point",
        "coordinates": [
          14.7539987,
          50.1582072
        ]
      },
      "properties": {
        "id": 9775296924,
        "osm_type": "node",
        "vending": "coffee"
      }
    },
    {
      "type": "Feature",
      "geometry": {
        "type": "Point",
        "coordinates": [
          13.8200876,
          50.0123655
        ]
      },
      "properties": {
        "id": 9860605857,
        "osm_type": "node",
        "vending": "drinks;food"
      }
    },
    {
      "type": "Feature",
      "geometry": {
        "type": "Point",
        "coordinates": [
          14.9781819,
          50.5185716
        ]
      },
      "properties": {
        "id": 10218257777,
        "osm_type": "node",
        "vending": "coffee"
      }
    },
    {
      "type": "Feature",
      "geometry": {
        "type": "Point",
        "coordinates": [
          15.2842589,
          49.9602392
        ]
      },
      "properties": {
        "id": 10946788822,
        "osm_type": "node",
        "vending": "coffee",
        "check_date": "2025-09-21"
      }
    },
    {
      "type": "Feature",
      "geometry": {
        "type": "Point",
        "coordinates": [
          14.9163259,
          50.4198265
        ]
      },
      "properties": {
        "id": 11049016510,
        "osm_type": "node",
        "opening_hours": "24/7",
        "vending": "coffee",
        "check_date": "2025-10-03"
      }
    },
    {
      "type": "Feature",
      "geometry": {
        "type": "Point",
        "coordinates": [
          14.9163146,
          50.4198288
        ]
      },
      "properties": {
        "id": 11049016511,
        "osm_type": "node",
        "opening_hours": "24/7",
        "vending": "drinks;sweets",
        "check_date": "2025-10-03"
      }
    },
    {
      "type": "Feature",
      "geometry": {
        "type": "Point",
        "coordinates": [
          13.7353556,
          50.1106693
        ]
      },
      "properties": {
        "id": 11262151872,
        "osm_type": "node",
        "opening_hours": "Mo-Su 07:00-22:00;PH off",
        "vending": "coffee",
        "operator": "cafe+co",
        "check_date": "2023-10-14"
      }
    },
    {
      "type": "Feature",
      "geometry": {
        "type": "Point",
        "coordinates": [
          13.7248841,
          50.0977309
        ]
      },
      "properties": {
        "id": 11293184606,
        "osm_type": "node",
        "opening_hours": "Mo-Fr 06:00-20:00",
        "vending": "drinks;food;sweets"
      }
    },
    {
      "type": "Feature",
      "geometry": {
        "type": "Point",
        "coordinates": [
          13.7249117,
          50.0976829
        ]
      },
      "properties": {
        "id": 11293191528,
        "osm_type": "node",
        "opening_hours": "Mo-Fr 06:00-20:00",
        "vending": "coffee",
        "operator": "cafe+co"
      }
    },
    {
      "type": "Feature",
      "geometry": {
        "type": "Point",
        "coordinates": [
          14.0923879,
          50.1364308
        ]
      },
      "properties": {
        "id": 11345843092,
        "osm_type": "node",
        "vending": "coffee"
      }
    },
    {
      "type": "Feature",
      "geometry": {
        "type": "Point",
        "coordinates": [
          13.7510022,
          50.1057525
        ]
      },
      "properties": {
        "id": 11360112431,
        "osm_type": "node",
        "vending": "coffee",
        "operator": "Dallmayr",
        "check_date": "2023-11-18"
      }
    },
    {
      "type": "Feature",
      "geometry": {
        "type": "Point",
        "coordinates": [
          14.9310885,
          50.4116683
        ]
      },
      "properties": {
        "id": 11406966124,
        "osm_type": "node",
        "vending": "coffee",
        "check_date": "2023-12-10"
      }
    },
    {
      "type": "Feature",
      "geometry": {
        "type": "Point",
        "coordinates": [
          14.9311241,
          50.4116776
        ]
      },
      "properties": {
        "id": 11407047999,
        "osm_type": "node",
        "vending": "ice_cream",
        "check_date": "2023-12-10"
      }
    },
    {
      "type": "Feature",
      "geometry": {
        "type": "Point",
        "coordinates": [
          14.9979593,
          50.5205273
        ]
      },
      "properties": {
        "id": 11889604424,
        "osm_type": "node",
        "vending": "milk"
      }
    },
    {
      "type": "Feature",
      "geometry": {
        "type": "Point",
        "coordinates": [
          15.0334771,
          50.5488984
        ]
      },
      "properties": {
        "id": 11889604425,
        "osm_type": "node",
        "vending": "milk"
      }
    },
    {
      "type": "Feature",
      "geometry": {
        "type": "Point",
        "coordinates": [
          13.9042715,
          50.1498
        ]
      },
      "properties": {
        "id": 11998847976,
        "osm_type": "node",
        "vending": "coffee",
        "operator": "café+co"
      }
    },
    {
      "type": "Feature",
      "geometry": {
        "type": "Point",
        "coordinates": [
          14.0421101,
          49.9507811
        ]
      },
      "properties": {
        "id": 12265749506,
        "osm_type": "node",
        "name": "Perla",
        "vending": "coffee",
        "check_date": "2024-10-19"
      }
    },
    {
      "type": "Feature",
      "geometry": {
        "type": "Point",
        "coordinates": [
          14.0421158,
          49.9507694
        ]
      },
      "properties": {
        "id": 12265749507,
        "osm_type": "node",
        "vending": "drinks",
        "check_date": "2024-10-19"
      }
    },
    {
      "type": "Feature",
      "geometry": {
        "type": "Point",
        "coordinates": [
          14.0303693,
          49.9473658
        ]
      },
      "properties": {
        "id": 12270653347,
        "osm_type": "node",
        "vending": "drinks"
      }
    },
    {
      "type": "Feature",
      "geometry": {
        "type": "Point",
        "coordinates": [
          14.5329359,
          49.8639814
        ]
      },
      "properties": {
        "id": 12290413959,
        "osm_type": "node",
        "vending": "drinks;sweets"
      }
    },
    {
      "type": "Feature",
      "geometry": {
        "type": "Point",
        "coordinates": [
          14.043107,
          49.9519542
        ]
      },
      "properties": {
        "id": 12367794475,
        "osm_type": "node",
        "vending": "coffee",
        "operator": "Cafe+co",
        "check_date": "2024-11-23"
      }
    },
    {
      "type": "Feature",
      "geometry": {
        "type": "Point",
        "coordinates": [
          14.0431074,
          49.9519771
        ]
      },
      "properties": {
        "id": 12367794476,
        "osm_type": "node",
        "vending": "drinks",
        "check_date": "2024-11-23"
      }
    },
    {
      "type": "Feature",
      "geometry": {
        "type": "Point",
        "coordinates": [
          14.7063612,
          50.0721949
        ]
      },
      "properties": {
        "id": 12590604085,
        "osm_type": "node",
        "vending": "coffee"
      }
    },
    {
      "type": "Feature",
      "geometry": {
        "type": "Point",
        "coordinates": [
          14.7016113,
          49.849021
        ]
      },
      "properties": {
        "id": 12621406256,
        "osm_type": "node",
        "vending": "coffee"
      }
    },
    {
      "type": "Feature",
      "geometry": {
        "type": "Point",
        "coordinates": [
          14.1739431,
          49.7781292
        ]
      },
      "properties": {
        "id": 12666372142,
        "osm_type": "node",
        "vending": "coffee",
        "check_date": "2025-03-15"
      }
    },
    {
      "type": "Feature",
      "geometry": {
        "type": "Point",
        "coordinates": [
          14.173921,
          49.7781275
        ]
      },
      "properties": {
        "id": 12666372143,
        "osm_type": "node",
        "vending": "drinks",
        "check_date": "2025-03-15"
      }
    },
    {
      "type": "Feature",
      "geometry": {
        "type": "Point",
        "coordinates": [
          14.4922489,
          50.3528766
        ]
      },
      "properties": {
        "id": 12709207984,
        "osm_type": "node",
        "vending": "food;drinks"
      }
    },
    {
      "type": "Feature",
      "geometry": {
        "type": "Point",
        "coordinates": [
          14.7299575,
          50.0467571
        ]
      },
      "properties": {
        "id": 12821463229,
        "osm_type": "node",
        "vending": "water"
      }
    },
    {
      "type": "Feature",
      "geometry": {
        "type": "Point",
        "coordinates": [
          13.7148963,
          50.1073274
        ]
      },
      "properties": {
        "id": 12827834110,
        "osm_type": "node",
        "vending": "coffee",
        "check_date": "2025-05-11"
      }
    },
    {
      "type": "Feature",
      "geometry": {
        "type": "Point",
        "coordinates": [
          15.2093365,
          50.0258919
        ]
      },
      "properties": {
        "id": 12856385243,
        "osm_type": "node",
        "vending": "drinks"
      }
    },
    {
      "type": "Feature",
      "geometry": {
        "type": "Point",
        "coordinates": [
          15.2093545,
          50.0259201
        ]
      },
      "properties": {
        "id": 12856385244,
        "osm_type": "node",
        "vending": "food"
      }
    },
    {
      "type": "Feature",
      "geometry": {
        "type": "Point",
        "coordinates": [
          15.2094195,
          50.0258704
        ]
      },
      "properties": {
        "id": 12856385246,
        "osm_type": "node",
        "vending": "ice_cream"
      }
    },
    {
      "type": "Feature",
      "geometry": {
        "type": "Point",
        "coordinates": [
          15.2094105,
          50.0258542
        ]
      },
      "properties": {
        "id": 12856385247,
        "osm_type": "node",
        "vending": "food"
      }
    },
    {
      "type": "Feature",
      "geometry": {
        "type": "Point",
        "coordinates": [
          15.2141558,
          50.0248883
        ]
      },
      "properties": {
        "id": 12861343788,
        "osm_type": "node",
        "vending": "water",
        "brand": "Lokni",
        "operator": "Lokni s.r.o."
      }
    },
    {
      "type": "Feature",
      "geometry": {
        "type": "Point",
        "coordinates": [
          15.2762722,
          49.9461985
        ]
      },
      "properties": {
        "id": 12906149771,
        "osm_type": "node",
        "vending": "coffee",
        "check_date": "2025-06-11"
      }
    },
    {
      "type": "Feature",
      "geometry": {
        "type": "Point",
        "coordinates": [
          15.2762757,
          49.9461592
        ]
      },
      "properties": {
        "id": 12906149772,
        "osm_type": "node",
        "vending": "drinks;food;sweets",
        "check_date": "2025-06-11"
      }
    },
    {
      "type": "Feature",
      "geometry": {
        "type": "Point",
        "coordinates": [
          14.0848004,
          50.2395458
        ]
      },
      "properties": {
        "id": 12981562770,
        "osm_type": "node",
        "vending": "drinks",
        "check_date": "2025-07-06"
      }
    },
    {
      "type": "Feature",
      "geometry": {
        "type": "Point",
        "coordinates": [
          14.4287055,
          49.6578556
        ]
      },
      "properties": {
        "id": 13003740879,
        "osm_type": "node",
        "opening_hours": "Mo-Su 05:00-20:00",
        "vending": "coffee;sweets"
      }
    },
    {
      "type": "Feature",
      "geometry": {
        "type": "Point",
        "coordinates": [
          14.7471922,
          49.8542317
        ]
      },
      "properties": {
        "id": 13097850701,
        "osm_type": "node",
        "vending": "milk"
      }
    },
    {
      "type": "Feature",
      "geometry": {
        "type": "Point",
        "coordinates": [
          13.731508,
          50.1042927
        ]
      },
      "properties": {
        "id": 13200009205,
        "osm_type": "node",
        "vending": "coffee",
        "operator": "Cafe+co",
        "check_date": "2025-10-07"
      }
    },
    {
      "type": "Feature",
      "geometry": {
        "type": "Point",
        "coordinates": [
          14.65436,
          50.1863838
        ]
      },
      "properties": {
        "id": 13442482853,
        "osm_type": "node",
        "vending": "food;drinks",
        "operator": "U Mikeše"
      }
    },
    {
      "type": "Feature",
      "geometry": {
        "type": "Point",
        "coordinates": [
          13.9797751,
          49.9075038
        ]
      },
      "properties": {
        "id": 13447810925,
        "osm_type": "node",
        "vending": "coffee",
        "operator": "Delikomat"
      }
    },
    {
      "type": "Feature",
      "geometry": {
        "type": "Point",
        "coordinates": [
          13.8992622,
          49.8430559
        ]
      },
      "properties": {
        "id": 13447812300,
        "osm_type": "node",
        "vending": "coffee",
        "operator": "Delikomat"
      }
    },
    {
      "type": "Feature",
      "geometry": {
        "type": "Point",
        "coordinates": [
          14.0759543,
          49.9573611
        ]
      },
      "properties": {
        "id": 13447834700,
        "osm_type": "node",
        "vending": "drinks;sweets"
      }
    },
    {
      "type": "Feature",
      "geometry": {
        "type": "Point",
        "coordinates": [
          13.6478218,
          50.0959868
        ]
      },
      "properties": {
        "id": 13449448764,
        "osm_type": "node",
        "vending": "sweets;drinks;food"
      }
    },
    {
      "type": "Feature",
      "geometry": {
        "type": "Point",
        "coordinates": [
          14.0277019,
          49.9426256
        ]
      },
      "properties": {
        "id": 13652191698,
        "osm_type": "node",
        "vending": "ice_cream",
        "operator": "Hýskovská zmrzlina"
      }
    }
  ]
}