{
  "type": "FeatureCollection",
  "features": [
    {
      "type": "Feature",
      "geometry": {
        "type": "Point",
        "coordinates": [
          4.3251928,
          50.8219179
        ]
      },
      "properties": {
        "id": 202878556,
        "osm_type": "node",
        "name": "Lidl",
        "brand": "Lidl",
        "opening_hours": "Mo-Fr 08:30-20:00, Sa 08:30-19:00"
      }
    },
    {
      "type": "Feature",
      "geometry": {
        "type": "Point",
        "coordinates": [
          4.3414471,
          50.8013432
        ]
      },
      "properties": {
        "id": 255033292,
        "osm_type": "node",
        "name": "Carrefour Market Marlow"
      }
    },
    {
      "type": "Feature",
      "geometry": {
        "type": "Point",
        "coordinates": [
          4.3642073,
          50.8173522
        ]
      },
      "properties": {
        "id": 257507795,
        "osm_type": "node",
        "name": "Carrefour Market",
        "brand": "Carrefour Market",
        "opening_hours": "Mo 08:00-20:00,Tu 08:00-20:00,We 08:00-20:00,Th 08:00-20:00,Fr 08:00-21:00,Sa 08:00-20:00"
      }
    },
    {
      "type": "Feature",
      "geometry": {
        "type": "Point",
        "coordinates": [
          4.355229,
          50.822232
        ]
      },
      "properties": {
        "id": 282464794,
        "osm_type": "node",
        "name": "Proxy Delhaize",
        "brand": "Proxy Delhaize",
        "opening_hours": "Mo-Su 08:00-20:00"
      }
    },
    {
      "type": "Feature",
      "geometry": {
        "type": "Point",
        "coordinates": [
          4.340822,
          50.872846
        ]
      },
      "properties": {
        "id": 288716301,
        "osm_type": "node",
        "name": "Colruyt",
        "brand": "Colruyt",
        "opening_hours": "Mo-Th 8:00-20:00; Fr 8:00-21:00; Sa 8:00-20:00"
      }
    },
    {
      "type": "Feature",
      "geometry": {
        "type": "Point",
        "coordinates": [
          4.3443178,
          50.8298304
        ]
      },
      "properties": {
        "id": 288781222,
        "osm_type": "node",
        "name": "Bio-Planet",
        "brand": "Bio-Planet",
        "opening_hours": "Mo-Th,Sa 09:00-19:30; Fr 09:00-20:00"
      }
    },
    {
      "type": "Feature",
      "geometry": {
        "type": "Point",
        "coordinates": [
          4.32551,
          50.8098278
        ]
      },
      "properties": {
        "id": 336011723,
        "osm_type": "node",
        "name": "Colruyt",
        "brand": "Colruyt",
        "opening_hours": "Mo-Th,Sa 08:30-20:00; Fr 08:30-21:00"
      }
    },
    {
      "type": "Feature",
      "geometry": {
        "type": "Point",
        "coordinates": [
          4.318066,
          50.8479529
        ]
      },
      "properties": {
        "id": 337930363,
        "osm_type": "node",
        "name": "Lidl",
        "brand": "Lidl"
      }
    },
    {
      "type": "Feature",
      "geometry": {
        "type": "Point",
        "coordinates": [
          4.3176394,
          50.849365
        ]
      },
      "properties": {
        "id": 337941674,
        "osm_type": "node",
        "name": "ALDI",
        "brand": "ALDI"
      }
    },
    {
      "type": "Feature",
      "geometry": {
        "type": "Point",
        "coordinates": [
          4.2875822,
          50.8275094
        ]
      },
      "properties": {
        "id": 337967353,
        "osm_type": "node",
        "name": "Carrefour Market",
        "brand": "Carrefour Market",
        "opening_hours": "Mo-Th,Sa 08:30-20:00, Fr 08:30-21:00"
      }
    },
    {
      "type": "Feature",
      "geometry": {
        "type": "Point",
        "coordinates": [
          4.2857913,
          50.8271776
        ]
      },
      "properties": {
        "id": 337969598,
        "osm_type": "node",
        "name": "ALDI",
        "brand": "ALDI",
        "opening_hours": "Mo-Sa 08:30-19:00"
      }
    },
    {
      "type": "Feature",
      "geometry": {
        "type": "Point",
        "coordinates": [
          4.3808602,
          50.835799
        ]
      },
      "properties": {
        "id": 344699790,
        "osm_type": "node",
        "name": "Brüt by Färm Jourdan",
        "brand": "Brut by Färm",
        "opening_hours": "Mo-Sa 09:00-19:30; Su 09:00-16:00",
        "check_date": "2026-02-02"
      }
    },
    {
      "type": "Feature",
      "geometry": {
        "type": "Point",
        "coordinates": [
          4.3570368,
          50.8047093
        ]
      },
      "properties": {
        "id": 349268876,
        "osm_type": "node",
        "name": "Delhaize",
        "brand": "Delhaize",
        "opening_hours": "Mo-Su 08:00-20:00"
      }
    },
    {
      "type": "Feature",
      "geometry": {
        "type": "Point",
        "coordinates": [
          4.3752817,
          50.8493678
        ]
      },
      "properties": {
        "id": 349920066,
        "osm_type": "node",
        "name": "Proxy Delhaize",
        "brand": "Proxy Delhaize",
        "opening_hours": "Mo-Sa 08:00-20:00"
      }
    },
    {
      "type": "Feature",
      "geometry": {
        "type": "Point",
        "coordinates": [
          4.3787272,
          50.8649092
        ]
      },
      "properties": {
        "id": 374577705,
        "osm_type": "node",
        "name": "Intermarché",
        "brand": "Intermarché",
        "opening_hours": "Mo 12:00-20:00; Tu-Th, Fr 09:00-20:00; Sa 09:00-20:00; Su 08:30-19:30; PH 08:30-19:30"
      }
    },
    {
      "type": "Feature",
      "geometry": {
        "type": "Point",
        "coordinates": [
          4.3827462,
          50.8741546
        ]
      },
      "properties": {
        "id": 374578578,
        "osm_type": "node",
        "name": "Proxy Delhaize",
        "brand": "Proxy Delhaize"
      }
    },
    {
      "type": "Feature",
      "geometry": {
        "type": "Point",
        "coordinates": [
          4.3880231,
          50.8735583
        ]
      },
      "properties": {
        "id": 374579109,
        "osm_type": "node",
        "name": "Carrefour Market",
        "brand": "Carrefour Market",
        "opening_hours": "Mo 13:00-20:00; Tu-Sa 07:30-20:00; Su 08:00-13:00"
      }
    },
    {
      "type": "Feature",
      "geometry": {
        "type": "Point",
        "coordinates": [
          4.4039889,
          50.875396
        ]
      },
      "properties": {
        "id": 414747277,
        "osm_type": "node",
        "name": "Colruyt",
        "brand": "Colruyt"
      }
    },
    {
      "type": "Feature",
      "geometry": {
        "type": "Point",
        "coordinates": [
          4.4020622,
          50.8802036
        ]
      },
      "properties": {
        "id": 414756668,
        "osm_type": "node",
        "name": "Okay",
        "brand": "Okay",
        "opening_hours": "Mo-Sa 08:00-19:30; Su 08:00-12:30"
      }
    },
    {
      "type": "Feature",
      "geometry": {
        "type": "Point",
        "coordinates": [
          4.4026232,
          50.8096581
        ]
      },
      "properties": {
        "id": 457481342,
        "osm_type": "node",
        "name": "Carrefour Market",
        "brand": "Carrefour Market",
        "opening_hours": "Su 08:00-13:00; Mo 13:00-20:00; Tu 08:00-20:00; We 08:00-20:00; Th 08:00-20:00; Fr 08:00-20:00; Sa 08:00-20:00"
      }
    },
    {
      "type": "Feature",
      "geometry": {
        "type": "Point",
        "coordinates": [
          4.4297885,
          50.8129686
        ]
      },
      "properties": {
        "id": 463550890,
        "osm_type": "node",
        "name": "Delhaize",
        "brand": "Delhaize",
        "opening_hours": "Mo-Sa 08:00-20:00; Su 09:00-20:00; PH 09:00-20:00"
      }
    },
    {
      "type": "Feature",
      "geometry": {
        "type": "Point",
        "coordinates": [
          4.4636983,
          50.8413371
        ]
      },
      "properties": {
        "id": 475603418,
        "osm_type": "node",
        "name": "Colruyt",
        "brand": "Colruyt",
        "opening_hours": "Mo-Sa 08:30-20:00; PH off"
      }
    },
    {
      "type": "Feature",
      "geometry": {
        "type": "Point",
        "coordinates": [
          4.3749288,
          50.7878672
        ]
      },
      "properties": {
        "id": 495969041,
        "osm_type": "node",
        "name": "Delhaize",
        "brand": "Delhaize",
        "opening_hours": "Mo-Su 08:00-20:00",
        "check_date": "2026-04-06"
      }
    },
    {
      "type": "Feature",
      "geometry": {
        "type": "Point",
        "coordinates": [
          4.3105904,
          50.8584876
        ]
      },
      "properties": {
        "id": 504912178,
        "osm_type": "node",
        "name": "Intermarché",
        "brand": "Intermarché"
      }
    },
    {
      "type": "Feature",
      "geometry": {
        "type": "Point",
        "coordinates": [
          4.4143152,
          50.8610743
        ]
      },
      "properties": {
        "id": 521477767,
        "osm_type": "node",
        "name": "Colruyt Evere",
        "opening_hours": "Tu-Th,Sa 08:30-20:00; Fr 08:30-21:00"
      }
    },
    {
      "type": "Feature",
      "geometry": {
        "type": "Point",
        "coordinates": [
          4.4084238,
          50.8768904
        ]
      },
      "properties": {
        "id": 562804671,
        "osm_type": "node",
        "name": "ALDI",
        "brand": "ALDI",
        "check_date": "2024-02-03"
      }
    },
    {
      "type": "Feature",
      "geometry": {
        "type": "Point",
        "coordinates": [
          4.3644809,
          50.7938885
        ]
      },
      "properties": {
        "id": 644895528,
        "osm_type": "node",
        "name": "Proxy Delhaize",
        "brand": "Proxy Delhaize",
        "opening_hours": "PH,Sa-Th 07:30-20:00; Fr 07:30-21:00"
      }
    },
    {
      "type": "Feature",
      "geometry": {
        "type": "Point",
        "coordinates": [
          4.3026226,
          50.8275107
        ]
      },
      "properties": {
        "id": 666982836,
        "osm_type": "node",
        "name": "Colruyt Anderlecht",
        "brand": "Colruyt",
        "opening_hours": "Mo-Th,Sa 08:30-20:00; Fr 08:30-21:00"
      }
    },
    {
      "type": "Feature",
      "geometry": {
        "type": "Point",
        "coordinates": [
          4.3463537,
          50.8136729
        ]
      },
      "properties": {
        "id": 707133654,
        "osm_type": "node",
        "name": "Intermarché",
        "brand": "Intermarché",
        "opening_hours": "Mo-Su,PH 08:00-20:00"
      }
    },
    {
      "type": "Feature",
      "geometry": {
        "type": "Point",
        "coordinates": [
          4.3781902,
          50.8658702
        ]
      },
      "properties": {
        "id": 730024498,
        "osm_type": "node",
        "name": "ALDI",
        "brand": "ALDI",
        "opening_hours": "Mo-Sa 08:30-19:00"
      }
    },
    {
      "type": "Feature",
      "geometry": {
        "type": "Point",
        "coordinates": [
          4.347134,
          50.8538966
        ]
      },
      "properties": {
        "id": 751802467,
        "osm_type": "node",
        "name": "Carrefour Express",
        "brand": "Carrefour Express",
        "opening_hours": "Mo-Sa 07:00-20:30; PH,Su 08:00-20:30"
      }
    },
    {
      "type": "Feature",
      "geometry": {
        "type": "Point",
        "coordinates": [
          4.3779089,
          50.8607247
        ]
      },
      "properties": {
        "id": 766890317,
        "osm_type": "node",
        "name": "ALDI",
        "brand": "ALDI",
        "opening_hours": "Mo-Sa 08:30-19:00"
      }
    },
    {
      "type": "Feature",
      "geometry": {
        "type": "Point",
        "coordinates": [
          4.3842695,
          50.8557783
        ]
      },
      "properties": {
        "id": 766890766,
        "osm_type": "node",
        "name": "Carrefour Express",
        "brand": "Carrefour Express",
        "opening_hours": "Sa,Su 08:00-20:00; Tu-Fr 07:00-20:00"
      }
    },
    {
      "type": "Feature",
      "geometry": {
        "type": "Point",
        "coordinates": [
          4.3445596,
          50.8292383
        ]
      },
      "properties": {
        "id": 795229538,
        "osm_type": "node",
        "name": "Proxy Delhaize",
        "brand": "Proxy Delhaize",
        "opening_hours": "Mo-Sa 08:00-20:00; Su 08:00-15:00"
      }
    },
    {
      "type": "Feature",
      "geometry": {
        "type": "Point",
        "coordinates": [
          4.3484154,
          50.8369958
        ]
      },
      "properties": {
        "id": 798968314,
        "osm_type": "node",
        "name": "Proxy Delhaize",
        "brand": "Proxy Delhaize",
        "opening_hours": "Mo-Sa 07:30-19:45; Su 09:00-19:45",
        "check_date": "2025-11-28"
      }
    },
    {
      "type": "Feature",
      "geometry": {
        "type": "Point",
        "coordinates": [
          4.3253515,
          50.8197734
        ]
      },
      "properties": {
        "id": 826782073,
        "osm_type": "node",
        "name": "Proxy Delhaize",
        "brand": "Proxy Delhaize",
        "opening_hours": "Tu-Su 07:30-20:00; Mo 12:00-20:00"
      }
    },
    {
      "type": "Feature",
      "geometry": {
        "type": "Point",
        "coordinates": [
          4.3439103,
          50.8609494
        ]
      },
      "properties": {
        "id": 833990665,
        "osm_type": "node",
        "name": "ALDI",
        "brand": "ALDI",
        "opening_hours": "Mo-Sa 08:30-19:00"
      }
    },
    {
      "type": "Feature",
      "geometry": {
        "type": "Point",
        "coordinates": [
          4.3417544,
          50.8597471
        ]
      },
      "properties": {
        "id": 834000011,
        "osm_type": "node",
        "name": "Carrefour Express Bd Leopold II",
        "brand": "Express"
      }
    },
    {
      "type": "Feature",
      "geometry": {
        "type": "Point",
        "coordinates": [
          4.3306267,
          50.8742458
        ]
      },
      "properties": {
        "id": 867355882,
        "osm_type": "node",
        "name": "Tatli'm Market",
        "opening_hours": "Mo-Sa 09:00-20:00"
      }
    },
    {
      "type": "Feature",
      "geometry": {
        "type": "Point",
        "coordinates": [
          4.4378122,
          50.8532668
        ]
      },
      "properties": {
        "id": 910347024,
        "osm_type": "node",
        "name": "Proxy Delhaize",
        "brand": "Proxy Delhaize",
        "opening_hours": "Mo-Su 08:00-20:00"
      }
    },
    {
      "type": "Feature",
      "geometry": {
        "type": "Point",
        "coordinates": [
          4.4001938,
          50.8548916
        ]
      },
      "properties": {
        "id": 911932516,
        "osm_type": "node",
        "name": "ALDI",
        "brand": "ALDI",
        "opening_hours": "Mo-Sa 08:30-19:00"
      }
    },
    {
      "type": "Feature",
      "geometry": {
        "type": "Point",
        "coordinates": [
          4.3628181,
          50.8595397
        ]
      },
      "properties": {
        "id": 1113154435,
        "osm_type": "node",
        "name": "Machaellah & Fils"
      }
    },
    {
      "type": "Feature",
      "geometry": {
        "type": "Point",
        "coordinates": [
          4.3627595,
          50.8594719
        ]
      },
      "properties": {
        "id": 1113154461,
        "osm_type": "node",
        "name": "Solarema"
      }
    },
    {
      "type": "Feature",
      "geometry": {
        "type": "Point",
        "coordinates": [
          4.3625157,
          50.8595962
        ]
      },
      "properties": {
        "id": 1118890607,
        "osm_type": "node",
        "name": "Euro nord trading"
      }
    },
    {
      "type": "Feature",
      "geometry": {
        "type": "Point",
        "coordinates": [
          4.3633336,
          50.8605406
        ]
      },
      "properties": {
        "id": 1119989962,
        "osm_type": "node"
      }
    },
    {
      "type": "Feature",
      "geometry": {
        "type": "Point",
        "coordinates": [
          4.3805857,
          50.8399085
        ]
      },
      "properties": {
        "id": 1156539349,
        "osm_type": "node",
        "name": "Louis Delhaize",
        "brand": "Louis Delhaize",
        "opening_hours": "Mo-Fr 08:00-21:00; PH,Sa,Su 10:00-20:00"
      }
    },
    {
      "type": "Feature",
      "geometry": {
        "type": "Point",
        "coordinates": [
          4.292173,
          50.8460715
        ]
      },
      "properties": {
        "id": 1240003949,
        "osm_type": "node",
        "name": "Delhaize",
        "brand": "Delhaize"
      }
    },
    {
      "type": "Feature",
      "geometry": {
        "type": "Point",
        "coordinates": [
          4.3056965,
          50.8290049
        ]
      },
      "properties": {
        "id": 1243085993,
        "osm_type": "node",
        "name": "Delhaize",
        "brand": "Delhaize",
        "opening_hours": "Mo-Th,Sa 08:00-20:00; Fr 08:00-21:00"
      }
    },
    {
      "type": "Feature",
      "geometry": {
        "type": "Point",
        "coordinates": [
          4.3126724,
          50.8675625
        ]
      },
      "properties": {
        "id": 1257847991,
        "osm_type": "node",
        "name": "Okay",
        "brand": "Okay",
        "opening_hours": "Mo-Sa 08:00-19:30; Su 08:00-12:30"
      }
    },
    {
      "type": "Feature",
      "geometry": {
        "type": "Point",
        "coordinates": [
          4.3994814,
          50.8711804
        ]
      },
      "properties": {
        "id": 1259469094,
        "osm_type": "node",
        "name": "Carrefour Market",
        "brand": "Carrefour Market",
        "opening_hours": "Mo 13:00-20:00; Tu-Sa 07:00-20:00; Su 08:00-13:00"
      }
    },
    {
      "type": "Feature",
      "geometry": {
        "type": "Point",
        "coordinates": [
          4.2743596,
          50.8363998
        ]
      },
      "properties": {
        "id": 1321685715,
        "osm_type": "node",
        "name": "Prima De Spiegeleer"
      }
    },
    {
      "type": "Feature",
      "geometry": {
        "type": "Point",
        "coordinates": [
          4.2913239,
          50.8692964
        ]
      },
      "properties": {
        "id": 1347693295,
        "osm_type": "node",
        "name": "Lidl",
        "brand": "Lidl"
      }
    },
    {
      "type": "Feature",
      "geometry": {
        "type": "Point",
        "coordinates": [
          4.3569691,
          50.8560893
        ]
      },
      "properties": {
        "id": 1348593073,
        "osm_type": "node",
        "name": "Proxy Delhaize",
        "brand": "Proxy Delhaize",
        "opening_hours": "Mo-Sa 08:00-20:00"
      }
    },
    {
      "type": "Feature",
      "geometry": {
        "type": "Point",
        "coordinates": [
          4.4042058,
          50.8226276
        ]
      },
      "properties": {
        "id": 1394716655,
        "osm_type": "node",
        "name": "Delhaize",
        "brand": "Delhaize",
        "opening_hours": "Mo-Sa 08:00-20:00; Su 08:00-13:30; PH 08:00-13:30"
      }
    },
    {
      "type": "Feature",
      "geometry": {
        "type": "Point",
        "coordinates": [
          4.311957,
          50.831419
        ]
      },
      "properties": {
        "id": 1488375629,
        "osm_type": "node",
        "name": "Lidl",
        "brand": "Lidl"
      }
    },
    {
      "type": "Feature",
      "geometry": {
        "type": "Point",
        "coordinates": [
          4.2669048,
          50.8141219
        ]
      },
      "properties": {
        "id": 1506571253,
        "osm_type": "node",
        "name": "Delhaize",
        "brand": "Delhaize"
      }
    },
    {
      "type": "Feature",
      "geometry": {
        "type": "Point",
        "coordinates": [
          4.3125451,
          50.8315557
        ]
      },
      "properties": {
        "id": 1506571280,
        "osm_type": "node",
        "name": "ALDI",
        "brand": "ALDI"
      }
    },
    {
      "type": "Feature",
      "geometry": {
        "type": "Point",
        "coordinates": [
          4.3322018,
          50.8863717
        ]
      },
      "properties": {
        "id": 1631151705,
        "osm_type": "node",
        "name": "Louis Delhaize",
        "opening_hours": "Mo-Su,PH 07:00-20:00"
      }
    },
    {
      "type": "Feature",
      "geometry": {
        "type": "Point",
        "coordinates": [
          4.3186044,
          50.8904678
        ]
      },
      "properties": {
        "id": 1631151773,
        "osm_type": "node",
        "name": "Louis Delhaize",
        "opening_hours": "Mo-We, Fr-Su 08:00-20:00"
      }
    },
    {
      "type": "Feature",
      "geometry": {
        "type": "Point",
        "coordinates": [
          4.4110887,
          50.8266806
        ]
      },
      "properties": {
        "id": 1632502119,
        "osm_type": "node",
        "name": "Carrefour Market",
        "brand": "Carrefour Market",
        "opening_hours": "Mo-Sa 08:00-20:00; Su off",
        "check_date": "2025-09-16"
      }
    },
    {
      "type": "Feature",
      "geometry": {
        "type": "Point",
        "coordinates": [
          4.3624611,
          50.8703951
        ]
      },
      "properties": {
        "id": 1740363785,
        "osm_type": "node",
        "name": "Lidl",
        "brand": "Lidl"
      }
    },
    {
      "type": "Feature",
      "geometry": {
        "type": "Point",
        "coordinates": [
          4.3895344,
          50.8353928
        ]
      },
      "properties": {
        "id": 1919160874,
        "osm_type": "node",
        "name": "Alvo",
        "brand": "Alvo"
      }
    },
    {
      "type": "Feature",
      "geometry": {
        "type": "Point",
        "coordinates": [
          4.3390059,
          50.8362943
        ]
      },
      "properties": {
        "id": 1979277442,
        "osm_type": "node",
        "name": "Proxy Delhaize",
        "brand": "Proxy Delhaize",
        "opening_hours": "Mo-Fr 07:00-19:00; Su 09:00-18:00",
        "check_date": "2025-02-01"
      }
    },
    {
      "type": "Feature",
      "geometry": {
        "type": "Point",
        "coordinates": [
          4.4508057,
          50.8417805
        ]
      },
      "properties": {
        "id": 2144170469,
        "osm_type": "node",
        "name": "Carrefour Express",
        "brand": "Carrefour Express"
      }
    },
    {
      "type": "Feature",
      "geometry": {
        "type": "Point",
        "coordinates": [
          4.4010918,
          50.8558528
        ]
      },
      "properties": {
        "id": 2286929461,
        "osm_type": "node",
        "name": "Proxy Delhaize",
        "brand": "Proxy Delhaize",
        "opening_hours": "Tu-Sa 07:00-20:00; Su,Mo 07:00-12:00; PH 07:00-12:00"
      }
    },
    {
      "type": "Feature",
      "geometry": {
        "type": "Point",
        "coordinates": [
          4.401468,
          50.8409303
        ]
      },
      "properties": {
        "id": 2335391555,
        "osm_type": "node",
        "name": "färm",
        "opening_hours": "Mo-Sa 09:00-19:30; Su 09:00-13:00",
        "check_date": "2026-04-10"
      }
    },
    {
      "type": "Feature",
      "geometry": {
        "type": "Point",
        "coordinates": [
          4.3866303,
          50.853036
        ]
      },
      "properties": {
        "id": 2357446985,
        "osm_type": "node",
        "name": "Carrefour Market",
        "brand": "Carrefour Market",
        "opening_hours": "07:30-20:00"
      }
    },
    {
      "type": "Feature",
      "geometry": {
        "type": "Point",
        "coordinates": [
          4.3800925,
          50.8351368
        ]
      },
      "properties": {
        "id": 2357796901,
        "osm_type": "node",
        "name": "Proxy Delhaize",
        "brand": "Proxy Delhaize",
        "opening_hours": "Mo-We,Fr-Su,PH 07:30-20:00",
        "check_date": "2023-02-13"
      }
    },
    {
      "type": "Feature",
      "geometry": {
        "type": "Point",
        "coordinates": [
          4.3548521,
          50.8257886
        ]
      },
      "properties": {
        "id": 2361614878,
        "osm_type": "node",
        "name": "Louis Delhaize",
        "brand": "Delhaize",
        "opening_hours": "Mo-Th 07:30-20:00; Fr,Sa 07:30-21:00; Su 12:00-20:00",
        "check_date": "2026-04-29"
      }
    },
    {
      "type": "Feature",
      "geometry": {
        "type": "Point",
        "coordinates": [
          4.3734709,
          50.8573495
        ]
      },
      "properties": {
        "id": 2362333041,
        "osm_type": "node",
        "name": "Unik Market"
      }
    },
    {
      "type": "Feature",
      "geometry": {
        "type": "Point",
        "coordinates": [
          4.3931342,
          50.8717833
        ]
      },
      "properties": {
        "id": 2377469536,
        "osm_type": "node",
        "name": "Tunam"
      }
    },
    {
      "type": "Feature",
      "geometry": {
        "type": "Point",
        "coordinates": [
          4.3968124,
          50.8366627
        ]
      },
      "properties": {
        "id": 2383687484,
        "osm_type": "node",
        "name": "Proxy Delhaize",
        "brand": "Proxy Delhaize",
        "opening_hours": "Mo-Su,PH 07:30-20:00",
        "check_date": "2025-10-28"
      }
    },
    {
      "type": "Feature",
      "geometry": {
        "type": "Point",
        "coordinates": [
          4.3916027,
          50.8300839
        ]
      },
      "properties": {
        "id": 2384576503,
        "osm_type": "node",
        "name": "Carrefour Market",
        "brand": "Carrefour Market",
        "opening_hours": "Su 08:30-13:00; Mo 13:00-19:30; Tu 08:30-19:30; We 08:30-19:30; Th 08:30-19:30; Fr 08:30-19:30; Sa 08:30-19:30"
      }
    },
    {
      "type": "Feature",
      "geometry": {
        "type": "Point",
        "coordinates": [
          4.3376062,
          50.8165123
        ]
      },
      "properties": {
        "id": 2391417235,
        "osm_type": "node",
        "name": "Proxy Delhaize",
        "brand": "Proxy Delhaize",
        "opening_hours": "Fr-We,PH 07:30-20:00"
      }
    },
    {
      "type": "Feature",
      "geometry": {
        "type": "Point",
        "coordinates": [
          4.3008571,
          50.8279613
        ]
      },
      "properties": {
        "id": 2417711592,
        "osm_type": "node",
        "name": "wAnderCoop",
        "opening_hours": "Mo 16:00-19:30; We 10:00-19:30; Th 10:00-19:30; Fr 10:00-19:30; Sa 10:00-19:00; Su 10:00-16:00"
      }
    },
    {
      "type": "Feature",
      "geometry": {
        "type": "Point",
        "coordinates": [
          4.3732516,
          50.8015239
        ]
      },
      "properties": {
        "id": 2446370857,
        "osm_type": "node",
        "name": "Carrefour express",
        "brand": "Carrefour Express"
      }
    },
    {
      "type": "Feature",
      "geometry": {
        "type": "Point",
        "coordinates": [
          4.3369104,
          50.805235
        ]
      },
      "properties": {
        "id": 2454730764,
        "osm_type": "node",
        "name": "Trinity",
        "opening_hours": "Tu-Su 09:00-19:00"
      }
    },
    {
      "type": "Feature",
      "geometry": {
        "type": "Point",
        "coordinates": [
          4.3623293,
          50.8143374
        ]
      },
      "properties": {
        "id": 2455877129,
        "osm_type": "node",
        "name": "Proxy Delhaize",
        "brand": "Proxy Delhaize",
        "opening_hours": "Mo 13:00-20:00; Tu-Sa 08:00-20:00; Su 08:00-13:00"
      }
    },
    {
      "type": "Feature",
      "geometry": {
        "type": "Point",
        "coordinates": [
          4.3716665,
          50.8282028
        ]
      },
      "properties": {
        "id": 2462191298,
        "osm_type": "node",
        "name": "Proxy Delhaize",
        "brand": "Proxy Delhaize",
        "opening_hours": "Mo,Th,Sa,Su,PH 07:00-20:00; Tu 07:00-13:00; We 13:00-20:00; Fr 07:00-21:00"
      }
    },
    {
      "type": "Feature",
      "geometry": {
        "type": "Point",
        "coordinates": [
          4.3882612,
          50.8180927
        ]
      },
      "properties": {
        "id": 2468798145,
        "osm_type": "node",
        "name": "Proxy Delhaize",
        "brand": "Proxy Delhaize",
        "opening_hours": "Fr-We,PH 08:00-20:00"
      }
    },
    {
      "type": "Feature",
      "geometry": {
        "type": "Point",
        "coordinates": [
          4.3890724,
          50.8152548
        ]
      },
      "properties": {
        "id": 2468879152,
        "osm_type": "node",
        "name": "Okay City",
        "brand": "Okay",
        "opening_hours": "Mo 12:00-19:30; Tu-Sa 07:00-19:30; Su 08:00-12:00",
        "check_date": "2025-02-01"
      }
    },
    {
      "type": "Feature",
      "geometry": {
        "type": "Point",
        "coordinates": [
          4.3909212,
          50.8077186
        ]
      },
      "properties": {
        "id": 2473244888,
        "osm_type": "node",
        "name": "Carrefour Market",
        "brand": "Carrefour Market",
        "opening_hours": "Mo 12:30-20:00; Tu-Sa 08:00-20:00; Su 08:00-13:00",
        "check_date": "2025-01-29"
      }
    },
    {
      "type": "Feature",
      "geometry": {
        "type": "Point",
        "coordinates": [
          4.4509267,
          50.8418081
        ]
      },
      "properties": {
        "id": 2498553394,
        "osm_type": "node",
        "name": "Proxy Delhaize",
        "brand": "Proxy Delhaize"
      }
    },
    {
      "type": "Feature",
      "geometry": {
        "type": "Point",
        "coordinates": [
          4.3786686,
          50.8662914
        ]
      },
      "properties": {
        "id": 2516081874,
        "osm_type": "node",
        "name": "Candan",
        "opening_hours": "Mo,Tu,Th,Fr,Sa 09:00-20:00; Tu off; Su 09:00-19:00"
      }
    },
    {
      "type": "Feature",
      "geometry": {
        "type": "Point",
        "coordinates": [
          4.4194413,
          50.7933771
        ]
      },
      "properties": {
        "id": 2610853731,
        "osm_type": "node",
        "name": "Proxy Delhaize",
        "brand": "Proxy Delhaize"
      }
    },
    {
      "type": "Feature",
      "geometry": {
        "type": "Point",
        "coordinates": [
          4.440005,
          50.8336516
        ]
      },
      "properties": {
        "id": 2999599277,
        "osm_type": "node"
      }
    },
    {
      "type": "Feature",
      "geometry": {
        "type": "Point",
        "coordinates": [
          4.2890697,
          50.8628011
        ]
      },
      "properties": {
        "id": 3018217005,
        "osm_type": "node",
        "name": "Proxy Delhaize",
        "brand": "Proxy Delhaize"
      }
    },
    {
      "type": "Feature",
      "geometry": {
        "type": "Point",
        "coordinates": [
          4.3585911,
          50.8539981
        ]
      },
      "properties": {
        "id": 3455786048,
        "osm_type": "node",
        "name": "Carrefour Market",
        "brand": "Carrefour Market",
        "opening_hours": "Mo-Sa 08:00-20:00"
      }
    },
    {
      "type": "Feature",
      "geometry": {
        "type": "Point",
        "coordinates": [
          4.4631349,
          50.8406923
        ]
      },
      "properties": {
        "id": 3839459729,
        "osm_type": "node",
        "name": "Sequoia",
        "brand": "Sequoia",
        "opening_hours": "Mo-Sa 09:00-19:30"
      }
    },
    {
      "type": "Feature",
      "geometry": {
        "type": "Point",
        "coordinates": [
          4.4182346,
          50.8369686
        ]
      },
      "properties": {
        "id": 3878049912,
        "osm_type": "node",
        "name": "Carrefour Express",
        "brand": "Carrefour Express",
        "opening_hours": "Mo-Su, PH 08:00-20:00; Th off"
      }
    },
    {
      "type": "Feature",
      "geometry": {
        "type": "Point",
        "coordinates": [
          4.3574402,
          50.8270767
        ]
      },
      "properties": {
        "id": 4005545290,
        "osm_type": "node",
        "name": "Proxy Delhaize",
        "brand": "Proxy Delhaize",
        "opening_hours": "Mo 12:00-20:00; Tu-Sa 07:30-20:00; Su 07:30-12:00",
        "check_date": "2024-08-28"
      }
    },
    {
      "type": "Feature",
      "geometry": {
        "type": "Point",
        "coordinates": [
          4.3889859,
          50.8543307
        ]
      },
      "properties": {
        "id": 4029872020,
        "osm_type": "node",
        "name": "Mundo Latino",
        "opening_hours": "Mo off; Tu-Sa 10:00-20:00; Su 10:00-19:00"
      }
    },
    {
      "type": "Feature",
      "geometry": {
        "type": "Point",
        "coordinates": [
          4.37358,
          50.8659163
        ]
      },
      "properties": {
        "id": 4029958580,
        "osm_type": "node",
        "name": "Les écuries van de tram",
        "opening_hours": "Fr 14:00-19:00; Sa 08:30-13:30"
      }
    },
    {
      "type": "Feature",
      "geometry": {
        "type": "Point",
        "coordinates": [
          4.3415687,
          50.8205932
        ]
      },
      "properties": {
        "id": 4038192337,
        "osm_type": "node",
        "name": "Colruyt",
        "brand": "Colruyt",
        "opening_hours": "Mo-Th,Sa 08:00-20:00; Fr 08:00-21:00; Su off",
        "check_date": "2026-02-23"
      }
    },
    {
      "type": "Feature",
      "geometry": {
        "type": "Point",
        "coordinates": [
          4.4078399,
          50.8429988
        ]
      },
      "properties": {
        "id": 4280664618,
        "osm_type": "node",
        "name": "ALDI",
        "brand": "ALDI",
        "opening_hours": "Mo-Sa 08:30-19:00"
      }
    },
    {
      "type": "Feature",
      "geometry": {
        "type": "Point",
        "coordinates": [
          4.4003893,
          50.8402687
        ]
      },
      "properties": {
        "id": 4374433412,
        "osm_type": "node",
        "name": "Carrefour Market",
        "brand": "Carrefour Market",
        "opening_hours": "Mo,Sa 08:00-20:00; Tu-Fr 08:00-19:30; Su,PH 09:00-19:30",
        "check_date": "2026-03-08"
      }
    },
    {
      "type": "Feature",
      "geometry": {
        "type": "Point",
        "coordinates": [
          4.3514998,
          50.8485239
        ]
      },
      "properties": {
        "id": 4413395721,
        "osm_type": "node",
        "name": "Carrefour Market",
        "brand": "Carrefour Market",
        "opening_hours": "Mo-Su 07:00-23:00"
      }
    },
    {
      "type": "Feature",
      "geometry": {
        "type": "Point",
        "coordinates": [
          4.3744708,
          50.8320057
        ]
      },
      "properties": {
        "id": 4415963789,
        "osm_type": "node",
        "name": "Kubuś",
        "opening_hours": "Tu-Sa 09:00-20:00; Su 09:00-19:00",
        "check_date": "2025-01-23"
      }
    },
    {
      "type": "Feature",
      "geometry": {
        "type": "Point",
        "coordinates": [
          4.3287525,
          50.8572877
        ]
      },
      "properties": {
        "id": 4416856044,
        "osm_type": "node",
        "name": "ALDI",
        "brand": "ALDI"
      }
    },
    {
      "type": "Feature",
      "geometry": {
        "type": "Point",
        "coordinates": [
          4.3114829,
          50.8582104
        ]
      },
      "properties": {
        "id": 4418936089,
        "osm_type": "node"
      }
    },
    {
      "type": "Feature",
      "geometry": {
        "type": "Point",
        "coordinates": [
          4.32307,
          50.8567101
        ]
      },
      "properties": {
        "id": 4419161652,
        "osm_type": "node",
        "name": "Lidl",
        "brand": "Lidl"
      }
    },
    {
      "type": "Feature",
      "geometry": {
        "type": "Point",
        "coordinates": [
          4.3838677,
          50.8255898
        ]
      },
      "properties": {
        "id": 4421146291,
        "osm_type": "node",
        "name": "Proxy Delhaize",
        "brand": "Proxy Delhaize",
        "opening_hours": "Sa-Th 07:30-20:00; Fr 07:30-21:00"
      }
    },
    {
      "type": "Feature",
      "geometry": {
        "type": "Point",
        "coordinates": [
          4.3296535,
          50.7931268
        ]
      },
      "properties": {
        "id": 4563611505,
        "osm_type": "node",
        "name": "Bio-Planet",
        "brand": "Bio-Planet",
        "opening_hours": "Mo-Th,Sa 09:00-19:30; Fr 09:00-20:00"
      }
    },
    {
      "type": "Feature",
      "geometry": {
        "type": "Point",
        "coordinates": [
          4.4146757,
          50.8460054
        ]
      },
      "properties": {
        "id": 4699361906,
        "osm_type": "node",
        "name": "Carrefour Express",
        "brand": "Carrefour Express",
        "opening_hours": "Su 09:00-13:00; Mo-Sa 08:00-20:00",
        "check_date": "2024-03-15"
      }
    },
    {
      "type": "Feature",
      "geometry": {
        "type": "Point",
        "coordinates": [
          4.3436232,
          50.8437989
        ]
      },
      "properties": {
        "id": 4896759669,
        "osm_type": "node",
        "name": "Okay City",
        "brand": "Okay",
        "opening_hours": "Mo-Sa 07:00-19:30; Su 08:00-19:30",
        "check_date": "2025-07-28"
      }
    },
    {
      "type": "Feature",
      "geometry": {
        "type": "Point",
        "coordinates": [
          4.3671187,
          50.81504
        ]
      },
      "properties": {
        "id": 5055559170,
        "osm_type": "node",
        "name": "Carrefour Market",
        "brand": "Carrefour Market",
        "opening_hours": "Mo-Su 08:00-19:30"
      }
    },
    {
      "type": "Feature",
      "geometry": {
        "type": "Point",
        "coordinates": [
          4.3607794,
          50.8197126
        ]
      },
      "properties": {
        "id": 5092066828,
        "osm_type": "node",
        "name": "Delhaize",
        "brand": "Delhaize",
        "opening_hours": "Mo-Th, Sa 08:00-20:00; Fr 08:00-21:00; Su 08:00-12:00",
        "check_date": "2025-10-11"
      }
    },
    {
      "type": "Feature",
      "geometry": {
        "type": "Point",
        "coordinates": [
          4.4020281,
          50.8234006
        ]
      },
      "properties": {
        "id": 5112269021,
        "osm_type": "node",
        "name": "Färm",
        "opening_hours": "Mo-Sa 09:00-19:30; Su,PH off",
        "check_date": "2023-10-25"
      }
    },
    {
      "type": "Feature",
      "geometry": {
        "type": "Point",
        "coordinates": [
          4.3527446,
          50.850125
        ]
      },
      "properties": {
        "id": 5237719321,
        "osm_type": "node",
        "name": "Intermarché",
        "brand": "Intermarché",
        "opening_hours": "Mo-Su 07:00-20:00"
      }
    },
    {
      "type": "Feature",
      "geometry": {
        "type": "Point",
        "coordinates": [
          4.3908469,
          50.8202127
        ]
      },
      "properties": {
        "id": 5338735390,
        "osm_type": "node",
        "name": "ALDI",
        "brand": "ALDI"
      }
    },
    {
      "type": "Feature",
      "geometry": {
        "type": "Point",
        "coordinates": [
          4.3697063,
          50.8588398
        ]
      },
      "properties": {
        "id": 5508536621,
        "osm_type": "node",
        "opening_hours": "Mo-Su 08:30-20:00"
      }
    },
    {
      "type": "Feature",
      "geometry": {
        "type": "Point",
        "coordinates": [
          4.4651609,
          50.8405086
        ]
      },
      "properties": {
        "id": 5550721658,
        "osm_type": "node",
        "name": "Sequoia",
        "brand": "Sequoia",
        "opening_hours": "Mo-Sa 09:30-19:30; PH off"
      }
    },
    {
      "type": "Feature",
      "geometry": {
        "type": "Point",
        "coordinates": [
          4.3340862,
          50.8505717
        ]
      },
      "properties": {
        "id": 5747355121,
        "osm_type": "node",
        "name": "Lidl",
        "brand": "Lidl",
        "opening_hours": "Mo-Fr 08:30-20:00; Sa 08:30-19:00",
        "check_date": "2023-08-22"
      }
    },
    {
      "type": "Feature",
      "geometry": {
        "type": "Point",
        "coordinates": [
          4.4028127,
          50.8638259
        ]
      },
      "properties": {
        "id": 5887368526,
        "osm_type": "node",
        "name": "Foods of Asia"
      }
    },
    {
      "type": "Feature",
      "geometry": {
        "type": "Point",
        "coordinates": [
          4.356068,
          50.8738566
        ]
      },
      "properties": {
        "id": 5912148386,
        "osm_type": "node",
        "name": "ALDI",
        "brand": "ALDI",
        "opening_hours": "Mo-Sa 08:30-19:00"
      }
    },
    {
      "type": "Feature",
      "geometry": {
        "type": "Point",
        "coordinates": [
          4.4013045,
          50.8238295
        ]
      },
      "properties": {
        "id": 5929695147,
        "osm_type": "node",
        "name": "ALDI",
        "brand": "ALDI",
        "opening_hours": "Mo-Sa 08:30-19:00",
        "check_date": "2023-10-25"
      }
    },
    {
      "type": "Feature",
      "geometry": {
        "type": "Point",
        "coordinates": [
          4.4182982,
          50.8182201
        ]
      },
      "properties": {
        "id": 5937426989,
        "osm_type": "node",
        "name": "Proxy Delhaize",
        "brand": "Proxy Delhaize",
        "opening_hours": "We-Mo 08:00-20:00",
        "check_date": "2025-08-02"
      }
    },
    {
      "type": "Feature",
      "geometry": {
        "type": "Point",
        "coordinates": [
          4.4283951,
          50.8163321
        ]
      },
      "properties": {
        "id": 5989353485,
        "osm_type": "node",
        "name": "Shilla",
        "opening_hours": "Mo-Fr 10:00-19:00; Sa 09:00-18:00; Su 10:00-18:00",
        "check_date": "2024-08-14"
      }
    },
    {
      "type": "Feature",
      "geometry": {
        "type": "Point",
        "coordinates": [
          4.3811406,
          50.8363288
        ]
      },
      "properties": {
        "id": 6213298724,
        "osm_type": "node",
        "name": "Färm Jourdan",
        "brand": "Färm",
        "opening_hours": "Mo-Sa 09:00-19:30; Su 09:00-13:00",
        "check_date": "2026-03-25"
      }
    },
    {
      "type": "Feature",
      "geometry": {
        "type": "Point",
        "coordinates": [
          4.3951371,
          50.8554659
        ]
      },
      "properties": {
        "id": 6239433985,
        "osm_type": "node",
        "name": "färm Meiser",
        "opening_hours": "Mo-Fr 09:30-19:30; Sa 09:00-19:30",
        "check_date": "2022-08-31"
      }
    },
    {
      "type": "Feature",
      "geometry": {
        "type": "Point",
        "coordinates": [
          4.3763643,
          50.8709238
        ]
      },
      "properties": {
        "id": 6271739324,
        "osm_type": "node",
        "name": "Carrefour Market",
        "brand": "Carrefour Market",
        "opening_hours": "Mo-Th 07:00-20:00; Fr 07:00-21:00; Su 08:00-20:00"
      }
    },
    {
      "type": "Feature",
      "geometry": {
        "type": "Point",
        "coordinates": [
          4.3771727,
          50.8739445
        ]
      },
      "properties": {
        "id": 6271784489,
        "osm_type": "node",
        "name": "Nightshop",
        "opening_hours": "Tu-Su 19:00-01:30"
      }
    },
    {
      "type": "Feature",
      "geometry": {
        "type": "Point",
        "coordinates": [
          4.3209411,
          50.8492228
        ]
      },
      "properties": {
        "id": 6344903160,
        "osm_type": "node",
        "name": "Carrefour Express",
        "brand": "Carrefour Express",
        "opening_hours": "Su-Fr 06:00-22:00; Sa off"
      }
    },
    {
      "type": "Feature",
      "geometry": {
        "type": "Point",
        "coordinates": [
          4.3252149,
          50.8719805
        ]
      },
      "properties": {
        "id": 6419337929,
        "osm_type": "node",
        "name": "BioSens",
        "opening_hours": "Tu-Sa 09:30-18:30"
      }
    },
    {
      "type": "Feature",
      "geometry": {
        "type": "Point",
        "coordinates": [
          4.3906951,
          50.8303498
        ]
      },
      "properties": {
        "id": 6478397350,
        "osm_type": "node",
        "name": "Bio Marché",
        "opening_hours": "Mo, Tu 12:00-20:00; Tu-Sa 10:00-20:00; Su 10:00-14:00",
        "check_date": "2025-05-26"
      }
    },
    {
      "type": "Feature",
      "geometry": {
        "type": "Point",
        "coordinates": [
          4.3050743,
          50.8400733
        ]
      },
      "properties": {
        "id": 6533707279,
        "osm_type": "node",
        "name": "Carrefour Express",
        "brand": "Carrefour Express",
        "opening_hours": "Mo-We,Fr 07:00-20:00; PH,Sa,Su 08:00-20:00"
      }
    },
    {
      "type": "Feature",
      "geometry": {
        "type": "Point",
        "coordinates": [
          4.3654175,
          50.834199
        ]
      },
      "properties": {
        "id": 6535094068,
        "osm_type": "node",
        "name": "färm",
        "opening_hours": "Mo-Sa 09:00-19:30; Su,PH off"
      }
    },
    {
      "type": "Feature",
      "geometry": {
        "type": "Point",
        "coordinates": [
          4.3162151,
          50.8074548
        ]
      },
      "properties": {
        "id": 6699385288,
        "osm_type": "node",
        "name": "ALDI",
        "brand": "ALDI"
      }
    },
    {
      "type": "Feature",
      "geometry": {
        "type": "Point",
        "coordinates": [
          4.3176472,
          50.8092501
        ]
      },
      "properties": {
        "id": 6699385291,
        "osm_type": "node",
        "name": "AD Delhaize",
        "brand": "Delhaize",
        "opening_hours": "Mo-Sa 08:00-20:30; Su 08:00-20:00"
      }
    },
    {
      "type": "Feature",
      "geometry": {
        "type": "Point",
        "coordinates": [
          4.3512706,
          50.8406304
        ]
      },
      "properties": {
        "id": 6818107109,
        "osm_type": "node",
        "name": "Lidl",
        "brand": "Lidl",
        "opening_hours": "Mo-Fr 08:30-20:00; Sa 08:30-19:00"
      }
    },
    {
      "type": "Feature",
      "geometry": {
        "type": "Point",
        "coordinates": [
          4.3657983,
          50.8146615
        ]
      },
      "properties": {
        "id": 6970225425,
        "osm_type": "node",
        "name": "Färm.Bascule",
        "opening_hours": "Mo-Fr 09:30-19:30; Sa 09:00-19:30"
      }
    },
    {
      "type": "Feature",
      "geometry": {
        "type": "Point",
        "coordinates": [
          4.3512055,
          50.8501519
        ]
      },
      "properties": {
        "id": 7107743040,
        "osm_type": "node",
        "name": "Carrefour Express",
        "brand": "Carrefour City",
        "opening_hours": "Mo-Su 07:00-23:00"
      }
    },
    {
      "type": "Feature",
      "geometry": {
        "type": "Point",
        "coordinates": [
          4.3574553,
          50.8646829
        ]
      },
      "properties": {
        "id": 7538973280,
        "osm_type": "node",
        "name": "Brussels Market"
      }
    },
    {
      "type": "Feature",
      "geometry": {
        "type": "Point",
        "coordinates": [
          4.3087423,
          50.8350621
        ]
      },
      "properties": {
        "id": 7667797285,
        "osm_type": "node",
        "name": "Nekorif",
        "opening_hours": "Mo-Su 09:00-18:00"
      }
    },
    {
      "type": "Feature",
      "geometry": {
        "type": "Point",
        "coordinates": [
          4.4013183,
          50.8554903
        ]
      },
      "properties": {
        "id": 7714870842,
        "osm_type": "node",
        "name": "Great Market",
        "opening_hours": "Mo, Tu, Th, Fr, Sa 08:30-20:00; Su 08:30-19:00; We off"
      }
    },
    {
      "type": "Feature",
      "geometry": {
        "type": "Point",
        "coordinates": [
          4.386683,
          50.8548198
        ]
      },
      "properties": {
        "id": 7886602066,
        "osm_type": "node",
        "name": "Lodos",
        "check_date": "2024-06-28"
      }
    },
    {
      "type": "Feature",
      "geometry": {
        "type": "Point",
        "coordinates": [
          4.3833385,
          50.8513532
        ]
      },
      "properties": {
        "id": 7985147899,
        "osm_type": "node",
        "name": "Luso Loja",
        "opening_hours": "Mo off; Tu-Fr 08:00-20:00; Sa 09:00-20:00; Su 09:00-18:00",
        "check_date": "2025-04-06"
      }
    },
    {
      "type": "Feature",
      "geometry": {
        "type": "Point",
        "coordinates": [
          4.4364539,
          50.8448872
        ]
      },
      "properties": {
        "id": 7989787327,
        "osm_type": "node",
        "name": "Carrefour Market",
        "brand": "Carrefour Market",
        "opening_hours": "Mo-Sa 08:00-20:00"
      }
    },
    {
      "type": "Feature",
      "geometry": {
        "type": "Point",
        "coordinates": [
          4.3964721,
          50.797345
        ]
      },
      "properties": {
        "id": 8318144714,
        "osm_type": "node",
        "name": "Louis Delhaize",
        "opening_hours": "Mo-Su 08:00-19:45",
        "check_date": "2024-12-27"
      }
    },
    {
      "type": "Feature",
      "geometry": {
        "type": "Point",
        "coordinates": [
          4.3789583,
          50.8331895
        ]
      },
      "properties": {
        "id": 8358781215,
        "osm_type": "node",
        "name": "Lidl",
        "brand": "Lidl",
        "opening_hours": "Mo-Fr 08:30-20:00; Sa 08:30-19:00; Su off; PH off",
        "check_date": "2023-04-05"
      }
    },
    {
      "type": "Feature",
      "geometry": {
        "type": "Point",
        "coordinates": [
          4.3722457,
          50.8792332
        ]
      },
      "properties": {
        "id": 8368118312,
        "osm_type": "node",
        "name": "Carrefour Express",
        "check_date": "2022-08-31"
      }
    },
    {
      "type": "Feature",
      "geometry": {
        "type": "Point",
        "coordinates": [
          4.4356005,
          50.8453166
        ]
      },
      "properties": {
        "id": 8476290842,
        "osm_type": "node",
        "name": "Korea Market",
        "opening_hours": "Tu-Sa 11:00-19:00; PH closed"
      }
    },
    {
      "type": "Feature",
      "geometry": {
        "type": "Point",
        "coordinates": [
          4.3513108,
          50.8619657
        ]
      },
      "properties": {
        "id": 8489198219,
        "osm_type": "node",
        "name": "Proxy Delhaize",
        "brand": "Proxy Delhaize",
        "opening_hours": "Mo-Sa 07:30-20:00; Su 08:00-14:00"
      }
    },
    {
      "type": "Feature",
      "geometry": {
        "type": "Point",
        "coordinates": [
          4.3089786,
          50.8244724
        ]
      },
      "properties": {
        "id": 8684405376,
        "osm_type": "node",
        "name": "Intermarché",
        "brand": "Intermarché",
        "opening_hours": "Mo-Fr 07:30-20:00; Sa,Su 08:00-20:00"
      }
    },
    {
      "type": "Feature",
      "geometry": {
        "type": "Point",
        "coordinates": [
          4.345953,
          50.8632606
        ]
      },
      "properties": {
        "id": 8776454847,
        "osm_type": "node",
        "name": "Okay",
        "brand": "Okay",
        "opening_hours": "Mo 12:00-19:30; Tu-Sa 07:00-19:30; Su 08:00-12:00"
      }
    },
    {
      "type": "Feature",
      "geometry": {
        "type": "Point",
        "coordinates": [
          4.3796768,
          50.8681843
        ]
      },
      "properties": {
        "id": 9146508366,
        "osm_type": "node",
        "name": "Marché Kosova"
      }
    },
    {
      "type": "Feature",
      "geometry": {
        "type": "Point",
        "coordinates": [
          4.3059332,
          50.8354501
        ]
      },
      "properties": {
        "id": 9166849213,
        "osm_type": "node",
        "name": "Proxy Delhaize",
        "brand": "Proxy Delhaize",
        "opening_hours": "Mo-Sa 08:00-20:00; Su 08:00-15:00"
      }
    },
    {
      "type": "Feature",
      "geometry": {
        "type": "Point",
        "coordinates": [
          4.3600527,
          50.8200239
        ]
      },
      "properties": {
        "id": 9238246292,
        "osm_type": "node",
        "name": "Sequoia",
        "opening_hours": "Mo-Sa 09:00-19:30"
      }
    },
    {
      "type": "Feature",
      "geometry": {
        "type": "Point",
        "coordinates": [
          4.3644775,
          50.8345482
        ]
      },
      "properties": {
        "id": 9310749490,
        "osm_type": "node",
        "name": "Proxy Delhaize",
        "brand": "Proxy Delhaize",
        "opening_hours": "Mo-We 07:00-20:00; Th off; Fr 07:00-21:00; Sa,Su,PH 08:00-20:00"
      }
    },
    {
      "type": "Feature",
      "geometry": {
        "type": "Point",
        "coordinates": [
          4.3380875,
          50.8889312
        ]
      },
      "properties": {
        "id": 9836964910,
        "osm_type": "node",
        "name": "Istanbul Supermarket"
      }
    },
    {
      "type": "Feature",
      "geometry": {
        "type": "Point",
        "coordinates": [
          4.3552879,
          50.8266754
        ]
      },
      "properties": {
        "id": 9885560868,
        "osm_type": "node",
        "name": "ALDI",
        "brand": "ALDI",
        "opening_hours": "Mo-Sa 08:30-19:00; Su off"
      }
    },
    {
      "type": "Feature",
      "geometry": {
        "type": "Point",
        "coordinates": [
          4.3474114,
          50.8575383
        ]
      },
      "properties": {
        "id": 9937709274,
        "osm_type": "node",
        "name": "Proxy Delhaize",
        "brand": "Proxy Delhaize",
        "opening_hours": "Mo-Su 07:30-19:30"
      }
    },
    {
      "type": "Feature",
      "geometry": {
        "type": "Point",
        "coordinates": [
          4.2985576,
          50.872253
        ]
      },
      "properties": {
        "id": 9981706944,
        "osm_type": "node",
        "name": "Louis Delhaize"
      }
    },
    {
      "type": "Feature",
      "geometry": {
        "type": "Point",
        "coordinates": [
          4.4307404,
          50.8157357
        ]
      },
      "properties": {
        "id": 10116003741,
        "osm_type": "node",
        "name": "ALDI",
        "brand": "ALDI",
        "opening_hours": "Mo-Sa 08:30-19:00"
      }
    },
    {
      "type": "Feature",
      "geometry": {
        "type": "Point",
        "coordinates": [
          4.3442933,
          50.8294265
        ]
      },
      "properties": {
        "id": 10289880858,
        "osm_type": "node",
        "name": "Okay City",
        "brand": "Okay",
        "opening_hours": "Mo 12:00-19:30; Tu-Sa 07:00-19:30; Su 08:00-12:00"
      }
    },
    {
      "type": "Feature",
      "geometry": {
        "type": "Point",
        "coordinates": [
          4.3580474,
          50.8968001
        ]
      },
      "properties": {
        "id": 10316836037,
        "osm_type": "node",
        "name": "Ideal Market",
        "opening_hours": "08:00-20:00"
      }
    },
    {
      "type": "Feature",
      "geometry": {
        "type": "Point",
        "coordinates": [
          4.3511234,
          50.8762758
        ]
      },
      "properties": {
        "id": 10655403649,
        "osm_type": "node",
        "name": "Proxy Delhaize",
        "brand": "Delhaize",
        "opening_hours": "08:00-19:30"
      }
    },
    {
      "type": "Feature",
      "geometry": {
        "type": "Point",
        "coordinates": [
          4.4336969,
          50.8570201
        ]
      },
      "properties": {
        "id": 10815469996,
        "osm_type": "node",
        "name": "Proxy Delhaize",
        "brand": "Proxy Delhaize"
      }
    },
    {
      "type": "Feature",
      "geometry": {
        "type": "Point",
        "coordinates": [
          4.3920864,
          50.8726902
        ]
      },
      "properties": {
        "id": 10815469997,
        "osm_type": "node",
        "name": "Proxy Delhaize",
        "brand": "Proxy Delhaize"
      }
    },
    {
      "type": "Feature",
      "geometry": {
        "type": "Point",
        "coordinates": [
          4.3077216,
          50.8597198
        ]
      },
      "properties": {
        "id": 10815469998,
        "osm_type": "node",
        "name": "Proxy Delhaize",
        "brand": "Proxy Delhaize"
      }
    },
    {
      "type": "Feature",
      "geometry": {
        "type": "Point",
        "coordinates": [
          4.2859856,
          50.8272015
        ]
      },
      "properties": {
        "id": 10815469999,
        "osm_type": "node",
        "name": "H.market",
        "opening_hours": "Mo-Th,Sa 09:00-19:00; Fr 09:00-13:00,14:00-19:00",
        "check_date": "2024-03-02"
      }
    },
    {
      "type": "Feature",
      "geometry": {
        "type": "Point",
        "coordinates": [
          4.3427507,
          50.8485477
        ]
      },
      "properties": {
        "id": 10815470000,
        "osm_type": "node",
        "name": "Proxy Delhaize",
        "brand": "Proxy Delhaize",
        "opening_hours": "PH,Mo-Su 07:00-20:00"
      }
    },
    {
      "type": "Feature",
      "geometry": {
        "type": "Point",
        "coordinates": [
          4.344526,
          50.8281016
        ]
      },
      "properties": {
        "id": 10910747465,
        "osm_type": "node",
        "name": "Choco Bis"
      }
    },
    {
      "type": "Feature",
      "geometry": {
        "type": "Point",
        "coordinates": [
          4.3405882,
          50.853367
        ]
      },
      "properties": {
        "id": 11149232167,
        "osm_type": "node",
        "name": "Krinimaji"
      }
    },
    {
      "type": "Feature",
      "geometry": {
        "type": "Point",
        "coordinates": [
          4.3391668,
          50.8534804
        ]
      },
      "properties": {
        "id": 11149233549,
        "osm_type": "node",
        "name": "Ideal Cash & Carry"
      }
    },
    {
      "type": "Feature",
      "geometry": {
        "type": "Point",
        "coordinates": [
          4.3435505,
          50.8793933
        ]
      },
      "properties": {
        "id": 11251530741,
        "osm_type": "node"
      }
    },
    {
      "type": "Feature",
      "geometry": {
        "type": "Point",
        "coordinates": [
          4.3355904,
          50.8001144
        ]
      },
      "properties": {
        "id": 11288344519,
        "osm_type": "node",
        "name": "Färm"
      }
    },
    {
      "type": "Feature",
      "geometry": {
        "type": "Point",
        "coordinates": [
          4.3744627,
          50.7933885
        ]
      },
      "properties": {
        "id": 11288694688,
        "osm_type": "node",
        "name": "Färm",
        "opening_hours": "Mo-Sa 09:00-19:30; Su 09:00-13:00"
      }
    },
    {
      "type": "Feature",
      "geometry": {
        "type": "Point",
        "coordinates": [
          4.407409,
          50.8213625
        ]
      },
      "properties": {
        "id": 11289287422,
        "osm_type": "node",
        "name": "Mini Market"
      }
    },
    {
      "type": "Feature",
      "geometry": {
        "type": "Point",
        "coordinates": [
          4.3797283,
          50.8182229
        ]
      },
      "properties": {
        "id": 11298203503,
        "osm_type": "node",
        "name": "Carrefour Express",
        "brand": "Carrefour Express",
        "opening_hours": "Mo-We 07:00-20:00; Th 07:00-13:00; Fr 13:00-20:00; Sa-Su 08:00-20:00"
      }
    },
    {
      "type": "Feature",
      "geometry": {
        "type": "Point",
        "coordinates": [
          4.2861407,
          50.8392498
        ]
      },
      "properties": {
        "id": 11394899372,
        "osm_type": "node",
        "name": "Delhaize",
        "brand": "Delhaize"
      }
    },
    {
      "type": "Feature",
      "geometry": {
        "type": "Point",
        "coordinates": [
          4.3398035,
          50.8669029
        ]
      },
      "properties": {
        "id": 11554628479,
        "osm_type": "node",
        "name": "Sofabel",
        "opening_hours": "09:30-19:30"
      }
    },
    {
      "type": "Feature",
      "geometry": {
        "type": "Point",
        "coordinates": [
          4.313648,
          50.8358688
        ]
      },
      "properties": {
        "id": 11735014881,
        "osm_type": "node",
        "name": "Bio Basic",
        "opening_hours": "Mo off; Tu-Su 09:00-19:00"
      }
    },
    {
      "type": "Feature",
      "geometry": {
        "type": "Point",
        "coordinates": [
          4.3372393,
          50.8706252
        ]
      },
      "properties": {
        "id": 11737435688,
        "osm_type": "node",
        "name": "Family Gross",
        "opening_hours": "09:00-20:00"
      }
    },
    {
      "type": "Feature",
      "geometry": {
        "type": "Point",
        "coordinates": [
          4.3065967,
          50.8294404
        ]
      },
      "properties": {
        "id": 11922393311,
        "osm_type": "node",
        "name": "Groszek Supermarket"
      }
    },
    {
      "type": "Feature",
      "geometry": {
        "type": "Point",
        "coordinates": [
          4.3575823,
          50.8977744
        ]
      },
      "properties": {
        "id": 12115286604,
        "osm_type": "node",
        "name": "Delhaize",
        "brand": "Delhaize",
        "opening_hours": "Mo-Sa 08:00-20:00; Fr 08:00-21:00;Su 08:00-19:00"
      }
    },
    {
      "type": "Feature",
      "geometry": {
        "type": "Point",
        "coordinates": [
          4.3581404,
          50.8969576
        ]
      },
      "properties": {
        "id": 12115286606,
        "osm_type": "node",
        "name": "ALDI",
        "brand": "ALDI",
        "opening_hours": "Mo-Sa 08:30-19:00"
      }
    },
    {
      "type": "Feature",
      "geometry": {
        "type": "Point",
        "coordinates": [
          4.3793698,
          50.8906363
        ]
      },
      "properties": {
        "id": 12115342989,
        "osm_type": "node",
        "name": "Delhaize",
        "brand": "Delhaize",
        "opening_hours": "Mo-Sa 08:00-20:00; Su 09:00-20:00"
      }
    },
    {
      "type": "Feature",
      "geometry": {
        "type": "Point",
        "coordinates": [
          4.4273899,
          50.8425678
        ]
      },
      "properties": {
        "id": 12152274415,
        "osm_type": "node",
        "name": "Carrefour Market",
        "brand": "Carrefour Market",
        "opening_hours": "Mo-Th,Sa 08:30-20:00; Fr 08:30-21:00; Su,PH off"
      }
    },
    {
      "type": "Feature",
      "geometry": {
        "type": "Point",
        "coordinates": [
          4.37292,
          50.833265
        ]
      },
      "properties": {
        "id": 12229500536,
        "osm_type": "node",
        "name": "ALDI",
        "brand": "ALDI",
        "opening_hours": "Mo-Sa 08:30-19:00"
      }
    },
    {
      "type": "Feature",
      "geometry": {
        "type": "Point",
        "coordinates": [
          4.4342334,
          50.8412408
        ]
      },
      "properties": {
        "id": 12230103539,
        "osm_type": "node",
        "name": "Deli traiteur",
        "opening_hours": "Mo-Su 07:30-22:00",
        "check_date": "2024-07-11"
      }
    },
    {
      "type": "Feature",
      "geometry": {
        "type": "Point",
        "coordinates": [
          4.4036728,
          50.8322429
        ]
      },
      "properties": {
        "id": 12238588868,
        "osm_type": "node",
        "name": "FreshMed",
        "opening_hours": "Mo 13:00-20:00; Tu-Sa 08:00-20:00; Su 08:00-13:00; PH 08:00-20:00"
      }
    },
    {
      "type": "Feature",
      "geometry": {
        "type": "Point",
        "coordinates": [
          4.3372209,
          50.7999079
        ]
      },
      "properties": {
        "id": 12240869829,
        "osm_type": "node",
        "name": "Proxy Delhaize",
        "brand": "Proxy Delhaize",
        "opening_hours": "07:30-20:30"
      }
    },
    {
      "type": "Feature",
      "geometry": {
        "type": "Point",
        "coordinates": [
          4.4322593,
          50.8363203
        ]
      },
      "properties": {
        "id": 12287776513,
        "osm_type": "node",
        "name": "Colruyt",
        "brand": "Colruyt",
        "opening_hours": "Mo-Sa 08:30-20:00; Fr 08:30-21:00"
      }
    },
    {
      "type": "Feature",
      "geometry": {
        "type": "Point",
        "coordinates": [
          4.3227954,
          50.8490327
        ]
      },
      "properties": {
        "id": 12307205541,
        "osm_type": "node",
        "name": "Okay City",
        "brand": "Okay",
        "opening_hours": "Mo 12:00-19:30; Tu-Sa 07:00-19:30; Su 08:00-12:00"
      }
    },
    {
      "type": "Feature",
      "geometry": {
        "type": "Point",
        "coordinates": [
          4.3681675,
          50.8236517
        ]
      },
      "properties": {
        "id": 12307208467,
        "osm_type": "node",
        "name": "Okay City",
        "brand": "Okay",
        "opening_hours": "Mo 12:00-19:30; Tu-Sa 07:00-19:30; Su 08:00-12:00"
      }
    },
    {
      "type": "Feature",
      "geometry": {
        "type": "Point",
        "coordinates": [
          4.2916863,
          50.87216
        ]
      },
      "properties": {
        "id": 12342316788,
        "osm_type": "node",
        "name": "Carrefour",
        "brand": "Carrefour",
        "opening_hours": "Mo-Th,Sa 09:00-20:00; Fr 09:00-21:00"
      }
    },
    {
      "type": "Feature",
      "geometry": {
        "type": "Point",
        "coordinates": [
          4.4340967,
          50.8372874
        ]
      },
      "properties": {
        "id": 12387945438,
        "osm_type": "node",
        "name": "Rob",
        "opening_hours": "Mo-Th 09:00-19:00, Fr 09:00-20:00, Sa 8:30-19:00"
      }
    },
    {
      "type": "Feature",
      "geometry": {
        "type": "Point",
        "coordinates": [
          4.3712619,
          50.8076983
        ]
      },
      "properties": {
        "id": 12404861652,
        "osm_type": "node",
        "name": "Proxy Delhaize",
        "brand": "Delhaize",
        "opening_hours": "Mo 08:00-13:00; Tu 13:00-20:00; We-Su 08:00-20:00"
      }
    },
    {
      "type": "Feature",
      "geometry": {
        "type": "Point",
        "coordinates": [
          4.3366935,
          50.8018794
        ]
      },
      "properties": {
        "id": 12460901868,
        "osm_type": "node",
        "name": "Okay City",
        "brand": "Okay",
        "opening_hours": "Mo 12:00-19:30; Tu-Sa 07:00-19:30; Su 08:00-12:00"
      }
    },
    {
      "type": "Feature",
      "geometry": {
        "type": "Point",
        "coordinates": [
          4.3593058,
          50.7928855
        ]
      },
      "properties": {
        "id": 12461912621,
        "osm_type": "node",
        "name": "Färm",
        "opening_hours": "Mo-Sa 09:00-19:30; Su 09:00-13:00"
      }
    },
    {
      "type": "Feature",
      "geometry": {
        "type": "Point",
        "coordinates": [
          4.3321582,
          50.8381772
        ]
      },
      "properties": {
        "id": 12552431619,
        "osm_type": "node",
        "name": "Okay City",
        "brand": "Okay",
        "opening_hours": "Mo 12:00-19:30; Tu-Sa 07:00-19:30; Su 08:00-12:00"
      }
    },
    {
      "type": "Feature",
      "geometry": {
        "type": "Point",
        "coordinates": [
          4.3169256,
          50.8852061
        ]
      },
      "properties": {
        "id": 12662548975,
        "osm_type": "node",
        "name": "Lidl",
        "brand": "Lidl",
        "opening_hours": "Mo-Fr 08:30-20:00; Sa 08:30-19:00"
      }
    },
    {
      "type": "Feature",
      "geometry": {
        "type": "Point",
        "coordinates": [
          4.3740276,
          50.8738155
        ]
      },
      "properties": {
        "id": 12739679506,
        "osm_type": "node",
        "name": "Lidl",
        "brand": "Lidl",
        "opening_hours": "Mo-Fr 08:30-20:00; Sa 08:30-19:00; Su off; PH off"
      }
    },
    {
      "type": "Feature",
      "geometry": {
        "type": "Point",
        "coordinates": [
          4.346061,
          50.8652228
        ]
      },
      "properties": {
        "id": 12752581643,
        "osm_type": "node",
        "name": "Proxy Delhaize",
        "brand": "Proxy Delhaize",
        "opening_hours": "Mo-Fr 07:30-19:30; PH,Sa,Su 08:30-19:30"
      }
    },
    {
      "type": "Feature",
      "geometry": {
        "type": "Point",
        "coordinates": [
          4.3417048,
          50.840432
        ]
      },
      "properties": {
        "id": 13009161081,
        "osm_type": "node",
        "name": "Fresh Market"
      }
    },
    {
      "type": "Feature",
      "geometry": {
        "type": "Point",
        "coordinates": [
          4.3289003,
          50.804555
        ]
      },
      "properties": {
        "id": 13192287981,
        "osm_type": "node",
        "name": "Carrefour",
        "brand": "Carrefour",
        "opening_hours": "Mo-Sa 08:00-20:00"
      }
    },
    {
      "type": "Feature",
      "geometry": {
        "type": "Point",
        "coordinates": [
          4.2845939,
          50.8390183
        ]
      },
      "properties": {
        "id": 13207786319,
        "osm_type": "node",
        "name": "Färm",
        "opening_hours": "Mo-Sa 09:00-19:30; Fr 09:00-20:00; Su 09:00-13:00"
      }
    },
    {
      "type": "Feature",
      "geometry": {
        "type": "Point",
        "coordinates": [
          4.3871463,
          50.8691879
        ]
      },
      "properties": {
        "id": 13313158241,
        "osm_type": "node",
        "name": "Lidl",
        "brand": "Lidl",
        "opening_hours": "Mo-Fr 08:30-20:00; Sa 08:30-19:00; Su off"
      }
    },
    {
      "type": "Feature",
      "geometry": {
        "type": "Point",
        "coordinates": [
          4.2940239,
          50.8674599
        ]
      },
      "properties": {
        "id": 13571929561,
        "osm_type": "node",
        "name": "Chez Ben"
      }
    },
    {
      "type": "Feature",
      "geometry": {
        "type": "Point",
        "coordinates": [
          4.3138292,
          50.8677837
        ]
      },
      "properties": {
        "id": 13672419423,
        "osm_type": "node",
        "name": "Carrefour Market",
        "brand": "Carrefour Market",
        "opening_hours": "Mo-Su 08:00-19:30"
      }
    },
    {
      "type": "Feature",
      "geometry": {
        "type": "Point",
        "coordinates": [
          4.3543214,
          50.8345745
        ]
      },
      "properties": {
        "id": 21508474,
        "osm_type": "way",
        "name": "Proxy Delhaize",
        "brand": "Proxy Delhaize",
        "opening_hours": "Mo 12:00-20:00; Tu-Sa 08:00-20:00; Su 08:00-12:00",
        "check_date": "2025-10-31"
      }
    },
    {
      "type": "Feature",
      "geometry": {
        "type": "Point",
        "coordinates": [
          4.3391148,
          50.8176054
        ]
      },
      "properties": {
        "id": 30445650,
        "osm_type": "way",
        "name": "Intermarché",
        "brand": "Intermarché",
        "opening_hours": "Tu-Sa 08:00-20:00; Su 09:00-20:00; Mo 10:00-20:00"
      }
    },
    {
      "type": "Feature",
      "geometry": {
        "type": "Point",
        "coordinates": [
          4.310645,
          50.8441287
        ]
      },
      "properties": {
        "id": 30596911,
        "osm_type": "way",
        "name": "Colruyt",
        "brand": "Colruyt",
        "opening_hours": "Mo-Th,Sa 08:30-20:00, Fr 08:30-21:00"
      }
    },
    {
      "type": "Feature",
      "geometry": {
        "type": "Point",
        "coordinates": [
          4.3877622,
          50.8287789
        ]
      },
      "properties": {
        "id": 31241898,
        "osm_type": "way",
        "name": "Delhaize",
        "brand": "Delhaize",
        "opening_hours": "Mo-Th, Sa 08:00-20:00; Fr 08:00-21:00; Su 09:00-18:00"
      }
    },
    {
      "type": "Feature",
      "geometry": {
        "type": "Point",
        "coordinates": [
          4.3980153,
          50.8250591
        ]
      },
      "properties": {
        "id": 31610798,
        "osm_type": "way",
        "name": "Colruyt",
        "brand": "Colruyt",
        "opening_hours": "Mo-Sa 08:00-20:00; Fr 08:00-21:00",
        "check_date": "2023-11-03"
      }
    },
    {
      "type": "Feature",
      "geometry": {
        "type": "Point",
        "coordinates": [
          4.4014932,
          50.8343668
        ]
      },
      "properties": {
        "id": 31799999,
        "osm_type": "way",
        "name": "Carrefour Market",
        "brand": "Carrefour Market",
        "opening_hours": "Mo-Sa 08:00-20:00; Fr 08:00-21:00"
      }
    },
    {
      "type": "Feature",
      "geometry": {
        "type": "Point",
        "coordinates": [
          4.3682112,
          50.8285555
        ]
      },
      "properties": {
        "id": 32258972,
        "osm_type": "way",
        "name": "Delhaize",
        "brand": "Delhaize",
        "opening_hours": "08:00-20:30; Fr 08:00-21:00; PH 08:00-20:30"
      }
    },
    {
      "type": "Feature",
      "geometry": {
        "type": "Point",
        "coordinates": [
          4.3269453,
          50.8733961
        ]
      },
      "properties": {
        "id": 38789961,
        "osm_type": "way",
        "name": "Intermarché",
        "brand": "Intermarché",
        "opening_hours": "07:00-20:00"
      }
    },
    {
      "type": "Feature",
      "geometry": {
        "type": "Point",
        "coordinates": [
          4.3183879,
          50.8563816
        ]
      },
      "properties": {
        "id": 40892814,
        "osm_type": "way",
        "name": "Delhaize",
        "brand": "Delhaize"
      }
    },
    {
      "type": "Feature",
      "geometry": {
        "type": "Point",
        "coordinates": [
          4.2968699,
          50.8721113
        ]
      },
      "properties": {
        "id": 41186009,
        "osm_type": "way",
        "name": "Delhaize",
        "brand": "Delhaize"
      }
    },
    {
      "type": "Feature",
      "geometry": {
        "type": "Point",
        "coordinates": [
          4.322989,
          50.8937066
        ]
      },
      "properties": {
        "id": 41210691,
        "osm_type": "way",
        "name": "Delhaize",
        "brand": "Delhaize",
        "opening_hours": "Tu-Sa 08:00-20:00; Mo 13:00-20:00; Su,PH 08:00-13:00"
      }
    },
    {
      "type": "Feature",
      "geometry": {
        "type": "Point",
        "coordinates": [
          4.3281118,
          50.8779012
        ]
      },
      "properties": {
        "id": 73052631,
        "osm_type": "way",
        "name": "Delhaize",
        "brand": "Delhaize",
        "opening_hours": "Mo-Th,Sa 08:00-20:00; Fr 08:00-21:00"
      }
    },
    {
      "type": "Feature",
      "geometry": {
        "type": "Point",
        "coordinates": [
          4.3366596,
          50.8688963
        ]
      },
      "properties": {
        "id": 73937762,
        "osm_type": "way",
        "name": "Delhaize",
        "brand": "Delhaize",
        "opening_hours": "Mo-Sa 08:00-20:00, Su 10:00-18:30"
      }
    },
    {
      "type": "Feature",
      "geometry": {
        "type": "Point",
        "coordinates": [
          4.3390058,
          50.8679049
        ]
      },
      "properties": {
        "id": 74166958,
        "osm_type": "way",
        "name": "Lidl",
        "brand": "Lidl"
      }
    },
    {
      "type": "Feature",
      "geometry": {
        "type": "Point",
        "coordinates": [
          4.3933044,
          50.8076846
        ]
      },
      "properties": {
        "id": 87517829,
        "osm_type": "way",
        "name": "Delhaize",
        "brand": "Delhaize",
        "opening_hours": "Mo-Su 08:00-20:00"
      }
    },
    {
      "type": "Feature",
      "geometry": {
        "type": "Point",
        "coordinates": [
          4.3898325,
          50.8170451
        ]
      },
      "properties": {
        "id": 88941632,
        "osm_type": "way",
        "name": "Carrefour Market",
        "brand": "Carrefour Market",
        "opening_hours": "Mo-Sa 08:00-20:00; Fr 08:00-21:00"
      }
    },
    {
      "type": "Feature",
      "geometry": {
        "type": "Point",
        "coordinates": [
          4.4290125,
          50.8480249
        ]
      },
      "properties": {
        "id": 128254985,
        "osm_type": "way",
        "name": "Delhaize",
        "brand": "Delhaize",
        "opening_hours": "Mo-Th,Sa 08:00-20:00; Fr 08:00-21:00"
      }
    },
    {
      "type": "Feature",
      "geometry": {
        "type": "Point",
        "coordinates": [
          4.4243908,
          50.8136528
        ]
      },
      "properties": {
        "id": 150220129,
        "osm_type": "way",
        "name": "Carrefour",
        "brand": "Carrefour",
        "opening_hours": "Mo-Th, Sa 08:00-20:00; Su 08:00-12:00; Fr 08:00-21:00"
      }
    },
    {
      "type": "Feature",
      "geometry": {
        "type": "Point",
        "coordinates": [
          4.3370112,
          50.8115615
        ]
      },
      "properties": {
        "id": 165403814,
        "osm_type": "way",
        "name": "Lidl",
        "brand": "Lidl",
        "opening_hours": "Mo-Fr 08:30-20:00; Sa 08:30-19:00;PH off"
      }
    },
    {
      "type": "Feature",
      "geometry": {
        "type": "Point",
        "coordinates": [
          4.4126297,
          50.8431499
        ]
      },
      "properties": {
        "id": 192249839,
        "osm_type": "way",
        "name": "Comarché",
        "opening_hours": "Mo-Sa 08:00-19:30"
      }
    },
    {
      "type": "Feature",
      "geometry": {
        "type": "Point",
        "coordinates": [
          4.4170527,
          50.8445544
        ]
      },
      "properties": {
        "id": 197725412,
        "osm_type": "way",
        "name": "Proxy Delhaize",
        "brand": "Proxy Delhaize",
        "opening_hours": "Fr-We 08:00-20:00"
      }
    },
    {
      "type": "Feature",
      "geometry": {
        "type": "Point",
        "coordinates": [
          4.4030032,
          50.8412483
        ]
      },
      "properties": {
        "id": 198155075,
        "osm_type": "way",
        "name": "Proxy Delhaize",
        "brand": "Proxy Delhaize",
        "opening_hours": "Mo-We 08:30-20:00; Fr-Su 08:30-20:00; PH 10:30-18:30",
        "check_date": "2026-04-10"
      }
    },
    {
      "type": "Feature",
      "geometry": {
        "type": "Point",
        "coordinates": [
          4.331171,
          50.866653
        ]
      },
      "properties": {
        "id": 223331394,
        "osm_type": "way",
        "name": "Okay",
        "brand": "Okay",
        "opening_hours": "Mo-Sa 08:00-19:30; Su 08:00-12:30"
      }
    },
    {
      "type": "Feature",
      "geometry": {
        "type": "Point",
        "coordinates": [
          4.3272801,
          50.8738108
        ]
      },
      "properties": {
        "id": 223757471,
        "osm_type": "way",
        "name": "Colruyt",
        "brand": "Colruyt",
        "opening_hours": "Mo-Th,Sa 08:00-20:00; Fr 08:00-21:00"
      }
    },
    {
      "type": "Feature",
      "geometry": {
        "type": "Point",
        "coordinates": [
          4.3319897,
          50.8735646
        ]
      },
      "properties": {
        "id": 223757561,
        "osm_type": "way",
        "name": "ALDI",
        "brand": "ALDI",
        "opening_hours": "Mo-Sa 08:30-19:00"
      }
    },
    {
      "type": "Feature",
      "geometry": {
        "type": "Point",
        "coordinates": [
          4.3391357,
          50.8125485
        ]
      },
      "properties": {
        "id": 226398632,
        "osm_type": "way",
        "name": "ALDI",
        "brand": "ALDI",
        "opening_hours": "Mo-Sa 08:30-19:00"
      }
    },
    {
      "type": "Feature",
      "geometry": {
        "type": "Point",
        "coordinates": [
          4.3911404,
          50.8505806
        ]
      },
      "properties": {
        "id": 227190605,
        "osm_type": "way",
        "name": "Delhaize",
        "brand": "Delhaize",
        "opening_hours": "Mo-Th,Sa-Su 08:00-20:00; Fr 08:00-21:00; PH 08:00-20:00"
      }
    },
    {
      "type": "Feature",
      "geometry": {
        "type": "Point",
        "coordinates": [
          4.3751656,
          50.8556219
        ]
      },
      "properties": {
        "id": 227568298,
        "osm_type": "way",
        "name": "Lidl",
        "brand": "Lidl",
        "opening_hours": "Mo-Fr 08:00-20:00; Sa 08:30-19:00; Su off",
        "check_date": "2026-01-18"
      }
    },
    {
      "type": "Feature",
      "geometry": {
        "type": "Point",
        "coordinates": [
          4.3242585,
          50.8401806
        ]
      },
      "properties": {
        "id": 227645127,
        "osm_type": "way",
        "name": "Lidl",
        "brand": "Lidl"
      }
    },
    {
      "type": "Feature",
      "geometry": {
        "type": "Point",
        "coordinates": [
          4.3974348,
          50.8473428
        ]
      },
      "properties": {
        "id": 227925796,
        "osm_type": "way",
        "name": "Colruyt",
        "brand": "Colruyt",
        "opening_hours": "Mo-Sa 08:30-20:00; Fr 08:30-21:00"
      }
    },
    {
      "type": "Feature",
      "geometry": {
        "type": "Point",
        "coordinates": [
          4.412001,
          50.8557297
        ]
      },
      "properties": {
        "id": 229512753,
        "osm_type": "way",
        "name": "AD Delhaize",
        "brand": "AD Delhaize",
        "opening_hours": "Mo off; Tu-Su 08:00-20:00",
        "check_date": "2023-03-03"
      }
    },
    {
      "type": "Feature",
      "geometry": {
        "type": "Point",
        "coordinates": [
          4.4033124,
          50.866255
        ]
      },
      "properties": {
        "id": 230303474,
        "osm_type": "way",
        "name": "Delhaize",
        "brand": "Delhaize",
        "opening_hours": "Mo 13:00-20:00; Tu-Sa 08:00-20:00; Su 08:00-13:00"
      }
    },
    {
      "type": "Feature",
      "geometry": {
        "type": "Point",
        "coordinates": [
          4.4044435,
          50.8676669
        ]
      },
      "properties": {
        "id": 230439738,
        "osm_type": "way",
        "name": "Carrefour",
        "brand": "Carrefour",
        "opening_hours": "Mo-Sa 08:00-20:00; Su 08:00-12:00"
      }
    },
    {
      "type": "Feature",
      "geometry": {
        "type": "Point",
        "coordinates": [
          4.4034745,
          50.8317901
        ]
      },
      "properties": {
        "id": 233158336,
        "osm_type": "way",
        "name": "Proxy Delhaize",
        "brand": "Proxy Delhaize",
        "opening_hours": "Sa-We 07:30-20:00; Fr 07:30-21:00; Th off"
      }
    },
    {
      "type": "Feature",
      "geometry": {
        "type": "Point",
        "coordinates": [
          4.3023938,
          50.8363394
        ]
      },
      "properties": {
        "id": 243256490,
        "osm_type": "way",
        "name": "ALDI",
        "brand": "ALDI",
        "opening_hours": "Mo-Sa 08:30-19:00"
      }
    },
    {
      "type": "Feature",
      "geometry": {
        "type": "Point",
        "coordinates": [
          4.3488806,
          50.8499901
        ]
      },
      "properties": {
        "id": 244850870,
        "osm_type": "way",
        "name": "Kam Yuen Supermarket",
        "opening_hours": "Mo-Sa 09:00-19:40; Su 10:30-17:30; PH 10:00-18:00"
      }
    },
    {
      "type": "Feature",
      "geometry": {
        "type": "Point",
        "coordinates": [
          4.3202592,
          50.8568127
        ]
      },
      "properties": {
        "id": 245230488,
        "osm_type": "way",
        "name": "Colruyt",
        "brand": "Colruyt"
      }
    },
    {
      "type": "Feature",
      "geometry": {
        "type": "Point",
        "coordinates": [
          4.3372289,
          50.8111399
        ]
      },
      "properties": {
        "id": 249921864,
        "osm_type": "way",
        "name": "Delhaize",
        "brand": "Delhaize",
        "opening_hours": "Mo-Sa 08:00-20:00; Fr 08:00-21:00"
      }
    },
    {
      "type": "Feature",
      "geometry": {
        "type": "Point",
        "coordinates": [
          4.3286411,
          50.8971203
        ]
      },
      "properties": {
        "id": 253057877,
        "osm_type": "way",
        "name": "ALDI",
        "brand": "ALDI",
        "opening_hours": "Mo-Sa 08:30-19:00"
      }
    },
    {
      "type": "Feature",
      "geometry": {
        "type": "Point",
        "coordinates": [
          4.3412978,
          50.8808761
        ]
      },
      "properties": {
        "id": 254636773,
        "osm_type": "way",
        "name": "ALDI",
        "brand": "ALDI",
        "opening_hours": "Mo-Sa 08:30-19:00"
      }
    },
    {
      "type": "Feature",
      "geometry": {
        "type": "Point",
        "coordinates": [
          4.3401528,
          50.8797018
        ]
      },
      "properties": {
        "id": 256293833,
        "osm_type": "way",
        "name": "Lidl",
        "brand": "Lidl",
        "opening_hours": "Mo-Fr 08:30-20:00; Sa 08:30-19:00"
      }
    },
    {
      "type": "Feature",
      "geometry": {
        "type": "Point",
        "coordinates": [
          4.4306897,
          50.8373964
        ]
      },
      "properties": {
        "id": 258660569,
        "osm_type": "way",
        "name": "Proxy Delhaize",
        "brand": "Proxy Delhaize"
      }
    },
    {
      "type": "Feature",
      "geometry": {
        "type": "Point",
        "coordinates": [
          4.4622255,
          50.8488407
        ]
      },
      "properties": {
        "id": 265742810,
        "osm_type": "way",
        "name": "Lukoil shop"
      }
    },
    {
      "type": "Feature",
      "geometry": {
        "type": "Point",
        "coordinates": [
          4.3418775,
          50.8315389
        ]
      },
      "properties": {
        "id": 267219368,
        "osm_type": "way",
        "name": "Intermarché",
        "brand": "Intermarché",
        "opening_hours": "Mo-Su 08:00-20:00"
      }
    },
    {
      "type": "Feature",
      "geometry": {
        "type": "Point",
        "coordinates": [
          4.3229809,
          50.7966913
        ]
      },
      "properties": {
        "id": 336365982,
        "osm_type": "way",
        "name": "Colruyt",
        "brand": "Colruyt",
        "opening_hours": "Mo-Th,Sa 08:30-20:00; Fr 08:30-21:00"
      }
    },
    {
      "type": "Feature",
      "geometry": {
        "type": "Point",
        "coordinates": [
          4.413341,
          50.8561789
        ]
      },
      "properties": {
        "id": 840120624,
        "osm_type": "way",
        "name": "Lidl",
        "brand": "Lidl",
        "opening_hours": "Mo-Fr 08:30-20:00; Sa 08:30-19:00",
        "check_date": "2023-03-03"
      }
    },
    {
      "type": "Feature",
      "geometry": {
        "type": "Point",
        "coordinates": [
          4.3800416,
          50.8340395
        ]
      },
      "properties": {
        "id": 972353997,
        "osm_type": "way",
        "name": "Colruyt",
        "brand": "Colruyt",
        "opening_hours": "Mo-Th, Sa 08:30-20:00; Fr 08:30-21:00; Su off"
      }
    },
    {
      "type": "Feature",
      "geometry": {
        "type": "Point",
        "coordinates": [
          4.3782395,
          50.8672127
        ]
      },
      "properties": {
        "id": 1046839494,
        "osm_type": "way",
        "name": "Colruyt",
        "brand": "Colruyt",
        "opening_hours": "Mo-Th, Sa 08:00-20:00; Fr 08:00-21:00; Su off"
      }
    },
    {
      "type": "Feature",
      "geometry": {
        "type": "Point",
        "coordinates": [
          4.4131247,
          50.8592735
        ]
      },
      "properties": {
        "id": 1152867518,
        "osm_type": "way",
        "name": "Carrefour Market Evere Paduwa",
        "opening_hours": "Mo 12:00-20:00; Tu-Sa 07:00-20:00; Su 08:00-13:00",
        "check_date": "2024-06-03"
      }
    },
    {
      "type": "Feature",
      "geometry": {
        "type": "Point",
        "coordinates": [
          4.3772225,
          50.8567676
        ]
      },
      "properties": {
        "id": 1241615847,
        "osm_type": "way",
        "name": "BEES coop",
        "opening_hours": "Mo 13:00-19:30; Tu-Sa 08:00-19:30; Su 09:45-13:00",
        "check_date": "2025-06-27"
      }
    },
    {
      "type": "Feature",
      "geometry": {
        "type": "Point",
        "coordinates": [
          4.3687022,
          50.8364586
        ]
      },
      "properties": {
        "id": 1410932494,
        "osm_type": "way",
        "name": "Lidl",
        "brand": "Lidl",
        "opening_hours": "Mo-Fr 08:30-20:00; Sa 08:30-19:00; Su, PH off"
      }
    },
    {
      "type": "Feature",
      "geometry": {
        "type": "Point",
        "coordinates": [
          4.326664,
          50.8948234
        ]
      },
      "properties": {
        "id": 1460229302,
        "osm_type": "way",
        "name": "Carrefour Market",
        "brand": "Carrefour Market",
        "opening_hours": "Mo 13:00-20:00; Tu-Sa 08:00-20:00; Su 08:00-13:00"
      }
    }
  ]
}