{
  "type": "FeatureCollection",
  "features": [
    {
      "type": "Feature",
      "geometry": {
        "type": "Point",
        "coordinates": [
          12.7072437,
          49.9623308
        ]
      },
      "properties": {
        "id": 413278745,
        "osm_type": "node",
        "name": "Ferdinandův pramen",
        "access": "yes",
        "indoor": "yes"
      }
    },
    {
      "type": "Feature",
      "geometry": {
        "type": "Point",
        "coordinates": [
          12.6320653,
          50.0082673
        ]
      },
      "properties": {
        "id": 544217665,
        "osm_type": "node",
        "name": "Helena a Viktor",
        "access": "yes",
        "fee": "no"
      }
    },
    {
      "type": "Feature",
      "geometry": {
        "type": "Point",
        "coordinates": [
          12.6339693,
          50.0074656
        ]
      },
      "properties": {
        "id": 869128446,
        "osm_type": "node",
        "name": "Richard",
        "access": "yes",
        "fee": "yes"
      }
    },
    {
      "type": "Feature",
      "geometry": {
        "type": "Point",
        "coordinates": [
          12.6542092,
          49.9987965
        ]
      },
      "properties": {
        "id": 869128503,
        "osm_type": "node",
        "name": "Kančí"
      }
    },
    {
      "type": "Feature",
      "geometry": {
        "type": "Point",
        "coordinates": [
          12.653906,
          49.9989651
        ]
      },
      "properties": {
        "id": 869128613,
        "osm_type": "node",
        "name": "Liščí"
      }
    },
    {
      "type": "Feature",
      "geometry": {
        "type": "Point",
        "coordinates": [
          12.648085,
          50.0001685
        ]
      },
      "properties": {
        "id": 869128637,
        "osm_type": "node",
        "name": "Jezevčí"
      }
    },
    {
      "type": "Feature",
      "geometry": {
        "type": "Point",
        "coordinates": [
          12.7067179,
          49.9781027
        ]
      },
      "properties": {
        "id": 1087828358,
        "osm_type": "node",
        "name": "Křížový pramen",
        "access": "yes",
        "fee": "no",
        "indoor": "yes"
      }
    },
    {
      "type": "Feature",
      "geometry": {
        "type": "Point",
        "coordinates": [
          12.7031169,
          49.9692034
        ]
      },
      "properties": {
        "id": 1107914377,
        "osm_type": "node",
        "name": "Alexandřin pramen"
      }
    },
    {
      "type": "Feature",
      "geometry": {
        "type": "Point",
        "coordinates": [
          12.7078322,
          49.9747505
        ]
      },
      "properties": {
        "id": 1107965735,
        "osm_type": "node",
        "name": "Ambrožovy prameny",
        "access": "yes",
        "fee": "no"
      }
    },
    {
      "type": "Feature",
      "geometry": {
        "type": "Point",
        "coordinates": [
          12.5599246,
          50.3605297
        ]
      },
      "properties": {
        "id": 1235546995,
        "osm_type": "node",
        "name": "Fischerova studánka",
        "access": "yes",
        "fee": "no"
      }
    },
    {
      "type": "Feature",
      "geometry": {
        "type": "Point",
        "coordinates": [
          12.7093126,
          49.9596045
        ]
      },
      "properties": {
        "id": 1238409353,
        "osm_type": "node",
        "name": "Rudolfův pramen",
        "access": "no",
        "indoor": "yes"
      }
    },
    {
      "type": "Feature",
      "geometry": {
        "type": "Point",
        "coordinates": [
          12.7281825,
          50.0471482
        ]
      },
      "properties": {
        "id": 1370028256,
        "osm_type": "node",
        "name": "Barochův pramen"
      }
    },
    {
      "type": "Feature",
      "geometry": {
        "type": "Point",
        "coordinates": [
          12.7307406,
          50.3221933
        ]
      },
      "properties": {
        "id": 1558871762,
        "osm_type": "node"
      }
    },
    {
      "type": "Feature",
      "geometry": {
        "type": "Point",
        "coordinates": [
          12.9940336,
          50.2685447
        ]
      },
      "properties": {
        "id": 1765573146,
        "osm_type": "node",
        "name": "Jindřichův pramen",
        "access": "permissive"
      }
    },
    {
      "type": "Feature",
      "geometry": {
        "type": "Point",
        "coordinates": [
          12.7068661,
          49.975426
        ]
      },
      "properties": {
        "id": 1853310660,
        "osm_type": "node",
        "name": "Rudolfův pramen",
        "fee": "no"
      }
    },
    {
      "type": "Feature",
      "geometry": {
        "type": "Point",
        "coordinates": [
          12.7073123,
          49.975641
        ]
      },
      "properties": {
        "id": 1853310670,
        "osm_type": "node",
        "name": "Karolinin pramen",
        "fee": "no"
      }
    },
    {
      "type": "Feature",
      "geometry": {
        "type": "Point",
        "coordinates": [
          12.7006391,
          49.9794696
        ]
      },
      "properties": {
        "id": 1853310671,
        "osm_type": "node",
        "name": "Lesní pramen"
      }
    },
    {
      "type": "Feature",
      "geometry": {
        "type": "Point",
        "coordinates": [
          12.7164384,
          49.9516888
        ]
      },
      "properties": {
        "id": 1853310672,
        "osm_type": "node",
        "name": "Anoníčkův pramen"
      }
    },
    {
      "type": "Feature",
      "geometry": {
        "type": "Point",
        "coordinates": [
          12.7175281,
          49.9584168
        ]
      },
      "properties": {
        "id": 1859898956,
        "osm_type": "node",
        "name": "Prelátův pramen",
        "access": "yes",
        "seasonal": "yes"
      }
    },
    {
      "type": "Feature",
      "geometry": {
        "type": "Point",
        "coordinates": [
          12.9345124,
          50.1551881
        ]
      },
      "properties": {
        "id": 2023993205,
        "osm_type": "node"
      }
    },
    {
      "type": "Feature",
      "geometry": {
        "type": "Point",
        "coordinates": [
          12.3429978,
          50.2212643
        ]
      },
      "properties": {
        "id": 2121258358,
        "osm_type": "node"
      }
    },
    {
      "type": "Feature",
      "geometry": {
        "type": "Point",
        "coordinates": [
          12.7463427,
          50.1832842
        ]
      },
      "properties": {
        "id": 2533798262,
        "osm_type": "node"
      }
    },
    {
      "type": "Feature",
      "geometry": {
        "type": "Point",
        "coordinates": [
          12.6779459,
          49.9703817
        ]
      },
      "properties": {
        "id": 3526584331,
        "osm_type": "node",
        "name": "Vlčí pramen"
      }
    },
    {
      "type": "Feature",
      "geometry": {
        "type": "Point",
        "coordinates": [
          12.6843533,
          49.9689999
        ]
      },
      "properties": {
        "id": 3526590195,
        "osm_type": "node",
        "name": "Medvídě"
      }
    },
    {
      "type": "Feature",
      "geometry": {
        "type": "Point",
        "coordinates": [
          12.6828832,
          49.9687312
        ]
      },
      "properties": {
        "id": 3526590196,
        "osm_type": "node",
        "name": "Medvědí pramen"
      }
    },
    {
      "type": "Feature",
      "geometry": {
        "type": "Point",
        "coordinates": [
          12.6812137,
          49.9810548
        ]
      },
      "properties": {
        "id": 3526590197,
        "osm_type": "node",
        "name": "Srnčí pramen"
      }
    },
    {
      "type": "Feature",
      "geometry": {
        "type": "Point",
        "coordinates": [
          12.6730129,
          49.9768922
        ]
      },
      "properties": {
        "id": 3526590198,
        "osm_type": "node",
        "name": "Myší pramen"
      }
    },
    {
      "type": "Feature",
      "geometry": {
        "type": "Point",
        "coordinates": [
          12.6877762,
          49.974274
        ]
      },
      "properties": {
        "id": 3526635993,
        "osm_type": "node",
        "name": "Balbínův pramen"
      }
    },
    {
      "type": "Feature",
      "geometry": {
        "type": "Point",
        "coordinates": [
          12.7864862,
          50.1939392
        ]
      },
      "properties": {
        "id": 4315819960,
        "osm_type": "node",
        "name": "Pramen Horčička",
        "check_date": "2024-10-28"
      }
    },
    {
      "type": "Feature",
      "geometry": {
        "type": "Point",
        "coordinates": [
          12.7034811,
          49.9743218
        ]
      },
      "properties": {
        "id": 4405695590,
        "osm_type": "node",
        "name": "Balbínův pramen"
      }
    },
    {
      "type": "Feature",
      "geometry": {
        "type": "Point",
        "coordinates": [
          12.8825425,
          50.2240369
        ]
      },
      "properties": {
        "id": 4468669792,
        "osm_type": "node",
        "name": "Zámecký pramen",
        "access": "yes",
        "fee": "no"
      }
    },
    {
      "type": "Feature",
      "geometry": {
        "type": "Point",
        "coordinates": [
          12.9214543,
          50.3728246
        ]
      },
      "properties": {
        "id": 4581911117,
        "osm_type": "node"
      }
    },
    {
      "type": "Feature",
      "geometry": {
        "type": "Point",
        "coordinates": [
          12.7001861,
          49.9803885
        ]
      },
      "properties": {
        "id": 4678654453,
        "osm_type": "node",
        "name": "Lesní pramen",
        "access": "yes",
        "fee": "no"
      }
    },
    {
      "type": "Feature",
      "geometry": {
        "type": "Point",
        "coordinates": [
          12.3061728,
          50.0711163
        ]
      },
      "properties": {
        "id": 4747358960,
        "osm_type": "node",
        "name": "Studna"
      }
    },
    {
      "type": "Feature",
      "geometry": {
        "type": "Point",
        "coordinates": [
          12.3209434,
          50.0840462
        ]
      },
      "properties": {
        "id": 4815875185,
        "osm_type": "node",
        "name": "Pramen v chatové osadě"
      }
    },
    {
      "type": "Feature",
      "geometry": {
        "type": "Point",
        "coordinates": [
          12.7066,
          49.9781203
        ]
      },
      "properties": {
        "id": 4817727179,
        "osm_type": "node",
        "name": "Karolinin pramen",
        "access": "yes",
        "indoor": "yes"
      }
    },
    {
      "type": "Feature",
      "geometry": {
        "type": "Point",
        "coordinates": [
          12.7066651,
          49.9781252
        ]
      },
      "properties": {
        "id": 4817727180,
        "osm_type": "node",
        "name": "Rudolfův pramen",
        "access": "yes",
        "fee": "no",
        "indoor": "yes"
      }
    },
    {
      "type": "Feature",
      "geometry": {
        "type": "Point",
        "coordinates": [
          12.6245797,
          50.2865554
        ]
      },
      "properties": {
        "id": 4866101178,
        "osm_type": "node",
        "name": "Studna u Jindřichovic"
      }
    },
    {
      "type": "Feature",
      "geometry": {
        "type": "Point",
        "coordinates": [
          13.067627,
          50.3413987
        ]
      },
      "properties": {
        "id": 5024727541,
        "osm_type": "node",
        "name": "Korunní kyselka"
      }
    },
    {
      "type": "Feature",
      "geometry": {
        "type": "Point",
        "coordinates": [
          12.7317032,
          50.0482997
        ]
      },
      "properties": {
        "id": 5034723562,
        "osm_type": "node",
        "name": "Obecní pramen (Novákův)"
      }
    },
    {
      "type": "Feature",
      "geometry": {
        "type": "Point",
        "coordinates": [
          12.7061962,
          49.9746939
        ]
      },
      "properties": {
        "id": 5109655890,
        "osm_type": "node",
        "name": "Lesní pramen",
        "check_date": "2025-02-06"
      }
    },
    {
      "type": "Feature",
      "geometry": {
        "type": "Point",
        "coordinates": [
          12.7029879,
          49.9705362
        ]
      },
      "properties": {
        "id": 5109655896,
        "osm_type": "node",
        "name": "Augustin pramen",
        "seasonal": "yes"
      }
    },
    {
      "type": "Feature",
      "geometry": {
        "type": "Point",
        "coordinates": [
          12.969466,
          50.3697464
        ]
      },
      "properties": {
        "id": 5238732649,
        "osm_type": "node"
      }
    },
    {
      "type": "Feature",
      "geometry": {
        "type": "Point",
        "coordinates": [
          12.3727346,
          50.0760199
        ]
      },
      "properties": {
        "id": 5564269728,
        "osm_type": "node",
        "access": "yes",
        "fee": "no"
      }
    },
    {
      "type": "Feature",
      "geometry": {
        "type": "Point",
        "coordinates": [
          12.3631689,
          50.0802647
        ]
      },
      "properties": {
        "id": 5564273440,
        "osm_type": "node",
        "fee": "no"
      }
    },
    {
      "type": "Feature",
      "geometry": {
        "type": "Point",
        "coordinates": [
          12.3635725,
          50.0805676
        ]
      },
      "properties": {
        "id": 5564273441,
        "osm_type": "node",
        "fee": "no"
      }
    },
    {
      "type": "Feature",
      "geometry": {
        "type": "Point",
        "coordinates": [
          12.3636254,
          50.0809718
        ]
      },
      "properties": {
        "id": 5564273442,
        "osm_type": "node",
        "fee": "no"
      }
    },
    {
      "type": "Feature",
      "geometry": {
        "type": "Point",
        "coordinates": [
          12.3636561,
          50.0812721
        ]
      },
      "properties": {
        "id": 5564273443,
        "osm_type": "node",
        "fee": "no"
      }
    },
    {
      "type": "Feature",
      "geometry": {
        "type": "Point",
        "coordinates": [
          12.3634784,
          50.0814003
        ]
      },
      "properties": {
        "id": 5564273444,
        "osm_type": "node",
        "fee": "no"
      }
    },
    {
      "type": "Feature",
      "geometry": {
        "type": "Point",
        "coordinates": [
          12.3632569,
          50.081508
        ]
      },
      "properties": {
        "id": 5564273445,
        "osm_type": "node",
        "fee": "no"
      }
    },
    {
      "type": "Feature",
      "geometry": {
        "type": "Point",
        "coordinates": [
          12.508919,
          50.3290324
        ]
      },
      "properties": {
        "id": 5739657112,
        "osm_type": "node"
      }
    },
    {
      "type": "Feature",
      "geometry": {
        "type": "Point",
        "coordinates": [
          12.3666519,
          50.0794319
        ]
      },
      "properties": {
        "id": 6749689236,
        "osm_type": "node",
        "access": "yes"
      }
    },
    {
      "type": "Feature",
      "geometry": {
        "type": "Point",
        "coordinates": [
          12.7088803,
          49.9591111
        ]
      },
      "properties": {
        "id": 7076627525,
        "osm_type": "node",
        "name": "Rudolfův pramen"
      }
    },
    {
      "type": "Feature",
      "geometry": {
        "type": "Point",
        "coordinates": [
          12.6200885,
          50.1152788
        ]
      },
      "properties": {
        "id": 8586440572,
        "osm_type": "node",
        "fee": "no"
      }
    },
    {
      "type": "Feature",
      "geometry": {
        "type": "Point",
        "coordinates": [
          12.3607583,
          50.1693743
        ]
      },
      "properties": {
        "id": 9044719889,
        "osm_type": "node",
        "access": "yes",
        "fee": "no",
        "indoor": "no"
      }
    },
    {
      "type": "Feature",
      "geometry": {
        "type": "Point",
        "coordinates": [
          12.8807098,
          50.2271591
        ]
      },
      "properties": {
        "id": 10013933380,
        "osm_type": "node",
        "access": "yes",
        "fee": "no"
      }
    },
    {
      "type": "Feature",
      "geometry": {
        "type": "Point",
        "coordinates": [
          12.332756,
          50.1114586
        ]
      },
      "properties": {
        "id": 10271508408,
        "osm_type": "node"
      }
    },
    {
      "type": "Feature",
      "geometry": {
        "type": "Point",
        "coordinates": [
          12.3607644,
          50.0788566
        ]
      },
      "properties": {
        "id": 10302319097,
        "osm_type": "node"
      }
    },
    {
      "type": "Feature",
      "geometry": {
        "type": "Point",
        "coordinates": [
          12.8922956,
          50.4131678
        ]
      },
      "properties": {
        "id": 11090063141,
        "osm_type": "node"
      }
    },
    {
      "type": "Feature",
      "geometry": {
        "type": "Point",
        "coordinates": [
          12.9220791,
          50.4087712
        ]
      },
      "properties": {
        "id": 11090063167,
        "osm_type": "node"
      }
    },
    {
      "type": "Feature",
      "geometry": {
        "type": "Point",
        "coordinates": [
          12.6279107,
          50.0122892
        ]
      },
      "properties": {
        "id": 11464477081,
        "osm_type": "node"
      }
    },
    {
      "type": "Feature",
      "geometry": {
        "type": "Point",
        "coordinates": [
          12.7066376,
          49.977916
        ]
      },
      "properties": {
        "id": 11964349669,
        "osm_type": "node"
      }
    },
    {
      "type": "Feature",
      "geometry": {
        "type": "Point",
        "coordinates": [
          12.7065248,
          49.9779282
        ]
      },
      "properties": {
        "id": 11964349670,
        "osm_type": "node"
      }
    },
    {
      "type": "Feature",
      "geometry": {
        "type": "Point",
        "coordinates": [
          12.529803,
          49.9644046
        ]
      },
      "properties": {
        "id": 12057672750,
        "osm_type": "node"
      }
    },
    {
      "type": "Feature",
      "geometry": {
        "type": "Point",
        "coordinates": [
          12.2839467,
          50.1317119
        ]
      },
      "properties": {
        "id": 12823680828,
        "osm_type": "node"
      }
    },
    {
      "type": "Feature",
      "geometry": {
        "type": "Point",
        "coordinates": [
          12.4271415,
          50.0468441
        ]
      },
      "properties": {
        "id": 12909324120,
        "osm_type": "node"
      }
    },
    {
      "type": "Feature",
      "geometry": {
        "type": "Point",
        "coordinates": [
          12.798362,
          50.3180997
        ]
      },
      "properties": {
        "id": 12917523083,
        "osm_type": "node"
      }
    },
    {
      "type": "Feature",
      "geometry": {
        "type": "Point",
        "coordinates": [
          12.7702033,
          50.3502105
        ]
      },
      "properties": {
        "id": 12922092860,
        "osm_type": "node"
      }
    },
    {
      "type": "Feature",
      "geometry": {
        "type": "Point",
        "coordinates": [
          13.1602064,
          50.0927436
        ]
      },
      "properties": {
        "id": 13074813658,
        "osm_type": "node"
      }
    }
  ]
}