{
  "type": "FeatureCollection",
  "features": [
    {
      "type": "Feature",
      "geometry": {
        "type": "Point",
        "coordinates": [
          12.8492583,
          50.4376389
        ]
      },
      "properties": {
        "id": 393916324,
        "osm_type": "node",
        "shelter_type": "weather_shelter"
      }
    },
    {
      "type": "Feature",
      "geometry": {
        "type": "Point",
        "coordinates": [
          12.8274511,
          50.3901821
        ]
      },
      "properties": {
        "id": 443641759,
        "osm_type": "node",
        "name": "Uhlákovo",
        "shelter_type": "weather_shelter"
      }
    },
    {
      "type": "Feature",
      "geometry": {
        "type": "Point",
        "coordinates": [
          12.9266352,
          50.396825
        ]
      },
      "properties": {
        "id": 549721117,
        "osm_type": "node",
        "shelter_type": "lean_to",
        "bench": "yes"
      }
    },
    {
      "type": "Feature",
      "geometry": {
        "type": "Point",
        "coordinates": [
          12.7182231,
          50.3895078
        ]
      },
      "properties": {
        "id": 631828757,
        "osm_type": "node",
        "shelter_type": "weather_shelter"
      }
    },
    {
      "type": "Feature",
      "geometry": {
        "type": "Point",
        "coordinates": [
          12.6969395,
          50.3991291
        ]
      },
      "properties": {
        "id": 631828758,
        "osm_type": "node",
        "shelter_type": "weather_shelter"
      }
    },
    {
      "type": "Feature",
      "geometry": {
        "type": "Point",
        "coordinates": [
          12.8921398,
          50.4303559
        ]
      },
      "properties": {
        "id": 663071595,
        "osm_type": "node",
        "shelter_type": "weather_shelter",
        "bench": "yes"
      }
    },
    {
      "type": "Feature",
      "geometry": {
        "type": "Point",
        "coordinates": [
          12.8949834,
          50.424043
        ]
      },
      "properties": {
        "id": 1612444913,
        "osm_type": "node",
        "shelter_type": "weather_shelter",
        "bench": "yes"
      }
    },
    {
      "type": "Feature",
      "geometry": {
        "type": "Point",
        "coordinates": [
          12.8376688,
          50.4067103
        ]
      },
      "properties": {
        "id": 1852857539,
        "osm_type": "node",
        "shelter_type": "weather_shelter"
      }
    },
    {
      "type": "Feature",
      "geometry": {
        "type": "Point",
        "coordinates": [
          12.9341301,
          50.4072784
        ]
      },
      "properties": {
        "id": 1853202454,
        "osm_type": "node",
        "shelter_type": "weather_shelter"
      }
    },
    {
      "type": "Feature",
      "geometry": {
        "type": "Point",
        "coordinates": [
          12.8871505,
          50.4174277
        ]
      },
      "properties": {
        "id": 1908168019,
        "osm_type": "node",
        "name": "Fukačo",
        "shelter_type": "weather_shelter"
      }
    },
    {
      "type": "Feature",
      "geometry": {
        "type": "Point",
        "coordinates": [
          12.8113373,
          50.4307633
        ]
      },
      "properties": {
        "id": 2059853754,
        "osm_type": "node",
        "shelter_type": "lean_to"
      }
    },
    {
      "type": "Feature",
      "geometry": {
        "type": "Point",
        "coordinates": [
          12.3423015,
          50.1209445
        ]
      },
      "properties": {
        "id": 2158045139,
        "osm_type": "node",
        "shelter_type": "weather_shelter"
      }
    },
    {
      "type": "Feature",
      "geometry": {
        "type": "Point",
        "coordinates": [
          12.7510051,
          50.3729941
        ]
      },
      "properties": {
        "id": 2291993680,
        "osm_type": "node",
        "shelter_type": "lean_to"
      }
    },
    {
      "type": "Feature",
      "geometry": {
        "type": "Point",
        "coordinates": [
          12.7493771,
          50.18664
        ]
      },
      "properties": {
        "id": 2533798272,
        "osm_type": "node",
        "shelter_type": "weather_shelter"
      }
    },
    {
      "type": "Feature",
      "geometry": {
        "type": "Point",
        "coordinates": [
          12.8375199,
          50.2123977
        ]
      },
      "properties": {
        "id": 3035936295,
        "osm_type": "node",
        "name": "Doubská chata",
        "shelter_type": "weather_shelter",
        "bench": "yes"
      }
    },
    {
      "type": "Feature",
      "geometry": {
        "type": "Point",
        "coordinates": [
          12.7793598,
          50.3635498
        ]
      },
      "properties": {
        "id": 3814117599,
        "osm_type": "node",
        "shelter_type": "lean_to"
      }
    },
    {
      "type": "Feature",
      "geometry": {
        "type": "Point",
        "coordinates": [
          12.886019,
          50.2146241
        ]
      },
      "properties": {
        "id": 4141672065,
        "osm_type": "node",
        "name": "chata Na Hřišti",
        "shelter_type": "weather_shelter"
      }
    },
    {
      "type": "Feature",
      "geometry": {
        "type": "Point",
        "coordinates": [
          13.2087455,
          50.086879
        ]
      },
      "properties": {
        "id": 4286032054,
        "osm_type": "node",
        "shelter_type": "weather_shelter"
      }
    },
    {
      "type": "Feature",
      "geometry": {
        "type": "Point",
        "coordinates": [
          12.5309467,
          50.3920072
        ]
      },
      "properties": {
        "id": 4461377330,
        "osm_type": "node",
        "shelter_type": "weather_shelter"
      }
    },
    {
      "type": "Feature",
      "geometry": {
        "type": "Point",
        "coordinates": [
          12.6182127,
          50.0852814
        ]
      },
      "properties": {
        "id": 4908773250,
        "osm_type": "node",
        "name": "zaniklá obec Ostrov",
        "shelter_type": "lean_to"
      }
    },
    {
      "type": "Feature",
      "geometry": {
        "type": "Point",
        "coordinates": [
          12.7447635,
          50.3543073
        ]
      },
      "properties": {
        "id": 5180120147,
        "osm_type": "node",
        "shelter_type": "lean_to"
      }
    },
    {
      "type": "Feature",
      "geometry": {
        "type": "Point",
        "coordinates": [
          12.9336936,
          50.3609599
        ]
      },
      "properties": {
        "id": 5238732563,
        "osm_type": "node",
        "shelter_type": "weather_shelter"
      }
    },
    {
      "type": "Feature",
      "geometry": {
        "type": "Point",
        "coordinates": [
          12.9171263,
          50.3670705
        ]
      },
      "properties": {
        "id": 5251004405,
        "osm_type": "node",
        "shelter_type": "weather_shelter"
      }
    },
    {
      "type": "Feature",
      "geometry": {
        "type": "Point",
        "coordinates": [
          12.6813917,
          49.9344341
        ]
      },
      "properties": {
        "id": 5439648313,
        "osm_type": "node",
        "shelter_type": "lean_to"
      }
    },
    {
      "type": "Feature",
      "geometry": {
        "type": "Point",
        "coordinates": [
          13.0033884,
          50.3903791
        ]
      },
      "properties": {
        "id": 5623176420,
        "osm_type": "node",
        "shelter_type": "weather_shelter",
        "bench": "yes"
      }
    },
    {
      "type": "Feature",
      "geometry": {
        "type": "Point",
        "coordinates": [
          12.760885,
          50.398822
        ]
      },
      "properties": {
        "id": 5790968125,
        "osm_type": "node",
        "shelter_type": "weather_shelter"
      }
    },
    {
      "type": "Feature",
      "geometry": {
        "type": "Point",
        "coordinates": [
          12.6486996,
          50.3755617
        ]
      },
      "properties": {
        "id": 5791618575,
        "osm_type": "node",
        "shelter_type": "weather_shelter"
      }
    },
    {
      "type": "Feature",
      "geometry": {
        "type": "Point",
        "coordinates": [
          12.7150735,
          49.9638447
        ]
      },
      "properties": {
        "id": 5794369732,
        "osm_type": "node",
        "shelter_type": "weather_shelter"
      }
    },
    {
      "type": "Feature",
      "geometry": {
        "type": "Point",
        "coordinates": [
          13.0835338,
          50.3560696
        ]
      },
      "properties": {
        "id": 5844830687,
        "osm_type": "node",
        "shelter_type": "lean_to"
      }
    },
    {
      "type": "Feature",
      "geometry": {
        "type": "Point",
        "coordinates": [
          12.4074603,
          50.3047014
        ]
      },
      "properties": {
        "id": 6790348908,
        "osm_type": "node",
        "shelter_type": "lean_to",
        "covered": "yes",
        "bench": "yes"
      }
    },
    {
      "type": "Feature",
      "geometry": {
        "type": "Point",
        "coordinates": [
          12.7409044,
          50.3294318
        ]
      },
      "properties": {
        "id": 6943787332,
        "osm_type": "node",
        "shelter_type": "weather_shelter"
      }
    },
    {
      "type": "Feature",
      "geometry": {
        "type": "Point",
        "coordinates": [
          12.374633,
          50.0885793
        ]
      },
      "properties": {
        "id": 7626369052,
        "osm_type": "node",
        "shelter_type": "weather_shelter"
      }
    },
    {
      "type": "Feature",
      "geometry": {
        "type": "Point",
        "coordinates": [
          12.0907521,
          50.2523297
        ]
      },
      "properties": {
        "id": 7798428134,
        "osm_type": "node",
        "shelter_type": "basic_hut",
        "bench": "yes",
        "description": "Přístřešek s posezením, odpadkovým košem. V horní části, kam se dá dostat po žebříku, je možné přespat."
      }
    },
    {
      "type": "Feature",
      "geometry": {
        "type": "Point",
        "coordinates": [
          12.4469044,
          50.3337824
        ]
      },
      "properties": {
        "id": 7827694345,
        "osm_type": "node",
        "shelter_type": "lean_to"
      }
    },
    {
      "type": "Feature",
      "geometry": {
        "type": "Point",
        "coordinates": [
          12.816833,
          50.1754261
        ]
      },
      "properties": {
        "id": 7925858898,
        "osm_type": "node",
        "shelter_type": "lean_to",
        "bench": "yes"
      }
    },
    {
      "type": "Feature",
      "geometry": {
        "type": "Point",
        "coordinates": [
          12.9375447,
          50.1490976
        ]
      },
      "properties": {
        "id": 8268323585,
        "osm_type": "node",
        "shelter_type": "weather_shelter"
      }
    },
    {
      "type": "Feature",
      "geometry": {
        "type": "Point",
        "coordinates": [
          12.238049,
          50.0960728
        ]
      },
      "properties": {
        "id": 8475680188,
        "osm_type": "node",
        "name": "Rybáře",
        "access": "yes",
        "shelter_type": "lean_to",
        "capacity": "4"
      }
    },
    {
      "type": "Feature",
      "geometry": {
        "type": "Point",
        "coordinates": [
          12.4058707,
          50.0228584
        ]
      },
      "properties": {
        "id": 9690220727,
        "osm_type": "node",
        "shelter_type": "lean_to",
        "bench": "yes"
      }
    },
    {
      "type": "Feature",
      "geometry": {
        "type": "Point",
        "coordinates": [
          12.8803136,
          50.2192398
        ]
      },
      "properties": {
        "id": 9972441728,
        "osm_type": "node",
        "shelter_type": "weather_shelter"
      }
    },
    {
      "type": "Feature",
      "geometry": {
        "type": "Point",
        "coordinates": [
          12.9035322,
          50.36142
        ]
      },
      "properties": {
        "id": 10963208474,
        "osm_type": "node",
        "shelter_type": "weather_shelter",
        "bench": "yes"
      }
    },
    {
      "type": "Feature",
      "geometry": {
        "type": "Point",
        "coordinates": [
          12.7334924,
          50.40082
        ]
      },
      "properties": {
        "id": 11114163516,
        "osm_type": "node"
      }
    },
    {
      "type": "Feature",
      "geometry": {
        "type": "Point",
        "coordinates": [
          12.9319601,
          50.405975
        ]
      },
      "properties": {
        "id": 11190857004,
        "osm_type": "node",
        "shelter_type": "weather_shelter"
      }
    },
    {
      "type": "Feature",
      "geometry": {
        "type": "Point",
        "coordinates": [
          12.7359413,
          50.3332222
        ]
      },
      "properties": {
        "id": 11900319495,
        "osm_type": "node",
        "shelter_type": "lean_to"
      }
    },
    {
      "type": "Feature",
      "geometry": {
        "type": "Point",
        "coordinates": [
          12.7406199,
          50.3413186
        ]
      },
      "properties": {
        "id": 11900319496,
        "osm_type": "node",
        "shelter_type": "lean_to"
      }
    },
    {
      "type": "Feature",
      "geometry": {
        "type": "Point",
        "coordinates": [
          12.4366641,
          49.9941794
        ]
      },
      "properties": {
        "id": 12395824601,
        "osm_type": "node",
        "shelter_type": "weather_shelter",
        "bench": "yes"
      }
    },
    {
      "type": "Feature",
      "geometry": {
        "type": "Point",
        "coordinates": [
          12.8871374,
          50.2084738
        ]
      },
      "properties": {
        "id": 12492621795,
        "osm_type": "node",
        "name": "Libušina chata",
        "shelter_type": "lean_to"
      }
    },
    {
      "type": "Feature",
      "geometry": {
        "type": "Point",
        "coordinates": [
          13.0511232,
          50.0944393
        ]
      },
      "properties": {
        "id": 12529497195,
        "osm_type": "node",
        "name": "Útulna Tomšův Mlýn",
        "access": "yes",
        "shelter_type": "basic_hut",
        "bench": "yes",
        "capacity": "4",
        "fee": "no",
        "operator": "Lesy ČR"
      }
    },
    {
      "type": "Feature",
      "geometry": {
        "type": "Point",
        "coordinates": [
          12.9130938,
          50.1054491
        ]
      },
      "properties": {
        "id": 12529497196,
        "osm_type": "node",
        "name": "Útulna Nový rybník",
        "access": "yes",
        "shelter_type": "basic_hut",
        "bench": "yes",
        "capacity": "4",
        "fee": "no",
        "operator": "Lesy ČR"
      }
    },
    {
      "type": "Feature",
      "geometry": {
        "type": "Point",
        "coordinates": [
          12.5569162,
          50.3546548
        ]
      },
      "properties": {
        "id": 12529497197,
        "osm_type": "node",
        "name": "Útulna Pod Špičákem",
        "access": "yes",
        "shelter_type": "basic_hut",
        "bench": "yes",
        "capacity": "4",
        "fee": "no",
        "operator": "Lesy ČR"
      }
    },
    {
      "type": "Feature",
      "geometry": {
        "type": "Point",
        "coordinates": [
          12.5336502,
          49.9335756
        ]
      },
      "properties": {
        "id": 12529533111,
        "osm_type": "node",
        "name": "Útulna Slatina",
        "access": "yes",
        "shelter_type": "basic_hut",
        "bench": "yes",
        "capacity": "4",
        "fee": "no",
        "operator": "Lesy ČR"
      }
    },
    {
      "type": "Feature",
      "geometry": {
        "type": "Point",
        "coordinates": [
          12.2286547,
          50.1001848
        ]
      },
      "properties": {
        "id": 12572428514,
        "osm_type": "node",
        "shelter_type": "lean_to"
      }
    },
    {
      "type": "Feature",
      "geometry": {
        "type": "Point",
        "coordinates": [
          12.2260622,
          50.2444291
        ]
      },
      "properties": {
        "id": 12736316843,
        "osm_type": "node",
        "shelter_type": "lean_to"
      }
    },
    {
      "type": "Feature",
      "geometry": {
        "type": "Point",
        "coordinates": [
          12.6208363,
          50.3836117
        ]
      },
      "properties": {
        "id": 12772142790,
        "osm_type": "node",
        "shelter_type": "weather_shelter"
      }
    },
    {
      "type": "Feature",
      "geometry": {
        "type": "Point",
        "coordinates": [
          12.6358492,
          49.9329544
        ]
      },
      "properties": {
        "id": 13105550436,
        "osm_type": "node",
        "name": "Cech",
        "shelter_type": "weather_shelter"
      }
    },
    {
      "type": "Feature",
      "geometry": {
        "type": "Point",
        "coordinates": [
          12.8715079,
          50.2096585
        ]
      },
      "properties": {
        "id": 13279219069,
        "osm_type": "node",
        "shelter_type": "weather_shelter",
        "bench": "yes"
      }
    },
    {
      "type": "Feature",
      "geometry": {
        "type": "Point",
        "coordinates": [
          12.1457499,
          50.2304289
        ]
      },
      "properties": {
        "id": 13414090456,
        "osm_type": "node",
        "shelter_type": "weather_shelter"
      }
    },
    {
      "type": "Feature",
      "geometry": {
        "type": "Point",
        "coordinates": [
          12.8021178,
          50.4154312
        ]
      },
      "properties": {
        "id": 143963257,
        "osm_type": "way",
        "shelter_type": "weather_shelter"
      }
    },
    {
      "type": "Feature",
      "geometry": {
        "type": "Point",
        "coordinates": [
          12.8145262,
          50.3995732
        ]
      },
      "properties": {
        "id": 171459553,
        "osm_type": "way"
      }
    },
    {
      "type": "Feature",
      "geometry": {
        "type": "Point",
        "coordinates": [
          12.9929926,
          50.2690053
        ]
      },
      "properties": {
        "id": 514293918,
        "osm_type": "way",
        "shelter_type": "lean_to"
      }
    },
    {
      "type": "Feature",
      "geometry": {
        "type": "Point",
        "coordinates": [
          12.4478891,
          49.9903657
        ]
      },
      "properties": {
        "id": 520965597,
        "osm_type": "way",
        "shelter_type": "weather_shelter"
      }
    },
    {
      "type": "Feature",
      "geometry": {
        "type": "Point",
        "coordinates": [
          12.9172722,
          50.4140409
        ]
      },
      "properties": {
        "id": 717907330,
        "osm_type": "way",
        "shelter_type": "weather_shelter",
        "bench": "yes"
      }
    },
    {
      "type": "Feature",
      "geometry": {
        "type": "Point",
        "coordinates": [
          12.9081804,
          50.4209826
        ]
      },
      "properties": {
        "id": 717913225,
        "osm_type": "way",
        "shelter_type": "weather_shelter",
        "bench": "yes"
      }
    },
    {
      "type": "Feature",
      "geometry": {
        "type": "Point",
        "coordinates": [
          12.9028912,
          50.4200731
        ]
      },
      "properties": {
        "id": 717913226,
        "osm_type": "way",
        "shelter_type": "weather_shelter",
        "bench": "yes"
      }
    },
    {
      "type": "Feature",
      "geometry": {
        "type": "Point",
        "coordinates": [
          12.8964296,
          50.421156
        ]
      },
      "properties": {
        "id": 717913227,
        "osm_type": "way",
        "shelter_type": "weather_shelter",
        "bench": "yes"
      }
    },
    {
      "type": "Feature",
      "geometry": {
        "type": "Point",
        "coordinates": [
          12.9000392,
          50.4141202
        ]
      },
      "properties": {
        "id": 717916908,
        "osm_type": "way",
        "shelter_type": "weather_shelter",
        "bench": "yes"
      }
    },
    {
      "type": "Feature",
      "geometry": {
        "type": "Point",
        "coordinates": [
          12.9076678,
          50.4107377
        ]
      },
      "properties": {
        "id": 717916911,
        "osm_type": "way",
        "shelter_type": "weather_shelter",
        "bench": "yes"
      }
    },
    {
      "type": "Feature",
      "geometry": {
        "type": "Point",
        "coordinates": [
          12.9186067,
          50.4096052
        ]
      },
      "properties": {
        "id": 717916914,
        "osm_type": "way",
        "shelter_type": "weather_shelter",
        "bench": "yes"
      }
    },
    {
      "type": "Feature",
      "geometry": {
        "type": "Point",
        "coordinates": [
          12.7966242,
          50.4468028
        ]
      },
      "properties": {
        "id": 904808019,
        "osm_type": "way",
        "shelter_type": "weather_shelter",
        "bench": "yes"
      }
    },
    {
      "type": "Feature",
      "geometry": {
        "type": "Point",
        "coordinates": [
          12.7389302,
          50.3227907
        ]
      },
      "properties": {
        "id": 914669928,
        "osm_type": "way",
        "shelter_type": "weather_shelter"
      }
    },
    {
      "type": "Feature",
      "geometry": {
        "type": "Point",
        "coordinates": [
          12.8618426,
          50.344121
        ]
      },
      "properties": {
        "id": 982062940,
        "osm_type": "way"
      }
    },
    {
      "type": "Feature",
      "geometry": {
        "type": "Point",
        "coordinates": [
          12.8108572,
          50.4003974
        ]
      },
      "properties": {
        "id": 1168030588,
        "osm_type": "way"
      }
    },
    {
      "type": "Feature",
      "geometry": {
        "type": "Point",
        "coordinates": [
          12.6552526,
          50.402135
        ]
      },
      "properties": {
        "id": 1299617307,
        "osm_type": "way",
        "shelter_type": "weather_shelter"
      }
    },
    {
      "type": "Feature",
      "geometry": {
        "type": "Point",
        "coordinates": [
          12.339659,
          50.1182101
        ]
      },
      "properties": {
        "id": 1394488578,
        "osm_type": "way",
        "shelter_type": "weather_shelter"
      }
    },
    {
      "type": "Feature",
      "geometry": {
        "type": "Point",
        "coordinates": [
          12.8599552,
          50.2229114
        ]
      },
      "properties": {
        "id": 1395741083,
        "osm_type": "way",
        "shelter_type": "weather_shelter"
      }
    }
  ]
}