{
  "type": "FeatureCollection",
  "features": [
    {
      "type": "Feature",
      "geometry": {
        "type": "Point",
        "coordinates": [
          17.0746913,
          48.1758765
        ]
      },
      "properties": {
        "id": 323069117,
        "osm_type": "node",
        "fee": "no",
        "operator": "BVS"
      }
    },
    {
      "type": "Feature",
      "geometry": {
        "type": "Point",
        "coordinates": [
          17.1064707,
          48.1420581
        ]
      },
      "properties": {
        "id": 480533766,
        "osm_type": "node"
      }
    },
    {
      "type": "Feature",
      "geometry": {
        "type": "Point",
        "coordinates": [
          17.111564,
          48.1450542
        ]
      },
      "properties": {
        "id": 480533817,
        "osm_type": "node"
      }
    },
    {
      "type": "Feature",
      "geometry": {
        "type": "Point",
        "coordinates": [
          17.1087048,
          48.1420055
        ]
      },
      "properties": {
        "id": 745736689,
        "osm_type": "node"
      }
    },
    {
      "type": "Feature",
      "geometry": {
        "type": "Point",
        "coordinates": [
          17.0991217,
          48.1235643
        ]
      },
      "properties": {
        "id": 1375076120,
        "osm_type": "node"
      }
    },
    {
      "type": "Feature",
      "geometry": {
        "type": "Point",
        "coordinates": [
          17.3914815,
          48.1925297
        ]
      },
      "properties": {
        "id": 1820828546,
        "osm_type": "node"
      }
    },
    {
      "type": "Feature",
      "geometry": {
        "type": "Point",
        "coordinates": [
          17.3915142,
          48.1912566
        ]
      },
      "properties": {
        "id": 1820828898,
        "osm_type": "node"
      }
    },
    {
      "type": "Feature",
      "geometry": {
        "type": "Point",
        "coordinates": [
          16.9782745,
          48.1740706
        ]
      },
      "properties": {
        "id": 1883177352,
        "osm_type": "node",
        "access": "customers",
        "fee": "no",
        "seasonal": "yes"
      }
    },
    {
      "type": "Feature",
      "geometry": {
        "type": "Point",
        "coordinates": [
          17.1003179,
          48.1295346
        ]
      },
      "properties": {
        "id": 1948099536,
        "osm_type": "node"
      }
    },
    {
      "type": "Feature",
      "geometry": {
        "type": "Point",
        "coordinates": [
          17.0996432,
          48.127685
        ]
      },
      "properties": {
        "id": 1965902132,
        "osm_type": "node"
      }
    },
    {
      "type": "Feature",
      "geometry": {
        "type": "Point",
        "coordinates": [
          16.971096,
          48.2016401
        ]
      },
      "properties": {
        "id": 2261910950,
        "osm_type": "node",
        "opening_hours": "off \"out of order\""
      }
    },
    {
      "type": "Feature",
      "geometry": {
        "type": "Point",
        "coordinates": [
          17.1074064,
          48.1590688
        ]
      },
      "properties": {
        "id": 2467572760,
        "osm_type": "node"
      }
    },
    {
      "type": "Feature",
      "geometry": {
        "type": "Point",
        "coordinates": [
          17.1075256,
          48.158791
        ]
      },
      "properties": {
        "id": 2624763876,
        "osm_type": "node"
      }
    },
    {
      "type": "Feature",
      "geometry": {
        "type": "Point",
        "coordinates": [
          17.10568,
          48.15953
        ]
      },
      "properties": {
        "id": 2624763879,
        "osm_type": "node"
      }
    },
    {
      "type": "Feature",
      "geometry": {
        "type": "Point",
        "coordinates": [
          17.1059992,
          48.1595362
        ]
      },
      "properties": {
        "id": 2624763880,
        "osm_type": "node"
      }
    },
    {
      "type": "Feature",
      "geometry": {
        "type": "Point",
        "coordinates": [
          17.4457204,
          48.308938
        ]
      },
      "properties": {
        "id": 2908243698,
        "osm_type": "node"
      }
    },
    {
      "type": "Feature",
      "geometry": {
        "type": "Point",
        "coordinates": [
          17.0620798,
          48.1469411
        ]
      },
      "properties": {
        "id": 3163638913,
        "osm_type": "node"
      }
    },
    {
      "type": "Feature",
      "geometry": {
        "type": "Point",
        "coordinates": [
          17.0618469,
          48.1469465
        ]
      },
      "properties": {
        "id": 3163638915,
        "osm_type": "node"
      }
    },
    {
      "type": "Feature",
      "geometry": {
        "type": "Point",
        "coordinates": [
          17.2740497,
          48.1677278
        ]
      },
      "properties": {
        "id": 3190976369,
        "osm_type": "node"
      }
    },
    {
      "type": "Feature",
      "geometry": {
        "type": "Point",
        "coordinates": [
          17.1113799,
          48.145824
        ]
      },
      "properties": {
        "id": 3418329338,
        "osm_type": "node"
      }
    },
    {
      "type": "Feature",
      "geometry": {
        "type": "Point",
        "coordinates": [
          17.1064182,
          48.1410694
        ]
      },
      "properties": {
        "id": 3638766847,
        "osm_type": "node",
        "access": "yes",
        "fee": "no",
        "indoor": "no"
      }
    },
    {
      "type": "Feature",
      "geometry": {
        "type": "Point",
        "coordinates": [
          17.1017938,
          48.1414645
        ]
      },
      "properties": {
        "id": 3725144965,
        "osm_type": "node"
      }
    },
    {
      "type": "Feature",
      "geometry": {
        "type": "Point",
        "coordinates": [
          17.1313011,
          48.1639737
        ]
      },
      "properties": {
        "id": 3764151613,
        "osm_type": "node"
      }
    },
    {
      "type": "Feature",
      "geometry": {
        "type": "Point",
        "coordinates": [
          17.1300012,
          48.1641584
        ]
      },
      "properties": {
        "id": 3764151622,
        "osm_type": "node"
      }
    },
    {
      "type": "Feature",
      "geometry": {
        "type": "Point",
        "coordinates": [
          17.1349385,
          48.1605185
        ]
      },
      "properties": {
        "id": 4289414684,
        "osm_type": "node"
      }
    },
    {
      "type": "Feature",
      "geometry": {
        "type": "Point",
        "coordinates": [
          17.1348264,
          48.1606436
        ]
      },
      "properties": {
        "id": 4289414685,
        "osm_type": "node"
      }
    },
    {
      "type": "Feature",
      "geometry": {
        "type": "Point",
        "coordinates": [
          17.3347097,
          48.3891947
        ]
      },
      "properties": {
        "id": 4372061189,
        "osm_type": "node"
      }
    },
    {
      "type": "Feature",
      "geometry": {
        "type": "Point",
        "coordinates": [
          17.1425092,
          48.1714572
        ]
      },
      "properties": {
        "id": 4377918820,
        "osm_type": "node"
      }
    },
    {
      "type": "Feature",
      "geometry": {
        "type": "Point",
        "coordinates": [
          17.0999495,
          48.0875175
        ]
      },
      "properties": {
        "id": 4819589621,
        "osm_type": "node",
        "operator": "OMV Slovensko"
      }
    },
    {
      "type": "Feature",
      "geometry": {
        "type": "Point",
        "coordinates": [
          17.1100623,
          48.143471
        ]
      },
      "properties": {
        "id": 5258289580,
        "osm_type": "node"
      }
    },
    {
      "type": "Feature",
      "geometry": {
        "type": "Point",
        "coordinates": [
          17.1086158,
          48.1435124
        ]
      },
      "properties": {
        "id": 5876584449,
        "osm_type": "node"
      }
    },
    {
      "type": "Feature",
      "geometry": {
        "type": "Point",
        "coordinates": [
          17.1092202,
          48.1397191
        ]
      },
      "properties": {
        "id": 5898778486,
        "osm_type": "node",
        "access": "yes",
        "fee": "no",
        "indoor": "no"
      }
    },
    {
      "type": "Feature",
      "geometry": {
        "type": "Point",
        "coordinates": [
          17.1339919,
          48.1460961
        ]
      },
      "properties": {
        "id": 5906701332,
        "osm_type": "node"
      }
    },
    {
      "type": "Feature",
      "geometry": {
        "type": "Point",
        "coordinates": [
          17.1198099,
          48.1502706
        ]
      },
      "properties": {
        "id": 5917052188,
        "osm_type": "node",
        "fee": "no",
        "operator": "BVS"
      }
    },
    {
      "type": "Feature",
      "geometry": {
        "type": "Point",
        "coordinates": [
          17.1155171,
          48.1430434
        ]
      },
      "properties": {
        "id": 6041897785,
        "osm_type": "node",
        "access": "yes",
        "fee": "no",
        "indoor": "no"
      }
    },
    {
      "type": "Feature",
      "geometry": {
        "type": "Point",
        "coordinates": [
          17.1156422,
          48.1424594
        ]
      },
      "properties": {
        "id": 6041897801,
        "osm_type": "node",
        "access": "yes",
        "fee": "no",
        "indoor": "no"
      }
    },
    {
      "type": "Feature",
      "geometry": {
        "type": "Point",
        "coordinates": [
          17.0992354,
          48.1115271
        ]
      },
      "properties": {
        "id": 6312780033,
        "osm_type": "node"
      }
    },
    {
      "type": "Feature",
      "geometry": {
        "type": "Point",
        "coordinates": [
          17.0614229,
          48.1469068
        ]
      },
      "properties": {
        "id": 6434724293,
        "osm_type": "node",
        "access": "yes",
        "fee": "no",
        "operator": "BVS, a.s."
      }
    },
    {
      "type": "Feature",
      "geometry": {
        "type": "Point",
        "coordinates": [
          17.0608972,
          48.1469077
        ]
      },
      "properties": {
        "id": 6434724294,
        "osm_type": "node"
      }
    },
    {
      "type": "Feature",
      "geometry": {
        "type": "Point",
        "coordinates": [
          17.0600258,
          48.1468688
        ]
      },
      "properties": {
        "id": 6434724296,
        "osm_type": "node"
      }
    },
    {
      "type": "Feature",
      "geometry": {
        "type": "Point",
        "coordinates": [
          17.1070158,
          48.1584631
        ]
      },
      "properties": {
        "id": 6694390798,
        "osm_type": "node",
        "indoor": "no"
      }
    },
    {
      "type": "Feature",
      "geometry": {
        "type": "Point",
        "coordinates": [
          17.1023533,
          48.1433132
        ]
      },
      "properties": {
        "id": 6747088585,
        "osm_type": "node"
      }
    },
    {
      "type": "Feature",
      "geometry": {
        "type": "Point",
        "coordinates": [
          17.3987294,
          48.2203992
        ]
      },
      "properties": {
        "id": 6764473228,
        "osm_type": "node"
      }
    },
    {
      "type": "Feature",
      "geometry": {
        "type": "Point",
        "coordinates": [
          17.1242128,
          48.1493666
        ]
      },
      "properties": {
        "id": 7209541023,
        "osm_type": "node"
      }
    },
    {
      "type": "Feature",
      "geometry": {
        "type": "Point",
        "coordinates": [
          17.141001,
          48.1707562
        ]
      },
      "properties": {
        "id": 7819802856,
        "osm_type": "node"
      }
    },
    {
      "type": "Feature",
      "geometry": {
        "type": "Point",
        "coordinates": [
          17.14187,
          48.1695485
        ]
      },
      "properties": {
        "id": 7823953627,
        "osm_type": "node"
      }
    },
    {
      "type": "Feature",
      "geometry": {
        "type": "Point",
        "coordinates": [
          17.269262,
          48.2861029
        ]
      },
      "properties": {
        "id": 7968574287,
        "osm_type": "node",
        "name": "Fontána"
      }
    },
    {
      "type": "Feature",
      "geometry": {
        "type": "Point",
        "coordinates": [
          16.9752926,
          48.3632625
        ]
      },
      "properties": {
        "id": 8266511779,
        "osm_type": "node"
      }
    },
    {
      "type": "Feature",
      "geometry": {
        "type": "Point",
        "coordinates": [
          16.9918628,
          48.503301
        ]
      },
      "properties": {
        "id": 8266663658,
        "osm_type": "node"
      }
    },
    {
      "type": "Feature",
      "geometry": {
        "type": "Point",
        "coordinates": [
          16.9836645,
          48.3139678
        ]
      },
      "properties": {
        "id": 8315388498,
        "osm_type": "node"
      }
    },
    {
      "type": "Feature",
      "geometry": {
        "type": "Point",
        "coordinates": [
          17.1415569,
          48.054547
        ]
      },
      "properties": {
        "id": 8348779657,
        "osm_type": "node",
        "indoor": "yes"
      }
    },
    {
      "type": "Feature",
      "geometry": {
        "type": "Point",
        "coordinates": [
          17.1663402,
          48.1659146
        ]
      },
      "properties": {
        "id": 8481229319,
        "osm_type": "node"
      }
    },
    {
      "type": "Feature",
      "geometry": {
        "type": "Point",
        "coordinates": [
          17.0386235,
          48.2414423
        ]
      },
      "properties": {
        "id": 8691471888,
        "osm_type": "node"
      }
    },
    {
      "type": "Feature",
      "geometry": {
        "type": "Point",
        "coordinates": [
          17.1580046,
          48.1567507
        ]
      },
      "properties": {
        "id": 8761468919,
        "osm_type": "node"
      }
    },
    {
      "type": "Feature",
      "geometry": {
        "type": "Point",
        "coordinates": [
          17.1566477,
          48.1566668
        ]
      },
      "properties": {
        "id": 8761468920,
        "osm_type": "node"
      }
    },
    {
      "type": "Feature",
      "geometry": {
        "type": "Point",
        "coordinates": [
          17.1506862,
          48.1595253
        ]
      },
      "properties": {
        "id": 8846165213,
        "osm_type": "node",
        "indoor": "no"
      }
    },
    {
      "type": "Feature",
      "geometry": {
        "type": "Point",
        "coordinates": [
          17.2072117,
          48.2061492
        ]
      },
      "properties": {
        "id": 8896049032,
        "osm_type": "node"
      }
    },
    {
      "type": "Feature",
      "geometry": {
        "type": "Point",
        "coordinates": [
          17.0336808,
          48.1889285
        ]
      },
      "properties": {
        "id": 8983608791,
        "osm_type": "node",
        "access": "yes",
        "operator": "Mesto Bratislava"
      }
    },
    {
      "type": "Feature",
      "geometry": {
        "type": "Point",
        "coordinates": [
          17.0326365,
          48.1887535
        ]
      },
      "properties": {
        "id": 8985233748,
        "osm_type": "node",
        "access": "yes",
        "operator": "Mesto Bratislava"
      }
    },
    {
      "type": "Feature",
      "geometry": {
        "type": "Point",
        "coordinates": [
          17.052747,
          48.1637367
        ]
      },
      "properties": {
        "id": 8985273739,
        "osm_type": "node",
        "access": "yes",
        "fee": "no"
      }
    },
    {
      "type": "Feature",
      "geometry": {
        "type": "Point",
        "coordinates": [
          17.2043753,
          48.2073196
        ]
      },
      "properties": {
        "id": 9002304156,
        "osm_type": "node"
      }
    },
    {
      "type": "Feature",
      "geometry": {
        "type": "Point",
        "coordinates": [
          17.1379168,
          48.3684955
        ]
      },
      "properties": {
        "id": 9382358455,
        "osm_type": "node",
        "access": "yes",
        "fee": "no"
      }
    },
    {
      "type": "Feature",
      "geometry": {
        "type": "Point",
        "coordinates": [
          17.1528366,
          48.1545802
        ]
      },
      "properties": {
        "id": 9420880515,
        "osm_type": "node"
      }
    },
    {
      "type": "Feature",
      "geometry": {
        "type": "Point",
        "coordinates": [
          17.1023283,
          48.1412537
        ]
      },
      "properties": {
        "id": 9786533214,
        "osm_type": "node"
      }
    },
    {
      "type": "Feature",
      "geometry": {
        "type": "Point",
        "coordinates": [
          17.1618053,
          48.1568401
        ]
      },
      "properties": {
        "id": 9804920582,
        "osm_type": "node"
      }
    },
    {
      "type": "Feature",
      "geometry": {
        "type": "Point",
        "coordinates": [
          17.2064486,
          48.1409564
        ]
      },
      "properties": {
        "id": 9831726576,
        "osm_type": "node",
        "access": "customers"
      }
    },
    {
      "type": "Feature",
      "geometry": {
        "type": "Point",
        "coordinates": [
          17.0406226,
          48.1823822
        ]
      },
      "properties": {
        "id": 9901169335,
        "osm_type": "node",
        "access": "yes",
        "fee": "no"
      }
    },
    {
      "type": "Feature",
      "geometry": {
        "type": "Point",
        "coordinates": [
          17.108594,
          48.1333316
        ]
      },
      "properties": {
        "id": 9931891177,
        "osm_type": "node",
        "fee": "no",
        "operator": "BVS"
      }
    },
    {
      "type": "Feature",
      "geometry": {
        "type": "Point",
        "coordinates": [
          17.1070966,
          48.1351019
        ]
      },
      "properties": {
        "id": 9932525624,
        "osm_type": "node",
        "fee": "no",
        "operator": "BVS"
      }
    },
    {
      "type": "Feature",
      "geometry": {
        "type": "Point",
        "coordinates": [
          17.1077251,
          48.1349259
        ]
      },
      "properties": {
        "id": 9932525625,
        "osm_type": "node",
        "fee": "no",
        "operator": "BVS"
      }
    },
    {
      "type": "Feature",
      "geometry": {
        "type": "Point",
        "coordinates": [
          17.1090578,
          48.135075
        ]
      },
      "properties": {
        "id": 9932525626,
        "osm_type": "node",
        "fee": "no",
        "operator": "BVS"
      }
    },
    {
      "type": "Feature",
      "geometry": {
        "type": "Point",
        "coordinates": [
          17.2995186,
          48.1036059
        ]
      },
      "properties": {
        "id": 10223667051,
        "osm_type": "node"
      }
    },
    {
      "type": "Feature",
      "geometry": {
        "type": "Point",
        "coordinates": [
          17.3104365,
          48.3356346
        ]
      },
      "properties": {
        "id": 10297106222,
        "osm_type": "node"
      }
    },
    {
      "type": "Feature",
      "geometry": {
        "type": "Point",
        "coordinates": [
          17.314512,
          48.0865305
        ]
      },
      "properties": {
        "id": 10302792676,
        "osm_type": "node",
        "access": "customers",
        "fee": "no"
      }
    },
    {
      "type": "Feature",
      "geometry": {
        "type": "Point",
        "coordinates": [
          17.1209615,
          48.1642333
        ]
      },
      "properties": {
        "id": 10984576243,
        "osm_type": "node",
        "access": "yes",
        "fee": "no",
        "operator": "BVS"
      }
    },
    {
      "type": "Feature",
      "geometry": {
        "type": "Point",
        "coordinates": [
          17.0286768,
          48.1945
        ]
      },
      "properties": {
        "id": 11014028843,
        "osm_type": "node"
      }
    },
    {
      "type": "Feature",
      "geometry": {
        "type": "Point",
        "coordinates": [
          17.036985,
          48.1801833
        ]
      },
      "properties": {
        "id": 11014045302,
        "osm_type": "node"
      }
    },
    {
      "type": "Feature",
      "geometry": {
        "type": "Point",
        "coordinates": [
          17.0428901,
          48.1890588
        ]
      },
      "properties": {
        "id": 11014045303,
        "osm_type": "node"
      }
    },
    {
      "type": "Feature",
      "geometry": {
        "type": "Point",
        "coordinates": [
          17.2770977,
          48.3802579
        ]
      },
      "properties": {
        "id": 11081570563,
        "osm_type": "node",
        "operator": "Bratislavská vodárenská spoločnosť"
      }
    },
    {
      "type": "Feature",
      "geometry": {
        "type": "Point",
        "coordinates": [
          17.1252601,
          48.153372
        ]
      },
      "properties": {
        "id": 11112183985,
        "osm_type": "node",
        "seasonal": "spring;summer"
      }
    },
    {
      "type": "Feature",
      "geometry": {
        "type": "Point",
        "coordinates": [
          17.0923723,
          48.1407434
        ]
      },
      "properties": {
        "id": 11115777199,
        "osm_type": "node"
      }
    },
    {
      "type": "Feature",
      "geometry": {
        "type": "Point",
        "coordinates": [
          17.1113639,
          48.1522716
        ]
      },
      "properties": {
        "id": 11134369515,
        "osm_type": "node",
        "access": "yes",
        "fee": "no",
        "indoor": "no"
      }
    },
    {
      "type": "Feature",
      "geometry": {
        "type": "Point",
        "coordinates": [
          17.0574703,
          48.1521746
        ]
      },
      "properties": {
        "id": 11196222080,
        "osm_type": "node"
      }
    },
    {
      "type": "Feature",
      "geometry": {
        "type": "Point",
        "coordinates": [
          17.1089627,
          48.1448805
        ]
      },
      "properties": {
        "id": 11229503157,
        "osm_type": "node"
      }
    },
    {
      "type": "Feature",
      "geometry": {
        "type": "Point",
        "coordinates": [
          17.2562456,
          48.1886365
        ]
      },
      "properties": {
        "id": 11332537569,
        "osm_type": "node"
      }
    },
    {
      "type": "Feature",
      "geometry": {
        "type": "Point",
        "coordinates": [
          17.1292962,
          48.1469198
        ]
      },
      "properties": {
        "id": 11561497716,
        "osm_type": "node"
      }
    },
    {
      "type": "Feature",
      "geometry": {
        "type": "Point",
        "coordinates": [
          17.0626079,
          48.1510712
        ]
      },
      "properties": {
        "id": 11642943279,
        "osm_type": "node",
        "access": "yes",
        "fee": "no"
      }
    },
    {
      "type": "Feature",
      "geometry": {
        "type": "Point",
        "coordinates": [
          17.1019425,
          48.1424844
        ]
      },
      "properties": {
        "id": 11780474132,
        "osm_type": "node"
      }
    },
    {
      "type": "Feature",
      "geometry": {
        "type": "Point",
        "coordinates": [
          17.3188352,
          48.5037867
        ]
      },
      "properties": {
        "id": 11793822664,
        "osm_type": "node"
      }
    },
    {
      "type": "Feature",
      "geometry": {
        "type": "Point",
        "coordinates": [
          17.3958392,
          48.3363231
        ]
      },
      "properties": {
        "id": 11834819912,
        "osm_type": "node"
      }
    },
    {
      "type": "Feature",
      "geometry": {
        "type": "Point",
        "coordinates": [
          17.1046299,
          48.1243305
        ]
      },
      "properties": {
        "id": 11945782653,
        "osm_type": "node"
      }
    },
    {
      "type": "Feature",
      "geometry": {
        "type": "Point",
        "coordinates": [
          17.0523765,
          48.1592934
        ]
      },
      "properties": {
        "id": 11959289428,
        "osm_type": "node"
      }
    },
    {
      "type": "Feature",
      "geometry": {
        "type": "Point",
        "coordinates": [
          17.2214056,
          48.2511629
        ]
      },
      "properties": {
        "id": 12092083264,
        "osm_type": "node"
      }
    },
    {
      "type": "Feature",
      "geometry": {
        "type": "Point",
        "coordinates": [
          17.1082081,
          48.1326769
        ]
      },
      "properties": {
        "id": 12150003121,
        "osm_type": "node",
        "access": "yes",
        "fee": "no",
        "indoor": "yes"
      }
    },
    {
      "type": "Feature",
      "geometry": {
        "type": "Point",
        "coordinates": [
          17.0516896,
          48.1951968
        ]
      },
      "properties": {
        "id": 12183614395,
        "osm_type": "node",
        "access": "yes",
        "fee": "no"
      }
    },
    {
      "type": "Feature",
      "geometry": {
        "type": "Point",
        "coordinates": [
          17.1020281,
          48.1171128
        ]
      },
      "properties": {
        "id": 12231229234,
        "osm_type": "node"
      }
    },
    {
      "type": "Feature",
      "geometry": {
        "type": "Point",
        "coordinates": [
          17.0957124,
          48.1298336
        ]
      },
      "properties": {
        "id": 12249064367,
        "osm_type": "node",
        "operator": "MČ Bratislava-Petržalka"
      }
    },
    {
      "type": "Feature",
      "geometry": {
        "type": "Point",
        "coordinates": [
          17.124077,
          48.1604546
        ]
      },
      "properties": {
        "id": 12309645859,
        "osm_type": "node"
      }
    },
    {
      "type": "Feature",
      "geometry": {
        "type": "Point",
        "coordinates": [
          17.1246369,
          48.1611255
        ]
      },
      "properties": {
        "id": 12871651488,
        "osm_type": "node"
      }
    },
    {
      "type": "Feature",
      "geometry": {
        "type": "Point",
        "coordinates": [
          17.1255358,
          48.16204
        ]
      },
      "properties": {
        "id": 12874157161,
        "osm_type": "node"
      }
    },
    {
      "type": "Feature",
      "geometry": {
        "type": "Point",
        "coordinates": [
          17.1256045,
          48.1621538
        ]
      },
      "properties": {
        "id": 12874157163,
        "osm_type": "node"
      }
    },
    {
      "type": "Feature",
      "geometry": {
        "type": "Point",
        "coordinates": [
          17.1255951,
          48.1621578
        ]
      },
      "properties": {
        "id": 12874157164,
        "osm_type": "node"
      }
    },
    {
      "type": "Feature",
      "geometry": {
        "type": "Point",
        "coordinates": [
          17.0498167,
          48.195322
        ]
      },
      "properties": {
        "id": 12891761378,
        "osm_type": "node",
        "access": "yes",
        "fee": "no"
      }
    },
    {
      "type": "Feature",
      "geometry": {
        "type": "Point",
        "coordinates": [
          17.0381862,
          48.239146
        ]
      },
      "properties": {
        "id": 13061740767,
        "osm_type": "node",
        "name": "Picia fontánka s plastikou vtáčika",
        "access": "yes",
        "fee": "no"
      }
    },
    {
      "type": "Feature",
      "geometry": {
        "type": "Point",
        "coordinates": [
          17.1229075,
          48.1227267
        ]
      },
      "properties": {
        "id": 13061854625,
        "osm_type": "node",
        "access": "yes"
      }
    },
    {
      "type": "Feature",
      "geometry": {
        "type": "Point",
        "coordinates": [
          17.2694586,
          48.286124
        ]
      },
      "properties": {
        "id": 13120698268,
        "osm_type": "node"
      }
    },
    {
      "type": "Feature",
      "geometry": {
        "type": "Point",
        "coordinates": [
          17.2682156,
          48.2900204
        ]
      },
      "properties": {
        "id": 13120698284,
        "osm_type": "node"
      }
    },
    {
      "type": "Feature",
      "geometry": {
        "type": "Point",
        "coordinates": [
          17.2674007,
          48.2908558
        ]
      },
      "properties": {
        "id": 13120727924,
        "osm_type": "node"
      }
    },
    {
      "type": "Feature",
      "geometry": {
        "type": "Point",
        "coordinates": [
          16.9724625,
          48.2068681
        ]
      },
      "properties": {
        "id": 13142519894,
        "osm_type": "node"
      }
    },
    {
      "type": "Feature",
      "geometry": {
        "type": "Point",
        "coordinates": [
          17.0201148,
          48.2093078
        ]
      },
      "properties": {
        "id": 13146494843,
        "osm_type": "node",
        "access": "yes",
        "fee": "no"
      }
    },
    {
      "type": "Feature",
      "geometry": {
        "type": "Point",
        "coordinates": [
          17.032418,
          48.4215524
        ]
      },
      "properties": {
        "id": 13171658512,
        "osm_type": "node",
        "fee": "no"
      }
    },
    {
      "type": "Feature",
      "geometry": {
        "type": "Point",
        "coordinates": [
          17.1981154,
          48.1457364
        ]
      },
      "properties": {
        "id": 13432590189,
        "osm_type": "node",
        "fee": "no"
      }
    },
    {
      "type": "Feature",
      "geometry": {
        "type": "Point",
        "coordinates": [
          17.2053823,
          48.2063219
        ]
      },
      "properties": {
        "id": 13442475979,
        "osm_type": "node",
        "fee": "no"
      }
    },
    {
      "type": "Feature",
      "geometry": {
        "type": "Point",
        "coordinates": [
          17.1081054,
          48.1505728
        ]
      },
      "properties": {
        "id": 13568242197,
        "osm_type": "node"
      }
    },
    {
      "type": "Feature",
      "geometry": {
        "type": "Point",
        "coordinates": [
          17.1048667,
          48.1355674
        ]
      },
      "properties": {
        "id": 13625797348,
        "osm_type": "node"
      }
    },
    {
      "type": "Feature",
      "geometry": {
        "type": "Point",
        "coordinates": [
          17.1208405,
          48.1496623
        ]
      },
      "properties": {
        "id": 13663657040,
        "osm_type": "node"
      }
    },
    {
      "type": "Feature",
      "geometry": {
        "type": "Point",
        "coordinates": [
          17.1149169,
          48.0917521
        ]
      },
      "properties": {
        "id": 13691956626,
        "osm_type": "node",
        "seasonal": "yes"
      }
    }
  ]
}