{
  "type": "FeatureCollection",
  "features": [
    {
      "type": "Feature",
      "geometry": {
        "type": "Point",
        "coordinates": [
          17.3400172,
          48.2999868
        ]
      },
      "properties": {
        "id": 26464506,
        "osm_type": "node",
        "name": "Jurki",
        "brand": "Jurki",
        "opening_hours": "24/7"
      }
    },
    {
      "type": "Feature",
      "geometry": {
        "type": "Point",
        "coordinates": [
          17.4143383,
          48.3537489
        ]
      },
      "properties": {
        "id": 26467256,
        "osm_type": "node",
        "name": "Avanti",
        "brand": "Avanti",
        "opening_hours": "24/7"
      }
    },
    {
      "type": "Feature",
      "geometry": {
        "type": "Point",
        "coordinates": [
          17.2751615,
          48.2926073
        ]
      },
      "properties": {
        "id": 26467258,
        "osm_type": "node",
        "name": "MATP"
      }
    },
    {
      "type": "Feature",
      "geometry": {
        "type": "Point",
        "coordinates": [
          17.1910339,
          48.1766036
        ]
      },
      "properties": {
        "id": 26512087,
        "osm_type": "node",
        "name": "OMV",
        "brand": "OMV",
        "opening_hours": "24/7"
      }
    },
    {
      "type": "Feature",
      "geometry": {
        "type": "Point",
        "coordinates": [
          17.356585,
          48.3987336
        ]
      },
      "properties": {
        "id": 26622556,
        "osm_type": "node",
        "name": "Avanti",
        "brand": "Avanti",
        "opening_hours": "24/7"
      }
    },
    {
      "type": "Feature",
      "geometry": {
        "type": "Point",
        "coordinates": [
          17.2548802,
          48.2763052
        ]
      },
      "properties": {
        "id": 26795584,
        "osm_type": "node",
        "name": "OMV",
        "brand": "OMV",
        "opening_hours": "24/7"
      }
    },
    {
      "type": "Feature",
      "geometry": {
        "type": "Point",
        "coordinates": [
          17.223568,
          48.2877471
        ]
      },
      "properties": {
        "id": 27002996,
        "osm_type": "node",
        "name": "Jurki",
        "brand": "Jurki",
        "opening_hours": "24/7"
      }
    },
    {
      "type": "Feature",
      "geometry": {
        "type": "Point",
        "coordinates": [
          17.1596557,
          48.1614055
        ]
      },
      "properties": {
        "id": 27069180,
        "osm_type": "node",
        "name": "Shell",
        "brand": "Shell"
      }
    },
    {
      "type": "Feature",
      "geometry": {
        "type": "Point",
        "coordinates": [
          17.1623456,
          48.1736657
        ]
      },
      "properties": {
        "id": 32591773,
        "osm_type": "node",
        "name": "OMV",
        "brand": "OMV",
        "opening_hours": "24/7"
      }
    },
    {
      "type": "Feature",
      "geometry": {
        "type": "Point",
        "coordinates": [
          17.2444885,
          48.1936463
        ]
      },
      "properties": {
        "id": 32626520,
        "osm_type": "node",
        "name": "Metro",
        "brand": "METRO",
        "opening_hours": "Mo-Sa 06:00-22:00; Su 07:00-22:00"
      }
    },
    {
      "type": "Feature",
      "geometry": {
        "type": "Point",
        "coordinates": [
          17.1338357,
          48.1583584
        ]
      },
      "properties": {
        "id": 32626754,
        "osm_type": "node",
        "name": "OMV",
        "brand": "OMV",
        "opening_hours": "24/7"
      }
    },
    {
      "type": "Feature",
      "geometry": {
        "type": "Point",
        "coordinates": [
          17.1354078,
          48.1455808
        ]
      },
      "properties": {
        "id": 34149118,
        "osm_type": "node",
        "name": "Orlen",
        "brand": "Orlen",
        "opening_hours": "Mo-Su 06:00-20:00"
      }
    },
    {
      "type": "Feature",
      "geometry": {
        "type": "Point",
        "coordinates": [
          17.2060813,
          48.1886947
        ]
      },
      "properties": {
        "id": 34149121,
        "osm_type": "node",
        "name": "Slovnaft",
        "brand": "Slovnaft"
      }
    },
    {
      "type": "Feature",
      "geometry": {
        "type": "Point",
        "coordinates": [
          17.0953742,
          48.1311884
        ]
      },
      "properties": {
        "id": 34149138,
        "osm_type": "node",
        "name": "Slovnaft",
        "brand": "Slovnaft",
        "opening_hours": "Mo-Su 06:00-22:00"
      }
    },
    {
      "type": "Feature",
      "geometry": {
        "type": "Point",
        "coordinates": [
          17.1943849,
          48.1291971
        ]
      },
      "properties": {
        "id": 34149146,
        "osm_type": "node",
        "name": "Slovnaft",
        "brand": "Slovnaft"
      }
    },
    {
      "type": "Feature",
      "geometry": {
        "type": "Point",
        "coordinates": [
          17.1456236,
          48.1966688
        ]
      },
      "properties": {
        "id": 34149148,
        "osm_type": "node",
        "name": "RealK",
        "opening_hours": "Mo-Fr 06:00-23:00; Sa,Su 07:00-22:00"
      }
    },
    {
      "type": "Feature",
      "geometry": {
        "type": "Point",
        "coordinates": [
          17.1379753,
          48.1647506
        ]
      },
      "properties": {
        "id": 34149150,
        "osm_type": "node",
        "name": "Slovnaft",
        "brand": "Slovnaft",
        "opening_hours": "Mo-Su 06:00-22:00"
      }
    },
    {
      "type": "Feature",
      "geometry": {
        "type": "Point",
        "coordinates": [
          17.16641,
          48.1836305
        ]
      },
      "properties": {
        "id": 34149152,
        "osm_type": "node",
        "name": "ORLEN",
        "brand": "ORLEN"
      }
    },
    {
      "type": "Feature",
      "geometry": {
        "type": "Point",
        "coordinates": [
          17.1977588,
          48.1903871
        ]
      },
      "properties": {
        "id": 34149154,
        "osm_type": "node",
        "name": "Slovnaft",
        "brand": "Slovnaft"
      }
    },
    {
      "type": "Feature",
      "geometry": {
        "type": "Point",
        "coordinates": [
          17.2085503,
          48.1317579
        ]
      },
      "properties": {
        "id": 34149194,
        "osm_type": "node",
        "name": "Slovnaft",
        "brand": "Slovnaft"
      }
    },
    {
      "type": "Feature",
      "geometry": {
        "type": "Point",
        "coordinates": [
          17.1226323,
          48.1061642
        ]
      },
      "properties": {
        "id": 34149279,
        "osm_type": "node",
        "brand": "ORLEN",
        "opening_hours": "Mo-Su 06:00-22:00"
      }
    },
    {
      "type": "Feature",
      "geometry": {
        "type": "Point",
        "coordinates": [
          17.0443535,
          48.1785129
        ]
      },
      "properties": {
        "id": 34149284,
        "osm_type": "node",
        "name": "Slovnaft",
        "brand": "Slovnaft",
        "opening_hours": "Mo-Su,PH 06:00-22:00"
      }
    },
    {
      "type": "Feature",
      "geometry": {
        "type": "Point",
        "coordinates": [
          17.1186938,
          48.1515158
        ]
      },
      "properties": {
        "id": 34149287,
        "osm_type": "node",
        "name": "Orlen",
        "brand": "Orlen",
        "opening_hours": "Mo-Su 06:00-18:00"
      }
    },
    {
      "type": "Feature",
      "geometry": {
        "type": "Point",
        "coordinates": [
          17.1239158,
          48.1063762
        ]
      },
      "properties": {
        "id": 34149296,
        "osm_type": "node",
        "name": "Slovnaft",
        "brand": "Slovnaft"
      }
    },
    {
      "type": "Feature",
      "geometry": {
        "type": "Point",
        "coordinates": [
          17.0322589,
          48.4311189
        ]
      },
      "properties": {
        "id": 34149428,
        "osm_type": "node",
        "name": "Slovnaft",
        "brand": "Slovnaft",
        "opening_hours": "Mo-Su 06:00-22:00"
      }
    },
    {
      "type": "Feature",
      "geometry": {
        "type": "Point",
        "coordinates": [
          17.3029023,
          48.3258003
        ]
      },
      "properties": {
        "id": 34149446,
        "osm_type": "node",
        "name": "Slovnaft",
        "brand": "Slovnaft",
        "opening_hours": "Mo-Su 06:00-21:00"
      }
    },
    {
      "type": "Feature",
      "geometry": {
        "type": "Point",
        "coordinates": [
          17.256363,
          48.2765547
        ]
      },
      "properties": {
        "id": 34149474,
        "osm_type": "node",
        "name": "Slovnaft",
        "brand": "Slovnaft"
      }
    },
    {
      "type": "Feature",
      "geometry": {
        "type": "Point",
        "coordinates": [
          17.382602,
          48.213462
        ]
      },
      "properties": {
        "id": 34149499,
        "osm_type": "node",
        "name": "Slovnaft",
        "brand": "Slovnaft",
        "opening_hours": "Mo-Su 06:00-22:00"
      }
    },
    {
      "type": "Feature",
      "geometry": {
        "type": "Point",
        "coordinates": [
          17.1782251,
          48.1505974
        ]
      },
      "properties": {
        "id": 51245779,
        "osm_type": "node",
        "name": "OMV",
        "brand": "OMV",
        "opening_hours": "24/7"
      }
    },
    {
      "type": "Feature",
      "geometry": {
        "type": "Point",
        "coordinates": [
          17.1709044,
          48.1811261
        ]
      },
      "properties": {
        "id": 59978818,
        "osm_type": "node",
        "name": "OMV",
        "brand": "OMV",
        "opening_hours": "24/7"
      }
    },
    {
      "type": "Feature",
      "geometry": {
        "type": "Point",
        "coordinates": [
          17.1933589,
          48.1403264
        ]
      },
      "properties": {
        "id": 83388200,
        "osm_type": "node",
        "name": "Shell",
        "brand": "Shell",
        "opening_hours": "24/7"
      }
    },
    {
      "type": "Feature",
      "geometry": {
        "type": "Point",
        "coordinates": [
          17.1000242,
          48.0861266
        ]
      },
      "properties": {
        "id": 130811914,
        "osm_type": "node",
        "name": "OMV Jarovce - diaľnica D2 (smer BA)",
        "brand": "ÖMV",
        "opening_hours": "24/7"
      }
    },
    {
      "type": "Feature",
      "geometry": {
        "type": "Point",
        "coordinates": [
          17.264048,
          48.0818501
        ]
      },
      "properties": {
        "id": 202869164,
        "osm_type": "node",
        "name": "Slovnaft",
        "brand": "Slovnaft"
      }
    },
    {
      "type": "Feature",
      "geometry": {
        "type": "Point",
        "coordinates": [
          17.0303667,
          48.2560772
        ]
      },
      "properties": {
        "id": 204811355,
        "osm_type": "node",
        "name": "VOMS",
        "brand": "VOMS"
      }
    },
    {
      "type": "Feature",
      "geometry": {
        "type": "Point",
        "coordinates": [
          17.1940577,
          48.1374302
        ]
      },
      "properties": {
        "id": 243738169,
        "osm_type": "node",
        "name": "OMV",
        "brand": "OMV",
        "opening_hours": "24/7"
      }
    },
    {
      "type": "Feature",
      "geometry": {
        "type": "Point",
        "coordinates": [
          17.1556181,
          48.1365497
        ]
      },
      "properties": {
        "id": 245229311,
        "osm_type": "node",
        "name": "Slovnaft",
        "brand": "Slovnaft",
        "opening_hours": "24/7"
      }
    },
    {
      "type": "Feature",
      "geometry": {
        "type": "Point",
        "coordinates": [
          17.1208693,
          48.1316728
        ]
      },
      "properties": {
        "id": 245241018,
        "osm_type": "node",
        "name": "OMV",
        "brand": "OMV",
        "opening_hours": "24/7"
      }
    },
    {
      "type": "Feature",
      "geometry": {
        "type": "Point",
        "coordinates": [
          17.1950385,
          48.1290537
        ]
      },
      "properties": {
        "id": 248917502,
        "osm_type": "node",
        "name": "OMV",
        "brand": "OMV",
        "opening_hours": "24/7"
      }
    },
    {
      "type": "Feature",
      "geometry": {
        "type": "Point",
        "coordinates": [
          17.3183962,
          48.2008697
        ]
      },
      "properties": {
        "id": 260419915,
        "osm_type": "node",
        "name": "Slovnaft",
        "brand": "Slovnaft",
        "opening_hours": "Mo-Fr 06:00-22:00; Sa,Su 08:00-22:00"
      }
    },
    {
      "type": "Feature",
      "geometry": {
        "type": "Point",
        "coordinates": [
          17.0440892,
          48.1996157
        ]
      },
      "properties": {
        "id": 269728309,
        "osm_type": "node",
        "name": "TAM",
        "opening_hours": "24/7"
      }
    },
    {
      "type": "Feature",
      "geometry": {
        "type": "Point",
        "coordinates": [
          17.0396981,
          48.1830371
        ]
      },
      "properties": {
        "id": 271927033,
        "osm_type": "node",
        "name": "Slovnaft",
        "brand": "Slovnaft",
        "opening_hours": "Mo-Su 05:00-23:00"
      }
    },
    {
      "type": "Feature",
      "geometry": {
        "type": "Point",
        "coordinates": [
          17.0631804,
          48.1503461
        ]
      },
      "properties": {
        "id": 275521458,
        "osm_type": "node",
        "name": "Shell",
        "brand": "Shell",
        "opening_hours": "24/7"
      }
    },
    {
      "type": "Feature",
      "geometry": {
        "type": "Point",
        "coordinates": [
          17.0839387,
          48.1652098
        ]
      },
      "properties": {
        "id": 276522769,
        "osm_type": "node",
        "name": "OMV",
        "brand": "OMV",
        "opening_hours": "24/7"
      }
    },
    {
      "type": "Feature",
      "geometry": {
        "type": "Point",
        "coordinates": [
          17.2233661,
          48.4633124
        ]
      },
      "properties": {
        "id": 276599190,
        "osm_type": "node",
        "name": "RealK",
        "brand": "RealK",
        "opening_hours": "Su-Th 06:00-22:00; Fr-Sa 06:00-24:00"
      }
    },
    {
      "type": "Feature",
      "geometry": {
        "type": "Point",
        "coordinates": [
          17.0658877,
          48.1479997
        ]
      },
      "properties": {
        "id": 303577649,
        "osm_type": "node",
        "name": "Slovnaft",
        "brand": "Slovnaft",
        "opening_hours": "24/7"
      }
    },
    {
      "type": "Feature",
      "geometry": {
        "type": "Point",
        "coordinates": [
          16.9730395,
          48.3667101
        ]
      },
      "properties": {
        "id": 343824394,
        "osm_type": "node",
        "name": "Lúč"
      }
    },
    {
      "type": "Feature",
      "geometry": {
        "type": "Point",
        "coordinates": [
          17.1325453,
          48.116608
        ]
      },
      "properties": {
        "id": 344859254,
        "osm_type": "node",
        "name": "Slovnaft",
        "brand": "Slovnaft"
      }
    },
    {
      "type": "Feature",
      "geometry": {
        "type": "Point",
        "coordinates": [
          17.1791575,
          48.1598959
        ]
      },
      "properties": {
        "id": 408498700,
        "osm_type": "node",
        "name": "Slovnaft",
        "brand": "Slovnaft",
        "opening_hours": "24/7"
      }
    },
    {
      "type": "Feature",
      "geometry": {
        "type": "Point",
        "coordinates": [
          17.012184,
          48.4429611
        ]
      },
      "properties": {
        "id": 420076826,
        "osm_type": "node",
        "name": "Orlen",
        "brand": "Orlen",
        "opening_hours": "Mo-Su 05:00-23:00"
      }
    },
    {
      "type": "Feature",
      "geometry": {
        "type": "Point",
        "coordinates": [
          17.3585889,
          48.1877001
        ]
      },
      "properties": {
        "id": 463214085,
        "osm_type": "node",
        "name": "Jurki",
        "brand": "Jurki"
      }
    },
    {
      "type": "Feature",
      "geometry": {
        "type": "Point",
        "coordinates": [
          17.1694384,
          48.1417779
        ]
      },
      "properties": {
        "id": 481065195,
        "osm_type": "node",
        "name": "Jurki",
        "brand": "Jurki",
        "opening_hours": "Mo-Fr 07:00-19:00"
      }
    },
    {
      "type": "Feature",
      "geometry": {
        "type": "Point",
        "coordinates": [
          17.0767803,
          48.161176
        ]
      },
      "properties": {
        "id": 512074546,
        "osm_type": "node",
        "name": "OMV",
        "brand": "OMV",
        "opening_hours": "24/7"
      }
    },
    {
      "type": "Feature",
      "geometry": {
        "type": "Point",
        "coordinates": [
          17.1581468,
          48.14676
        ]
      },
      "properties": {
        "id": 582823938,
        "osm_type": "node",
        "name": "Jurki",
        "brand": "Jurki",
        "opening_hours": "Mo-Fr 07:00-19:00"
      }
    },
    {
      "type": "Feature",
      "geometry": {
        "type": "Point",
        "coordinates": [
          17.0931583,
          48.1097641
        ]
      },
      "properties": {
        "id": 583286576,
        "osm_type": "node",
        "name": "Jurki",
        "brand": "Jurki",
        "opening_hours": "24/7"
      }
    },
    {
      "type": "Feature",
      "geometry": {
        "type": "Point",
        "coordinates": [
          17.1463247,
          48.1403816
        ]
      },
      "properties": {
        "id": 711629831,
        "osm_type": "node",
        "name": "Jurki",
        "brand": "Jurki",
        "opening_hours": "24/7"
      }
    },
    {
      "type": "Feature",
      "geometry": {
        "type": "Point",
        "coordinates": [
          17.1090645,
          48.1310993
        ]
      },
      "properties": {
        "id": 731410514,
        "osm_type": "node",
        "name": "OMV",
        "brand": "OMV",
        "opening_hours": "24/7"
      }
    },
    {
      "type": "Feature",
      "geometry": {
        "type": "Point",
        "coordinates": [
          17.2114558,
          48.1460479
        ]
      },
      "properties": {
        "id": 747820719,
        "osm_type": "node",
        "name": "Shell",
        "brand": "Shell"
      }
    },
    {
      "type": "Feature",
      "geometry": {
        "type": "Point",
        "coordinates": [
          17.1222906,
          48.1306838
        ]
      },
      "properties": {
        "id": 747841412,
        "osm_type": "node",
        "name": "Shell",
        "brand": "Shell"
      }
    },
    {
      "type": "Feature",
      "geometry": {
        "type": "Point",
        "coordinates": [
          17.2304146,
          48.1030416
        ]
      },
      "properties": {
        "id": 918355468,
        "osm_type": "node",
        "name": "Tanker",
        "opening_hours": "Mo-Fr 05:00-22:00; Sa,Su 06:00-22:00"
      }
    },
    {
      "type": "Feature",
      "geometry": {
        "type": "Point",
        "coordinates": [
          17.1567678,
          48.1809593
        ]
      },
      "properties": {
        "id": 1024843098,
        "osm_type": "node",
        "name": "OMV",
        "brand": "OMV",
        "opening_hours": "24/7"
      }
    },
    {
      "type": "Feature",
      "geometry": {
        "type": "Point",
        "coordinates": [
          17.1563005,
          48.1575534
        ]
      },
      "properties": {
        "id": 1584316467,
        "osm_type": "node",
        "name": "Orlen",
        "brand": "ORLEN",
        "opening_hours": "Mo-Su 06:00-22:00"
      }
    },
    {
      "type": "Feature",
      "geometry": {
        "type": "Point",
        "coordinates": [
          17.2567282,
          48.1401992
        ]
      },
      "properties": {
        "id": 1751176951,
        "osm_type": "node",
        "name": "DALIOIL",
        "brand": "DALIOIL",
        "opening_hours": "Mo-Su 05:00-23:00"
      }
    },
    {
      "type": "Feature",
      "geometry": {
        "type": "Point",
        "coordinates": [
          17.3027219,
          48.5126706
        ]
      },
      "properties": {
        "id": 1913767572,
        "osm_type": "node",
        "name": "ATS 24",
        "opening_hours": "24/7"
      }
    },
    {
      "type": "Feature",
      "geometry": {
        "type": "Point",
        "coordinates": [
          17.0469381,
          48.185385
        ]
      },
      "properties": {
        "id": 1930370075,
        "osm_type": "node",
        "name": "1. SPS"
      }
    },
    {
      "type": "Feature",
      "geometry": {
        "type": "Point",
        "coordinates": [
          17.1784021,
          48.1875848
        ]
      },
      "properties": {
        "id": 2042485073,
        "osm_type": "node",
        "name": "Tesco extra",
        "brand": "Tesco",
        "opening_hours": "24/7"
      }
    },
    {
      "type": "Feature",
      "geometry": {
        "type": "Point",
        "coordinates": [
          17.0367998,
          48.4290203
        ]
      },
      "properties": {
        "id": 2222291365,
        "osm_type": "node",
        "name": "Shell",
        "brand": "Shell",
        "opening_hours": "24/7"
      }
    },
    {
      "type": "Feature",
      "geometry": {
        "type": "Point",
        "coordinates": [
          17.1767612,
          48.4578619
        ]
      },
      "properties": {
        "id": 2225713537,
        "osm_type": "node",
        "name": "čerpacia stanica"
      }
    },
    {
      "type": "Feature",
      "geometry": {
        "type": "Point",
        "coordinates": [
          17.1734505,
          48.135056
        ]
      },
      "properties": {
        "id": 2377736679,
        "osm_type": "node",
        "brand": "Jurki",
        "opening_hours": "Mo-Fr 07:00-19:00; Sa 07:00-18:00; Su 07:00-17:00"
      }
    },
    {
      "type": "Feature",
      "geometry": {
        "type": "Point",
        "coordinates": [
          17.0972201,
          48.1178834
        ]
      },
      "properties": {
        "id": 2696229493,
        "osm_type": "node",
        "name": "Slovnaft",
        "brand": "Slovnaft",
        "opening_hours": "Mo-Su 05:00-22:00"
      }
    },
    {
      "type": "Feature",
      "geometry": {
        "type": "Point",
        "coordinates": [
          17.0981889,
          48.087799
        ]
      },
      "properties": {
        "id": 2696865901,
        "osm_type": "node",
        "name": "OMV Diaľnica D2 Jarovce (smer VIE)",
        "brand": "ÖMV",
        "opening_hours": "24/7"
      }
    },
    {
      "type": "Feature",
      "geometry": {
        "type": "Point",
        "coordinates": [
          17.0381345,
          48.4291365
        ]
      },
      "properties": {
        "id": 2878367286,
        "osm_type": "node",
        "name": "TAM Autohof",
        "brand": "TAM Autohof",
        "opening_hours": "24/7"
      }
    },
    {
      "type": "Feature",
      "geometry": {
        "type": "Point",
        "coordinates": [
          17.3106072,
          48.326998
        ]
      },
      "properties": {
        "id": 3176747975,
        "osm_type": "node"
      }
    },
    {
      "type": "Feature",
      "geometry": {
        "type": "Point",
        "coordinates": [
          17.2954413,
          48.2069906
        ]
      },
      "properties": {
        "id": 3521387807,
        "osm_type": "node",
        "brand": "Shell"
      }
    },
    {
      "type": "Feature",
      "geometry": {
        "type": "Point",
        "coordinates": [
          17.1964761,
          48.2053542
        ]
      },
      "properties": {
        "id": 3589522636,
        "osm_type": "node",
        "name": "Slovnaft",
        "brand": "Slovnaft"
      }
    },
    {
      "type": "Feature",
      "geometry": {
        "type": "Point",
        "coordinates": [
          17.2686879,
          48.0777757
        ]
      },
      "properties": {
        "id": 3827542343,
        "osm_type": "node",
        "name": "GAS",
        "brand": "Gas"
      }
    },
    {
      "type": "Feature",
      "geometry": {
        "type": "Point",
        "coordinates": [
          17.1823643,
          48.1699281
        ]
      },
      "properties": {
        "id": 3947280638,
        "osm_type": "node",
        "name": "24h Oil",
        "brand": "24h oil",
        "opening_hours": "Mo-Su 00:00-24:00"
      }
    },
    {
      "type": "Feature",
      "geometry": {
        "type": "Point",
        "coordinates": [
          17.1375652,
          48.3684868
        ]
      },
      "properties": {
        "id": 4134252798,
        "osm_type": "node",
        "name": "Orlen express",
        "brand": "Orlen express",
        "opening_hours": "24/7"
      }
    },
    {
      "type": "Feature",
      "geometry": {
        "type": "Point",
        "coordinates": [
          17.1385052,
          48.1425455
        ]
      },
      "properties": {
        "id": 4509075990,
        "osm_type": "node",
        "name": "Plniaca stanica CNG",
        "opening_hours": "24/7"
      }
    },
    {
      "type": "Feature",
      "geometry": {
        "type": "Point",
        "coordinates": [
          17.1610525,
          48.2129941
        ]
      },
      "properties": {
        "id": 4786839630,
        "osm_type": "node",
        "name": "Orlen express",
        "brand": "Orlen express",
        "opening_hours": "24/7"
      }
    },
    {
      "type": "Feature",
      "geometry": {
        "type": "Point",
        "coordinates": [
          17.2861348,
          48.2839141
        ]
      },
      "properties": {
        "id": 5165418086,
        "osm_type": "node",
        "opening_hours": "Mo-Fr 05:00-22:00; Sa-Su 07:00-22:00"
      }
    },
    {
      "type": "Feature",
      "geometry": {
        "type": "Point",
        "coordinates": [
          16.9807703,
          48.3313017
        ]
      },
      "properties": {
        "id": 5165449974,
        "osm_type": "node",
        "name": "Jurki",
        "brand": "Jurki",
        "opening_hours": "Mo-Fr 07:00-11:00,13:00-17:00"
      }
    },
    {
      "type": "Feature",
      "geometry": {
        "type": "Point",
        "coordinates": [
          16.8570729,
          48.3777587
        ]
      },
      "properties": {
        "id": 5165464724,
        "osm_type": "node",
        "name": "Jurki",
        "brand": "Jurki",
        "opening_hours": "Mo-Fr 07:00-15:30"
      }
    },
    {
      "type": "Feature",
      "geometry": {
        "type": "Point",
        "coordinates": [
          17.1728045,
          48.1277952
        ]
      },
      "properties": {
        "id": 5165515282,
        "osm_type": "node",
        "opening_hours": "Mo-Fr 06:30-14:30"
      }
    },
    {
      "type": "Feature",
      "geometry": {
        "type": "Point",
        "coordinates": [
          17.1885391,
          48.1912157
        ]
      },
      "properties": {
        "id": 5165566156,
        "osm_type": "node",
        "name": "Tankujeme!",
        "opening_hours": "24/7"
      }
    },
    {
      "type": "Feature",
      "geometry": {
        "type": "Point",
        "coordinates": [
          17.4117566,
          48.2062408
        ]
      },
      "properties": {
        "id": 5626960351,
        "osm_type": "node",
        "name": "Orlen",
        "brand": "Orlen",
        "opening_hours": "24/7"
      }
    },
    {
      "type": "Feature",
      "geometry": {
        "type": "Point",
        "coordinates": [
          17.0212273,
          48.4152854
        ]
      },
      "properties": {
        "id": 5709668683,
        "osm_type": "node",
        "name": "NarsPetrol",
        "opening_hours": "24/7"
      }
    },
    {
      "type": "Feature",
      "geometry": {
        "type": "Point",
        "coordinates": [
          17.1829766,
          48.2185485
        ]
      },
      "properties": {
        "id": 5721222636,
        "osm_type": "node",
        "name": "Tanker"
      }
    },
    {
      "type": "Feature",
      "geometry": {
        "type": "Point",
        "coordinates": [
          17.1525912,
          48.1477068
        ]
      },
      "properties": {
        "id": 5724068851,
        "osm_type": "node"
      }
    },
    {
      "type": "Feature",
      "geometry": {
        "type": "Point",
        "coordinates": [
          17.1906111,
          48.2143668
        ]
      },
      "properties": {
        "id": 5875271268,
        "osm_type": "node",
        "name": "OMV",
        "brand": "OMV",
        "opening_hours": "24/7"
      }
    },
    {
      "type": "Feature",
      "geometry": {
        "type": "Point",
        "coordinates": [
          17.2561646,
          48.2794385
        ]
      },
      "properties": {
        "id": 5922605568,
        "osm_type": "node",
        "name": "TAM"
      }
    },
    {
      "type": "Feature",
      "geometry": {
        "type": "Point",
        "coordinates": [
          17.0194469,
          48.4140921
        ]
      },
      "properties": {
        "id": 6263952151,
        "osm_type": "node",
        "name": "Tanker",
        "brand": "Tanker",
        "opening_hours": "Mo-Fr 05:00-20:00; Sa,Su 06:00-20:00"
      }
    },
    {
      "type": "Feature",
      "geometry": {
        "type": "Point",
        "coordinates": [
          17.2897392,
          48.1465455
        ]
      },
      "properties": {
        "id": 6546965842,
        "osm_type": "node",
        "name": "OMV",
        "brand": "OMV",
        "opening_hours": "24/7"
      }
    },
    {
      "type": "Feature",
      "geometry": {
        "type": "Point",
        "coordinates": [
          17.0380711,
          48.4293713
        ]
      },
      "properties": {
        "id": 6961474426,
        "osm_type": "node",
        "name": "TAM Autohof LKW",
        "brand": "TAM Autohof",
        "opening_hours": "24/7"
      }
    },
    {
      "type": "Feature",
      "geometry": {
        "type": "Point",
        "coordinates": [
          17.038537,
          48.4292234
        ]
      },
      "properties": {
        "id": 6961474427,
        "osm_type": "node",
        "name": "TAM Autohof LPG",
        "brand": "TAM Autohof",
        "opening_hours": "24/7"
      }
    },
    {
      "type": "Feature",
      "geometry": {
        "type": "Point",
        "coordinates": [
          17.2419786,
          48.0936526
        ]
      },
      "properties": {
        "id": 7348117396,
        "osm_type": "node",
        "name": "Orlen express",
        "brand": "Orlen express",
        "opening_hours": "24/7"
      }
    },
    {
      "type": "Feature",
      "geometry": {
        "type": "Point",
        "coordinates": [
          17.0312595,
          48.32331
        ]
      },
      "properties": {
        "id": 7352783026,
        "osm_type": "node",
        "name": "Pumpa",
        "brand": "Pumpa"
      }
    },
    {
      "type": "Feature",
      "geometry": {
        "type": "Point",
        "coordinates": [
          17.2048299,
          48.11987
        ]
      },
      "properties": {
        "id": 7400058968,
        "osm_type": "node",
        "name": "Tanker"
      }
    },
    {
      "type": "Feature",
      "geometry": {
        "type": "Point",
        "coordinates": [
          17.0184383,
          48.4152062
        ]
      },
      "properties": {
        "id": 7428755062,
        "osm_type": "node",
        "name": "Narspetrol"
      }
    },
    {
      "type": "Feature",
      "geometry": {
        "type": "Point",
        "coordinates": [
          17.0322833,
          48.4213902
        ]
      },
      "properties": {
        "id": 7433906982,
        "osm_type": "node",
        "name": "Eurowag"
      }
    },
    {
      "type": "Feature",
      "geometry": {
        "type": "Point",
        "coordinates": [
          17.0030516,
          48.4986723
        ]
      },
      "properties": {
        "id": 7731596080,
        "osm_type": "node",
        "name": "RealK",
        "brand": "RealK",
        "opening_hours": "Mo-Su 05:00-22:00"
      }
    },
    {
      "type": "Feature",
      "geometry": {
        "type": "Point",
        "coordinates": [
          17.4138082,
          48.2552808
        ]
      },
      "properties": {
        "id": 8831120691,
        "osm_type": "node",
        "name": "OMV",
        "brand": "OMV",
        "opening_hours": "24/7"
      }
    },
    {
      "type": "Feature",
      "geometry": {
        "type": "Point",
        "coordinates": [
          17.2124473,
          48.0944711
        ]
      },
      "properties": {
        "id": 9789927979,
        "osm_type": "node",
        "name": "OMV",
        "brand": "OMV",
        "opening_hours": "24/7"
      }
    },
    {
      "type": "Feature",
      "geometry": {
        "type": "Point",
        "coordinates": [
          17.2107273,
          48.0954471
        ]
      },
      "properties": {
        "id": 9789927980,
        "osm_type": "node",
        "name": "OMV",
        "brand": "OMV",
        "opening_hours": "24/7"
      }
    },
    {
      "type": "Feature",
      "geometry": {
        "type": "Point",
        "coordinates": [
          17.4059782,
          48.2237642
        ]
      },
      "properties": {
        "id": 9887243692,
        "osm_type": "node",
        "name": "TAM"
      }
    },
    {
      "type": "Feature",
      "geometry": {
        "type": "Point",
        "coordinates": [
          17.2258613,
          48.1911858
        ]
      },
      "properties": {
        "id": 10267671141,
        "osm_type": "node",
        "name": "OMV",
        "brand": "OMV",
        "opening_hours": "24/7"
      }
    },
    {
      "type": "Feature",
      "geometry": {
        "type": "Point",
        "coordinates": [
          17.0541546,
          48.1782309
        ]
      },
      "properties": {
        "id": 10744875158,
        "osm_type": "node",
        "name": "Orlen express",
        "brand": "Orlen express",
        "opening_hours": "24/7"
      }
    },
    {
      "type": "Feature",
      "geometry": {
        "type": "Point",
        "coordinates": [
          17.0144212,
          48.2116265
        ]
      },
      "properties": {
        "id": 10780291291,
        "osm_type": "node",
        "name": "Metro",
        "brand": "METRO",
        "opening_hours": "Mo-Sa 06:00-22:00, Su 07:00-22:00"
      }
    },
    {
      "type": "Feature",
      "geometry": {
        "type": "Point",
        "coordinates": [
          17.1518994,
          48.1653371
        ]
      },
      "properties": {
        "id": 10795765661,
        "osm_type": "node",
        "name": "Orlen",
        "brand": "Orlen",
        "opening_hours": "24/7"
      }
    },
    {
      "type": "Feature",
      "geometry": {
        "type": "Point",
        "coordinates": [
          17.152292,
          48.1643947
        ]
      },
      "properties": {
        "id": 10795765668,
        "osm_type": "node",
        "name": "Slovnaft",
        "brand": "Slovnaft"
      }
    },
    {
      "type": "Feature",
      "geometry": {
        "type": "Point",
        "coordinates": [
          17.0934988,
          48.1082815
        ]
      },
      "properties": {
        "id": 10844413831,
        "osm_type": "node",
        "name": "Orlen express",
        "brand": "Orlen express",
        "opening_hours": "24/7"
      }
    },
    {
      "type": "Feature",
      "geometry": {
        "type": "Point",
        "coordinates": [
          17.033175,
          48.4299323
        ]
      },
      "properties": {
        "id": 10939005106,
        "osm_type": "node",
        "name": "Orlen",
        "brand": "Orlen",
        "opening_hours": "Mo-Su 05:00-23:00"
      }
    },
    {
      "type": "Feature",
      "geometry": {
        "type": "Point",
        "coordinates": [
          17.1095518,
          48.1311588
        ]
      },
      "properties": {
        "id": 11062549321,
        "osm_type": "node"
      }
    },
    {
      "type": "Feature",
      "geometry": {
        "type": "Point",
        "coordinates": [
          17.218798,
          48.1927709
        ]
      },
      "properties": {
        "id": 11093920430,
        "osm_type": "node",
        "name": "Jurki",
        "brand": "Jurki",
        "opening_hours": "24/7"
      }
    },
    {
      "type": "Feature",
      "geometry": {
        "type": "Point",
        "coordinates": [
          17.1937267,
          48.1547801
        ]
      },
      "properties": {
        "id": 11326552004,
        "osm_type": "node",
        "name": "Orlen",
        "brand": "Orlen"
      }
    },
    {
      "type": "Feature",
      "geometry": {
        "type": "Point",
        "coordinates": [
          17.3118423,
          48.326706
        ]
      },
      "properties": {
        "id": 12560016807,
        "osm_type": "node",
        "name": "OMV",
        "brand": "OMV",
        "opening_hours": "24/7"
      }
    },
    {
      "type": "Feature",
      "geometry": {
        "type": "Point",
        "coordinates": [
          17.2130851,
          48.0943995
        ]
      },
      "properties": {
        "id": 12565999055,
        "osm_type": "node",
        "name": "OMV",
        "brand": "OMV"
      }
    },
    {
      "type": "Feature",
      "geometry": {
        "type": "Point",
        "coordinates": [
          17.2098919,
          48.0955156
        ]
      },
      "properties": {
        "id": 12565999056,
        "osm_type": "node",
        "name": "OMV",
        "brand": "OMV",
        "opening_hours": "24/7"
      }
    },
    {
      "type": "Feature",
      "geometry": {
        "type": "Point",
        "coordinates": [
          17.1306521,
          48.1471135
        ]
      },
      "properties": {
        "id": 13326069804,
        "osm_type": "node"
      }
    },
    {
      "type": "Feature",
      "geometry": {
        "type": "Point",
        "coordinates": [
          17.0145992,
          48.2115143
        ]
      },
      "properties": {
        "id": 13628450700,
        "osm_type": "node",
        "name": "Bonett",
        "brand": "Bonett",
        "opening_hours": "24/7"
      }
    },
    {
      "type": "Feature",
      "geometry": {
        "type": "Point",
        "coordinates": [
          17.0648505,
          48.1759074
        ]
      },
      "properties": {
        "id": 25316333,
        "osm_type": "way",
        "name": "OMV",
        "brand": "OMV",
        "opening_hours": "24/7"
      }
    },
    {
      "type": "Feature",
      "geometry": {
        "type": "Point",
        "coordinates": [
          17.1457414,
          48.1542819
        ]
      },
      "properties": {
        "id": 26140525,
        "osm_type": "way",
        "name": "Shell",
        "brand": "Shell",
        "opening_hours": "24/7"
      }
    },
    {
      "type": "Feature",
      "geometry": {
        "type": "Point",
        "coordinates": [
          17.3642581,
          48.2079737
        ]
      },
      "properties": {
        "id": 28742780,
        "osm_type": "way",
        "name": "Tanker"
      }
    },
    {
      "type": "Feature",
      "geometry": {
        "type": "Point",
        "coordinates": [
          17.1001451,
          48.1110152
        ]
      },
      "properties": {
        "id": 43900430,
        "osm_type": "way",
        "brand": "Slovnaft",
        "opening_hours": "24/7"
      }
    },
    {
      "type": "Feature",
      "geometry": {
        "type": "Point",
        "coordinates": [
          17.1799903,
          48.1883086
        ]
      },
      "properties": {
        "id": 46822579,
        "osm_type": "way",
        "name": "Slovnaft",
        "brand": "Slovnaft"
      }
    },
    {
      "type": "Feature",
      "geometry": {
        "type": "Point",
        "coordinates": [
          17.280819,
          48.2912055
        ]
      },
      "properties": {
        "id": 49946261,
        "osm_type": "way",
        "name": "Slovnaft",
        "brand": "Slovnaft",
        "opening_hours": "24/7"
      }
    },
    {
      "type": "Feature",
      "geometry": {
        "type": "Point",
        "coordinates": [
          17.3736458,
          48.2308202
        ]
      },
      "properties": {
        "id": 61385154,
        "osm_type": "way",
        "name": "Slovnaft",
        "brand": "Slovnaft"
      }
    },
    {
      "type": "Feature",
      "geometry": {
        "type": "Point",
        "coordinates": [
          17.4028478,
          48.2302362
        ]
      },
      "properties": {
        "id": 61386490,
        "osm_type": "way",
        "name": "Slovnaft",
        "brand": "Slovnaft"
      }
    },
    {
      "type": "Feature",
      "geometry": {
        "type": "Point",
        "coordinates": [
          17.2065431,
          48.2439876
        ]
      },
      "properties": {
        "id": 75549652,
        "osm_type": "way",
        "name": "Shell",
        "brand": "Shell"
      }
    },
    {
      "type": "Feature",
      "geometry": {
        "type": "Point",
        "coordinates": [
          17.1811742,
          48.1636075
        ]
      },
      "properties": {
        "id": 90842608,
        "osm_type": "way",
        "name": "Gas"
      }
    },
    {
      "type": "Feature",
      "geometry": {
        "type": "Point",
        "coordinates": [
          17.1118164,
          48.1320011
        ]
      },
      "properties": {
        "id": 97116924,
        "osm_type": "way",
        "name": "OMV",
        "brand": "OMV",
        "opening_hours": "24/7"
      }
    },
    {
      "type": "Feature",
      "geometry": {
        "type": "Point",
        "coordinates": [
          17.0964245,
          48.1064495
        ]
      },
      "properties": {
        "id": 120102002,
        "osm_type": "way",
        "name": "OMV Panónska cesta",
        "brand": "OMV",
        "opening_hours": "24/7"
      }
    },
    {
      "type": "Feature",
      "geometry": {
        "type": "Point",
        "coordinates": [
          17.0712708,
          48.1478487
        ]
      },
      "properties": {
        "id": 120478708,
        "osm_type": "way",
        "name": "OMV",
        "brand": "OMV",
        "opening_hours": "Mo-Su,PH 00:00-00:00"
      }
    },
    {
      "type": "Feature",
      "geometry": {
        "type": "Point",
        "coordinates": [
          17.1489743,
          48.2033835
        ]
      },
      "properties": {
        "id": 126368715,
        "osm_type": "way",
        "name": "OMV",
        "brand": "OMV",
        "opening_hours": "24/7"
      }
    },
    {
      "type": "Feature",
      "geometry": {
        "type": "Point",
        "coordinates": [
          17.1699155,
          48.2169452
        ]
      },
      "properties": {
        "id": 126492100,
        "osm_type": "way",
        "name": "Slovnaft",
        "brand": "Slovnaft",
        "opening_hours": "24/7"
      }
    },
    {
      "type": "Feature",
      "geometry": {
        "type": "Point",
        "coordinates": [
          17.184905,
          48.223677
        ]
      },
      "properties": {
        "id": 126507534,
        "osm_type": "way",
        "name": "Dalioil",
        "brand": "OMV",
        "opening_hours": "24/7"
      }
    },
    {
      "type": "Feature",
      "geometry": {
        "type": "Point",
        "coordinates": [
          16.9859456,
          48.2064783
        ]
      },
      "properties": {
        "id": 137829645,
        "osm_type": "way",
        "name": "Slovnaft",
        "brand": "Slovnaft"
      }
    },
    {
      "type": "Feature",
      "geometry": {
        "type": "Point",
        "coordinates": [
          17.1054146,
          48.1253525
        ]
      },
      "properties": {
        "id": 157593224,
        "osm_type": "way",
        "name": "Slovnaft",
        "brand": "Slovnaft"
      }
    },
    {
      "type": "Feature",
      "geometry": {
        "type": "Point",
        "coordinates": [
          17.3604236,
          48.2404706
        ]
      },
      "properties": {
        "id": 182690498,
        "osm_type": "way",
        "name": "Shell",
        "brand": "Shell"
      }
    },
    {
      "type": "Feature",
      "geometry": {
        "type": "Point",
        "coordinates": [
          17.1441651,
          48.1742404
        ]
      },
      "properties": {
        "id": 202594403,
        "osm_type": "way",
        "name": "OMV",
        "brand": "OMV",
        "opening_hours": "24/7"
      }
    },
    {
      "type": "Feature",
      "geometry": {
        "type": "Point",
        "coordinates": [
          17.1471853,
          48.1537838
        ]
      },
      "properties": {
        "id": 203560386,
        "osm_type": "way",
        "name": "Slovnaft",
        "brand": "Slovnaft",
        "opening_hours": "24/7"
      }
    },
    {
      "type": "Feature",
      "geometry": {
        "type": "Point",
        "coordinates": [
          17.0994053,
          48.1190876
        ]
      },
      "properties": {
        "id": 234051041,
        "osm_type": "way",
        "name": "Shell",
        "brand": "Shell"
      }
    },
    {
      "type": "Feature",
      "geometry": {
        "type": "Point",
        "coordinates": [
          17.1283614,
          48.1771168
        ]
      },
      "properties": {
        "id": 239002831,
        "osm_type": "way",
        "name": "OMV",
        "brand": "OMV",
        "opening_hours": "24/7"
      }
    },
    {
      "type": "Feature",
      "geometry": {
        "type": "Point",
        "coordinates": [
          17.3840755,
          48.2238961
        ]
      },
      "properties": {
        "id": 248806492,
        "osm_type": "way",
        "name": "OMV",
        "brand": "OMV",
        "opening_hours": "24/7"
      }
    },
    {
      "type": "Feature",
      "geometry": {
        "type": "Point",
        "coordinates": [
          17.153171,
          48.1791058
        ]
      },
      "properties": {
        "id": 253703584,
        "osm_type": "way",
        "name": "Slovnaft",
        "brand": "Slovnaft"
      }
    },
    {
      "type": "Feature",
      "geometry": {
        "type": "Point",
        "coordinates": [
          17.147648,
          48.1778533
        ]
      },
      "properties": {
        "id": 253703585,
        "osm_type": "way",
        "name": "Shell",
        "brand": "Shell"
      }
    },
    {
      "type": "Feature",
      "geometry": {
        "type": "Point",
        "coordinates": [
          17.1580521,
          48.1799354
        ]
      },
      "properties": {
        "id": 254090537,
        "osm_type": "way",
        "name": "SPP",
        "brand": "SPP",
        "opening_hours": "24/7"
      }
    },
    {
      "type": "Feature",
      "geometry": {
        "type": "Point",
        "coordinates": [
          17.0234277,
          48.2048089
        ]
      },
      "properties": {
        "id": 267653498,
        "osm_type": "way",
        "name": "SHELL",
        "brand": "Shell",
        "opening_hours": "24/7"
      }
    },
    {
      "type": "Feature",
      "geometry": {
        "type": "Point",
        "coordinates": [
          17.3808727,
          48.417941
        ]
      },
      "properties": {
        "id": 275440813,
        "osm_type": "way",
        "name": "Jurki",
        "brand": "Jurki",
        "opening_hours": "Mo-Fr 7:00-19:00"
      }
    },
    {
      "type": "Feature",
      "geometry": {
        "type": "Point",
        "coordinates": [
          17.0347713,
          48.2457246
        ]
      },
      "properties": {
        "id": 279394538,
        "osm_type": "way",
        "name": "Slovnaft",
        "brand": "Slovnaft"
      }
    },
    {
      "type": "Feature",
      "geometry": {
        "type": "Point",
        "coordinates": [
          16.9210687,
          48.3233591
        ]
      },
      "properties": {
        "id": 327997547,
        "osm_type": "way",
        "brand": "Jurki"
      }
    },
    {
      "type": "Feature",
      "geometry": {
        "type": "Point",
        "coordinates": [
          17.123837,
          48.3951498
        ]
      },
      "properties": {
        "id": 350186293,
        "osm_type": "way"
      }
    },
    {
      "type": "Feature",
      "geometry": {
        "type": "Point",
        "coordinates": [
          17.1576642,
          48.1685522
        ]
      },
      "properties": {
        "id": 401732463,
        "osm_type": "way",
        "name": "Shell",
        "brand": "Shell"
      }
    },
    {
      "type": "Feature",
      "geometry": {
        "type": "Point",
        "coordinates": [
          17.1602755,
          48.1806717
        ]
      },
      "properties": {
        "id": 501477589,
        "osm_type": "way"
      }
    },
    {
      "type": "Feature",
      "geometry": {
        "type": "Point",
        "coordinates": [
          17.0543031,
          48.1814217
        ]
      },
      "properties": {
        "id": 542090749,
        "osm_type": "way",
        "name": "Orlen",
        "brand": "Orlen",
        "opening_hours": "24/7"
      }
    },
    {
      "type": "Feature",
      "geometry": {
        "type": "Point",
        "coordinates": [
          17.2564063,
          48.2781238
        ]
      },
      "properties": {
        "id": 574610364,
        "osm_type": "way",
        "name": "Pumpa"
      }
    },
    {
      "type": "Feature",
      "geometry": {
        "type": "Point",
        "coordinates": [
          17.0326177,
          48.2326071
        ]
      },
      "properties": {
        "id": 625072861,
        "osm_type": "way",
        "name": "VOMS",
        "opening_hours": "24/7"
      }
    },
    {
      "type": "Feature",
      "geometry": {
        "type": "Point",
        "coordinates": [
          17.2423414,
          48.0932994
        ]
      },
      "properties": {
        "id": 766554399,
        "osm_type": "way",
        "name": "Shell",
        "brand": "Shell",
        "opening_hours": "24/7"
      }
    },
    {
      "type": "Feature",
      "geometry": {
        "type": "Point",
        "coordinates": [
          17.0544712,
          48.1803735
        ]
      },
      "properties": {
        "id": 809923892,
        "osm_type": "way",
        "name": "OMV",
        "brand": "OMV",
        "opening_hours": "24/7"
      }
    },
    {
      "type": "Feature",
      "geometry": {
        "type": "Point",
        "coordinates": [
          17.2816581,
          48.1433171
        ]
      },
      "properties": {
        "id": 889378994,
        "osm_type": "way",
        "name": "Orlen",
        "brand": "Orlen",
        "opening_hours": "24/7"
      }
    },
    {
      "type": "Feature",
      "geometry": {
        "type": "Point",
        "coordinates": [
          17.1344631,
          48.1424588
        ]
      },
      "properties": {
        "id": 920570033,
        "osm_type": "way",
        "name": "Slovnaft",
        "brand": "Slovnaft",
        "opening_hours": "24/7"
      }
    },
    {
      "type": "Feature",
      "geometry": {
        "type": "Point",
        "coordinates": [
          17.2955068,
          48.2068329
        ]
      },
      "properties": {
        "id": 1217290478,
        "osm_type": "way"
      }
    },
    {
      "type": "Feature",
      "geometry": {
        "type": "Point",
        "coordinates": [
          17.2920627,
          48.2819548
        ]
      },
      "properties": {
        "id": 1243707159,
        "osm_type": "way",
        "name": "OMV",
        "brand": "OMV",
        "opening_hours": "24/7"
      }
    }
  ]
}