{
  "type": "FeatureCollection",
  "features": [
    {
      "type": "Feature",
      "geometry": {
        "type": "Point",
        "coordinates": [
          31.4129961,
          41.283801
        ]
      },
      "properties": {
        "id": 3836294032,
        "osm_type": "node",
        "name": "Burger King",
        "brand": "Burger King",
        "brand:wikidata": "Q177054",
        "cuisine": "burger",
        "chain": "burger_king"
      }
    },
    {
      "type": "Feature",
      "geometry": {
        "type": "Point",
        "coordinates": [
          31.4171732,
          41.280739
        ]
      },
      "properties": {
        "id": 3836294042,
        "osm_type": "node",
        "chain": "unknown"
      }
    },
    {
      "type": "Feature",
      "geometry": {
        "type": "Point",
        "coordinates": [
          31.7886645,
          41.4535626
        ]
      },
      "properties": {
        "id": 6612024485,
        "osm_type": "node",
        "name": "Burger King",
        "brand": "Burger King",
        "brand:wikidata": "Q177054",
        "cuisine": "burger",
        "chain": "burger_king"
      }
    },
    {
      "type": "Feature",
      "geometry": {
        "type": "Point",
        "coordinates": [
          31.4239472,
          41.2812259
        ]
      },
      "properties": {
        "id": 11958996813,
        "osm_type": "node",
        "name": "Yokuştepe Kahvaltı % Waffle",
        "opening_hours": "Mo-Su 09:00-23:00",
        "phone": "+90 372 502 3687",
        "website": "https://www.yokustepe.com",
        "operator": "Yokuştepe Kahvaltı Waffle",
        "cuisine": "kahvaltı;waffle",
        "chain": "unknown"
      }
    },
    {
      "type": "Feature",
      "geometry": {
        "type": "Point",
        "coordinates": [
          31.4228661,
          41.2790209
        ]
      },
      "properties": {
        "id": 12307237145,
        "osm_type": "node",
        "name": "Öncü Döner",
        "chain": "unknown"
      }
    },
    {
      "type": "Feature",
      "geometry": {
        "type": "Point",
        "coordinates": [
          31.4280157,
          41.2756656
        ]
      },
      "properties": {
        "id": 12307237211,
        "osm_type": "node",
        "name": "Cajun Corner",
        "chain": "unknown"
      }
    },
    {
      "type": "Feature",
      "geometry": {
        "type": "Point",
        "coordinates": [
          31.4174056,
          41.2814573
        ]
      },
      "properties": {
        "id": 12309381687,
        "osm_type": "node",
        "name": "Musa'nın Yeri",
        "cuisine": "fish_and_chips",
        "chain": "unknown"
      }
    },
    {
      "type": "Feature",
      "geometry": {
        "type": "Point",
        "coordinates": [
          31.765548,
          41.454835
        ]
      },
      "properties": {
        "id": 12323937410,
        "osm_type": "node",
        "name": "McDonald's",
        "brand": "McDonald's",
        "brand:wikidata": "Q38076",
        "cuisine": "burger",
        "chain": "mcdonalds"
      }
    },
    {
      "type": "Feature",
      "geometry": {
        "type": "Point",
        "coordinates": [
          31.4266615,
          41.2865656
        ]
      },
      "properties": {
        "id": 12325671893,
        "osm_type": "node",
        "name": "Çiğ Köfte",
        "chain": "unknown"
      }
    },
    {
      "type": "Feature",
      "geometry": {
        "type": "Point",
        "coordinates": [
          31.4104209,
          41.2182579
        ]
      },
      "properties": {
        "id": 434415821,
        "osm_type": "way",
        "chain": "unknown"
      }
    },
    {
      "type": "Feature",
      "geometry": {
        "type": "Point",
        "coordinates": [
          31.4104004,
          41.2166813
        ]
      },
      "properties": {
        "id": 434415831,
        "osm_type": "way",
        "chain": "unknown"
      }
    },
    {
      "type": "Feature",
      "geometry": {
        "type": "Point",
        "coordinates": [
          31.4215806,
          41.2782163
        ]
      },
      "properties": {
        "id": 1324976275,
        "osm_type": "way",
        "name": "Genç-Yaşlı Evi",
        "chain": "unknown"
      }
    },
    {
      "type": "Feature",
      "geometry": {
        "type": "Point",
        "coordinates": [
          31.4129555,
          41.2837479
        ]
      },
      "properties": {
        "id": 1328390307,
        "osm_type": "way",
        "name": "Burger King",
        "chain": "burger_king"
      }
    },
    {
      "type": "Feature",
      "geometry": {
        "type": "Point",
        "coordinates": [
          32.0859605,
          41.3850027
        ]
      },
      "properties": {
        "id": 1409921387,
        "osm_type": "way",
        "name": "Üniversite Yemekhanesi",
        "chain": "unknown"
      }
    }
  ]
}