{
  "type": "FeatureCollection",
  "features": [
    {
      "type": "Feature",
      "geometry": {
        "type": "Point",
        "coordinates": [
          25.421299,
          42.735367
        ]
      },
      "properties": {
        "id": 300981092,
        "osm_type": "node",
        "access": "yes",
        "fee": "no"
      }
    },
    {
      "type": "Feature",
      "geometry": {
        "type": "Point",
        "coordinates": [
          25.4736577,
          42.7634772
        ]
      },
      "properties": {
        "id": 300981778,
        "osm_type": "node",
        "name": "Бабин Райчин Чучур"
      }
    },
    {
      "type": "Feature",
      "geometry": {
        "type": "Point",
        "coordinates": [
          25.501079,
          42.784548
        ]
      },
      "properties": {
        "id": 300981859,
        "osm_type": "node"
      }
    },
    {
      "type": "Feature",
      "geometry": {
        "type": "Point",
        "coordinates": [
          25.2945158,
          42.8056476
        ]
      },
      "properties": {
        "id": 1734952279,
        "osm_type": "node"
      }
    },
    {
      "type": "Feature",
      "geometry": {
        "type": "Point",
        "coordinates": [
          25.4913194,
          42.8690998
        ]
      },
      "properties": {
        "id": 1867170955,
        "osm_type": "node"
      }
    },
    {
      "type": "Feature",
      "geometry": {
        "type": "Point",
        "coordinates": [
          25.0361902,
          42.9928285
        ]
      },
      "properties": {
        "id": 2323411842,
        "osm_type": "node"
      }
    },
    {
      "type": "Feature",
      "geometry": {
        "type": "Point",
        "coordinates": [
          25.2363418,
          42.7545352
        ]
      },
      "properties": {
        "id": 2458978492,
        "osm_type": "node"
      }
    },
    {
      "type": "Feature",
      "geometry": {
        "type": "Point",
        "coordinates": [
          25.2850964,
          42.8253327
        ]
      },
      "properties": {
        "id": 2458989952,
        "osm_type": "node"
      }
    },
    {
      "type": "Feature",
      "geometry": {
        "type": "Point",
        "coordinates": [
          25.0088563,
          43.0950727
        ]
      },
      "properties": {
        "id": 2595353887,
        "osm_type": "node",
        "name": "Чешма \"Лакевиц\""
      }
    },
    {
      "type": "Feature",
      "geometry": {
        "type": "Point",
        "coordinates": [
          25.0093837,
          43.092749
        ]
      },
      "properties": {
        "id": 2595353996,
        "osm_type": "node",
        "name": "Чешма \"Чешмичката\""
      }
    },
    {
      "type": "Feature",
      "geometry": {
        "type": "Point",
        "coordinates": [
          25.4240061,
          42.8582677
        ]
      },
      "properties": {
        "id": 2807586999,
        "osm_type": "node"
      }
    },
    {
      "type": "Feature",
      "geometry": {
        "type": "Point",
        "coordinates": [
          25.4919281,
          42.8670053
        ]
      },
      "properties": {
        "id": 2822284121,
        "osm_type": "node"
      }
    },
    {
      "type": "Feature",
      "geometry": {
        "type": "Point",
        "coordinates": [
          25.4866427,
          42.8653978
        ]
      },
      "properties": {
        "id": 2822422716,
        "osm_type": "node"
      }
    },
    {
      "type": "Feature",
      "geometry": {
        "type": "Point",
        "coordinates": [
          25.4886454,
          42.8665155
        ]
      },
      "properties": {
        "id": 2822422782,
        "osm_type": "node"
      }
    },
    {
      "type": "Feature",
      "geometry": {
        "type": "Point",
        "coordinates": [
          25.4889539,
          42.8914564
        ]
      },
      "properties": {
        "id": 2834102199,
        "osm_type": "node",
        "name": "1959"
      }
    },
    {
      "type": "Feature",
      "geometry": {
        "type": "Point",
        "coordinates": [
          25.0647054,
          42.7460363
        ]
      },
      "properties": {
        "id": 2883814070,
        "osm_type": "node",
        "name": "Карабурун"
      }
    },
    {
      "type": "Feature",
      "geometry": {
        "type": "Point",
        "coordinates": [
          25.1852564,
          42.7888117
        ]
      },
      "properties": {
        "id": 2974084853,
        "osm_type": "node"
      }
    },
    {
      "type": "Feature",
      "geometry": {
        "type": "Point",
        "coordinates": [
          25.3895805,
          42.7735484
        ]
      },
      "properties": {
        "id": 3095612447,
        "osm_type": "node"
      }
    },
    {
      "type": "Feature",
      "geometry": {
        "type": "Point",
        "coordinates": [
          25.3981375,
          42.7803639
        ]
      },
      "properties": {
        "id": 3095612489,
        "osm_type": "node"
      }
    },
    {
      "type": "Feature",
      "geometry": {
        "type": "Point",
        "coordinates": [
          25.4948366,
          42.8730786
        ]
      },
      "properties": {
        "id": 3258102080,
        "osm_type": "node"
      }
    },
    {
      "type": "Feature",
      "geometry": {
        "type": "Point",
        "coordinates": [
          25.2819403,
          42.8040889
        ]
      },
      "properties": {
        "id": 3338236587,
        "osm_type": "node",
        "name": "Драгомирова чешма"
      }
    },
    {
      "type": "Feature",
      "geometry": {
        "type": "Point",
        "coordinates": [
          25.3126025,
          42.7818225
        ]
      },
      "properties": {
        "id": 3379809644,
        "osm_type": "node",
        "name": "Чешмата под връх Моравата",
        "access": "yes",
        "fee": "no"
      }
    },
    {
      "type": "Feature",
      "geometry": {
        "type": "Point",
        "coordinates": [
          25.3245695,
          42.8172319
        ]
      },
      "properties": {
        "id": 3379812108,
        "osm_type": "node"
      }
    },
    {
      "type": "Feature",
      "geometry": {
        "type": "Point",
        "coordinates": [
          25.325036,
          42.8004458
        ]
      },
      "properties": {
        "id": 3379814727,
        "osm_type": "node"
      }
    },
    {
      "type": "Feature",
      "geometry": {
        "type": "Point",
        "coordinates": [
          25.3389827,
          42.8006948
        ]
      },
      "properties": {
        "id": 3454837844,
        "osm_type": "node"
      }
    },
    {
      "type": "Feature",
      "geometry": {
        "type": "Point",
        "coordinates": [
          25.3734817,
          42.9732258
        ]
      },
      "properties": {
        "id": 3624819627,
        "osm_type": "node",
        "fee": "no"
      }
    },
    {
      "type": "Feature",
      "geometry": {
        "type": "Point",
        "coordinates": [
          25.4750992,
          42.9751247
        ]
      },
      "properties": {
        "id": 3624819628,
        "osm_type": "node"
      }
    },
    {
      "type": "Feature",
      "geometry": {
        "type": "Point",
        "coordinates": [
          25.3195401,
          42.9771878
        ]
      },
      "properties": {
        "id": 3624819629,
        "osm_type": "node"
      }
    },
    {
      "type": "Feature",
      "geometry": {
        "type": "Point",
        "coordinates": [
          25.2202126,
          42.7721557
        ]
      },
      "properties": {
        "id": 3632192998,
        "osm_type": "node",
        "name": "Червената Чешма"
      }
    },
    {
      "type": "Feature",
      "geometry": {
        "type": "Point",
        "coordinates": [
          25.2548432,
          42.8538983
        ]
      },
      "properties": {
        "id": 4064824590,
        "osm_type": "node",
        "name": "Чешма"
      }
    },
    {
      "type": "Feature",
      "geometry": {
        "type": "Point",
        "coordinates": [
          25.4945929,
          42.8686186
        ]
      },
      "properties": {
        "id": 4082752570,
        "osm_type": "node"
      }
    },
    {
      "type": "Feature",
      "geometry": {
        "type": "Point",
        "coordinates": [
          25.4699868,
          42.8705724
        ]
      },
      "properties": {
        "id": 4172005349,
        "osm_type": "node"
      }
    },
    {
      "type": "Feature",
      "geometry": {
        "type": "Point",
        "coordinates": [
          25.4623594,
          42.8724146
        ]
      },
      "properties": {
        "id": 4172008081,
        "osm_type": "node",
        "name": "1938"
      }
    },
    {
      "type": "Feature",
      "geometry": {
        "type": "Point",
        "coordinates": [
          25.4851432,
          42.864831
        ]
      },
      "properties": {
        "id": 4172596683,
        "osm_type": "node",
        "name": "Любовна чешма"
      }
    },
    {
      "type": "Feature",
      "geometry": {
        "type": "Point",
        "coordinates": [
          25.4630642,
          42.8719006
        ]
      },
      "properties": {
        "id": 4528974145,
        "osm_type": "node",
        "name": "1941"
      }
    },
    {
      "type": "Feature",
      "geometry": {
        "type": "Point",
        "coordinates": [
          25.4928756,
          42.8777472
        ]
      },
      "properties": {
        "id": 4528979281,
        "osm_type": "node"
      }
    },
    {
      "type": "Feature",
      "geometry": {
        "type": "Point",
        "coordinates": [
          25.4895062,
          42.8662777
        ]
      },
      "properties": {
        "id": 4541967433,
        "osm_type": "node"
      }
    },
    {
      "type": "Feature",
      "geometry": {
        "type": "Point",
        "coordinates": [
          25.0378771,
          42.8456821
        ]
      },
      "properties": {
        "id": 4613146759,
        "osm_type": "node"
      }
    },
    {
      "type": "Feature",
      "geometry": {
        "type": "Point",
        "coordinates": [
          25.3381653,
          42.7973036
        ]
      },
      "properties": {
        "id": 4637532917,
        "osm_type": "node"
      }
    },
    {
      "type": "Feature",
      "geometry": {
        "type": "Point",
        "coordinates": [
          25.5213002,
          42.8871054
        ]
      },
      "properties": {
        "id": 4796129243,
        "osm_type": "node"
      }
    },
    {
      "type": "Feature",
      "geometry": {
        "type": "Point",
        "coordinates": [
          25.508333,
          42.8541771
        ]
      },
      "properties": {
        "id": 4830025443,
        "osm_type": "node",
        "name": "Боряна"
      }
    },
    {
      "type": "Feature",
      "geometry": {
        "type": "Point",
        "coordinates": [
          25.4827786,
          42.8260322
        ]
      },
      "properties": {
        "id": 4899794773,
        "osm_type": "node"
      }
    },
    {
      "type": "Feature",
      "geometry": {
        "type": "Point",
        "coordinates": [
          25.4302195,
          42.9475274
        ]
      },
      "properties": {
        "id": 4937518136,
        "osm_type": "node",
        "seasonal": "yes"
      }
    },
    {
      "type": "Feature",
      "geometry": {
        "type": "Point",
        "coordinates": [
          25.4816418,
          42.8670135
        ]
      },
      "properties": {
        "id": 5103757740,
        "osm_type": "node"
      }
    },
    {
      "type": "Feature",
      "geometry": {
        "type": "Point",
        "coordinates": [
          25.3903902,
          42.8564757
        ]
      },
      "properties": {
        "id": 5306283357,
        "osm_type": "node"
      }
    },
    {
      "type": "Feature",
      "geometry": {
        "type": "Point",
        "coordinates": [
          25.5612543,
          42.8148406
        ]
      },
      "properties": {
        "id": 5309017747,
        "osm_type": "node"
      }
    },
    {
      "type": "Feature",
      "geometry": {
        "type": "Point",
        "coordinates": [
          25.4761246,
          42.9817417
        ]
      },
      "properties": {
        "id": 5790307369,
        "osm_type": "node",
        "name": "Ракетата"
      }
    },
    {
      "type": "Feature",
      "geometry": {
        "type": "Point",
        "coordinates": [
          25.4525443,
          42.9712587
        ]
      },
      "properties": {
        "id": 5790307370,
        "osm_type": "node"
      }
    },
    {
      "type": "Feature",
      "geometry": {
        "type": "Point",
        "coordinates": [
          25.061979,
          43.0570457
        ]
      },
      "properties": {
        "id": 6438917520,
        "osm_type": "node"
      }
    },
    {
      "type": "Feature",
      "geometry": {
        "type": "Point",
        "coordinates": [
          25.4670353,
          42.970959
        ]
      },
      "properties": {
        "id": 6439485352,
        "osm_type": "node",
        "name": "Духовникова чешма"
      }
    },
    {
      "type": "Feature",
      "geometry": {
        "type": "Point",
        "coordinates": [
          25.3484578,
          42.8053875
        ]
      },
      "properties": {
        "id": 6632974909,
        "osm_type": "node",
        "name": "1864г."
      }
    },
    {
      "type": "Feature",
      "geometry": {
        "type": "Point",
        "coordinates": [
          25.4862755,
          42.8631467
        ]
      },
      "properties": {
        "id": 6835911494,
        "osm_type": "node",
        "name": "Чучура"
      }
    },
    {
      "type": "Feature",
      "geometry": {
        "type": "Point",
        "coordinates": [
          25.4861844,
          42.8632504
        ]
      },
      "properties": {
        "id": 6835911495,
        "osm_type": "node"
      }
    },
    {
      "type": "Feature",
      "geometry": {
        "type": "Point",
        "coordinates": [
          25.487615,
          42.8640627
        ]
      },
      "properties": {
        "id": 7733530608,
        "osm_type": "node",
        "name": "Долен чучур"
      }
    },
    {
      "type": "Feature",
      "geometry": {
        "type": "Point",
        "coordinates": [
          25.3457222,
          42.7516472
        ]
      },
      "properties": {
        "id": 7736029155,
        "osm_type": "node",
        "name": "Хр. Проданов"
      }
    },
    {
      "type": "Feature",
      "geometry": {
        "type": "Point",
        "coordinates": [
          25.4341389,
          42.7640194
        ]
      },
      "properties": {
        "id": 7736029156,
        "osm_type": "node",
        "name": "9-те чучура"
      }
    },
    {
      "type": "Feature",
      "geometry": {
        "type": "Point",
        "coordinates": [
          25.4660821,
          42.9726372
        ]
      },
      "properties": {
        "id": 7758600489,
        "osm_type": "node"
      }
    },
    {
      "type": "Feature",
      "geometry": {
        "type": "Point",
        "coordinates": [
          25.320051,
          42.8551038
        ]
      },
      "properties": {
        "id": 7796544478,
        "osm_type": "node",
        "name": "Чешмата в парк Макотея",
        "access": "yes",
        "fee": "no"
      }
    },
    {
      "type": "Feature",
      "geometry": {
        "type": "Point",
        "coordinates": [
          25.3456636,
          42.7999069
        ]
      },
      "properties": {
        "id": 7847145071,
        "osm_type": "node",
        "access": "yes",
        "fee": "no"
      }
    },
    {
      "type": "Feature",
      "geometry": {
        "type": "Point",
        "coordinates": [
          25.54258,
          42.7888735
        ]
      },
      "properties": {
        "id": 7931203132,
        "osm_type": "node"
      }
    },
    {
      "type": "Feature",
      "geometry": {
        "type": "Point",
        "coordinates": [
          25.477207,
          42.7930494
        ]
      },
      "properties": {
        "id": 8275266489,
        "osm_type": "node",
        "name": "1940"
      }
    },
    {
      "type": "Feature",
      "geometry": {
        "type": "Point",
        "coordinates": [
          25.4669315,
          42.8131442
        ]
      },
      "properties": {
        "id": 8289216049,
        "osm_type": "node"
      }
    },
    {
      "type": "Feature",
      "geometry": {
        "type": "Point",
        "coordinates": [
          25.2314518,
          42.7694035
        ]
      },
      "properties": {
        "id": 8289244768,
        "osm_type": "node"
      }
    },
    {
      "type": "Feature",
      "geometry": {
        "type": "Point",
        "coordinates": [
          25.4539145,
          42.7716208
        ]
      },
      "properties": {
        "id": 8334964649,
        "osm_type": "node"
      }
    },
    {
      "type": "Feature",
      "geometry": {
        "type": "Point",
        "coordinates": [
          25.5698067,
          42.7731834
        ]
      },
      "properties": {
        "id": 8856699931,
        "osm_type": "node"
      }
    },
    {
      "type": "Feature",
      "geometry": {
        "type": "Point",
        "coordinates": [
          25.0543108,
          43.0421815
        ]
      },
      "properties": {
        "id": 8952076630,
        "osm_type": "node",
        "access": "yes",
        "fee": "no"
      }
    },
    {
      "type": "Feature",
      "geometry": {
        "type": "Point",
        "coordinates": [
          25.2996155,
          42.8481852
        ]
      },
      "properties": {
        "id": 8952092335,
        "osm_type": "node",
        "access": "yes",
        "fee": "no"
      }
    },
    {
      "type": "Feature",
      "geometry": {
        "type": "Point",
        "coordinates": [
          25.3826578,
          42.9120472
        ]
      },
      "properties": {
        "id": 9450953658,
        "osm_type": "node",
        "access": "yes",
        "fee": "no"
      }
    },
    {
      "type": "Feature",
      "geometry": {
        "type": "Point",
        "coordinates": [
          25.3253461,
          42.8898257
        ]
      },
      "properties": {
        "id": 9451154664,
        "osm_type": "node",
        "access": "yes",
        "fee": "no",
        "operator": "Конската чешма"
      }
    },
    {
      "type": "Feature",
      "geometry": {
        "type": "Point",
        "coordinates": [
          25.3518335,
          42.8077859
        ]
      },
      "properties": {
        "id": 9454042688,
        "osm_type": "node",
        "access": "yes",
        "fee": "no"
      }
    },
    {
      "type": "Feature",
      "geometry": {
        "type": "Point",
        "coordinates": [
          25.3043909,
          42.8885502
        ]
      },
      "properties": {
        "id": 9463735974,
        "osm_type": "node"
      }
    },
    {
      "type": "Feature",
      "geometry": {
        "type": "Point",
        "coordinates": [
          25.3047101,
          42.8895905
        ]
      },
      "properties": {
        "id": 9463735975,
        "osm_type": "node"
      }
    },
    {
      "type": "Feature",
      "geometry": {
        "type": "Point",
        "coordinates": [
          25.3033846,
          42.8891777
        ]
      },
      "properties": {
        "id": 9463735976,
        "osm_type": "node"
      }
    },
    {
      "type": "Feature",
      "geometry": {
        "type": "Point",
        "coordinates": [
          25.3061007,
          42.8890393
        ]
      },
      "properties": {
        "id": 9463735977,
        "osm_type": "node"
      }
    },
    {
      "type": "Feature",
      "geometry": {
        "type": "Point",
        "coordinates": [
          25.3069149,
          42.8890346
        ]
      },
      "properties": {
        "id": 9463735978,
        "osm_type": "node"
      }
    },
    {
      "type": "Feature",
      "geometry": {
        "type": "Point",
        "coordinates": [
          25.3071461,
          42.889643
        ]
      },
      "properties": {
        "id": 9463735979,
        "osm_type": "node"
      }
    },
    {
      "type": "Feature",
      "geometry": {
        "type": "Point",
        "coordinates": [
          25.3550805,
          42.907445
        ]
      },
      "properties": {
        "id": 9463736669,
        "osm_type": "node",
        "access": "yes",
        "fee": "no"
      }
    },
    {
      "type": "Feature",
      "geometry": {
        "type": "Point",
        "coordinates": [
          25.3069986,
          42.8858861
        ]
      },
      "properties": {
        "id": 9466852879,
        "osm_type": "node"
      }
    },
    {
      "type": "Feature",
      "geometry": {
        "type": "Point",
        "coordinates": [
          25.3063677,
          42.8863621
        ]
      },
      "properties": {
        "id": 9466852880,
        "osm_type": "node"
      }
    },
    {
      "type": "Feature",
      "geometry": {
        "type": "Point",
        "coordinates": [
          25.3059244,
          42.8866106
        ]
      },
      "properties": {
        "id": 9466852887,
        "osm_type": "node"
      }
    },
    {
      "type": "Feature",
      "geometry": {
        "type": "Point",
        "coordinates": [
          25.3077117,
          42.8864199
        ]
      },
      "properties": {
        "id": 9466852888,
        "osm_type": "node"
      }
    },
    {
      "type": "Feature",
      "geometry": {
        "type": "Point",
        "coordinates": [
          25.3086342,
          42.8867394
        ]
      },
      "properties": {
        "id": 9466852889,
        "osm_type": "node"
      }
    },
    {
      "type": "Feature",
      "geometry": {
        "type": "Point",
        "coordinates": [
          25.3802955,
          42.9189055
        ]
      },
      "properties": {
        "id": 9467853247,
        "osm_type": "node",
        "access": "yes"
      }
    },
    {
      "type": "Feature",
      "geometry": {
        "type": "Point",
        "coordinates": [
          25.3899961,
          42.8746534
        ]
      },
      "properties": {
        "id": 9469778884,
        "osm_type": "node",
        "access": "yes",
        "fee": "no"
      }
    },
    {
      "type": "Feature",
      "geometry": {
        "type": "Point",
        "coordinates": [
          25.2628009,
          42.8609131
        ]
      },
      "properties": {
        "id": 9471530412,
        "osm_type": "node",
        "name": "Чешмата на Гачевци"
      }
    },
    {
      "type": "Feature",
      "geometry": {
        "type": "Point",
        "coordinates": [
          25.370107,
          42.9433675
        ]
      },
      "properties": {
        "id": 9481560172,
        "osm_type": "node"
      }
    },
    {
      "type": "Feature",
      "geometry": {
        "type": "Point",
        "coordinates": [
          25.2843587,
          42.9021407
        ]
      },
      "properties": {
        "id": 9483554171,
        "osm_type": "node"
      }
    },
    {
      "type": "Feature",
      "geometry": {
        "type": "Point",
        "coordinates": [
          25.3124239,
          42.8751128
        ]
      },
      "properties": {
        "id": 9508998704,
        "osm_type": "node",
        "access": "yes"
      }
    },
    {
      "type": "Feature",
      "geometry": {
        "type": "Point",
        "coordinates": [
          25.3016584,
          42.9013438
        ]
      },
      "properties": {
        "id": 9511066165,
        "osm_type": "node"
      }
    },
    {
      "type": "Feature",
      "geometry": {
        "type": "Point",
        "coordinates": [
          25.3113592,
          42.8694817
        ]
      },
      "properties": {
        "id": 9532259294,
        "osm_type": "node"
      }
    },
    {
      "type": "Feature",
      "geometry": {
        "type": "Point",
        "coordinates": [
          25.3016875,
          42.9162331
        ]
      },
      "properties": {
        "id": 9540292705,
        "osm_type": "node"
      }
    },
    {
      "type": "Feature",
      "geometry": {
        "type": "Point",
        "coordinates": [
          25.2996117,
          42.8969379
        ]
      },
      "properties": {
        "id": 9555935597,
        "osm_type": "node"
      }
    },
    {
      "type": "Feature",
      "geometry": {
        "type": "Point",
        "coordinates": [
          25.3352103,
          42.8582325
        ]
      },
      "properties": {
        "id": 9557272575,
        "osm_type": "node"
      }
    },
    {
      "type": "Feature",
      "geometry": {
        "type": "Point",
        "coordinates": [
          25.2703042,
          42.9013176
        ]
      },
      "properties": {
        "id": 9557641962,
        "osm_type": "node"
      }
    },
    {
      "type": "Feature",
      "geometry": {
        "type": "Point",
        "coordinates": [
          25.3201595,
          42.8539145
        ]
      },
      "properties": {
        "id": 9632634112,
        "osm_type": "node"
      }
    },
    {
      "type": "Feature",
      "geometry": {
        "type": "Point",
        "coordinates": [
          25.2973117,
          42.8319447
        ]
      },
      "properties": {
        "id": 9632943216,
        "osm_type": "node"
      }
    },
    {
      "type": "Feature",
      "geometry": {
        "type": "Point",
        "coordinates": [
          25.0078316,
          42.8314434
        ]
      },
      "properties": {
        "id": 9655664288,
        "osm_type": "node"
      }
    },
    {
      "type": "Feature",
      "geometry": {
        "type": "Point",
        "coordinates": [
          25.1114774,
          42.8125284
        ]
      },
      "properties": {
        "id": 9656685177,
        "osm_type": "node"
      }
    },
    {
      "type": "Feature",
      "geometry": {
        "type": "Point",
        "coordinates": [
          25.2346943,
          42.8846984
        ]
      },
      "properties": {
        "id": 9656834536,
        "osm_type": "node"
      }
    },
    {
      "type": "Feature",
      "geometry": {
        "type": "Point",
        "coordinates": [
          25.0134135,
          43.0241774
        ]
      },
      "properties": {
        "id": 9664449390,
        "osm_type": "node"
      }
    },
    {
      "type": "Feature",
      "geometry": {
        "type": "Point",
        "coordinates": [
          25.2388555,
          42.8837509
        ]
      },
      "properties": {
        "id": 9667309899,
        "osm_type": "node"
      }
    },
    {
      "type": "Feature",
      "geometry": {
        "type": "Point",
        "coordinates": [
          25.4290876,
          42.9640881
        ]
      },
      "properties": {
        "id": 9668689103,
        "osm_type": "node"
      }
    },
    {
      "type": "Feature",
      "geometry": {
        "type": "Point",
        "coordinates": [
          25.3598794,
          42.7939011
        ]
      },
      "properties": {
        "id": 9682135166,
        "osm_type": "node"
      }
    },
    {
      "type": "Feature",
      "geometry": {
        "type": "Point",
        "coordinates": [
          25.3609279,
          42.7856704
        ]
      },
      "properties": {
        "id": 9682211444,
        "osm_type": "node"
      }
    },
    {
      "type": "Feature",
      "geometry": {
        "type": "Point",
        "coordinates": [
          25.3657076,
          42.7713194
        ]
      },
      "properties": {
        "id": 9682211452,
        "osm_type": "node"
      }
    },
    {
      "type": "Feature",
      "geometry": {
        "type": "Point",
        "coordinates": [
          25.4739287,
          42.7868862
        ]
      },
      "properties": {
        "id": 9705657207,
        "osm_type": "node"
      }
    },
    {
      "type": "Feature",
      "geometry": {
        "type": "Point",
        "coordinates": [
          25.390779,
          42.8679661
        ]
      },
      "properties": {
        "id": 9720421024,
        "osm_type": "node"
      }
    },
    {
      "type": "Feature",
      "geometry": {
        "type": "Point",
        "coordinates": [
          25.3478064,
          42.8569977
        ]
      },
      "properties": {
        "id": 9721872739,
        "osm_type": "node"
      }
    },
    {
      "type": "Feature",
      "geometry": {
        "type": "Point",
        "coordinates": [
          25.4673791,
          42.8549347
        ]
      },
      "properties": {
        "id": 9725487617,
        "osm_type": "node"
      }
    },
    {
      "type": "Feature",
      "geometry": {
        "type": "Point",
        "coordinates": [
          25.3433577,
          42.9309707
        ]
      },
      "properties": {
        "id": 9950409659,
        "osm_type": "node",
        "opening_hours": "24/7",
        "fee": "no",
        "seasonal": "no"
      }
    },
    {
      "type": "Feature",
      "geometry": {
        "type": "Point",
        "coordinates": [
          25.3431882,
          42.9307063
        ]
      },
      "properties": {
        "id": 9950409660,
        "osm_type": "node",
        "opening_hours": "24/7",
        "fee": "no",
        "seasonal": "no"
      }
    },
    {
      "type": "Feature",
      "geometry": {
        "type": "Point",
        "coordinates": [
          25.5302495,
          42.7747065
        ]
      },
      "properties": {
        "id": 9985653029,
        "osm_type": "node",
        "name": "Извор „Царица“"
      }
    },
    {
      "type": "Feature",
      "geometry": {
        "type": "Point",
        "coordinates": [
          25.1229703,
          42.7791484
        ]
      },
      "properties": {
        "id": 10016559889,
        "osm_type": "node"
      }
    },
    {
      "type": "Feature",
      "geometry": {
        "type": "Point",
        "coordinates": [
          25.0735609,
          42.8628842
        ]
      },
      "properties": {
        "id": 10016664688,
        "osm_type": "node"
      }
    },
    {
      "type": "Feature",
      "geometry": {
        "type": "Point",
        "coordinates": [
          24.9085679,
          42.9997261
        ]
      },
      "properties": {
        "id": 10055383389,
        "osm_type": "node"
      }
    },
    {
      "type": "Feature",
      "geometry": {
        "type": "Point",
        "coordinates": [
          24.9313209,
          43.0015611
        ]
      },
      "properties": {
        "id": 10055406136,
        "osm_type": "node"
      }
    },
    {
      "type": "Feature",
      "geometry": {
        "type": "Point",
        "coordinates": [
          25.1771,
          42.8804125
        ]
      },
      "properties": {
        "id": 10055410522,
        "osm_type": "node"
      }
    },
    {
      "type": "Feature",
      "geometry": {
        "type": "Point",
        "coordinates": [
          25.4565454,
          42.934868
        ]
      },
      "properties": {
        "id": 10126914676,
        "osm_type": "node"
      }
    },
    {
      "type": "Feature",
      "geometry": {
        "type": "Point",
        "coordinates": [
          25.4730511,
          42.9748121
        ]
      },
      "properties": {
        "id": 10177356382,
        "osm_type": "node"
      }
    },
    {
      "type": "Feature",
      "geometry": {
        "type": "Point",
        "coordinates": [
          25.4771824,
          42.9715328
        ]
      },
      "properties": {
        "id": 10181125160,
        "osm_type": "node"
      }
    },
    {
      "type": "Feature",
      "geometry": {
        "type": "Point",
        "coordinates": [
          25.4769962,
          42.9796942
        ]
      },
      "properties": {
        "id": 10186590483,
        "osm_type": "node"
      }
    },
    {
      "type": "Feature",
      "geometry": {
        "type": "Point",
        "coordinates": [
          25.4746081,
          42.9734364
        ]
      },
      "properties": {
        "id": 10186933322,
        "osm_type": "node"
      }
    },
    {
      "type": "Feature",
      "geometry": {
        "type": "Point",
        "coordinates": [
          25.4746432,
          42.9739656
        ]
      },
      "properties": {
        "id": 10198266844,
        "osm_type": "node"
      }
    },
    {
      "type": "Feature",
      "geometry": {
        "type": "Point",
        "coordinates": [
          25.4522433,
          42.9537648
        ]
      },
      "properties": {
        "id": 10204501430,
        "osm_type": "node",
        "name": "Св. Марина"
      }
    },
    {
      "type": "Feature",
      "geometry": {
        "type": "Point",
        "coordinates": [
          25.4717246,
          42.9734137
        ]
      },
      "properties": {
        "id": 10204730011,
        "osm_type": "node"
      }
    },
    {
      "type": "Feature",
      "geometry": {
        "type": "Point",
        "coordinates": [
          25.3609325,
          42.9031083
        ]
      },
      "properties": {
        "id": 10268110902,
        "osm_type": "node"
      }
    },
    {
      "type": "Feature",
      "geometry": {
        "type": "Point",
        "coordinates": [
          25.3849203,
          42.8892643
        ]
      },
      "properties": {
        "id": 10780810938,
        "osm_type": "node"
      }
    },
    {
      "type": "Feature",
      "geometry": {
        "type": "Point",
        "coordinates": [
          25.2848543,
          42.8125262
        ]
      },
      "properties": {
        "id": 10815268711,
        "osm_type": "node"
      }
    },
    {
      "type": "Feature",
      "geometry": {
        "type": "Point",
        "coordinates": [
          25.5248102,
          42.8805737
        ]
      },
      "properties": {
        "id": 11112649448,
        "osm_type": "node"
      }
    },
    {
      "type": "Feature",
      "geometry": {
        "type": "Point",
        "coordinates": [
          25.4686153,
          43.0334198
        ]
      },
      "properties": {
        "id": 11215495706,
        "osm_type": "node"
      }
    },
    {
      "type": "Feature",
      "geometry": {
        "type": "Point",
        "coordinates": [
          25.3169285,
          42.8731122
        ]
      },
      "properties": {
        "id": 11217627518,
        "osm_type": "node"
      }
    },
    {
      "type": "Feature",
      "geometry": {
        "type": "Point",
        "coordinates": [
          25.5555771,
          42.7671915
        ]
      },
      "properties": {
        "id": 11409127675,
        "osm_type": "node"
      }
    },
    {
      "type": "Feature",
      "geometry": {
        "type": "Point",
        "coordinates": [
          25.4006275,
          42.9550626
        ]
      },
      "properties": {
        "id": 11724969205,
        "osm_type": "node",
        "access": "yes",
        "opening_hours": "24/7",
        "fee": "no",
        "seasonal": "no",
        "indoor": "no"
      }
    },
    {
      "type": "Feature",
      "geometry": {
        "type": "Point",
        "coordinates": [
          25.3808868,
          42.9414475
        ]
      },
      "properties": {
        "id": 11786774805,
        "osm_type": "node",
        "access": "yes",
        "opening_hours": "24/7",
        "fee": "no",
        "seasonal": "no",
        "indoor": "no"
      }
    },
    {
      "type": "Feature",
      "geometry": {
        "type": "Point",
        "coordinates": [
          25.3910427,
          42.9493104
        ]
      },
      "properties": {
        "id": 11786806484,
        "osm_type": "node",
        "access": "yes",
        "opening_hours": "24/7",
        "fee": "no",
        "seasonal": "no",
        "indoor": "no"
      }
    },
    {
      "type": "Feature",
      "geometry": {
        "type": "Point",
        "coordinates": [
          25.4308914,
          42.9538279
        ]
      },
      "properties": {
        "id": 11986133922,
        "osm_type": "node"
      }
    },
    {
      "type": "Feature",
      "geometry": {
        "type": "Point",
        "coordinates": [
          25.3114635,
          42.9424775
        ]
      },
      "properties": {
        "id": 11986149072,
        "osm_type": "node"
      }
    },
    {
      "type": "Feature",
      "geometry": {
        "type": "Point",
        "coordinates": [
          25.3004775,
          42.9507721
        ]
      },
      "properties": {
        "id": 11986149967,
        "osm_type": "node"
      }
    },
    {
      "type": "Feature",
      "geometry": {
        "type": "Point",
        "coordinates": [
          25.4988317,
          42.7906725
        ]
      },
      "properties": {
        "id": 11992047513,
        "osm_type": "node",
        "name": "Чешма",
        "opening_hours": "24/7"
      }
    },
    {
      "type": "Feature",
      "geometry": {
        "type": "Point",
        "coordinates": [
          25.4153828,
          42.9697741
        ]
      },
      "properties": {
        "id": 12037268961,
        "osm_type": "node",
        "name": "Царица Йоана",
        "access": "yes",
        "opening_hours": "24/7",
        "fee": "no",
        "seasonal": "no",
        "indoor": "no"
      }
    },
    {
      "type": "Feature",
      "geometry": {
        "type": "Point",
        "coordinates": [
          25.400713,
          42.9840057
        ]
      },
      "properties": {
        "id": 12037316089,
        "osm_type": "node"
      }
    },
    {
      "type": "Feature",
      "geometry": {
        "type": "Point",
        "coordinates": [
          25.4325197,
          42.9500295
        ]
      },
      "properties": {
        "id": 12118222738,
        "osm_type": "node",
        "seasonal": "yes"
      }
    },
    {
      "type": "Feature",
      "geometry": {
        "type": "Point",
        "coordinates": [
          25.423603,
          42.8720074
        ]
      },
      "properties": {
        "id": 12120514182,
        "osm_type": "node"
      }
    },
    {
      "type": "Feature",
      "geometry": {
        "type": "Point",
        "coordinates": [
          25.3203224,
          42.872798
        ]
      },
      "properties": {
        "id": 12121650917,
        "osm_type": "node"
      }
    },
    {
      "type": "Feature",
      "geometry": {
        "type": "Point",
        "coordinates": [
          25.3172158,
          42.8707644
        ]
      },
      "properties": {
        "id": 12749676107,
        "osm_type": "node",
        "access": "yes",
        "fee": "no"
      }
    },
    {
      "type": "Feature",
      "geometry": {
        "type": "Point",
        "coordinates": [
          25.397438,
          42.9380442
        ]
      },
      "properties": {
        "id": 13036845173,
        "osm_type": "node",
        "access": "yes",
        "opening_hours": "24/7",
        "fee": "no",
        "seasonal": "no"
      }
    },
    {
      "type": "Feature",
      "geometry": {
        "type": "Point",
        "coordinates": [
          25.3769964,
          42.9736991
        ]
      },
      "properties": {
        "id": 13059670452,
        "osm_type": "node",
        "fee": "no"
      }
    },
    {
      "type": "Feature",
      "geometry": {
        "type": "Point",
        "coordinates": [
          25.2927329,
          42.9068643
        ]
      },
      "properties": {
        "id": 13068219099,
        "osm_type": "node",
        "fee": "no"
      }
    },
    {
      "type": "Feature",
      "geometry": {
        "type": "Point",
        "coordinates": [
          25.2989762,
          42.8051699
        ]
      },
      "properties": {
        "id": 13128280601,
        "osm_type": "node",
        "name": "Вода"
      }
    },
    {
      "type": "Feature",
      "geometry": {
        "type": "Point",
        "coordinates": [
          25.3922811,
          42.9501945
        ]
      },
      "properties": {
        "id": 13399497306,
        "osm_type": "node",
        "fee": "no",
        "seasonal": "no"
      }
    }
  ]
}