{
  "type": "FeatureCollection",
  "features": [
    {
      "type": "Feature",
      "geometry": {
        "type": "Point",
        "coordinates": [
          30.5705849,
          38.7741357
        ]
      },
      "properties": {
        "id": 112559973,
        "osm_type": "node",
        "name": "Hido",
        "chain": "unknown"
      }
    },
    {
      "type": "Feature",
      "geometry": {
        "type": "Point",
        "coordinates": [
          30.220841,
          38.5238387
        ]
      },
      "properties": {
        "id": 310402691,
        "osm_type": "node",
        "name": "Adalya Sucuk Döner",
        "chain": "unknown"
      }
    },
    {
      "type": "Feature",
      "geometry": {
        "type": "Point",
        "coordinates": [
          30.4551252,
          38.7901328
        ]
      },
      "properties": {
        "id": 1869676233,
        "osm_type": "node",
        "name": "McDonald's",
        "brand": "McDonald's",
        "operator": "McDonald's",
        "brand:wikidata": "Q38076",
        "cuisine": "burger",
        "chain": "mcdonalds"
      }
    },
    {
      "type": "Feature",
      "geometry": {
        "type": "Point",
        "coordinates": [
          30.534255,
          38.8115659
        ]
      },
      "properties": {
        "id": 3123736431,
        "osm_type": "node",
        "chain": "unknown"
      }
    },
    {
      "type": "Feature",
      "geometry": {
        "type": "Point",
        "coordinates": [
          30.5421357,
          38.7567929
        ]
      },
      "properties": {
        "id": 3124242530,
        "osm_type": "node",
        "name": "Burger King",
        "brand": "Burger King",
        "brand:wikidata": "Q177054",
        "cuisine": "burger",
        "chain": "burger_king"
      }
    },
    {
      "type": "Feature",
      "geometry": {
        "type": "Point",
        "coordinates": [
          30.2711796,
          38.4636979
        ]
      },
      "properties": {
        "id": 9788917814,
        "osm_type": "node",
        "name": "Mangal Köfte Evi",
        "phone": "+90 536 648 4064",
        "cuisine": "turkish",
        "chain": "unknown"
      }
    },
    {
      "type": "Feature",
      "geometry": {
        "type": "Point",
        "coordinates": [
          30.5412583,
          38.753163
        ]
      },
      "properties": {
        "id": 13296777701,
        "osm_type": "node",
        "chain": "unknown"
      }
    },
    {
      "type": "Feature",
      "geometry": {
        "type": "Point",
        "coordinates": [
          30.5395001,
          38.8137647
        ]
      },
      "properties": {
        "id": 13580694276,
        "osm_type": "node",
        "name": "SmashLab",
        "cuisine": "burger",
        "chain": "unknown"
      }
    }
  ]
}