{
  "type": "FeatureCollection",
  "features": [
    {
      "type": "Feature",
      "geometry": {
        "type": "Point",
        "coordinates": [
          0.6798066,
          47.3492442
        ]
      },
      "properties": {
        "id": 1696320871,
        "osm_type": "node",
        "vending": "drinks"
      }
    },
    {
      "type": "Feature",
      "geometry": {
        "type": "Point",
        "coordinates": [
          1.5129953,
          47.6161869
        ]
      },
      "properties": {
        "id": 2977773811,
        "osm_type": "node",
        "vending": "drinks"
      }
    },
    {
      "type": "Feature",
      "geometry": {
        "type": "Point",
        "coordinates": [
          1.9070854,
          47.8995231
        ]
      },
      "properties": {
        "id": 3423827820,
        "osm_type": "node",
        "name": "Ma Pizza ... la cantine",
        "opening_hours": "24/7",
        "vending": "pizza",
        "operator": "My Pizza by la Cantine"
      }
    },
    {
      "type": "Feature",
      "geometry": {
        "type": "Point",
        "coordinates": [
          0.7237138,
          47.3855536
        ]
      },
      "properties": {
        "id": 3452050074,
        "osm_type": "node",
        "vending": "food",
        "brand": "Selecta",
        "operator": "Selecta"
      }
    },
    {
      "type": "Feature",
      "geometry": {
        "type": "Point",
        "coordinates": [
          0.7233197,
          47.3856178
        ]
      },
      "properties": {
        "id": 3452050077,
        "osm_type": "node",
        "vending": "food",
        "operator": "Selecta"
      }
    },
    {
      "type": "Feature",
      "geometry": {
        "type": "Point",
        "coordinates": [
          0.7233065,
          47.3856362
        ]
      },
      "properties": {
        "id": 3452050080,
        "osm_type": "node",
        "vending": "coffee",
        "brand": "Selecta",
        "operator": "Selecta"
      }
    },
    {
      "type": "Feature",
      "geometry": {
        "type": "Point",
        "coordinates": [
          0.723735,
          47.385771
        ]
      },
      "properties": {
        "id": 3452050088,
        "osm_type": "node",
        "vending": "drinks;sweets;coffee",
        "operator": "Selecta"
      }
    },
    {
      "type": "Feature",
      "geometry": {
        "type": "Point",
        "coordinates": [
          0.7241447,
          47.3858665
        ]
      },
      "properties": {
        "id": 3452061197,
        "osm_type": "node",
        "vending": "food",
        "brand": "Selecta",
        "operator": "Selecta"
      }
    },
    {
      "type": "Feature",
      "geometry": {
        "type": "Point",
        "coordinates": [
          1.0212047,
          47.8220304
        ]
      },
      "properties": {
        "id": 3904921820,
        "osm_type": "node",
        "vending": "drinks"
      }
    },
    {
      "type": "Feature",
      "geometry": {
        "type": "Point",
        "coordinates": [
          0.6939511,
          47.3890825
        ]
      },
      "properties": {
        "id": 3932040047,
        "osm_type": "node",
        "vending": "food",
        "brand": "Selecta",
        "operator": "Selecta"
      }
    },
    {
      "type": "Feature",
      "geometry": {
        "type": "Point",
        "coordinates": [
          0.6938488,
          47.3893878
        ]
      },
      "properties": {
        "id": 3932047477,
        "osm_type": "node",
        "vending": "food",
        "brand": "Selecta",
        "operator": "Selecta"
      }
    },
    {
      "type": "Feature",
      "geometry": {
        "type": "Point",
        "coordinates": [
          0.6935749,
          47.3893561
        ]
      },
      "properties": {
        "id": 3932047485,
        "osm_type": "node",
        "vending": "food",
        "brand": "Selecta",
        "operator": "Selecta"
      }
    },
    {
      "type": "Feature",
      "geometry": {
        "type": "Point",
        "coordinates": [
          0.6939849,
          47.3894695
        ]
      },
      "properties": {
        "id": 3932047489,
        "osm_type": "node",
        "vending": "food",
        "brand": "Selecta",
        "operator": "Selecta"
      }
    },
    {
      "type": "Feature",
      "geometry": {
        "type": "Point",
        "coordinates": [
          0.6942084,
          47.3895019
        ]
      },
      "properties": {
        "id": 3932047504,
        "osm_type": "node",
        "vending": "coffee",
        "brand": "Selecta",
        "operator": "Selecta"
      }
    },
    {
      "type": "Feature",
      "geometry": {
        "type": "Point",
        "coordinates": [
          0.6941201,
          47.389602
        ]
      },
      "properties": {
        "id": 3932047529,
        "osm_type": "node",
        "vending": "food",
        "brand": "Selecta",
        "operator": "Selecta"
      }
    },
    {
      "type": "Feature",
      "geometry": {
        "type": "Point",
        "coordinates": [
          0.694107,
          47.3896113
        ]
      },
      "properties": {
        "id": 3932047531,
        "osm_type": "node",
        "vending": "coffee",
        "brand": "Selecta",
        "operator": "Selecta"
      }
    },
    {
      "type": "Feature",
      "geometry": {
        "type": "Point",
        "coordinates": [
          0.693503,
          47.389703
        ]
      },
      "properties": {
        "id": 3932047542,
        "osm_type": "node",
        "vending": "food",
        "brand": "Selecta",
        "operator": "Selecta"
      }
    },
    {
      "type": "Feature",
      "geometry": {
        "type": "Point",
        "coordinates": [
          0.6935237,
          47.3897158
        ]
      },
      "properties": {
        "id": 3932047544,
        "osm_type": "node",
        "vending": "coffee",
        "brand": "Selecta",
        "operator": "Selecta"
      }
    },
    {
      "type": "Feature",
      "geometry": {
        "type": "Point",
        "coordinates": [
          0.6936065,
          47.3897561
        ]
      },
      "properties": {
        "id": 3932047549,
        "osm_type": "node",
        "vending": "drinks",
        "brand": "Selecta",
        "operator": "Selecta"
      }
    },
    {
      "type": "Feature",
      "geometry": {
        "type": "Point",
        "coordinates": [
          0.6936393,
          47.3897696
        ]
      },
      "properties": {
        "id": 3932047550,
        "osm_type": "node",
        "vending": "food",
        "brand": "Selecta",
        "operator": "Selecta"
      }
    },
    {
      "type": "Feature",
      "geometry": {
        "type": "Point",
        "coordinates": [
          0.69278,
          47.3899078
        ]
      },
      "properties": {
        "id": 3932047555,
        "osm_type": "node",
        "vending": "drinks",
        "brand": "Selecta",
        "operator": "Selecta"
      }
    },
    {
      "type": "Feature",
      "geometry": {
        "type": "Point",
        "coordinates": [
          0.6928004,
          47.3899137
        ]
      },
      "properties": {
        "id": 3932047757,
        "osm_type": "node",
        "vending": "food",
        "brand": "Selecta",
        "operator": "Selecta"
      }
    },
    {
      "type": "Feature",
      "geometry": {
        "type": "Point",
        "coordinates": [
          1.5054619,
          48.5651204
        ]
      },
      "properties": {
        "id": 4331303588,
        "osm_type": "node",
        "vending": "bread"
      }
    },
    {
      "type": "Feature",
      "geometry": {
        "type": "Point",
        "coordinates": [
          1.2602989,
          48.3507523
        ]
      },
      "properties": {
        "id": 4597771871,
        "osm_type": "node",
        "name": "La Belle Pizza 28",
        "vending": "pizza"
      }
    },
    {
      "type": "Feature",
      "geometry": {
        "type": "Point",
        "coordinates": [
          1.9047001,
          48.1423775
        ]
      },
      "properties": {
        "id": 4690337655,
        "osm_type": "node",
        "name": "Distributeur de baguettes",
        "vending": "bread"
      }
    },
    {
      "type": "Feature",
      "geometry": {
        "type": "Point",
        "coordinates": [
          1.6814668,
          48.6050607
        ]
      },
      "properties": {
        "id": 4895471562,
        "osm_type": "node",
        "vending": "drinks;food",
        "brand": "Selecta",
        "operator": "Selecta"
      }
    },
    {
      "type": "Feature",
      "geometry": {
        "type": "Point",
        "coordinates": [
          1.4380266,
          48.6965724
        ]
      },
      "properties": {
        "id": 5710912197,
        "osm_type": "node",
        "vending": "drinks"
      }
    },
    {
      "type": "Feature",
      "geometry": {
        "type": "Point",
        "coordinates": [
          1.066902,
          47.3294577
        ]
      },
      "properties": {
        "id": 5777590853,
        "osm_type": "node",
        "vending": "drinks"
      }
    },
    {
      "type": "Feature",
      "geometry": {
        "type": "Point",
        "coordinates": [
          0.6835684,
          47.3948981
        ]
      },
      "properties": {
        "id": 6147762594,
        "osm_type": "node",
        "name": "Padova Pizza",
        "vending": "pizza"
      }
    },
    {
      "type": "Feature",
      "geometry": {
        "type": "Point",
        "coordinates": [
          0.7947418,
          47.3021098
        ]
      },
      "properties": {
        "id": 6743553490,
        "osm_type": "node",
        "name": "Gang of Pizza Esvres-sur-Indre",
        "opening_hours": "24/7",
        "vending": "pizza",
        "operator": "Gang of Pizza"
      }
    },
    {
      "type": "Feature",
      "geometry": {
        "type": "Point",
        "coordinates": [
          1.6528805,
          48.5321206
        ]
      },
      "properties": {
        "id": 6852143803,
        "osm_type": "node",
        "vending": "bread"
      }
    },
    {
      "type": "Feature",
      "geometry": {
        "type": "Point",
        "coordinates": [
          1.839872,
          48.3426249
        ]
      },
      "properties": {
        "id": 6909920202,
        "osm_type": "node",
        "vending": "food",
        "operator": "La Ferme de Beauce"
      }
    },
    {
      "type": "Feature",
      "geometry": {
        "type": "Point",
        "coordinates": [
          0.500905,
          47.3282403
        ]
      },
      "properties": {
        "id": 6960074645,
        "osm_type": "node",
        "opening_hours": "24/7",
        "vending": "cheese;food;paté"
      }
    },
    {
      "type": "Feature",
      "geometry": {
        "type": "Point",
        "coordinates": [
          0.5749106,
          47.2617093
        ]
      },
      "properties": {
        "id": 7222716797,
        "osm_type": "node",
        "name": "Ma Boulangère",
        "vending": "bread",
        "operator": "Boulangerie Tiano à Thilouze"
      }
    },
    {
      "type": "Feature",
      "geometry": {
        "type": "Point",
        "coordinates": [
          0.5816604,
          47.2683677
        ]
      },
      "properties": {
        "id": 7222748073,
        "osm_type": "node",
        "name": "maBaguette",
        "vending": "bread"
      }
    },
    {
      "type": "Feature",
      "geometry": {
        "type": "Point",
        "coordinates": [
          0.995014,
          47.3259529
        ]
      },
      "properties": {
        "id": 7342553152,
        "osm_type": "node",
        "name": "Gang of Pizza | Montlouis-sur-Loire",
        "opening_hours": "24/7",
        "vending": "pizza",
        "operator": "Gang of Pizza"
      }
    },
    {
      "type": "Feature",
      "geometry": {
        "type": "Point",
        "coordinates": [
          1.7264,
          47.3457377
        ]
      },
      "properties": {
        "id": 7347254416,
        "osm_type": "node",
        "name": "Gang of Pizza Pruniers en Sologne",
        "opening_hours": "24/7",
        "vending": "pizza",
        "operator": "Gang of Pizza"
      }
    },
    {
      "type": "Feature",
      "geometry": {
        "type": "Point",
        "coordinates": [
          1.5380488,
          47.2852291
        ]
      },
      "properties": {
        "id": 7347254417,
        "osm_type": "node",
        "name": "Gang of Pizza Selles sur Cher",
        "opening_hours": "24/7",
        "vending": "pizza",
        "operator": "Gang of Pizza"
      }
    },
    {
      "type": "Feature",
      "geometry": {
        "type": "Point",
        "coordinates": [
          1.6407982,
          47.2461878
        ]
      },
      "properties": {
        "id": 7347254418,
        "osm_type": "node",
        "name": "Gang of Pizza Chabris",
        "opening_hours": "24/7",
        "vending": "pizza",
        "operator": "Gang of Pizza"
      }
    },
    {
      "type": "Feature",
      "geometry": {
        "type": "Point",
        "coordinates": [
          1.6062349,
          47.4125014
        ]
      },
      "properties": {
        "id": 7347254419,
        "osm_type": "node",
        "name": "Gang of Pizza Mur de Sologne",
        "opening_hours": "24/7",
        "vending": "pizza",
        "operator": "Gang of Pizza"
      }
    },
    {
      "type": "Feature",
      "geometry": {
        "type": "Point",
        "coordinates": [
          0.8140558,
          47.3869198
        ]
      },
      "properties": {
        "id": 7357178517,
        "osm_type": "node",
        "name": "Gang of pizza (Montlouis-sur-Loire)",
        "opening_hours": "24/7",
        "vending": "pizza",
        "operator": "Gang of Pizza ( Montlouis-sur-Loire )"
      }
    },
    {
      "type": "Feature",
      "geometry": {
        "type": "Point",
        "coordinates": [
          0.7880174,
          47.0247272
        ]
      },
      "properties": {
        "id": 7386130728,
        "osm_type": "node",
        "vending": "bread"
      }
    },
    {
      "type": "Feature",
      "geometry": {
        "type": "Point",
        "coordinates": [
          0.1268547,
          47.236542
        ]
      },
      "properties": {
        "id": 7744676934,
        "osm_type": "node",
        "vending": "bread"
      }
    },
    {
      "type": "Feature",
      "geometry": {
        "type": "Point",
        "coordinates": [
          0.1929125,
          47.1522224
        ]
      },
      "properties": {
        "id": 7834900051,
        "osm_type": "node",
        "vending": "bread"
      }
    },
    {
      "type": "Feature",
      "geometry": {
        "type": "Point",
        "coordinates": [
          0.2140279,
          47.2968192
        ]
      },
      "properties": {
        "id": 7948991295,
        "osm_type": "node",
        "name": "Le garage à légumes",
        "opening_hours": "24/7",
        "vending": "food"
      }
    },
    {
      "type": "Feature",
      "geometry": {
        "type": "Point",
        "coordinates": [
          1.33143,
          47.5856561
        ]
      },
      "properties": {
        "id": 8042680592,
        "osm_type": "node",
        "vending": "drinks"
      }
    },
    {
      "type": "Feature",
      "geometry": {
        "type": "Point",
        "coordinates": [
          0.860918,
          47.7559075
        ]
      },
      "properties": {
        "id": 8228709080,
        "osm_type": "node",
        "vending": "food",
        "operator": "Pizza Donatello"
      }
    },
    {
      "type": "Feature",
      "geometry": {
        "type": "Point",
        "coordinates": [
          0.1993914,
          47.1511399
        ]
      },
      "properties": {
        "id": 8322471185,
        "osm_type": "node",
        "name": "Distributeur de pizzas",
        "vending": "pizza"
      }
    },
    {
      "type": "Feature",
      "geometry": {
        "type": "Point",
        "coordinates": [
          1.6298848,
          48.0106235
        ]
      },
      "properties": {
        "id": 8440979342,
        "osm_type": "node",
        "vending": "bread"
      }
    },
    {
      "type": "Feature",
      "geometry": {
        "type": "Point",
        "coordinates": [
          1.6976186,
          48.0005368
        ]
      },
      "properties": {
        "id": 8440979345,
        "osm_type": "node",
        "vending": "bread"
      }
    },
    {
      "type": "Feature",
      "geometry": {
        "type": "Point",
        "coordinates": [
          0.9221954,
          47.3211133
        ]
      },
      "properties": {
        "id": 8480634201,
        "osm_type": "node",
        "name": "Distributeur de pizzas",
        "opening_hours": "24/7",
        "vending": "pizza",
        "operator": "Pizz'à toutes heures"
      }
    },
    {
      "type": "Feature",
      "geometry": {
        "type": "Point",
        "coordinates": [
          0.7231303,
          47.355441
        ]
      },
      "properties": {
        "id": 8481781142,
        "osm_type": "node",
        "name": "Distributeur de pizzas",
        "opening_hours": "24/7",
        "vending": "pizza",
        "operator": "Padova Pizza"
      }
    },
    {
      "type": "Feature",
      "geometry": {
        "type": "Point",
        "coordinates": [
          0.7678835,
          47.2299252
        ]
      },
      "properties": {
        "id": 8489887109,
        "osm_type": "node",
        "name": "Distributeur de pizzas",
        "opening_hours": "24/7",
        "vending": "pizza",
        "operator": "Padova Pizza"
      }
    },
    {
      "type": "Feature",
      "geometry": {
        "type": "Point",
        "coordinates": [
          0.1730233,
          47.1341226
        ]
      },
      "properties": {
        "id": 8494123230,
        "osm_type": "node",
        "vending": "bread"
      }
    },
    {
      "type": "Feature",
      "geometry": {
        "type": "Point",
        "coordinates": [
          1.3430543,
          48.0718117
        ]
      },
      "properties": {
        "id": 8503424164,
        "osm_type": "node",
        "vending": "food"
      }
    },
    {
      "type": "Feature",
      "geometry": {
        "type": "Point",
        "coordinates": [
          0.83658,
          47.6494183
        ]
      },
      "properties": {
        "id": 8574235393,
        "osm_type": "node",
        "vending": "bread"
      }
    },
    {
      "type": "Feature",
      "geometry": {
        "type": "Point",
        "coordinates": [
          0.1673739,
          47.2745986
        ]
      },
      "properties": {
        "id": 8767358315,
        "osm_type": "node",
        "vending": "bread"
      }
    },
    {
      "type": "Feature",
      "geometry": {
        "type": "Point",
        "coordinates": [
          2.5703448,
          47.0990874
        ]
      },
      "properties": {
        "id": 8897779208,
        "osm_type": "node",
        "vending": "bread"
      }
    },
    {
      "type": "Feature",
      "geometry": {
        "type": "Point",
        "coordinates": [
          0.3988535,
          47.52065
        ]
      },
      "properties": {
        "id": 9016139712,
        "osm_type": "node",
        "vending": "bread"
      }
    },
    {
      "type": "Feature",
      "geometry": {
        "type": "Point",
        "coordinates": [
          0.8820622,
          47.4778337
        ]
      },
      "properties": {
        "id": 9060878510,
        "osm_type": "node",
        "name": "Distributeur Automatique de Pizzas",
        "vending": "pizza",
        "operator": "Gang Of Pizza"
      }
    },
    {
      "type": "Feature",
      "geometry": {
        "type": "Point",
        "coordinates": [
          0.9085624,
          47.6184627
        ]
      },
      "properties": {
        "id": 9063867392,
        "osm_type": "node",
        "vending": "bread",
        "operator": "Fournil du Madelon, artisan boulanger, Villedomer"
      }
    },
    {
      "type": "Feature",
      "geometry": {
        "type": "Point",
        "coordinates": [
          0.1625244,
          47.2467168
        ]
      },
      "properties": {
        "id": 9173251925,
        "osm_type": "node",
        "vending": "bread"
      }
    },
    {
      "type": "Feature",
      "geometry": {
        "type": "Point",
        "coordinates": [
          0.1191337,
          47.1818567
        ]
      },
      "properties": {
        "id": 9176818041,
        "osm_type": "node",
        "vending": "bread"
      }
    },
    {
      "type": "Feature",
      "geometry": {
        "type": "Point",
        "coordinates": [
          1.2646768,
          48.1467114
        ]
      },
      "properties": {
        "id": 9238993208,
        "osm_type": "node",
        "vending": "bread"
      }
    },
    {
      "type": "Feature",
      "geometry": {
        "type": "Point",
        "coordinates": [
          1.8126342,
          47.7490756
        ]
      },
      "properties": {
        "id": 9309024277,
        "osm_type": "node",
        "name": "Paolino Pizza",
        "vending": "pizza"
      }
    },
    {
      "type": "Feature",
      "geometry": {
        "type": "Point",
        "coordinates": [
          1.890054,
          47.959282
        ]
      },
      "properties": {
        "id": 9318351738,
        "osm_type": "node",
        "name": "Ma Pizza ... la cantine",
        "vending": "pizza",
        "operator": "My Pizza by la Cantine"
      }
    },
    {
      "type": "Feature",
      "geometry": {
        "type": "Point",
        "coordinates": [
          0.5923245,
          47.2707978
        ]
      },
      "properties": {
        "id": 9419980285,
        "osm_type": "node",
        "name": "Distributeur de pizzas",
        "vending": "pizza"
      }
    },
    {
      "type": "Feature",
      "geometry": {
        "type": "Point",
        "coordinates": [
          1.2018087,
          46.934357
        ]
      },
      "properties": {
        "id": 9498475317,
        "osm_type": "node",
        "vending": "drinks"
      }
    },
    {
      "type": "Feature",
      "geometry": {
        "type": "Point",
        "coordinates": [
          2.242664,
          47.0954617
        ]
      },
      "properties": {
        "id": 9522208982,
        "osm_type": "node",
        "vending": "coffee"
      }
    },
    {
      "type": "Feature",
      "geometry": {
        "type": "Point",
        "coordinates": [
          1.028369,
          48.5660551
        ]
      },
      "properties": {
        "id": 9581572289,
        "osm_type": "node",
        "name": "Délice Pizza",
        "opening_hours": "24/7",
        "vending": "pizza",
        "operator": "Délice Pizza"
      }
    },
    {
      "type": "Feature",
      "geometry": {
        "type": "Point",
        "coordinates": [
          1.2377115,
          48.385603
        ]
      },
      "properties": {
        "id": 9596747456,
        "osm_type": "node",
        "name": "La Belle Pizza 28",
        "vending": "pizza",
        "operator": "La Belle Pizza 28"
      }
    },
    {
      "type": "Feature",
      "geometry": {
        "type": "Point",
        "coordinates": [
          1.1199429,
          47.6062643
        ]
      },
      "properties": {
        "id": 9665900074,
        "osm_type": "node",
        "vending": "food"
      }
    },
    {
      "type": "Feature",
      "geometry": {
        "type": "Point",
        "coordinates": [
          1.4070882,
          47.4895693
        ]
      },
      "properties": {
        "id": 9722524981,
        "osm_type": "node",
        "name": "Distributeur de pizzas Sfizio",
        "vending": "pizza"
      }
    },
    {
      "type": "Feature",
      "geometry": {
        "type": "Point",
        "coordinates": [
          1.4277224,
          47.4283522
        ]
      },
      "properties": {
        "id": 9722524982,
        "osm_type": "node",
        "name": "Le Kiosque à Pizzas",
        "vending": "pizza"
      }
    },
    {
      "type": "Feature",
      "geometry": {
        "type": "Point",
        "coordinates": [
          1.0029574,
          47.3935102
        ]
      },
      "properties": {
        "id": 9794987392,
        "osm_type": "node",
        "name": "Distributeur de pizzas Gang Of Pizza",
        "opening_hours": "24/7",
        "vending": "pizza",
        "operator": "Gang Of Pizza"
      }
    },
    {
      "type": "Feature",
      "geometry": {
        "type": "Point",
        "coordinates": [
          0.893943,
          47.3584599
        ]
      },
      "properties": {
        "id": 9795028527,
        "osm_type": "node",
        "name": "Distributeur de pizzas",
        "vending": "pizza"
      }
    },
    {
      "type": "Feature",
      "geometry": {
        "type": "Point",
        "coordinates": [
          2.1900421,
          48.1166629
        ]
      },
      "properties": {
        "id": 9796954758,
        "osm_type": "node",
        "opening_hours": "24/7",
        "vending": "drinks;coffee;sweets"
      }
    },
    {
      "type": "Feature",
      "geometry": {
        "type": "Point",
        "coordinates": [
          0.8759926,
          47.3637459
        ]
      },
      "properties": {
        "id": 9834067654,
        "osm_type": "node",
        "name": "Goupit",
        "opening_hours": "24/7",
        "vending": "food",
        "operator": "Goupit"
      }
    },
    {
      "type": "Feature",
      "geometry": {
        "type": "Point",
        "coordinates": [
          0.9888329,
          47.3298222
        ]
      },
      "properties": {
        "id": 9835897513,
        "osm_type": "node",
        "name": "Boucherie charcuterie James Doiseau",
        "vending": "food"
      }
    },
    {
      "type": "Feature",
      "geometry": {
        "type": "Point",
        "coordinates": [
          0.9873651,
          47.3281654
        ]
      },
      "properties": {
        "id": 9848586870,
        "osm_type": "node",
        "name": "Distributeur de pizzas",
        "vending": "pizza"
      }
    },
    {
      "type": "Feature",
      "geometry": {
        "type": "Point",
        "coordinates": [
          1.2746986,
          48.4910863
        ]
      },
      "properties": {
        "id": 9857564586,
        "osm_type": "node",
        "name": "Pizzeria La Roma",
        "vending": "pizza"
      }
    },
    {
      "type": "Feature",
      "geometry": {
        "type": "Point",
        "coordinates": [
          0.9819537,
          47.4264001
        ]
      },
      "properties": {
        "id": 9859047370,
        "osm_type": "node",
        "name": "Gang of Pizza Pocé",
        "vending": "pizza",
        "brand": "Gang of Pizza",
        "operator": "Gang of Pizza"
      }
    },
    {
      "type": "Feature",
      "geometry": {
        "type": "Point",
        "coordinates": [
          1.1348096,
          47.4667713
        ]
      },
      "properties": {
        "id": 9863869318,
        "osm_type": "node",
        "vending": "bread",
        "operator": "Ledistribpain"
      }
    },
    {
      "type": "Feature",
      "geometry": {
        "type": "Point",
        "coordinates": [
          2.7427331,
          48.0069171
        ]
      },
      "properties": {
        "id": 9887788228,
        "osm_type": "node",
        "vending": "drinks;sweets",
        "brand": "Selecta",
        "operator": "Selecta"
      }
    },
    {
      "type": "Feature",
      "geometry": {
        "type": "Point",
        "coordinates": [
          2.7428025,
          48.0069608
        ]
      },
      "properties": {
        "id": 9887788230,
        "osm_type": "node",
        "vending": "drinks;sweets",
        "brand": "Selecta",
        "operator": "Selecta"
      }
    },
    {
      "type": "Feature",
      "geometry": {
        "type": "Point",
        "coordinates": [
          2.7427978,
          48.0069752
        ]
      },
      "properties": {
        "id": 9887788231,
        "osm_type": "node",
        "vending": "drinks;sweets",
        "brand": "Selecta",
        "operator": "Selecta"
      }
    },
    {
      "type": "Feature",
      "geometry": {
        "type": "Point",
        "coordinates": [
          0.694243,
          47.4204381
        ]
      },
      "properties": {
        "id": 9909460245,
        "osm_type": "node",
        "name": "Accro Pizz’",
        "vending": "pizza"
      }
    },
    {
      "type": "Feature",
      "geometry": {
        "type": "Point",
        "coordinates": [
          1.0767343,
          48.40283
        ]
      },
      "properties": {
        "id": 9989305542,
        "osm_type": "node",
        "vending": "food",
        "operator": "Ferme des Vitriers"
      }
    },
    {
      "type": "Feature",
      "geometry": {
        "type": "Point",
        "coordinates": [
          1.0251636,
          48.4494101
        ]
      },
      "properties": {
        "id": 9989316039,
        "osm_type": "node",
        "vending": "bread"
      }
    },
    {
      "type": "Feature",
      "geometry": {
        "type": "Point",
        "coordinates": [
          0.6647802,
          47.418538
        ]
      },
      "properties": {
        "id": 10011180474,
        "osm_type": "node",
        "name": "Distributeur de pizzas",
        "vending": "pizza"
      }
    },
    {
      "type": "Feature",
      "geometry": {
        "type": "Point",
        "coordinates": [
          1.2227889,
          48.5152478
        ]
      },
      "properties": {
        "id": 10039821384,
        "osm_type": "node",
        "name": "Ferme de Durbois",
        "vending": "food"
      }
    },
    {
      "type": "Feature",
      "geometry": {
        "type": "Point",
        "coordinates": [
          1.9295799,
          47.7215713
        ]
      },
      "properties": {
        "id": 10125433655,
        "osm_type": "node",
        "name": "Ma Pizza ... la cantine",
        "opening_hours": "24/7",
        "vending": "pizza",
        "operator": "My Pizza by la Cantine"
      }
    },
    {
      "type": "Feature",
      "geometry": {
        "type": "Point",
        "coordinates": [
          1.6770297,
          47.8320128
        ]
      },
      "properties": {
        "id": 10275442461,
        "osm_type": "node",
        "vending": "pizza"
      }
    },
    {
      "type": "Feature",
      "geometry": {
        "type": "Point",
        "coordinates": [
          1.1497657,
          47.3296846
        ]
      },
      "properties": {
        "id": 10292104900,
        "osm_type": "node",
        "name": "Distributeur de pizzas Gang Of Pizza",
        "vending": "pizza",
        "brand": "Gang Of Pizza"
      }
    },
    {
      "type": "Feature",
      "geometry": {
        "type": "Point",
        "coordinates": [
          0.476935,
          47.1468406
        ]
      },
      "properties": {
        "id": 10307420617,
        "osm_type": "node",
        "opening_hours": "24/7",
        "vending": "food",
        "operator": "La Ferme de la Biquette"
      }
    },
    {
      "type": "Feature",
      "geometry": {
        "type": "Point",
        "coordinates": [
          0.6979408,
          47.4257074
        ]
      },
      "properties": {
        "id": 10589343827,
        "osm_type": "node",
        "name": "Pizzas 24/7",
        "opening_hours": "24/7",
        "vending": "pizza"
      }
    },
    {
      "type": "Feature",
      "geometry": {
        "type": "Point",
        "coordinates": [
          1.3720302,
          47.285845
        ]
      },
      "properties": {
        "id": 10594499755,
        "osm_type": "node",
        "name": "Distributeur de pizzas Gang of Pizza",
        "vending": "pizza",
        "brand": "Gang of Pizza"
      }
    },
    {
      "type": "Feature",
      "geometry": {
        "type": "Point",
        "coordinates": [
          0.7837245,
          47.4979912
        ]
      },
      "properties": {
        "id": 10604086744,
        "osm_type": "node",
        "name": "Gang Of Pizza de Monnaie",
        "vending": "pizza",
        "brand": "Gang Of Pizza",
        "operator": "Gang Of Pizza"
      }
    },
    {
      "type": "Feature",
      "geometry": {
        "type": "Point",
        "coordinates": [
          0.6016496,
          47.5005276
        ]
      },
      "properties": {
        "id": 10611635888,
        "osm_type": "node",
        "name": "Padova Pizza - Saint-Antoine-du-Rocher",
        "vending": "pizza",
        "brand": "Padova Pizza",
        "operator": "Padova Pizza"
      }
    },
    {
      "type": "Feature",
      "geometry": {
        "type": "Point",
        "coordinates": [
          1.6995438,
          46.8096744
        ]
      },
      "properties": {
        "id": 10695432356,
        "osm_type": "node",
        "vending": "drinks;sweets",
        "brand": "Selecta",
        "operator": "Selecta"
      }
    },
    {
      "type": "Feature",
      "geometry": {
        "type": "Point",
        "coordinates": [
          1.6996834,
          46.8097786
        ]
      },
      "properties": {
        "id": 10695432365,
        "osm_type": "node",
        "vending": "drinks;sweets",
        "brand": "Selecta",
        "operator": "Selecta"
      }
    },
    {
      "type": "Feature",
      "geometry": {
        "type": "Point",
        "coordinates": [
          2.5424835,
          48.0781532
        ]
      },
      "properties": {
        "id": 10712813582,
        "osm_type": "node",
        "vending": "pizza"
      }
    },
    {
      "type": "Feature",
      "geometry": {
        "type": "Point",
        "coordinates": [
          1.9020333,
          47.9210889
        ]
      },
      "properties": {
        "id": 10779259068,
        "osm_type": "node",
        "name": "Ma Pizza ... la cantine",
        "vending": "pizza",
        "operator": "My Pizza by la Cantine"
      }
    },
    {
      "type": "Feature",
      "geometry": {
        "type": "Point",
        "coordinates": [
          2.0332458,
          47.5341782
        ]
      },
      "properties": {
        "id": 10793079483,
        "osm_type": "node",
        "vending": "food"
      }
    },
    {
      "type": "Feature",
      "geometry": {
        "type": "Point",
        "coordinates": [
          0.1673075,
          47.2749709
        ]
      },
      "properties": {
        "id": 10858700666,
        "osm_type": "node",
        "vending": "pizza"
      }
    },
    {
      "type": "Feature",
      "geometry": {
        "type": "Point",
        "coordinates": [
          0.998271,
          47.1286999
        ]
      },
      "properties": {
        "id": 10934184749,
        "osm_type": "node",
        "vending": "pizza"
      }
    },
    {
      "type": "Feature",
      "geometry": {
        "type": "Point",
        "coordinates": [
          1.0158597,
          47.4170619
        ]
      },
      "properties": {
        "id": 10963668016,
        "osm_type": "node",
        "name": "mabaguette.com",
        "vending": "bread",
        "operator": "Boulangerie de l'Horloge"
      }
    },
    {
      "type": "Feature",
      "geometry": {
        "type": "Point",
        "coordinates": [
          0.6750582,
          47.384649
        ]
      },
      "properties": {
        "id": 10964521994,
        "osm_type": "node",
        "vending": "pizza"
      }
    },
    {
      "type": "Feature",
      "geometry": {
        "type": "Point",
        "coordinates": [
          1.0635477,
          46.6309991
        ]
      },
      "properties": {
        "id": 11007365048,
        "osm_type": "node",
        "opening_hours": "24/7",
        "vending": "food"
      }
    },
    {
      "type": "Feature",
      "geometry": {
        "type": "Point",
        "coordinates": [
          1.8629873,
          47.890828
        ]
      },
      "properties": {
        "id": 11028247969,
        "osm_type": "node",
        "vending": "food"
      }
    },
    {
      "type": "Feature",
      "geometry": {
        "type": "Point",
        "coordinates": [
          1.61355,
          47.7686708
        ]
      },
      "properties": {
        "id": 11061299574,
        "osm_type": "node",
        "name": "Charli Pizz",
        "vending": "pizza"
      }
    },
    {
      "type": "Feature",
      "geometry": {
        "type": "Point",
        "coordinates": [
          1.7796374,
          47.5842459
        ]
      },
      "properties": {
        "id": 11074980792,
        "osm_type": "node",
        "vending": "bread"
      }
    },
    {
      "type": "Feature",
      "geometry": {
        "type": "Point",
        "coordinates": [
          0.4155305,
          47.2974959
        ]
      },
      "properties": {
        "id": 11114382251,
        "osm_type": "node",
        "vending": "bread"
      }
    },
    {
      "type": "Feature",
      "geometry": {
        "type": "Point",
        "coordinates": [
          0.2214412,
          47.2480091
        ]
      },
      "properties": {
        "id": 11123355585,
        "osm_type": "node",
        "opening_hours": "24/7",
        "vending": "bread"
      }
    },
    {
      "type": "Feature",
      "geometry": {
        "type": "Point",
        "coordinates": [
          0.7714833,
          47.228263
        ]
      },
      "properties": {
        "id": 11128530262,
        "osm_type": "node",
        "vending": "bread"
      }
    },
    {
      "type": "Feature",
      "geometry": {
        "type": "Point",
        "coordinates": [
          1.8903229,
          48.3900528
        ]
      },
      "properties": {
        "id": 11162569280,
        "osm_type": "node",
        "opening_hours": "24/7",
        "vending": "coffee"
      }
    },
    {
      "type": "Feature",
      "geometry": {
        "type": "Point",
        "coordinates": [
          1.890314,
          48.3900651
        ]
      },
      "properties": {
        "id": 11162569281,
        "osm_type": "node",
        "opening_hours": "24/7",
        "vending": "drinks;sweets;water"
      }
    },
    {
      "type": "Feature",
      "geometry": {
        "type": "Point",
        "coordinates": [
          0.3902202,
          47.6357938
        ]
      },
      "properties": {
        "id": 11194955330,
        "osm_type": "node",
        "vending": "bread"
      }
    },
    {
      "type": "Feature",
      "geometry": {
        "type": "Point",
        "coordinates": [
          0.7190756,
          47.4468146
        ]
      },
      "properties": {
        "id": 11309945672,
        "osm_type": "node",
        "vending": "pizza",
        "brand": "Joy Pizza"
      }
    },
    {
      "type": "Feature",
      "geometry": {
        "type": "Point",
        "coordinates": [
          1.6816455,
          48.6053146
        ]
      },
      "properties": {
        "id": 11367597176,
        "osm_type": "node",
        "vending": "bread"
      }
    },
    {
      "type": "Feature",
      "geometry": {
        "type": "Point",
        "coordinates": [
          0.2172402,
          47.0998662
        ]
      },
      "properties": {
        "id": 11369216699,
        "osm_type": "node",
        "vending": "bread"
      }
    },
    {
      "type": "Feature",
      "geometry": {
        "type": "Point",
        "coordinates": [
          1.4769823,
          48.3754718
        ]
      },
      "properties": {
        "id": 11455308519,
        "osm_type": "node",
        "opening_hours": "24/7",
        "vending": "drinks;coffee;sweets",
        "operator": "Selecta"
      }
    },
    {
      "type": "Feature",
      "geometry": {
        "type": "Point",
        "coordinates": [
          1.1975234,
          47.1541506
        ]
      },
      "properties": {
        "id": 11497557099,
        "osm_type": "node",
        "vending": "pizza"
      }
    },
    {
      "type": "Feature",
      "geometry": {
        "type": "Point",
        "coordinates": [
          2.0458405,
          47.0829923
        ]
      },
      "properties": {
        "id": 11548082227,
        "osm_type": "node",
        "vending": "pizza",
        "operator": "Gang Of Pizza"
      }
    },
    {
      "type": "Feature",
      "geometry": {
        "type": "Point",
        "coordinates": [
          1.3441728,
          48.7482422
        ]
      },
      "properties": {
        "id": 11628283015,
        "osm_type": "node",
        "name": "Hapizz",
        "opening_hours": "24/7",
        "vending": "pizza",
        "operator": "Hapizz"
      }
    },
    {
      "type": "Feature",
      "geometry": {
        "type": "Point",
        "coordinates": [
          1.4291342,
          48.7724493
        ]
      },
      "properties": {
        "id": 11639289165,
        "osm_type": "node",
        "name": "L'Atelier Cooking",
        "vending": "pizza",
        "operator": "L'Atelier Cooking"
      }
    },
    {
      "type": "Feature",
      "geometry": {
        "type": "Point",
        "coordinates": [
          1.8278586,
          47.8859006
        ]
      },
      "properties": {
        "id": 11662337694,
        "osm_type": "node",
        "name": "Ma Pizza ... la cantine",
        "opening_hours": "24/7",
        "vending": "pizza",
        "operator": "My Pizza by la Cantine"
      }
    },
    {
      "type": "Feature",
      "geometry": {
        "type": "Point",
        "coordinates": [
          1.2835322,
          48.7547098
        ]
      },
      "properties": {
        "id": 11663111181,
        "osm_type": "node",
        "name": "Les Délices du Mesnil",
        "vending": "bread",
        "operator": "Les Délices du Mesnil"
      }
    },
    {
      "type": "Feature",
      "geometry": {
        "type": "Point",
        "coordinates": [
          1.3045071,
          48.7510224
        ]
      },
      "properties": {
        "id": 11663111182,
        "osm_type": "node",
        "name": "Les Délices du Mesnil",
        "vending": "bread",
        "operator": "Les Délices du Mesnil"
      }
    },
    {
      "type": "Feature",
      "geometry": {
        "type": "Point",
        "coordinates": [
          1.6344547,
          47.7778879
        ]
      },
      "properties": {
        "id": 11672016089,
        "osm_type": "node",
        "name": "Tradi Pizz",
        "vending": "pizza"
      }
    },
    {
      "type": "Feature",
      "geometry": {
        "type": "Point",
        "coordinates": [
          1.3657907,
          48.7213967
        ]
      },
      "properties": {
        "id": 11753047339,
        "osm_type": "node",
        "vending": "pizza"
      }
    },
    {
      "type": "Feature",
      "geometry": {
        "type": "Point",
        "coordinates": [
          2.8947526,
          48.0116468
        ]
      },
      "properties": {
        "id": 11755124071,
        "osm_type": "node",
        "vending": "bread"
      }
    },
    {
      "type": "Feature",
      "geometry": {
        "type": "Point",
        "coordinates": [
          0.1679289,
          47.2725801
        ]
      },
      "properties": {
        "id": 11758711718,
        "osm_type": "node",
        "opening_hours": "24/7",
        "vending": "pizza"
      }
    },
    {
      "type": "Feature",
      "geometry": {
        "type": "Point",
        "coordinates": [
          0.7977582,
          47.7772734
        ]
      },
      "properties": {
        "id": 11816595727,
        "osm_type": "node",
        "vending": "bread"
      }
    },
    {
      "type": "Feature",
      "geometry": {
        "type": "Point",
        "coordinates": [
          1.1142694,
          47.4865392
        ]
      },
      "properties": {
        "id": 11869304060,
        "osm_type": "node",
        "vending": "bread",
        "operator": "maBaguette"
      }
    },
    {
      "type": "Feature",
      "geometry": {
        "type": "Point",
        "coordinates": [
          0.6390128,
          47.4360449
        ]
      },
      "properties": {
        "id": 11883160384,
        "osm_type": "node",
        "vending": "pizza",
        "operator": "Padova Pizza"
      }
    },
    {
      "type": "Feature",
      "geometry": {
        "type": "Point",
        "coordinates": [
          0.7235676,
          47.3860106
        ]
      },
      "properties": {
        "id": 11900991745,
        "osm_type": "node",
        "vending": "drinks;food",
        "operator": "Selecta"
      }
    },
    {
      "type": "Feature",
      "geometry": {
        "type": "Point",
        "coordinates": [
          0.7236265,
          47.3860369
        ]
      },
      "properties": {
        "id": 11900991746,
        "osm_type": "node",
        "vending": "drinks;food",
        "operator": "Selecta"
      }
    },
    {
      "type": "Feature",
      "geometry": {
        "type": "Point",
        "coordinates": [
          2.3695891,
          47.1206922
        ]
      },
      "properties": {
        "id": 11915159022,
        "osm_type": "node",
        "vending": "pizza"
      }
    },
    {
      "type": "Feature",
      "geometry": {
        "type": "Point",
        "coordinates": [
          1.1987519,
          48.4669737
        ]
      },
      "properties": {
        "id": 11920027193,
        "osm_type": "node",
        "name": "Le petit marché de Landelles, La Roma",
        "vending": "bread;pizza;food"
      }
    },
    {
      "type": "Feature",
      "geometry": {
        "type": "Point",
        "coordinates": [
          1.0141487,
          48.5950728
        ]
      },
      "properties": {
        "id": 11920086992,
        "osm_type": "node",
        "name": "Le Distribpain Au Pain Gourmand de Digny",
        "vending": "bread"
      }
    },
    {
      "type": "Feature",
      "geometry": {
        "type": "Point",
        "coordinates": [
          1.0249001,
          48.4744458
        ]
      },
      "properties": {
        "id": 11920086993,
        "osm_type": "node",
        "vending": "pizza"
      }
    },
    {
      "type": "Feature",
      "geometry": {
        "type": "Point",
        "coordinates": [
          1.1275169,
          48.5774005
        ]
      },
      "properties": {
        "id": 11921902356,
        "osm_type": "node",
        "vending": "bread"
      }
    },
    {
      "type": "Feature",
      "geometry": {
        "type": "Point",
        "coordinates": [
          2.2446114,
          47.7923752
        ]
      },
      "properties": {
        "id": 11936986092,
        "osm_type": "node",
        "vending": "pizza"
      }
    },
    {
      "type": "Feature",
      "geometry": {
        "type": "Point",
        "coordinates": [
          1.015855,
          47.4167911
        ]
      },
      "properties": {
        "id": 12002608031,
        "osm_type": "node",
        "name": "Le kiosque à pizzas",
        "vending": "pizza",
        "brand": "Le Kiosque à Pizzas"
      }
    },
    {
      "type": "Feature",
      "geometry": {
        "type": "Point",
        "coordinates": [
          1.6710561,
          46.8557398
        ]
      },
      "properties": {
        "id": 12088942893,
        "osm_type": "node",
        "vending": "pizza"
      }
    },
    {
      "type": "Feature",
      "geometry": {
        "type": "Point",
        "coordinates": [
          1.7187851,
          46.8679868
        ]
      },
      "properties": {
        "id": 12089001860,
        "osm_type": "node",
        "vending": "bread"
      }
    },
    {
      "type": "Feature",
      "geometry": {
        "type": "Point",
        "coordinates": [
          1.8286018,
          46.7466233
        ]
      },
      "properties": {
        "id": 12112479787,
        "osm_type": "node",
        "vending": "pizza",
        "operator": "La Toscana"
      }
    },
    {
      "type": "Feature",
      "geometry": {
        "type": "Point",
        "coordinates": [
          1.7012904,
          46.8280135
        ]
      },
      "properties": {
        "id": 12112481796,
        "osm_type": "node",
        "vending": "pizza",
        "operator": "La Toscana"
      }
    },
    {
      "type": "Feature",
      "geometry": {
        "type": "Point",
        "coordinates": [
          1.9658881,
          46.7292314
        ]
      },
      "properties": {
        "id": 12112490694,
        "osm_type": "node",
        "vending": "pizza",
        "operator": "La Toscana"
      }
    },
    {
      "type": "Feature",
      "geometry": {
        "type": "Point",
        "coordinates": [
          1.901211,
          47.916288
        ]
      },
      "properties": {
        "id": 12159396465,
        "osm_type": "node",
        "name": "Ma Pizz'Coligny",
        "vending": "pizza"
      }
    },
    {
      "type": "Feature",
      "geometry": {
        "type": "Point",
        "coordinates": [
          0.7113357,
          47.4027714
        ]
      },
      "properties": {
        "id": 12163629376,
        "osm_type": "node",
        "vending": "pizza"
      }
    },
    {
      "type": "Feature",
      "geometry": {
        "type": "Point",
        "coordinates": [
          1.8641197,
          47.8815808
        ]
      },
      "properties": {
        "id": 12190067986,
        "osm_type": "node",
        "vending": "pizza",
        "operator": "La Ptite Cuisine"
      }
    },
    {
      "type": "Feature",
      "geometry": {
        "type": "Point",
        "coordinates": [
          2.0583748,
          47.6454488
        ]
      },
      "properties": {
        "id": 12193408190,
        "osm_type": "node",
        "vending": "pizza"
      }
    },
    {
      "type": "Feature",
      "geometry": {
        "type": "Point",
        "coordinates": [
          0.7104386,
          47.0470803
        ]
      },
      "properties": {
        "id": 12201109172,
        "osm_type": "node",
        "vending": "bread"
      }
    },
    {
      "type": "Feature",
      "geometry": {
        "type": "Point",
        "coordinates": [
          1.5797078,
          48.4672936
        ]
      },
      "properties": {
        "id": 12208785674,
        "osm_type": "node",
        "vending": "coffee;drinks",
        "operator": "Shell Café"
      }
    },
    {
      "type": "Feature",
      "geometry": {
        "type": "Point",
        "coordinates": [
          1.9073415,
          47.9261274
        ]
      },
      "properties": {
        "id": 12216739273,
        "osm_type": "node",
        "name": "Pizzadoor - Family Pizz'",
        "vending": "pizza",
        "operator": "ADIAL"
      }
    },
    {
      "type": "Feature",
      "geometry": {
        "type": "Point",
        "coordinates": [
          1.4019101,
          46.8917305
        ]
      },
      "properties": {
        "id": 12246293155,
        "osm_type": "node",
        "vending": "pizza"
      }
    },
    {
      "type": "Feature",
      "geometry": {
        "type": "Point",
        "coordinates": [
          1.0230973,
          48.3925846
        ]
      },
      "properties": {
        "id": 12292238232,
        "osm_type": "node",
        "opening_hours": "24/7",
        "vending": "pizza;drinks",
        "operator": "Just Queen"
      }
    },
    {
      "type": "Feature",
      "geometry": {
        "type": "Point",
        "coordinates": [
          1.0225821,
          48.3924567
        ]
      },
      "properties": {
        "id": 12292238233,
        "osm_type": "node",
        "opening_hours": "24/7",
        "vending": "bread"
      }
    },
    {
      "type": "Feature",
      "geometry": {
        "type": "Point",
        "coordinates": [
          1.4239898,
          46.8901571
        ]
      },
      "properties": {
        "id": 12299750796,
        "osm_type": "node",
        "vending": "pizza"
      }
    },
    {
      "type": "Feature",
      "geometry": {
        "type": "Point",
        "coordinates": [
          0.7947536,
          47.3021013
        ]
      },
      "properties": {
        "id": 12342810218,
        "osm_type": "node",
        "name": "Distributeur de boissons",
        "opening_hours": "24/7",
        "vending": "drinks"
      }
    },
    {
      "type": "Feature",
      "geometry": {
        "type": "Point",
        "coordinates": [
          0.7947672,
          47.3020923
        ]
      },
      "properties": {
        "id": 12342810219,
        "osm_type": "node",
        "name": "Distributeur de tacos",
        "opening_hours": "24/7",
        "vending": "food;tacos",
        "operator": "Les Tacos du Gang"
      }
    },
    {
      "type": "Feature",
      "geometry": {
        "type": "Point",
        "coordinates": [
          1.5030512,
          46.5730243
        ]
      },
      "properties": {
        "id": 12354060680,
        "osm_type": "node",
        "vending": "pizza",
        "operator": "Berry Pizz'"
      }
    },
    {
      "type": "Feature",
      "geometry": {
        "type": "Point",
        "coordinates": [
          1.6098086,
          47.6509442
        ]
      },
      "properties": {
        "id": 12387818128,
        "osm_type": "node",
        "vending": "bread"
      }
    },
    {
      "type": "Feature",
      "geometry": {
        "type": "Point",
        "coordinates": [
          1.3912917,
          48.7276588
        ]
      },
      "properties": {
        "id": 12422341870,
        "osm_type": "node",
        "name": "Just Queen Sainte-Gemme-Dreux",
        "vending": "pizza",
        "brand": "Just Queen"
      }
    },
    {
      "type": "Feature",
      "geometry": {
        "type": "Point",
        "coordinates": [
          2.1031551,
          47.9752162
        ]
      },
      "properties": {
        "id": 12423036292,
        "osm_type": "node",
        "name": "Epicerie oKoù",
        "vending": "food"
      }
    },
    {
      "type": "Feature",
      "geometry": {
        "type": "Point",
        "coordinates": [
          1.6879382,
          47.7674551
        ]
      },
      "properties": {
        "id": 12423118955,
        "osm_type": "node",
        "name": "okou.shop",
        "vending": "food"
      }
    },
    {
      "type": "Feature",
      "geometry": {
        "type": "Point",
        "coordinates": [
          0.7091301,
          47.375456
        ]
      },
      "properties": {
        "id": 12458773458,
        "osm_type": "node",
        "name": "Greeno Pizza",
        "vending": "pizza",
        "brand": "Greeno Pizza"
      }
    },
    {
      "type": "Feature",
      "geometry": {
        "type": "Point",
        "coordinates": [
          1.4341363,
          47.4303468
        ]
      },
      "properties": {
        "id": 12487188062,
        "osm_type": "node",
        "vending": "pizza"
      }
    },
    {
      "type": "Feature",
      "geometry": {
        "type": "Point",
        "coordinates": [
          1.3346329,
          47.502906
        ]
      },
      "properties": {
        "id": 12492942470,
        "osm_type": "node",
        "vending": "bread",
        "operator": "maBaguette"
      }
    },
    {
      "type": "Feature",
      "geometry": {
        "type": "Point",
        "coordinates": [
          1.6844662,
          46.6157685
        ]
      },
      "properties": {
        "id": 12614220499,
        "osm_type": "node",
        "vending": "pizza"
      }
    },
    {
      "type": "Feature",
      "geometry": {
        "type": "Point",
        "coordinates": [
          0.6954807,
          47.4706064
        ]
      },
      "properties": {
        "id": 12624450278,
        "osm_type": "node",
        "name": "Padova Pizza",
        "opening_hours": "24/7",
        "vending": "pizza"
      }
    },
    {
      "type": "Feature",
      "geometry": {
        "type": "Point",
        "coordinates": [
          1.3506517,
          47.6034397
        ]
      },
      "properties": {
        "id": 12628123296,
        "osm_type": "node",
        "vending": "pizza",
        "operator": "Domino's"
      }
    },
    {
      "type": "Feature",
      "geometry": {
        "type": "Point",
        "coordinates": [
          1.6098444,
          46.9742334
        ]
      },
      "properties": {
        "id": 12638660671,
        "osm_type": "node",
        "vending": "pizza"
      }
    },
    {
      "type": "Feature",
      "geometry": {
        "type": "Point",
        "coordinates": [
          1.3456498,
          47.3725629
        ]
      },
      "properties": {
        "id": 12729381116,
        "osm_type": "node",
        "vending": "bread"
      }
    },
    {
      "type": "Feature",
      "geometry": {
        "type": "Point",
        "coordinates": [
          1.509798,
          48.4552906
        ]
      },
      "properties": {
        "id": 12782618196,
        "osm_type": "node",
        "vending": "bread"
      }
    },
    {
      "type": "Feature",
      "geometry": {
        "type": "Point",
        "coordinates": [
          0.6470698,
          47.200388
        ]
      },
      "properties": {
        "id": 12784342670,
        "osm_type": "node",
        "vending": "pizza"
      }
    },
    {
      "type": "Feature",
      "geometry": {
        "type": "Point",
        "coordinates": [
          1.6819217,
          48.6050733
        ]
      },
      "properties": {
        "id": 12823563762,
        "osm_type": "node",
        "name": "depot de pain",
        "vending": "bread"
      }
    },
    {
      "type": "Feature",
      "geometry": {
        "type": "Point",
        "coordinates": [
          1.6788804,
          48.6070556
        ]
      },
      "properties": {
        "id": 12823620406,
        "osm_type": "node",
        "vending": "food",
        "operator": "Philippe Gallou"
      }
    },
    {
      "type": "Feature",
      "geometry": {
        "type": "Point",
        "coordinates": [
          1.0193442,
          47.1229764
        ]
      },
      "properties": {
        "id": 12841698412,
        "osm_type": "node",
        "opening_hours": "Mo-Su,PH 06:00-23:00",
        "vending": "eggs;bread;cheese;meat;vegetables"
      }
    },
    {
      "type": "Feature",
      "geometry": {
        "type": "Point",
        "coordinates": [
          1.6921312,
          46.7957803
        ]
      },
      "properties": {
        "id": 12843724729,
        "osm_type": "node",
        "vending": "pizza"
      }
    },
    {
      "type": "Feature",
      "geometry": {
        "type": "Point",
        "coordinates": [
          1.9969469,
          47.1567909
        ]
      },
      "properties": {
        "id": 12877059306,
        "osm_type": "node",
        "name": "Just Queen",
        "vending": "pizza"
      }
    },
    {
      "type": "Feature",
      "geometry": {
        "type": "Point",
        "coordinates": [
          1.5322014,
          48.4165164
        ]
      },
      "properties": {
        "id": 12887076051,
        "osm_type": "node",
        "vending": "pizza",
        "operator": "FacePizza 24/24"
      }
    },
    {
      "type": "Feature",
      "geometry": {
        "type": "Point",
        "coordinates": [
          1.6422408,
          47.7890242
        ]
      },
      "properties": {
        "id": 12888285640,
        "osm_type": "node",
        "vending": "pizza"
      }
    },
    {
      "type": "Feature",
      "geometry": {
        "type": "Point",
        "coordinates": [
          0.6844834,
          47.3659235
        ]
      },
      "properties": {
        "id": 12912609999,
        "osm_type": "node",
        "vending": "food"
      }
    },
    {
      "type": "Feature",
      "geometry": {
        "type": "Point",
        "coordinates": [
          0.6843496,
          47.3654854
        ]
      },
      "properties": {
        "id": 12912653595,
        "osm_type": "node",
        "vending": "food"
      }
    },
    {
      "type": "Feature",
      "geometry": {
        "type": "Point",
        "coordinates": [
          1.3238581,
          47.5853582
        ]
      },
      "properties": {
        "id": 12916878294,
        "osm_type": "node",
        "vending": "coffee"
      }
    },
    {
      "type": "Feature",
      "geometry": {
        "type": "Point",
        "coordinates": [
          1.3238334,
          47.585573
        ]
      },
      "properties": {
        "id": 12916878295,
        "osm_type": "node",
        "vending": "food"
      }
    },
    {
      "type": "Feature",
      "geometry": {
        "type": "Point",
        "coordinates": [
          1.6673818,
          46.8206111
        ]
      },
      "properties": {
        "id": 12942266300,
        "osm_type": "node",
        "vending": "pizza"
      }
    },
    {
      "type": "Feature",
      "geometry": {
        "type": "Point",
        "coordinates": [
          1.6329154,
          46.8685325
        ]
      },
      "properties": {
        "id": 12942360656,
        "osm_type": "node",
        "vending": "bread"
      }
    },
    {
      "type": "Feature",
      "geometry": {
        "type": "Point",
        "coordinates": [
          1.0668712,
          47.3294647
        ]
      },
      "properties": {
        "id": 12944560215,
        "osm_type": "node",
        "vending": "drinks"
      }
    },
    {
      "type": "Feature",
      "geometry": {
        "type": "Point",
        "coordinates": [
          0.6494075,
          47.3466864
        ]
      },
      "properties": {
        "id": 12945215962,
        "osm_type": "node",
        "vending": "pizza"
      }
    },
    {
      "type": "Feature",
      "geometry": {
        "type": "Point",
        "coordinates": [
          1.3381672,
          48.0733758
        ]
      },
      "properties": {
        "id": 12961493812,
        "osm_type": "node",
        "vending": "drinks;food;sweets",
        "brand": "Selecta",
        "operator": "Selecta"
      }
    },
    {
      "type": "Feature",
      "geometry": {
        "type": "Point",
        "coordinates": [
          1.2433905,
          47.3319852
        ]
      },
      "properties": {
        "id": 12977456387,
        "osm_type": "node",
        "vending": "bread"
      }
    },
    {
      "type": "Feature",
      "geometry": {
        "type": "Point",
        "coordinates": [
          1.3535273,
          48.3507345
        ]
      },
      "properties": {
        "id": 13009105319,
        "osm_type": "node",
        "vending": "pizza"
      }
    },
    {
      "type": "Feature",
      "geometry": {
        "type": "Point",
        "coordinates": [
          2.0690922,
          47.2455947
        ]
      },
      "properties": {
        "id": 13026757241,
        "osm_type": "node",
        "vending": "food;drinks"
      }
    },
    {
      "type": "Feature",
      "geometry": {
        "type": "Point",
        "coordinates": [
          1.5737889,
          47.828279
        ]
      },
      "properties": {
        "id": 13033672194,
        "osm_type": "node",
        "vending": "pizza"
      }
    },
    {
      "type": "Feature",
      "geometry": {
        "type": "Point",
        "coordinates": [
          1.3015655,
          47.6194963
        ]
      },
      "properties": {
        "id": 13033895974,
        "osm_type": "node",
        "vending": "food"
      }
    },
    {
      "type": "Feature",
      "geometry": {
        "type": "Point",
        "coordinates": [
          1.3015931,
          47.6195165
        ]
      },
      "properties": {
        "id": 13033895975,
        "osm_type": "node",
        "vending": "coffee"
      }
    },
    {
      "type": "Feature",
      "geometry": {
        "type": "Point",
        "coordinates": [
          0.9694586,
          47.6033165
        ]
      },
      "properties": {
        "id": 13039723974,
        "osm_type": "node",
        "vending": "bread"
      }
    },
    {
      "type": "Feature",
      "geometry": {
        "type": "Point",
        "coordinates": [
          0.8180533,
          47.3910356
        ]
      },
      "properties": {
        "id": 13041597743,
        "osm_type": "node",
        "name": "Pizza Box",
        "vending": "pizza"
      }
    },
    {
      "type": "Feature",
      "geometry": {
        "type": "Point",
        "coordinates": [
          1.4900515,
          48.6627328
        ]
      },
      "properties": {
        "id": 13043407743,
        "osm_type": "node",
        "name": "Gang of Pizza",
        "vending": "pizza",
        "operator": "Gang of Pizza"
      }
    },
    {
      "type": "Feature",
      "geometry": {
        "type": "Point",
        "coordinates": [
          1.4900401,
          48.6627216
        ]
      },
      "properties": {
        "id": 13043407744,
        "osm_type": "node",
        "vending": "food;drinks;sweets"
      }
    },
    {
      "type": "Feature",
      "geometry": {
        "type": "Point",
        "coordinates": [
          1.4900515,
          48.6627328
        ]
      },
      "properties": {
        "id": 13043416336,
        "osm_type": "node",
        "name": "Gang of Pizza",
        "vending": "pizza",
        "operator": "Gang of Pizza"
      }
    },
    {
      "type": "Feature",
      "geometry": {
        "type": "Point",
        "coordinates": [
          0.4106398,
          47.3243288
        ]
      },
      "properties": {
        "id": 13049588441,
        "osm_type": "node",
        "vending": "pizza",
        "operator": "La Fringale"
      }
    },
    {
      "type": "Feature",
      "geometry": {
        "type": "Point",
        "coordinates": [
          1.3533573,
          48.3508481
        ]
      },
      "properties": {
        "id": 13060710535,
        "osm_type": "node",
        "vending": "pizza",
        "operator": "Just Queen"
      }
    },
    {
      "type": "Feature",
      "geometry": {
        "type": "Point",
        "coordinates": [
          1.2720198,
          48.2706568
        ]
      },
      "properties": {
        "id": 13060718666,
        "osm_type": "node",
        "vending": "pizza"
      }
    },
    {
      "type": "Feature",
      "geometry": {
        "type": "Point",
        "coordinates": [
          0.9010592,
          47.5901843
        ]
      },
      "properties": {
        "id": 13068050342,
        "osm_type": "node",
        "vending": "pizza"
      }
    },
    {
      "type": "Feature",
      "geometry": {
        "type": "Point",
        "coordinates": [
          1.8045393,
          47.0646633
        ]
      },
      "properties": {
        "id": 13069264595,
        "osm_type": "node",
        "vending": "pizza"
      }
    },
    {
      "type": "Feature",
      "geometry": {
        "type": "Point",
        "coordinates": [
          2.8104264,
          47.6706564
        ]
      },
      "properties": {
        "id": 13069428736,
        "osm_type": "node",
        "vending": "pizza"
      }
    },
    {
      "type": "Feature",
      "geometry": {
        "type": "Point",
        "coordinates": [
          1.5569143,
          47.6829747
        ]
      },
      "properties": {
        "id": 13094030297,
        "osm_type": "node",
        "name": "Charli Pizz",
        "vending": "pizza"
      }
    },
    {
      "type": "Feature",
      "geometry": {
        "type": "Point",
        "coordinates": [
          0.8426919,
          47.2562851
        ]
      },
      "properties": {
        "id": 13104556103,
        "osm_type": "node",
        "name": "Distributeur de pizzas",
        "opening_hours": "24/7",
        "vending": "pizza",
        "operator": "Gang of Pizza"
      }
    },
    {
      "type": "Feature",
      "geometry": {
        "type": "Point",
        "coordinates": [
          0.8426366,
          47.2563352
        ]
      },
      "properties": {
        "id": 13104556104,
        "osm_type": "node",
        "name": "Distributeur de tacos",
        "opening_hours": "24/7",
        "vending": "food;tacos",
        "operator": "Les Tacos du Gang"
      }
    },
    {
      "type": "Feature",
      "geometry": {
        "type": "Point",
        "coordinates": [
          2.0555887,
          47.9545351
        ]
      },
      "properties": {
        "id": 13111823544,
        "osm_type": "node",
        "name": "oKoù",
        "vending": "food"
      }
    },
    {
      "type": "Feature",
      "geometry": {
        "type": "Point",
        "coordinates": [
          0.7258004,
          46.9390299
        ]
      },
      "properties": {
        "id": 13144017371,
        "osm_type": "node",
        "vending": "pizza"
      }
    },
    {
      "type": "Feature",
      "geometry": {
        "type": "Point",
        "coordinates": [
          1.2141033,
          46.7010562
        ]
      },
      "properties": {
        "id": 13144362336,
        "osm_type": "node",
        "vending": "pizza"
      }
    },
    {
      "type": "Feature",
      "geometry": {
        "type": "Point",
        "coordinates": [
          2.2017172,
          46.5557483
        ]
      },
      "properties": {
        "id": 13147933972,
        "osm_type": "node",
        "vending": "pizza"
      }
    },
    {
      "type": "Feature",
      "geometry": {
        "type": "Point",
        "coordinates": [
          1.8125785,
          47.524265
        ]
      },
      "properties": {
        "id": 13175345166,
        "osm_type": "node",
        "vending": "food"
      }
    },
    {
      "type": "Feature",
      "geometry": {
        "type": "Point",
        "coordinates": [
          1.9925378,
          46.5856975
        ]
      },
      "properties": {
        "id": 13179734607,
        "osm_type": "node",
        "vending": "pizza"
      }
    },
    {
      "type": "Feature",
      "geometry": {
        "type": "Point",
        "coordinates": [
          0.69781,
          47.491092
        ]
      },
      "properties": {
        "id": 13191206435,
        "osm_type": "node",
        "opening_hours": "24/7",
        "vending": "pizza",
        "operator": "Accro Pizz'"
      }
    },
    {
      "type": "Feature",
      "geometry": {
        "type": "Point",
        "coordinates": [
          1.7821913,
          48.2378361
        ]
      },
      "properties": {
        "id": 13200896904,
        "osm_type": "node",
        "vending": "food",
        "operator": "Patati Patate’Là"
      }
    },
    {
      "type": "Feature",
      "geometry": {
        "type": "Point",
        "coordinates": [
          2.1482421,
          46.569643
        ]
      },
      "properties": {
        "id": 13202258206,
        "osm_type": "node",
        "vending": "bread",
        "operator": "Ledistrib Pain"
      }
    },
    {
      "type": "Feature",
      "geometry": {
        "type": "Point",
        "coordinates": [
          1.7208181,
          46.8692174
        ]
      },
      "properties": {
        "id": 13244828036,
        "osm_type": "node",
        "vending": "pizza"
      }
    },
    {
      "type": "Feature",
      "geometry": {
        "type": "Point",
        "coordinates": [
          0.5121957,
          47.3408041
        ]
      },
      "properties": {
        "id": 13247763376,
        "osm_type": "node",
        "vending": "bread"
      }
    },
    {
      "type": "Feature",
      "geometry": {
        "type": "Point",
        "coordinates": [
          0.9811805,
          47.4214832
        ]
      },
      "properties": {
        "id": 13274062543,
        "osm_type": "node",
        "vending": "drinks;food",
        "operator": "Selecta"
      }
    },
    {
      "type": "Feature",
      "geometry": {
        "type": "Point",
        "coordinates": [
          1.7518084,
          46.6391637
        ]
      },
      "properties": {
        "id": 13340842377,
        "osm_type": "node",
        "vending": "pizza"
      }
    },
    {
      "type": "Feature",
      "geometry": {
        "type": "Point",
        "coordinates": [
          0.8179025,
          47.284677
        ]
      },
      "properties": {
        "id": 13388038168,
        "osm_type": "node",
        "vending": "food",
        "operator": "Ferme du Peuplier"
      }
    },
    {
      "type": "Feature",
      "geometry": {
        "type": "Point",
        "coordinates": [
          0.4778992,
          47.2695248
        ]
      },
      "properties": {
        "id": 13388038921,
        "osm_type": "node",
        "vending": "food",
        "operator": "Ferme du Peuplier"
      }
    },
    {
      "type": "Feature",
      "geometry": {
        "type": "Point",
        "coordinates": [
          1.0973158,
          47.183761
        ]
      },
      "properties": {
        "id": 13398723695,
        "osm_type": "node",
        "vending": "pizza"
      }
    },
    {
      "type": "Feature",
      "geometry": {
        "type": "Point",
        "coordinates": [
          1.9353014,
          47.6201909
        ]
      },
      "properties": {
        "id": 13415936298,
        "osm_type": "node",
        "vending": "coffee"
      }
    },
    {
      "type": "Feature",
      "geometry": {
        "type": "Point",
        "coordinates": [
          1.6306762,
          48.0075978
        ]
      },
      "properties": {
        "id": 13420692983,
        "osm_type": "node",
        "name": "Les Casiers des Terroirs de Beauce",
        "vending": "food"
      }
    },
    {
      "type": "Feature",
      "geometry": {
        "type": "Point",
        "coordinates": [
          1.3242358,
          48.3625038
        ]
      },
      "properties": {
        "id": 13471220879,
        "osm_type": "node",
        "vending": "pizza"
      }
    },
    {
      "type": "Feature",
      "geometry": {
        "type": "Point",
        "coordinates": [
          1.2249005,
          46.9425588
        ]
      },
      "properties": {
        "id": 13620021148,
        "osm_type": "node",
        "vending": "pizza"
      }
    },
    {
      "type": "Feature",
      "geometry": {
        "type": "Point",
        "coordinates": [
          0.8443521,
          47.3503213
        ]
      },
      "properties": {
        "id": 13683995010,
        "osm_type": "node",
        "vending": "bread"
      }
    },
    {
      "type": "Feature",
      "geometry": {
        "type": "Point",
        "coordinates": [
          1.7232509,
          47.1881485
        ]
      },
      "properties": {
        "id": 13684883793,
        "osm_type": "node",
        "vending": "food"
      }
    },
    {
      "type": "Feature",
      "geometry": {
        "type": "Point",
        "coordinates": [
          2.39743,
          47.9184972
        ]
      },
      "properties": {
        "id": 13687892562,
        "osm_type": "node",
        "vending": "bread",
        "operator": "MaBaguette"
      }
    },
    {
      "type": "Feature",
      "geometry": {
        "type": "Point",
        "coordinates": [
          2.2431692,
          47.1419824
        ]
      },
      "properties": {
        "id": 13705129190,
        "osm_type": "node",
        "vending": "pizza"
      }
    },
    {
      "type": "Feature",
      "geometry": {
        "type": "Point",
        "coordinates": [
          2.0690819,
          46.6376588
        ]
      },
      "properties": {
        "id": 13705449780,
        "osm_type": "node",
        "vending": "bread"
      }
    },
    {
      "type": "Feature",
      "geometry": {
        "type": "Point",
        "coordinates": [
          1.4414172,
          46.7986635
        ]
      },
      "properties": {
        "id": 13707832831,
        "osm_type": "node",
        "vending": "drink"
      }
    },
    {
      "type": "Feature",
      "geometry": {
        "type": "Point",
        "coordinates": [
          1.4414236,
          46.7986585
        ]
      },
      "properties": {
        "id": 13707832832,
        "osm_type": "node",
        "vending": "pizza"
      }
    },
    {
      "type": "Feature",
      "geometry": {
        "type": "Point",
        "coordinates": [
          1.3330893,
          48.0616491
        ]
      },
      "properties": {
        "id": 287913810,
        "osm_type": "way",
        "name": "Pizzeria du territoire",
        "opening_hours": "Mo-Su 00:00-24:00",
        "vending": "pizza"
      }
    },
    {
      "type": "Feature",
      "geometry": {
        "type": "Point",
        "coordinates": [
          0.5388453,
          47.3923863
        ]
      },
      "properties": {
        "id": 964540713,
        "osm_type": "way",
        "name": "Padova Pizza",
        "vending": "pizza"
      }
    }
  ]
}