{
  "type": "FeatureCollection",
  "features": [
    {
      "type": "Feature",
      "geometry": {
        "type": "Point",
        "coordinates": [
          5.6406071,
          50.7461
        ]
      },
      "properties": {
        "id": 554922089,
        "osm_type": "node"
      }
    },
    {
      "type": "Feature",
      "geometry": {
        "type": "Point",
        "coordinates": [
          4.5327728,
          50.0577228
        ]
      },
      "properties": {
        "id": 1203096973,
        "osm_type": "node",
        "fee": "no",
        "seasonal": "no"
      }
    },
    {
      "type": "Feature",
      "geometry": {
        "type": "Point",
        "coordinates": [
          5.1424838,
          50.4840923
        ]
      },
      "properties": {
        "id": 1327327105,
        "osm_type": "node"
      }
    },
    {
      "type": "Feature",
      "geometry": {
        "type": "Point",
        "coordinates": [
          5.5915483,
          50.6505054
        ]
      },
      "properties": {
        "id": 1356110980,
        "osm_type": "node",
        "name": "Borne à boire - Vieille montagne",
        "access": "yes",
        "operator": "Ville de Liège"
      }
    },
    {
      "type": "Feature",
      "geometry": {
        "type": "Point",
        "coordinates": [
          5.0011904,
          49.812378
        ]
      },
      "properties": {
        "id": 1370885565,
        "osm_type": "node",
        "name": "Bron Drinkbaar."
      }
    },
    {
      "type": "Feature",
      "geometry": {
        "type": "Point",
        "coordinates": [
          5.5854514,
          50.6482059
        ]
      },
      "properties": {
        "id": 1408543385,
        "osm_type": "node",
        "name": "Borne à boire - Saint-Léonard",
        "access": "yes",
        "fee": "no",
        "operator": "Ville de Liège",
        "check_date": "2023-06-24"
      }
    },
    {
      "type": "Feature",
      "geometry": {
        "type": "Point",
        "coordinates": [
          3.5914575,
          50.5083027
        ]
      },
      "properties": {
        "id": 1672305542,
        "osm_type": "node",
        "name": "Le lavoir Dubuisson-Copin"
      }
    },
    {
      "type": "Feature",
      "geometry": {
        "type": "Point",
        "coordinates": [
          6.3134287,
          50.3717599
        ]
      },
      "properties": {
        "id": 1676209381,
        "osm_type": "node"
      }
    },
    {
      "type": "Feature",
      "geometry": {
        "type": "Point",
        "coordinates": [
          5.2417818,
          50.6928149
        ]
      },
      "properties": {
        "id": 1736991407,
        "osm_type": "node",
        "name": "Fontaine Saint-Michel"
      }
    },
    {
      "type": "Feature",
      "geometry": {
        "type": "Point",
        "coordinates": [
          4.7573831,
          50.4325457
        ]
      },
      "properties": {
        "id": 1852944071,
        "osm_type": "node"
      }
    },
    {
      "type": "Feature",
      "geometry": {
        "type": "Point",
        "coordinates": [
          4.7568679,
          50.4328389
        ]
      },
      "properties": {
        "id": 1853046091,
        "osm_type": "node"
      }
    },
    {
      "type": "Feature",
      "geometry": {
        "type": "Point",
        "coordinates": [
          5.281295,
          50.716166
        ]
      },
      "properties": {
        "id": 1875093562,
        "osm_type": "node",
        "check_date": "2024-08-04"
      }
    },
    {
      "type": "Feature",
      "geometry": {
        "type": "Point",
        "coordinates": [
          5.5611943,
          50.6221062
        ]
      },
      "properties": {
        "id": 1935021812,
        "osm_type": "node",
        "check_date": "2022-07-17"
      }
    },
    {
      "type": "Feature",
      "geometry": {
        "type": "Point",
        "coordinates": [
          5.5893505,
          50.6525885
        ]
      },
      "properties": {
        "id": 2317578247,
        "osm_type": "node",
        "name": "Borne à boire - Vivegnis",
        "access": "yes",
        "operator": "Ville de Liège"
      }
    },
    {
      "type": "Feature",
      "geometry": {
        "type": "Point",
        "coordinates": [
          5.8627302,
          50.4744732
        ]
      },
      "properties": {
        "id": 2367837784,
        "osm_type": "node",
        "name": "Source Barisart"
      }
    },
    {
      "type": "Feature",
      "geometry": {
        "type": "Point",
        "coordinates": [
          5.8703623,
          50.5757906
        ]
      },
      "properties": {
        "id": 2404886463,
        "osm_type": "node"
      }
    },
    {
      "type": "Feature",
      "geometry": {
        "type": "Point",
        "coordinates": [
          4.4649119,
          50.0016746
        ]
      },
      "properties": {
        "id": 2815546637,
        "osm_type": "node",
        "name": "Fontaine Saint-Méen"
      }
    },
    {
      "type": "Feature",
      "geometry": {
        "type": "Point",
        "coordinates": [
          5.8628429,
          50.4929937
        ]
      },
      "properties": {
        "id": 2816673875,
        "osm_type": "node",
        "name": "Pouhon aux Armes d'Autriche",
        "fee": "no",
        "indoor": "no"
      }
    },
    {
      "type": "Feature",
      "geometry": {
        "type": "Point",
        "coordinates": [
          5.516176,
          50.2110877
        ]
      },
      "properties": {
        "id": 2818444139,
        "osm_type": "node",
        "name": "La source miraculeuse - Chapelle Saint-Thibaut"
      }
    },
    {
      "type": "Feature",
      "geometry": {
        "type": "Point",
        "coordinates": [
          5.7506732,
          50.5388176
        ]
      },
      "properties": {
        "id": 2818477339,
        "osm_type": "node",
        "name": "Source de Banneux-Notre Dame"
      }
    },
    {
      "type": "Feature",
      "geometry": {
        "type": "Point",
        "coordinates": [
          3.5911483,
          50.5093486
        ]
      },
      "properties": {
        "id": 2818604661,
        "osm_type": "node",
        "name": "La fontaine du Flassart"
      }
    },
    {
      "type": "Feature",
      "geometry": {
        "type": "Point",
        "coordinates": [
          5.8770828,
          50.4709288
        ]
      },
      "properties": {
        "id": 2818805166,
        "osm_type": "node",
        "name": "Pouhon Pia"
      }
    },
    {
      "type": "Feature",
      "geometry": {
        "type": "Point",
        "coordinates": [
          5.5825702,
          50.350887
        ]
      },
      "properties": {
        "id": 2818848023,
        "osm_type": "node",
        "name": "Source de Ninane",
        "access": "yes"
      }
    },
    {
      "type": "Feature",
      "geometry": {
        "type": "Point",
        "coordinates": [
          5.4403456,
          50.4103056
        ]
      },
      "properties": {
        "id": 2998050686,
        "osm_type": "node"
      }
    },
    {
      "type": "Feature",
      "geometry": {
        "type": "Point",
        "coordinates": [
          5.210758,
          50.6756685
        ]
      },
      "properties": {
        "id": 3001742708,
        "osm_type": "node"
      }
    },
    {
      "type": "Feature",
      "geometry": {
        "type": "Point",
        "coordinates": [
          4.4156751,
          50.694565
        ]
      },
      "properties": {
        "id": 3135598128,
        "osm_type": "node"
      }
    },
    {
      "type": "Feature",
      "geometry": {
        "type": "Point",
        "coordinates": [
          4.4153329,
          50.695216
        ]
      },
      "properties": {
        "id": 3135599129,
        "osm_type": "node"
      }
    },
    {
      "type": "Feature",
      "geometry": {
        "type": "Point",
        "coordinates": [
          5.7908034,
          50.642377
        ]
      },
      "properties": {
        "id": 3495735979,
        "osm_type": "node",
        "fee": "no"
      }
    },
    {
      "type": "Feature",
      "geometry": {
        "type": "Point",
        "coordinates": [
          5.3796711,
          50.0277714
        ]
      },
      "properties": {
        "id": 3649463005,
        "osm_type": "node"
      }
    },
    {
      "type": "Feature",
      "geometry": {
        "type": "Point",
        "coordinates": [
          5.2345954,
          49.7821876
        ]
      },
      "properties": {
        "id": 3649504042,
        "osm_type": "node",
        "fee": "no",
        "check_date": "2025-08-14"
      }
    },
    {
      "type": "Feature",
      "geometry": {
        "type": "Point",
        "coordinates": [
          3.8348077,
          50.3990848
        ]
      },
      "properties": {
        "id": 3666112081,
        "osm_type": "node"
      }
    },
    {
      "type": "Feature",
      "geometry": {
        "type": "Point",
        "coordinates": [
          5.2372116,
          49.7772403
        ]
      },
      "properties": {
        "id": 3712355914,
        "osm_type": "node"
      }
    },
    {
      "type": "Feature",
      "geometry": {
        "type": "Point",
        "coordinates": [
          5.2633445,
          50.5261729
        ]
      },
      "properties": {
        "id": 3761955367,
        "osm_type": "node"
      }
    },
    {
      "type": "Feature",
      "geometry": {
        "type": "Point",
        "coordinates": [
          5.7686653,
          50.7338246
        ]
      },
      "properties": {
        "id": 3939508304,
        "osm_type": "node"
      }
    },
    {
      "type": "Feature",
      "geometry": {
        "type": "Point",
        "coordinates": [
          5.7688509,
          50.7331142
        ]
      },
      "properties": {
        "id": 3939508305,
        "osm_type": "node"
      }
    },
    {
      "type": "Feature",
      "geometry": {
        "type": "Point",
        "coordinates": [
          5.1710539,
          50.6683367
        ]
      },
      "properties": {
        "id": 3952828248,
        "osm_type": "node"
      }
    },
    {
      "type": "Feature",
      "geometry": {
        "type": "Point",
        "coordinates": [
          5.5579038,
          50.6407866
        ]
      },
      "properties": {
        "id": 4019749189,
        "osm_type": "node",
        "name": "Fontaine Jacques Izoard"
      }
    },
    {
      "type": "Feature",
      "geometry": {
        "type": "Point",
        "coordinates": [
          4.4141026,
          50.6943674
        ]
      },
      "properties": {
        "id": 4065308042,
        "osm_type": "node"
      }
    },
    {
      "type": "Feature",
      "geometry": {
        "type": "Point",
        "coordinates": [
          3.9607904,
          50.4230577
        ]
      },
      "properties": {
        "id": 4253253699,
        "osm_type": "node"
      }
    },
    {
      "type": "Feature",
      "geometry": {
        "type": "Point",
        "coordinates": [
          5.6693052,
          50.0393941
        ]
      },
      "properties": {
        "id": 4337702193,
        "osm_type": "node"
      }
    },
    {
      "type": "Feature",
      "geometry": {
        "type": "Point",
        "coordinates": [
          5.1879188,
          50.1257431
        ]
      },
      "properties": {
        "id": 4401566291,
        "osm_type": "node",
        "fee": "no"
      }
    },
    {
      "type": "Feature",
      "geometry": {
        "type": "Point",
        "coordinates": [
          4.867399,
          50.2030064
        ]
      },
      "properties": {
        "id": 4417734035,
        "osm_type": "node"
      }
    },
    {
      "type": "Feature",
      "geometry": {
        "type": "Point",
        "coordinates": [
          5.7000854,
          50.5839069
        ]
      },
      "properties": {
        "id": 4419534133,
        "osm_type": "node",
        "access": "yes",
        "fee": "no"
      }
    },
    {
      "type": "Feature",
      "geometry": {
        "type": "Point",
        "coordinates": [
          4.517501,
          50.0361635
        ]
      },
      "properties": {
        "id": 4434299980,
        "osm_type": "node"
      }
    },
    {
      "type": "Feature",
      "geometry": {
        "type": "Point",
        "coordinates": [
          3.9122738,
          50.3376318
        ]
      },
      "properties": {
        "id": 4448987598,
        "osm_type": "node"
      }
    },
    {
      "type": "Feature",
      "geometry": {
        "type": "Point",
        "coordinates": [
          4.635738,
          50.022795
        ]
      },
      "properties": {
        "id": 4962095250,
        "osm_type": "node",
        "check_date": "2024-08-21"
      }
    },
    {
      "type": "Feature",
      "geometry": {
        "type": "Point",
        "coordinates": [
          4.5551328,
          50.0775639
        ]
      },
      "properties": {
        "id": 5063343844,
        "osm_type": "node"
      }
    },
    {
      "type": "Feature",
      "geometry": {
        "type": "Point",
        "coordinates": [
          4.5938357,
          50.0883901
        ]
      },
      "properties": {
        "id": 5063346247,
        "osm_type": "node"
      }
    },
    {
      "type": "Feature",
      "geometry": {
        "type": "Point",
        "coordinates": [
          4.6708724,
          50.0901593
        ]
      },
      "properties": {
        "id": 5063350636,
        "osm_type": "node"
      }
    },
    {
      "type": "Feature",
      "geometry": {
        "type": "Point",
        "coordinates": [
          4.9554537,
          50.5083006
        ]
      },
      "properties": {
        "id": 5068378225,
        "osm_type": "node",
        "name": "Fontaine",
        "access": "yes",
        "fee": "no"
      }
    },
    {
      "type": "Feature",
      "geometry": {
        "type": "Point",
        "coordinates": [
          5.3936487,
          50.5097999
        ]
      },
      "properties": {
        "id": 5103661228,
        "osm_type": "node"
      }
    },
    {
      "type": "Feature",
      "geometry": {
        "type": "Point",
        "coordinates": [
          4.0920161,
          50.3939922
        ]
      },
      "properties": {
        "id": 5168941232,
        "osm_type": "node"
      }
    },
    {
      "type": "Feature",
      "geometry": {
        "type": "Point",
        "coordinates": [
          4.0093794,
          50.4355813
        ]
      },
      "properties": {
        "id": 5168943308,
        "osm_type": "node"
      }
    },
    {
      "type": "Feature",
      "geometry": {
        "type": "Point",
        "coordinates": [
          4.0863052,
          50.3884986
        ]
      },
      "properties": {
        "id": 5168946580,
        "osm_type": "node"
      }
    },
    {
      "type": "Feature",
      "geometry": {
        "type": "Point",
        "coordinates": [
          3.9579067,
          50.4360806
        ]
      },
      "properties": {
        "id": 5171280992,
        "osm_type": "node",
        "fee": "no"
      }
    },
    {
      "type": "Feature",
      "geometry": {
        "type": "Point",
        "coordinates": [
          3.9462027,
          50.3596005
        ]
      },
      "properties": {
        "id": 5171292729,
        "osm_type": "node"
      }
    },
    {
      "type": "Feature",
      "geometry": {
        "type": "Point",
        "coordinates": [
          3.9400928,
          50.3661078
        ]
      },
      "properties": {
        "id": 5171293868,
        "osm_type": "node"
      }
    },
    {
      "type": "Feature",
      "geometry": {
        "type": "Point",
        "coordinates": [
          5.1326272,
          50.1114827
        ]
      },
      "properties": {
        "id": 5261733213,
        "osm_type": "node"
      }
    },
    {
      "type": "Feature",
      "geometry": {
        "type": "Point",
        "coordinates": [
          5.1359615,
          50.1128889
        ]
      },
      "properties": {
        "id": 5267555738,
        "osm_type": "node"
      }
    },
    {
      "type": "Feature",
      "geometry": {
        "type": "Point",
        "coordinates": [
          5.1360143,
          50.1126655
        ]
      },
      "properties": {
        "id": 5267555739,
        "osm_type": "node"
      }
    },
    {
      "type": "Feature",
      "geometry": {
        "type": "Point",
        "coordinates": [
          5.1322664,
          50.1127712
        ]
      },
      "properties": {
        "id": 5267562399,
        "osm_type": "node"
      }
    },
    {
      "type": "Feature",
      "geometry": {
        "type": "Point",
        "coordinates": [
          4.9466601,
          49.8610972
        ]
      },
      "properties": {
        "id": 5286523140,
        "osm_type": "node"
      }
    },
    {
      "type": "Feature",
      "geometry": {
        "type": "Point",
        "coordinates": [
          3.9429185,
          50.4139183
        ]
      },
      "properties": {
        "id": 5503457401,
        "osm_type": "node"
      }
    },
    {
      "type": "Feature",
      "geometry": {
        "type": "Point",
        "coordinates": [
          3.8951814,
          50.5166043
        ]
      },
      "properties": {
        "id": 5503488970,
        "osm_type": "node"
      }
    },
    {
      "type": "Feature",
      "geometry": {
        "type": "Point",
        "coordinates": [
          4.6204491,
          50.6670252
        ]
      },
      "properties": {
        "id": 5562062874,
        "osm_type": "node",
        "indoor": "yes",
        "check_date": "2024-10-10"
      }
    },
    {
      "type": "Feature",
      "geometry": {
        "type": "Point",
        "coordinates": [
          4.1359527,
          50.494365
        ]
      },
      "properties": {
        "id": 5600265274,
        "osm_type": "node"
      }
    },
    {
      "type": "Feature",
      "geometry": {
        "type": "Point",
        "coordinates": [
          3.8595963,
          50.5319127
        ]
      },
      "properties": {
        "id": 5631672482,
        "osm_type": "node"
      }
    },
    {
      "type": "Feature",
      "geometry": {
        "type": "Point",
        "coordinates": [
          4.514243,
          50.6605254
        ]
      },
      "properties": {
        "id": 5808818774,
        "osm_type": "node",
        "name": "Cimetière",
        "check_date": "2025-08-26"
      }
    },
    {
      "type": "Feature",
      "geometry": {
        "type": "Point",
        "coordinates": [
          3.3973224,
          50.6036511
        ]
      },
      "properties": {
        "id": 5843492199,
        "osm_type": "node",
        "name": "Watertape"
      }
    },
    {
      "type": "Feature",
      "geometry": {
        "type": "Point",
        "coordinates": [
          4.0791894,
          50.3280207
        ]
      },
      "properties": {
        "id": 5907940911,
        "osm_type": "node"
      }
    },
    {
      "type": "Feature",
      "geometry": {
        "type": "Point",
        "coordinates": [
          5.617959,
          50.0829963
        ]
      },
      "properties": {
        "id": 6138058781,
        "osm_type": "node"
      }
    },
    {
      "type": "Feature",
      "geometry": {
        "type": "Point",
        "coordinates": [
          5.5595792,
          50.643893
        ]
      },
      "properties": {
        "id": 6165341531,
        "osm_type": "node"
      }
    },
    {
      "type": "Feature",
      "geometry": {
        "type": "Point",
        "coordinates": [
          5.7388557,
          50.4669964
        ]
      },
      "properties": {
        "id": 6320441421,
        "osm_type": "node",
        "access": "yes"
      }
    },
    {
      "type": "Feature",
      "geometry": {
        "type": "Point",
        "coordinates": [
          5.6330611,
          50.6004069
        ]
      },
      "properties": {
        "id": 6446013993,
        "osm_type": "node"
      }
    },
    {
      "type": "Feature",
      "geometry": {
        "type": "Point",
        "coordinates": [
          3.8779115,
          50.4123918
        ]
      },
      "properties": {
        "id": 6514897957,
        "osm_type": "node"
      }
    },
    {
      "type": "Feature",
      "geometry": {
        "type": "Point",
        "coordinates": [
          3.8993879,
          50.4779216
        ]
      },
      "properties": {
        "id": 6568513835,
        "osm_type": "node"
      }
    },
    {
      "type": "Feature",
      "geometry": {
        "type": "Point",
        "coordinates": [
          3.3996003,
          50.6548286
        ]
      },
      "properties": {
        "id": 6603674056,
        "osm_type": "node"
      }
    },
    {
      "type": "Feature",
      "geometry": {
        "type": "Point",
        "coordinates": [
          4.8666374,
          50.4664063
        ]
      },
      "properties": {
        "id": 6687622737,
        "osm_type": "node",
        "opening_hours": "Mo-Fr 08:00-16:00; Sa 08:30-11:15; Su off",
        "indoor": "yes"
      }
    },
    {
      "type": "Feature",
      "geometry": {
        "type": "Point",
        "coordinates": [
          5.4269222,
          49.8359331
        ]
      },
      "properties": {
        "id": 6689582419,
        "osm_type": "node"
      }
    },
    {
      "type": "Feature",
      "geometry": {
        "type": "Point",
        "coordinates": [
          5.8982516,
          50.4851381
        ]
      },
      "properties": {
        "id": 6863042080,
        "osm_type": "node",
        "name": "Pouhon La Sauvenière",
        "access": "yes"
      }
    },
    {
      "type": "Feature",
      "geometry": {
        "type": "Point",
        "coordinates": [
          5.898259,
          50.4850698
        ]
      },
      "properties": {
        "id": 6863042081,
        "osm_type": "node",
        "name": "Pouhon du Groesbeek",
        "access": "yes"
      }
    },
    {
      "type": "Feature",
      "geometry": {
        "type": "Point",
        "coordinates": [
          5.732871,
          50.3762383
        ]
      },
      "properties": {
        "id": 7059544988,
        "osm_type": "node",
        "access": "yes",
        "fee": "no"
      }
    },
    {
      "type": "Feature",
      "geometry": {
        "type": "Point",
        "coordinates": [
          5.8186565,
          49.6853485
        ]
      },
      "properties": {
        "id": 7160252056,
        "osm_type": "node"
      }
    },
    {
      "type": "Feature",
      "geometry": {
        "type": "Point",
        "coordinates": [
          3.9489128,
          50.524594
        ]
      },
      "properties": {
        "id": 7296543180,
        "osm_type": "node",
        "fee": "no"
      }
    },
    {
      "type": "Feature",
      "geometry": {
        "type": "Point",
        "coordinates": [
          3.6081906,
          50.5189231
        ]
      },
      "properties": {
        "id": 7643486254,
        "osm_type": "node"
      }
    },
    {
      "type": "Feature",
      "geometry": {
        "type": "Point",
        "coordinates": [
          4.8560454,
          50.4653648
        ]
      },
      "properties": {
        "id": 7739240214,
        "osm_type": "node"
      }
    },
    {
      "type": "Feature",
      "geometry": {
        "type": "Point",
        "coordinates": [
          4.605284,
          50.1836921
        ]
      },
      "properties": {
        "id": 7754326333,
        "osm_type": "node"
      }
    },
    {
      "type": "Feature",
      "geometry": {
        "type": "Point",
        "coordinates": [
          5.4515008,
          50.3523005
        ]
      },
      "properties": {
        "id": 7813244441,
        "osm_type": "node",
        "access": "yes"
      }
    },
    {
      "type": "Feature",
      "geometry": {
        "type": "Point",
        "coordinates": [
          4.955698,
          50.2113604
        ]
      },
      "properties": {
        "id": 7817961039,
        "osm_type": "node",
        "access": "permissive",
        "opening_hours": "24/7",
        "fee": "no"
      }
    },
    {
      "type": "Feature",
      "geometry": {
        "type": "Point",
        "coordinates": [
          5.5749111,
          50.5598046
        ]
      },
      "properties": {
        "id": 7821805815,
        "osm_type": "node",
        "fee": "no"
      }
    },
    {
      "type": "Feature",
      "geometry": {
        "type": "Point",
        "coordinates": [
          5.7305406,
          50.4669985
        ]
      },
      "properties": {
        "id": 7823738953,
        "osm_type": "node"
      }
    },
    {
      "type": "Feature",
      "geometry": {
        "type": "Point",
        "coordinates": [
          5.5121505,
          49.6745621
        ]
      },
      "properties": {
        "id": 7859311346,
        "osm_type": "node"
      }
    },
    {
      "type": "Feature",
      "geometry": {
        "type": "Point",
        "coordinates": [
          5.652007,
          50.7025915
        ]
      },
      "properties": {
        "id": 7918412138,
        "osm_type": "node"
      }
    },
    {
      "type": "Feature",
      "geometry": {
        "type": "Point",
        "coordinates": [
          5.8625713,
          50.4930414
        ]
      },
      "properties": {
        "id": 8011255072,
        "osm_type": "node"
      }
    },
    {
      "type": "Feature",
      "geometry": {
        "type": "Point",
        "coordinates": [
          5.229698,
          50.5657991
        ]
      },
      "properties": {
        "id": 8033520756,
        "osm_type": "node"
      }
    },
    {
      "type": "Feature",
      "geometry": {
        "type": "Point",
        "coordinates": [
          5.0919984,
          50.2427904
        ]
      },
      "properties": {
        "id": 8230590928,
        "osm_type": "node"
      }
    },
    {
      "type": "Feature",
      "geometry": {
        "type": "Point",
        "coordinates": [
          4.8729774,
          50.4557055
        ]
      },
      "properties": {
        "id": 8732071217,
        "osm_type": "node"
      }
    },
    {
      "type": "Feature",
      "geometry": {
        "type": "Point",
        "coordinates": [
          3.9580124,
          50.4359605
        ]
      },
      "properties": {
        "id": 8826951649,
        "osm_type": "node",
        "fee": "no"
      }
    },
    {
      "type": "Feature",
      "geometry": {
        "type": "Point",
        "coordinates": [
          4.7940171,
          50.2786039
        ]
      },
      "properties": {
        "id": 8929092117,
        "osm_type": "node",
        "access": "yes",
        "fee": "no"
      }
    },
    {
      "type": "Feature",
      "geometry": {
        "type": "Point",
        "coordinates": [
          5.0998557,
          50.5541406
        ]
      },
      "properties": {
        "id": 9006625290,
        "osm_type": "node"
      }
    },
    {
      "type": "Feature",
      "geometry": {
        "type": "Point",
        "coordinates": [
          5.5586249,
          50.5414923
        ]
      },
      "properties": {
        "id": 9007752015,
        "osm_type": "node",
        "name": "Fontaine publique de Ham",
        "access": "yes",
        "fee": "no"
      }
    },
    {
      "type": "Feature",
      "geometry": {
        "type": "Point",
        "coordinates": [
          4.8575778,
          50.4657599
        ]
      },
      "properties": {
        "id": 9011501353,
        "osm_type": "node",
        "access": "permit",
        "indoor": "yes"
      }
    },
    {
      "type": "Feature",
      "geometry": {
        "type": "Point",
        "coordinates": [
          4.8575758,
          50.4657576
        ]
      },
      "properties": {
        "id": 9016626018,
        "osm_type": "node",
        "access": "permit",
        "indoor": "yes"
      }
    },
    {
      "type": "Feature",
      "geometry": {
        "type": "Point",
        "coordinates": [
          4.8578519,
          50.4657952
        ]
      },
      "properties": {
        "id": 9020145530,
        "osm_type": "node"
      }
    },
    {
      "type": "Feature",
      "geometry": {
        "type": "Point",
        "coordinates": [
          5.0180817,
          50.5499607
        ]
      },
      "properties": {
        "id": 9024799652,
        "osm_type": "node"
      }
    },
    {
      "type": "Feature",
      "geometry": {
        "type": "Point",
        "coordinates": [
          4.8409312,
          50.3478056
        ]
      },
      "properties": {
        "id": 9235150090,
        "osm_type": "node"
      }
    },
    {
      "type": "Feature",
      "geometry": {
        "type": "Point",
        "coordinates": [
          4.8942414,
          50.2201637
        ]
      },
      "properties": {
        "id": 9611687852,
        "osm_type": "node",
        "indoor": "no"
      }
    },
    {
      "type": "Feature",
      "geometry": {
        "type": "Point",
        "coordinates": [
          4.2861366,
          50.3379237
        ]
      },
      "properties": {
        "id": 9630904362,
        "osm_type": "node"
      }
    },
    {
      "type": "Feature",
      "geometry": {
        "type": "Point",
        "coordinates": [
          5.1209768,
          50.2499867
        ]
      },
      "properties": {
        "id": 9707435528,
        "osm_type": "node",
        "access": "yes",
        "fee": "no"
      }
    },
    {
      "type": "Feature",
      "geometry": {
        "type": "Point",
        "coordinates": [
          5.5759717,
          50.6276439
        ]
      },
      "properties": {
        "id": 9830799679,
        "osm_type": "node",
        "name": "Borne à boire - Boverie 2",
        "access": "yes",
        "fee": "no",
        "seasonal": "summer",
        "operator": "Ville de Liège"
      }
    },
    {
      "type": "Feature",
      "geometry": {
        "type": "Point",
        "coordinates": [
          5.6039528,
          50.6547214
        ]
      },
      "properties": {
        "id": 9850350993,
        "osm_type": "node",
        "name": "Borne à boire - Morinval",
        "access": "yes",
        "fee": "no",
        "operator": "Ville de Liège"
      }
    },
    {
      "type": "Feature",
      "geometry": {
        "type": "Point",
        "coordinates": [
          5.5741002,
          50.6473355
        ]
      },
      "properties": {
        "id": 9850350995,
        "osm_type": "node",
        "name": "Borne à boire - Citadelle",
        "access": "yes",
        "fee": "no",
        "operator": "Ville de Liège"
      }
    },
    {
      "type": "Feature",
      "geometry": {
        "type": "Point",
        "coordinates": [
          5.5754649,
          50.6289899
        ]
      },
      "properties": {
        "id": 9850350998,
        "osm_type": "node",
        "name": "Borne à boire - Boverie 1",
        "access": "yes",
        "fee": "no",
        "seasonal": "summer",
        "operator": "Ville de Liège"
      }
    },
    {
      "type": "Feature",
      "geometry": {
        "type": "Point",
        "coordinates": [
          5.5992165,
          50.6212273
        ]
      },
      "properties": {
        "id": 9850350999,
        "osm_type": "node",
        "name": "Borne à boire - Albert 1er",
        "access": "yes",
        "fee": "no",
        "seasonal": "no",
        "operator": "Ville de Liège"
      }
    },
    {
      "type": "Feature",
      "geometry": {
        "type": "Point",
        "coordinates": [
          5.5468543,
          50.6286387
        ]
      },
      "properties": {
        "id": 9850351000,
        "osm_type": "node",
        "name": "Borne à boire - Cointe (parc canin)",
        "access": "yes",
        "fee": "no",
        "operator": "Ville de Liège"
      }
    },
    {
      "type": "Feature",
      "geometry": {
        "type": "Point",
        "coordinates": [
          5.5599707,
          50.644772
        ]
      },
      "properties": {
        "id": 9850351001,
        "osm_type": "node",
        "name": "Borne à boire - Sainte-Agathe",
        "access": "yes",
        "fee": "no",
        "operator": "Ville de Liège"
      }
    },
    {
      "type": "Feature",
      "geometry": {
        "type": "Point",
        "coordinates": [
          5.5590768,
          50.6458695
        ]
      },
      "properties": {
        "id": 9850351002,
        "osm_type": "node",
        "name": "Borne à boire - Sainte-Marguerite (plaine de jeux)",
        "access": "yes",
        "fee": "no",
        "operator": "Ville de Liège"
      }
    },
    {
      "type": "Feature",
      "geometry": {
        "type": "Point",
        "coordinates": [
          5.5320895,
          49.5674346
        ]
      },
      "properties": {
        "id": 9911089881,
        "osm_type": "node",
        "access": "yes",
        "fee": "no"
      }
    },
    {
      "type": "Feature",
      "geometry": {
        "type": "Point",
        "coordinates": [
          3.4105092,
          50.7339629
        ]
      },
      "properties": {
        "id": 9934953765,
        "osm_type": "node"
      }
    },
    {
      "type": "Feature",
      "geometry": {
        "type": "Point",
        "coordinates": [
          3.5104184,
          50.6353935
        ]
      },
      "properties": {
        "id": 9934983591,
        "osm_type": "node",
        "access": "yes",
        "fee": "no"
      }
    },
    {
      "type": "Feature",
      "geometry": {
        "type": "Point",
        "coordinates": [
          3.4811779,
          50.7475335
        ]
      },
      "properties": {
        "id": 9951544582,
        "osm_type": "node"
      }
    },
    {
      "type": "Feature",
      "geometry": {
        "type": "Point",
        "coordinates": [
          5.035248,
          50.2956988
        ]
      },
      "properties": {
        "id": 10005869617,
        "osm_type": "node",
        "fee": "no"
      }
    },
    {
      "type": "Feature",
      "geometry": {
        "type": "Point",
        "coordinates": [
          5.5560069,
          50.7304703
        ]
      },
      "properties": {
        "id": 10049926229,
        "osm_type": "node"
      }
    },
    {
      "type": "Feature",
      "geometry": {
        "type": "Point",
        "coordinates": [
          4.8670186,
          50.4636419
        ]
      },
      "properties": {
        "id": 10142697975,
        "osm_type": "node"
      }
    },
    {
      "type": "Feature",
      "geometry": {
        "type": "Point",
        "coordinates": [
          4.5336631,
          50.1776674
        ]
      },
      "properties": {
        "id": 10282318274,
        "osm_type": "node"
      }
    },
    {
      "type": "Feature",
      "geometry": {
        "type": "Point",
        "coordinates": [
          4.497533,
          50.7026559
        ]
      },
      "properties": {
        "id": 10653921721,
        "osm_type": "node"
      }
    },
    {
      "type": "Feature",
      "geometry": {
        "type": "Point",
        "coordinates": [
          4.8596988,
          50.4591961
        ]
      },
      "properties": {
        "id": 10855928708,
        "osm_type": "node"
      }
    },
    {
      "type": "Feature",
      "geometry": {
        "type": "Point",
        "coordinates": [
          4.8645844,
          50.2058599
        ]
      },
      "properties": {
        "id": 10965352022,
        "osm_type": "node"
      }
    },
    {
      "type": "Feature",
      "geometry": {
        "type": "Point",
        "coordinates": [
          5.6197744,
          49.7709056
        ]
      },
      "properties": {
        "id": 10969315739,
        "osm_type": "node",
        "access": "yes",
        "fee": "no",
        "indoor": "no"
      }
    },
    {
      "type": "Feature",
      "geometry": {
        "type": "Point",
        "coordinates": [
          5.7199654,
          49.7413405
        ]
      },
      "properties": {
        "id": 10969315740,
        "osm_type": "node",
        "access": "yes",
        "fee": "no",
        "indoor": "no"
      }
    },
    {
      "type": "Feature",
      "geometry": {
        "type": "Point",
        "coordinates": [
          5.0564559,
          49.8315346
        ]
      },
      "properties": {
        "id": 10994971818,
        "osm_type": "node",
        "name": "Fontaine à Ucimont"
      }
    },
    {
      "type": "Feature",
      "geometry": {
        "type": "Point",
        "coordinates": [
          5.1181415,
          50.0201815
        ]
      },
      "properties": {
        "id": 10995579167,
        "osm_type": "node",
        "access": "yes",
        "opening_hours": "24/7",
        "fee": "no"
      }
    },
    {
      "type": "Feature",
      "geometry": {
        "type": "Point",
        "coordinates": [
          5.3060523,
          50.0732179
        ]
      },
      "properties": {
        "id": 10995761595,
        "osm_type": "node",
        "access": "yes",
        "fee": "no"
      }
    },
    {
      "type": "Feature",
      "geometry": {
        "type": "Point",
        "coordinates": [
          5.0361453,
          50.0950683
        ]
      },
      "properties": {
        "id": 10995764939,
        "osm_type": "node",
        "name": "Source de Mossiat"
      }
    },
    {
      "type": "Feature",
      "geometry": {
        "type": "Point",
        "coordinates": [
          5.3059305,
          50.0743143
        ]
      },
      "properties": {
        "id": 10995797843,
        "osm_type": "node",
        "access": "yes"
      }
    },
    {
      "type": "Feature",
      "geometry": {
        "type": "Point",
        "coordinates": [
          5.2838286,
          50.1120449
        ]
      },
      "properties": {
        "id": 10995804674,
        "osm_type": "node",
        "name": "Robinet du cimetière de Lesterny",
        "access": "yes"
      }
    },
    {
      "type": "Feature",
      "geometry": {
        "type": "Point",
        "coordinates": [
          5.2775037,
          50.1321634
        ]
      },
      "properties": {
        "id": 10995829820,
        "osm_type": "node",
        "name": "Robinet du cimetière de Forrières",
        "access": "yes"
      }
    },
    {
      "type": "Feature",
      "geometry": {
        "type": "Point",
        "coordinates": [
          5.2808906,
          50.1330894
        ]
      },
      "properties": {
        "id": 10995837921,
        "osm_type": "node",
        "name": "Fontaine publique",
        "access": "yes"
      }
    },
    {
      "type": "Feature",
      "geometry": {
        "type": "Point",
        "coordinates": [
          5.3126676,
          50.1122988
        ]
      },
      "properties": {
        "id": 10995855905,
        "osm_type": "node",
        "name": "Robinet du cimetière de Masboug"
      }
    },
    {
      "type": "Feature",
      "geometry": {
        "type": "Point",
        "coordinates": [
          5.3372043,
          50.1318978
        ]
      },
      "properties": {
        "id": 10996527693,
        "osm_type": "node",
        "name": "Robinet du cimetière de Nassogne",
        "access": "yes"
      }
    },
    {
      "type": "Feature",
      "geometry": {
        "type": "Point",
        "coordinates": [
          5.5906531,
          50.6447523
        ]
      },
      "properties": {
        "id": 11004586916,
        "osm_type": "node",
        "access": "yes",
        "opening_hours": "24/7",
        "fee": "no",
        "operator": "Ville de Liège",
        "check_date": "2023-06-24"
      }
    },
    {
      "type": "Feature",
      "geometry": {
        "type": "Point",
        "coordinates": [
          4.5102894,
          50.616463
        ]
      },
      "properties": {
        "id": 11034302890,
        "osm_type": "node",
        "access": "yes",
        "fee": "no"
      }
    },
    {
      "type": "Feature",
      "geometry": {
        "type": "Point",
        "coordinates": [
          4.8653409,
          50.4620716
        ]
      },
      "properties": {
        "id": 11035971797,
        "osm_type": "node"
      }
    },
    {
      "type": "Feature",
      "geometry": {
        "type": "Point",
        "coordinates": [
          3.9508304,
          50.4488024
        ]
      },
      "properties": {
        "id": 11071170451,
        "osm_type": "node",
        "access": "yes",
        "fee": "no"
      }
    },
    {
      "type": "Feature",
      "geometry": {
        "type": "Point",
        "coordinates": [
          4.8659214,
          50.4636985
        ]
      },
      "properties": {
        "id": 11105071562,
        "osm_type": "node"
      }
    },
    {
      "type": "Feature",
      "geometry": {
        "type": "Point",
        "coordinates": [
          5.293884,
          50.0191029
        ]
      },
      "properties": {
        "id": 11111693844,
        "osm_type": "node",
        "name": "Eau (potable ?)"
      }
    },
    {
      "type": "Feature",
      "geometry": {
        "type": "Point",
        "coordinates": [
          5.0032051,
          50.732176
        ]
      },
      "properties": {
        "id": 11205129186,
        "osm_type": "node"
      }
    },
    {
      "type": "Feature",
      "geometry": {
        "type": "Point",
        "coordinates": [
          5.3733501,
          50.0261592
        ]
      },
      "properties": {
        "id": 11215889527,
        "osm_type": "node"
      }
    },
    {
      "type": "Feature",
      "geometry": {
        "type": "Point",
        "coordinates": [
          4.906198,
          50.6933158
        ]
      },
      "properties": {
        "id": 11230008619,
        "osm_type": "node"
      }
    },
    {
      "type": "Feature",
      "geometry": {
        "type": "Point",
        "coordinates": [
          4.9253371,
          50.6634756
        ]
      },
      "properties": {
        "id": 11235983409,
        "osm_type": "node"
      }
    },
    {
      "type": "Feature",
      "geometry": {
        "type": "Point",
        "coordinates": [
          4.8803573,
          50.6470607
        ]
      },
      "properties": {
        "id": 11236622794,
        "osm_type": "node"
      }
    },
    {
      "type": "Feature",
      "geometry": {
        "type": "Point",
        "coordinates": [
          3.9300774,
          50.4040953
        ]
      },
      "properties": {
        "id": 11261585694,
        "osm_type": "node"
      }
    },
    {
      "type": "Feature",
      "geometry": {
        "type": "Point",
        "coordinates": [
          4.9699797,
          50.4938906
        ]
      },
      "properties": {
        "id": 11277220126,
        "osm_type": "node"
      }
    },
    {
      "type": "Feature",
      "geometry": {
        "type": "Point",
        "coordinates": [
          4.9892976,
          50.5030659
        ]
      },
      "properties": {
        "id": 11277590304,
        "osm_type": "node"
      }
    },
    {
      "type": "Feature",
      "geometry": {
        "type": "Point",
        "coordinates": [
          4.9984049,
          50.2031653
        ]
      },
      "properties": {
        "id": 11382221141,
        "osm_type": "node"
      }
    },
    {
      "type": "Feature",
      "geometry": {
        "type": "Point",
        "coordinates": [
          5.7000674,
          49.6827186
        ]
      },
      "properties": {
        "id": 11396081372,
        "osm_type": "node"
      }
    },
    {
      "type": "Feature",
      "geometry": {
        "type": "Point",
        "coordinates": [
          5.5875093,
          50.6439373
        ]
      },
      "properties": {
        "id": 11469918884,
        "osm_type": "node",
        "name": "Borne à boire - Boulevard de la Constitution",
        "access": "yes",
        "fee": "no",
        "seasonal": "spring;summer;autumn",
        "operator": "Ville de Liège"
      }
    },
    {
      "type": "Feature",
      "geometry": {
        "type": "Point",
        "coordinates": [
          5.5660215,
          50.6244392
        ]
      },
      "properties": {
        "id": 11483500092,
        "osm_type": "node",
        "opening_hours": "24/7",
        "fee": "no",
        "operator": "NMBS/SNCB",
        "indoor": "yes"
      }
    },
    {
      "type": "Feature",
      "geometry": {
        "type": "Point",
        "coordinates": [
          3.3935218,
          50.6022791
        ]
      },
      "properties": {
        "id": 11487182091,
        "osm_type": "node"
      }
    },
    {
      "type": "Feature",
      "geometry": {
        "type": "Point",
        "coordinates": [
          5.47645,
          49.5067162
        ]
      },
      "properties": {
        "id": 11529049760,
        "osm_type": "node",
        "fee": "no"
      }
    },
    {
      "type": "Feature",
      "geometry": {
        "type": "Point",
        "coordinates": [
          5.1357474,
          50.1111469
        ]
      },
      "properties": {
        "id": 11598002295,
        "osm_type": "node",
        "access": "customers"
      }
    },
    {
      "type": "Feature",
      "geometry": {
        "type": "Point",
        "coordinates": [
          5.1357344,
          50.1111633
        ]
      },
      "properties": {
        "id": 11598002296,
        "osm_type": "node",
        "access": "customers"
      }
    },
    {
      "type": "Feature",
      "geometry": {
        "type": "Point",
        "coordinates": [
          4.4387487,
          50.4046755
        ]
      },
      "properties": {
        "id": 11630813528,
        "osm_type": "node",
        "access": "yes",
        "fee": "no",
        "operator": "NMBS/SNCB",
        "indoor": "yes"
      }
    },
    {
      "type": "Feature",
      "geometry": {
        "type": "Point",
        "coordinates": [
          5.1236191,
          50.6881213
        ]
      },
      "properties": {
        "id": 11643032257,
        "osm_type": "node"
      }
    },
    {
      "type": "Feature",
      "geometry": {
        "type": "Point",
        "coordinates": [
          4.4619948,
          50.6101298
        ]
      },
      "properties": {
        "id": 11676211280,
        "osm_type": "node",
        "seasonal": "yes"
      }
    },
    {
      "type": "Feature",
      "geometry": {
        "type": "Point",
        "coordinates": [
          5.3053109,
          50.0740601
        ]
      },
      "properties": {
        "id": 11801560513,
        "osm_type": "node"
      }
    },
    {
      "type": "Feature",
      "geometry": {
        "type": "Point",
        "coordinates": [
          5.3078036,
          50.0737517
        ]
      },
      "properties": {
        "id": 11801560514,
        "osm_type": "node"
      }
    },
    {
      "type": "Feature",
      "geometry": {
        "type": "Point",
        "coordinates": [
          5.3066621,
          50.0738815
        ]
      },
      "properties": {
        "id": 11801560515,
        "osm_type": "node"
      }
    },
    {
      "type": "Feature",
      "geometry": {
        "type": "Point",
        "coordinates": [
          4.5666218,
          50.6467272
        ]
      },
      "properties": {
        "id": 12054809736,
        "osm_type": "node"
      }
    },
    {
      "type": "Feature",
      "geometry": {
        "type": "Point",
        "coordinates": [
          4.6949887,
          50.6147613
        ]
      },
      "properties": {
        "id": 12057061430,
        "osm_type": "node"
      }
    },
    {
      "type": "Feature",
      "geometry": {
        "type": "Point",
        "coordinates": [
          5.9642934,
          50.7340205
        ]
      },
      "properties": {
        "id": 12063931168,
        "osm_type": "node"
      }
    },
    {
      "type": "Feature",
      "geometry": {
        "type": "Point",
        "coordinates": [
          4.2660078,
          50.6825466
        ]
      },
      "properties": {
        "id": 12071719936,
        "osm_type": "node"
      }
    },
    {
      "type": "Feature",
      "geometry": {
        "type": "Point",
        "coordinates": [
          5.2399887,
          50.5214391
        ]
      },
      "properties": {
        "id": 12082901631,
        "osm_type": "node"
      }
    },
    {
      "type": "Feature",
      "geometry": {
        "type": "Point",
        "coordinates": [
          5.5750881,
          50.6164654
        ]
      },
      "properties": {
        "id": 12083364402,
        "osm_type": "node"
      }
    },
    {
      "type": "Feature",
      "geometry": {
        "type": "Point",
        "coordinates": [
          5.5622028,
          50.63431
        ]
      },
      "properties": {
        "id": 12099427533,
        "osm_type": "node",
        "access": "yes",
        "fee": "no",
        "operator": "Ville de Liège",
        "check_date": "2025-05-12"
      }
    },
    {
      "type": "Feature",
      "geometry": {
        "type": "Point",
        "coordinates": [
          4.6946311,
          50.5596772
        ]
      },
      "properties": {
        "id": 12101462236,
        "osm_type": "node",
        "opening_hours": "24/7",
        "fee": "no"
      }
    },
    {
      "type": "Feature",
      "geometry": {
        "type": "Point",
        "coordinates": [
          5.5679022,
          50.1906176
        ]
      },
      "properties": {
        "id": 12106331973,
        "osm_type": "node",
        "access": "customers",
        "fee": "no"
      }
    },
    {
      "type": "Feature",
      "geometry": {
        "type": "Point",
        "coordinates": [
          5.5709867,
          50.191887
        ]
      },
      "properties": {
        "id": 12106331974,
        "osm_type": "node",
        "access": "customers",
        "fee": "no"
      }
    },
    {
      "type": "Feature",
      "geometry": {
        "type": "Point",
        "coordinates": [
          5.817763,
          49.721407
        ]
      },
      "properties": {
        "id": 12107761990,
        "osm_type": "node"
      }
    },
    {
      "type": "Feature",
      "geometry": {
        "type": "Point",
        "coordinates": [
          4.8713313,
          50.4668299
        ]
      },
      "properties": {
        "id": 12135990546,
        "osm_type": "node"
      }
    },
    {
      "type": "Feature",
      "geometry": {
        "type": "Point",
        "coordinates": [
          4.3636847,
          50.5155573
        ]
      },
      "properties": {
        "id": 12162108365,
        "osm_type": "node",
        "access": "yes"
      }
    },
    {
      "type": "Feature",
      "geometry": {
        "type": "Point",
        "coordinates": [
          5.4268075,
          50.57892
        ]
      },
      "properties": {
        "id": 12184007775,
        "osm_type": "node",
        "access": "customers",
        "fee": "no"
      }
    },
    {
      "type": "Feature",
      "geometry": {
        "type": "Point",
        "coordinates": [
          4.8658045,
          50.4669773
        ]
      },
      "properties": {
        "id": 12187177752,
        "osm_type": "node"
      }
    },
    {
      "type": "Feature",
      "geometry": {
        "type": "Point",
        "coordinates": [
          5.0691195,
          49.7945593
        ]
      },
      "properties": {
        "id": 12190091874,
        "osm_type": "node",
        "access": "yes",
        "fee": "no"
      }
    },
    {
      "type": "Feature",
      "geometry": {
        "type": "Point",
        "coordinates": [
          4.1157902,
          50.5022472
        ]
      },
      "properties": {
        "id": 12208767307,
        "osm_type": "node"
      }
    },
    {
      "type": "Feature",
      "geometry": {
        "type": "Point",
        "coordinates": [
          5.6585379,
          50.2918493
        ]
      },
      "properties": {
        "id": 12223957479,
        "osm_type": "node",
        "opening_hours": "24/7",
        "fee": "no"
      }
    },
    {
      "type": "Feature",
      "geometry": {
        "type": "Point",
        "coordinates": [
          5.4711192,
          50.4961659
        ]
      },
      "properties": {
        "id": 12261435090,
        "osm_type": "node"
      }
    },
    {
      "type": "Feature",
      "geometry": {
        "type": "Point",
        "coordinates": [
          5.5601527,
          50.5861336
        ]
      },
      "properties": {
        "id": 12296543191,
        "osm_type": "node",
        "fee": "no",
        "seasonal": "no",
        "indoor": "yes"
      }
    },
    {
      "type": "Feature",
      "geometry": {
        "type": "Point",
        "coordinates": [
          4.270034,
          50.5686706
        ]
      },
      "properties": {
        "id": 12306867345,
        "osm_type": "node",
        "access": "yes"
      }
    },
    {
      "type": "Feature",
      "geometry": {
        "type": "Point",
        "coordinates": [
          4.2768564,
          50.3120219
        ]
      },
      "properties": {
        "id": 12306888039,
        "osm_type": "node",
        "access": "yes"
      }
    },
    {
      "type": "Feature",
      "geometry": {
        "type": "Point",
        "coordinates": [
          6.3400466,
          50.3318042
        ]
      },
      "properties": {
        "id": 12339348981,
        "osm_type": "node",
        "access": "yes",
        "fee": "no"
      }
    },
    {
      "type": "Feature",
      "geometry": {
        "type": "Point",
        "coordinates": [
          4.8625272,
          50.4691662
        ]
      },
      "properties": {
        "id": 12444968514,
        "osm_type": "node",
        "fee": "no",
        "seasonal": "no",
        "indoor": "yes"
      }
    },
    {
      "type": "Feature",
      "geometry": {
        "type": "Point",
        "coordinates": [
          3.8852656,
          50.5864876
        ]
      },
      "properties": {
        "id": 12460013056,
        "osm_type": "node"
      }
    },
    {
      "type": "Feature",
      "geometry": {
        "type": "Point",
        "coordinates": [
          4.8637088,
          50.4637406
        ]
      },
      "properties": {
        "id": 12768603318,
        "osm_type": "node"
      }
    },
    {
      "type": "Feature",
      "geometry": {
        "type": "Point",
        "coordinates": [
          4.901338,
          49.8650063
        ]
      },
      "properties": {
        "id": 12770142654,
        "osm_type": "node"
      }
    },
    {
      "type": "Feature",
      "geometry": {
        "type": "Point",
        "coordinates": [
          4.7376864,
          50.7800277
        ]
      },
      "properties": {
        "id": 12791253532,
        "osm_type": "node",
        "access": "customers"
      }
    },
    {
      "type": "Feature",
      "geometry": {
        "type": "Point",
        "coordinates": [
          5.4723917,
          50.2167457
        ]
      },
      "properties": {
        "id": 12802267145,
        "osm_type": "node",
        "fee": "no"
      }
    },
    {
      "type": "Feature",
      "geometry": {
        "type": "Point",
        "coordinates": [
          5.562235,
          50.6341491
        ]
      },
      "properties": {
        "id": 12814178389,
        "osm_type": "node",
        "access": "yes",
        "fee": "no",
        "operator": "Ville de Liège",
        "check_date": "2025-05-12"
      }
    },
    {
      "type": "Feature",
      "geometry": {
        "type": "Point",
        "coordinates": [
          5.638437,
          50.2096467
        ]
      },
      "properties": {
        "id": 12826099701,
        "osm_type": "node",
        "name": "Robinet"
      }
    },
    {
      "type": "Feature",
      "geometry": {
        "type": "Point",
        "coordinates": [
          5.7189331,
          50.5662774
        ]
      },
      "properties": {
        "id": 12843697394,
        "osm_type": "node",
        "fee": "no"
      }
    },
    {
      "type": "Feature",
      "geometry": {
        "type": "Point",
        "coordinates": [
          5.6126364,
          50.6315764
        ]
      },
      "properties": {
        "id": 12857066446,
        "osm_type": "node",
        "fee": "no",
        "indoor": "no"
      }
    },
    {
      "type": "Feature",
      "geometry": {
        "type": "Point",
        "coordinates": [
          5.8548837,
          50.5883652
        ]
      },
      "properties": {
        "id": 12883500907,
        "osm_type": "node",
        "access": "yes",
        "fee": "no",
        "seasonal": "no",
        "operator": "NMBS/SNCB",
        "indoor": "yes"
      }
    },
    {
      "type": "Feature",
      "geometry": {
        "type": "Point",
        "coordinates": [
          5.8584127,
          50.7055541
        ]
      },
      "properties": {
        "id": 12902257857,
        "osm_type": "node"
      }
    },
    {
      "type": "Feature",
      "geometry": {
        "type": "Point",
        "coordinates": [
          5.5757426,
          50.6413644
        ]
      },
      "properties": {
        "id": 12951533749,
        "osm_type": "node",
        "opening_hours": "PH off",
        "fee": "no",
        "seasonal": "no",
        "indoor": "yes"
      }
    },
    {
      "type": "Feature",
      "geometry": {
        "type": "Point",
        "coordinates": [
          5.8111356,
          50.6464521
        ]
      },
      "properties": {
        "id": 12953635780,
        "osm_type": "node",
        "access": "yes",
        "fee": "no",
        "operator": "La Roue Libre"
      }
    },
    {
      "type": "Feature",
      "geometry": {
        "type": "Point",
        "coordinates": [
          4.2713517,
          50.6810191
        ]
      },
      "properties": {
        "id": 12960830560,
        "osm_type": "node"
      }
    },
    {
      "type": "Feature",
      "geometry": {
        "type": "Point",
        "coordinates": [
          4.6995287,
          50.6178249
        ]
      },
      "properties": {
        "id": 12964849288,
        "osm_type": "node",
        "access": "yes"
      }
    },
    {
      "type": "Feature",
      "geometry": {
        "type": "Point",
        "coordinates": [
          5.8134037,
          50.059252
        ]
      },
      "properties": {
        "id": 12966051118,
        "osm_type": "node"
      }
    },
    {
      "type": "Feature",
      "geometry": {
        "type": "Point",
        "coordinates": [
          4.1383114,
          50.6058268
        ]
      },
      "properties": {
        "id": 12987326489,
        "osm_type": "node",
        "fee": "no",
        "seasonal": "no"
      }
    },
    {
      "type": "Feature",
      "geometry": {
        "type": "Point",
        "coordinates": [
          3.7771828,
          50.6272517
        ]
      },
      "properties": {
        "id": 12987348568,
        "osm_type": "node",
        "fee": "no",
        "seasonal": "no"
      }
    },
    {
      "type": "Feature",
      "geometry": {
        "type": "Point",
        "coordinates": [
          4.0691506,
          50.5732582
        ]
      },
      "properties": {
        "id": 12987365123,
        "osm_type": "node",
        "fee": "no",
        "seasonal": "no"
      }
    },
    {
      "type": "Feature",
      "geometry": {
        "type": "Point",
        "coordinates": [
          4.8623705,
          50.4691568
        ]
      },
      "properties": {
        "id": 12992523466,
        "osm_type": "node",
        "operator": "NMBS/SNCB",
        "indoor": "yes"
      }
    },
    {
      "type": "Feature",
      "geometry": {
        "type": "Point",
        "coordinates": [
          4.2350685,
          50.237056
        ]
      },
      "properties": {
        "id": 13022487715,
        "osm_type": "node",
        "access": "yes",
        "fee": "no"
      }
    },
    {
      "type": "Feature",
      "geometry": {
        "type": "Point",
        "coordinates": [
          4.8607119,
          50.4661854
        ]
      },
      "properties": {
        "id": 13061745160,
        "osm_type": "node"
      }
    },
    {
      "type": "Feature",
      "geometry": {
        "type": "Point",
        "coordinates": [
          5.969165,
          50.4440322
        ]
      },
      "properties": {
        "id": 13061869477,
        "osm_type": "node",
        "access": "yes",
        "fee": "no"
      }
    },
    {
      "type": "Feature",
      "geometry": {
        "type": "Point",
        "coordinates": [
          5.9729853,
          50.4411118
        ]
      },
      "properties": {
        "id": 13061887497,
        "osm_type": "node",
        "access": "yes",
        "fee": "no"
      }
    },
    {
      "type": "Feature",
      "geometry": {
        "type": "Point",
        "coordinates": [
          5.042754,
          49.8208849
        ]
      },
      "properties": {
        "id": 13069135622,
        "osm_type": "node",
        "opening_hours": "24/7",
        "fee": "no"
      }
    },
    {
      "type": "Feature",
      "geometry": {
        "type": "Point",
        "coordinates": [
          5.523206,
          49.7655514
        ]
      },
      "properties": {
        "id": 13075827892,
        "osm_type": "node",
        "opening_hours": "24/7",
        "fee": "no"
      }
    },
    {
      "type": "Feature",
      "geometry": {
        "type": "Point",
        "coordinates": [
          5.4898766,
          49.694094
        ]
      },
      "properties": {
        "id": 13077833971,
        "osm_type": "node",
        "opening_hours": "24/7",
        "fee": "no"
      }
    },
    {
      "type": "Feature",
      "geometry": {
        "type": "Point",
        "coordinates": [
          4.5558801,
          50.5446554
        ]
      },
      "properties": {
        "id": 13083994058,
        "osm_type": "node"
      }
    },
    {
      "type": "Feature",
      "geometry": {
        "type": "Point",
        "coordinates": [
          6.0914165,
          50.6203085
        ]
      },
      "properties": {
        "id": 13123291714,
        "osm_type": "node"
      }
    },
    {
      "type": "Feature",
      "geometry": {
        "type": "Point",
        "coordinates": [
          5.9706938,
          50.7092438
        ]
      },
      "properties": {
        "id": 13141141009,
        "osm_type": "node"
      }
    },
    {
      "type": "Feature",
      "geometry": {
        "type": "Point",
        "coordinates": [
          6.1234258,
          50.2564202
        ]
      },
      "properties": {
        "id": 13155794404,
        "osm_type": "node",
        "opening_hours": "24/7",
        "fee": "no"
      }
    },
    {
      "type": "Feature",
      "geometry": {
        "type": "Point",
        "coordinates": [
          4.3361233,
          50.1485217
        ]
      },
      "properties": {
        "id": 13155796548,
        "osm_type": "node",
        "fee": "no"
      }
    },
    {
      "type": "Feature",
      "geometry": {
        "type": "Point",
        "coordinates": [
          4.508558,
          50.0739452
        ]
      },
      "properties": {
        "id": 13157083142,
        "osm_type": "node",
        "access": "permissive"
      }
    },
    {
      "type": "Feature",
      "geometry": {
        "type": "Point",
        "coordinates": [
          5.6047797,
          50.6361585
        ]
      },
      "properties": {
        "id": 13172894957,
        "osm_type": "node",
        "opening_hours": "08:30-16:30",
        "fee": "no"
      }
    },
    {
      "type": "Feature",
      "geometry": {
        "type": "Point",
        "coordinates": [
          5.8094689,
          49.6804543
        ]
      },
      "properties": {
        "id": 13180541159,
        "osm_type": "node",
        "indoor": "yes"
      }
    },
    {
      "type": "Feature",
      "geometry": {
        "type": "Point",
        "coordinates": [
          5.3794009,
          49.9202553
        ]
      },
      "properties": {
        "id": 13243706473,
        "osm_type": "node"
      }
    },
    {
      "type": "Feature",
      "geometry": {
        "type": "Point",
        "coordinates": [
          5.9033672,
          50.3647502
        ]
      },
      "properties": {
        "id": 13432120496,
        "osm_type": "node"
      }
    },
    {
      "type": "Feature",
      "geometry": {
        "type": "Point",
        "coordinates": [
          4.5676871,
          50.6727537
        ]
      },
      "properties": {
        "id": 13546309841,
        "osm_type": "node",
        "access": "yes",
        "fee": "no",
        "operator": "NMBS/SNCB"
      }
    },
    {
      "type": "Feature",
      "geometry": {
        "type": "Point",
        "coordinates": [
          5.4723458,
          50.7129754
        ]
      },
      "properties": {
        "id": 13625273548,
        "osm_type": "node",
        "opening_hours": "24/7",
        "fee": "no"
      }
    },
    {
      "type": "Feature",
      "geometry": {
        "type": "Point",
        "coordinates": [
          5.2144551,
          50.5357308
        ]
      },
      "properties": {
        "id": 13630144686,
        "osm_type": "node"
      }
    },
    {
      "type": "Feature",
      "geometry": {
        "type": "Point",
        "coordinates": [
          5.157632,
          50.345817
        ]
      },
      "properties": {
        "id": 13647670270,
        "osm_type": "node",
        "opening_hours": "24/7",
        "fee": "no"
      }
    },
    {
      "type": "Feature",
      "geometry": {
        "type": "Point",
        "coordinates": [
          5.6063238,
          50.6353118
        ]
      },
      "properties": {
        "id": 13666738900,
        "osm_type": "node",
        "opening_hours": "24/7",
        "fee": "no"
      }
    },
    {
      "type": "Feature",
      "geometry": {
        "type": "Point",
        "coordinates": [
          5.6098004,
          50.6341405
        ]
      },
      "properties": {
        "id": 13666742130,
        "osm_type": "node",
        "opening_hours": "24/7",
        "fee": "no"
      }
    },
    {
      "type": "Feature",
      "geometry": {
        "type": "Point",
        "coordinates": [
          5.0187172,
          50.6100796
        ]
      },
      "properties": {
        "id": 13676191176,
        "osm_type": "node"
      }
    }
  ]
}