{
  "type": "FeatureCollection",
  "features": [
    {
      "type": "Feature",
      "geometry": {
        "type": "Point",
        "coordinates": [
          17.1529329,
          47.2493362
        ]
      },
      "properties": {
        "id": 293152460,
        "osm_type": "node",
        "name": "PENNY",
        "brand": "PENNY"
      }
    },
    {
      "type": "Feature",
      "geometry": {
        "type": "Point",
        "coordinates": [
          17.1533888,
          47.2533817
        ]
      },
      "properties": {
        "id": 293152477,
        "osm_type": "node",
        "name": "Spar",
        "brand": "Spar"
      }
    },
    {
      "type": "Feature",
      "geometry": {
        "type": "Point",
        "coordinates": [
          17.1526613,
          47.2569672
        ]
      },
      "properties": {
        "id": 293434733,
        "osm_type": "node",
        "name": "coop"
      }
    },
    {
      "type": "Feature",
      "geometry": {
        "type": "Point",
        "coordinates": [
          17.1506114,
          47.2541
        ]
      },
      "properties": {
        "id": 293434880,
        "osm_type": "node"
      }
    },
    {
      "type": "Feature",
      "geometry": {
        "type": "Point",
        "coordinates": [
          16.5445082,
          47.381679
        ]
      },
      "properties": {
        "id": 1417200272,
        "osm_type": "node",
        "name": "Forrás Coop"
      }
    },
    {
      "type": "Feature",
      "geometry": {
        "type": "Point",
        "coordinates": [
          16.7703414,
          47.3749101
        ]
      },
      "properties": {
        "id": 1887148325,
        "osm_type": "node",
        "name": "CBA Príma"
      }
    },
    {
      "type": "Feature",
      "geometry": {
        "type": "Point",
        "coordinates": [
          17.1515066,
          47.2581382
        ]
      },
      "properties": {
        "id": 2235392931,
        "osm_type": "node",
        "name": "coop"
      }
    },
    {
      "type": "Feature",
      "geometry": {
        "type": "Point",
        "coordinates": [
          16.631388,
          47.2374169
        ]
      },
      "properties": {
        "id": 2436758059,
        "osm_type": "node",
        "name": "Coop",
        "opening_hours": "Mo 05:30-17:30; Tu-Fr 05:30-19:00; Sa 06:00-12:00"
      }
    },
    {
      "type": "Feature",
      "geometry": {
        "type": "Point",
        "coordinates": [
          16.6172145,
          47.2220002
        ]
      },
      "properties": {
        "id": 2925087540,
        "osm_type": "node",
        "name": "Spar",
        "brand": "Spar"
      }
    },
    {
      "type": "Feature",
      "geometry": {
        "type": "Point",
        "coordinates": [
          16.6198279,
          47.2298796
        ]
      },
      "properties": {
        "id": 2973645335,
        "osm_type": "node",
        "name": "Spar",
        "brand": "Spar",
        "opening_hours": "Mo-Fr 06:30-20:00; Sa 06:30-17:00"
      }
    },
    {
      "type": "Feature",
      "geometry": {
        "type": "Point",
        "coordinates": [
          16.6063012,
          47.2385192
        ]
      },
      "properties": {
        "id": 3053895920,
        "osm_type": "node",
        "name": "Spar",
        "brand": "Spar",
        "opening_hours": "Mo-Fr 06:30-20:00; Sa 06:30-17:00; Su 07:00-13:00"
      }
    },
    {
      "type": "Feature",
      "geometry": {
        "type": "Point",
        "coordinates": [
          16.6226528,
          47.2312637
        ]
      },
      "properties": {
        "id": 3177333065,
        "osm_type": "node",
        "name": "Coop Szuper",
        "brand": "Coop Szuper",
        "opening_hours": "Mo-Fr 06:30-18:00; Sa 06:30-13:00"
      }
    },
    {
      "type": "Feature",
      "geometry": {
        "type": "Point",
        "coordinates": [
          16.7056871,
          47.4028457
        ]
      },
      "properties": {
        "id": 3238618202,
        "osm_type": "node",
        "name": "Coop Szuper",
        "brand": "Coop Szuper",
        "opening_hours": "Mo-Sa 06:00-19:00; Su,PH off"
      }
    },
    {
      "type": "Feature",
      "geometry": {
        "type": "Point",
        "coordinates": [
          16.6072605,
          47.0122971
        ]
      },
      "properties": {
        "id": 3239938044,
        "osm_type": "node",
        "name": "Spar",
        "brand": "Spar"
      }
    },
    {
      "type": "Feature",
      "geometry": {
        "type": "Point",
        "coordinates": [
          16.7998354,
          47.0493379
        ]
      },
      "properties": {
        "id": 3295505102,
        "osm_type": "node",
        "name": "Coop Szuper",
        "opening_hours": "Mo-Fr 05:30-19:00; Sa 05:30-15:00; Su 06:30-11:00",
        "check_date": "2024-03-30"
      }
    },
    {
      "type": "Feature",
      "geometry": {
        "type": "Point",
        "coordinates": [
          16.6267216,
          47.2321371
        ]
      },
      "properties": {
        "id": 3348179489,
        "osm_type": "node",
        "name": "Spar",
        "brand": "Spar"
      }
    },
    {
      "type": "Feature",
      "geometry": {
        "type": "Point",
        "coordinates": [
          16.6229095,
          47.2140143
        ]
      },
      "properties": {
        "id": 3564106997,
        "osm_type": "node",
        "name": "Interspar",
        "brand": "Spar",
        "opening_hours": "Mo-Sa 06:00-22:00; Su 08:00-19:00"
      }
    },
    {
      "type": "Feature",
      "geometry": {
        "type": "Point",
        "coordinates": [
          16.795785,
          47.090606
        ]
      },
      "properties": {
        "id": 4420807752,
        "osm_type": "node",
        "name": "Coop mini"
      }
    },
    {
      "type": "Feature",
      "geometry": {
        "type": "Point",
        "coordinates": [
          16.8382888,
          46.9896955
        ]
      },
      "properties": {
        "id": 4940557818,
        "osm_type": "node",
        "name": "Coop Abc"
      }
    },
    {
      "type": "Feature",
      "geometry": {
        "type": "Point",
        "coordinates": [
          16.6038465,
          47.010835
        ]
      },
      "properties": {
        "id": 5901413687,
        "osm_type": "node",
        "name": "Maxi Coop"
      }
    },
    {
      "type": "Feature",
      "geometry": {
        "type": "Point",
        "coordinates": [
          16.6184436,
          47.2177377
        ]
      },
      "properties": {
        "id": 7463145245,
        "osm_type": "node",
        "name": "EcoFamily",
        "opening_hours": "Mo-Sa 08:00-20:00; Su 09:00-18:00; PH off"
      }
    },
    {
      "type": "Feature",
      "geometry": {
        "type": "Point",
        "coordinates": [
          16.6305677,
          47.2334705
        ]
      },
      "properties": {
        "id": 10111332180,
        "osm_type": "node",
        "name": "ALDI",
        "brand": "ALDI",
        "opening_hours": "Mo-Sa 07:00-21:00; Su 07:00-19:00; PH off"
      }
    },
    {
      "type": "Feature",
      "geometry": {
        "type": "Point",
        "coordinates": [
          16.7663804,
          47.3742419
        ]
      },
      "properties": {
        "id": 11962426124,
        "osm_type": "node",
        "name": "Penny",
        "brand": "Penny"
      }
    },
    {
      "type": "Feature",
      "geometry": {
        "type": "Point",
        "coordinates": [
          16.269476,
          46.9554981
        ]
      },
      "properties": {
        "id": 12097789578,
        "osm_type": "node",
        "name": "Spar",
        "brand": "Spar",
        "opening_hours": "Mo-Fr 06:30-20:00; Sa 06:30-17:00; Su 07:00-13:00"
      }
    },
    {
      "type": "Feature",
      "geometry": {
        "type": "Point",
        "coordinates": [
          17.1615946,
          47.1216986
        ]
      },
      "properties": {
        "id": 12718287577,
        "osm_type": "node",
        "name": "Spar",
        "brand": "Spar"
      }
    },
    {
      "type": "Feature",
      "geometry": {
        "type": "Point",
        "coordinates": [
          16.6155762,
          47.2295982
        ]
      },
      "properties": {
        "id": 13294874060,
        "osm_type": "node",
        "name": "Spar",
        "brand": "Spar",
        "opening_hours": "Mo-Fr 06:30-20:00; Sa 06:30-17:00; Su 07:00-13:00"
      }
    },
    {
      "type": "Feature",
      "geometry": {
        "type": "Point",
        "coordinates": [
          16.6063398,
          47.2390211
        ]
      },
      "properties": {
        "id": 13323747653,
        "osm_type": "node",
        "name": "Coop Szuper",
        "brand": "Coop Szuper",
        "opening_hours": "Mo 06:30-18:00; Tu-Fr 06:30-19:00; Sa 06:30-14:00"
      }
    },
    {
      "type": "Feature",
      "geometry": {
        "type": "Point",
        "coordinates": [
          16.5568138,
          47.3793192
        ]
      },
      "properties": {
        "id": 13746722801,
        "osm_type": "node",
        "name": "Lidl",
        "opening_hours": "Mo-Sa 06:30-21:00; Su 07:00-19:00"
      }
    },
    {
      "type": "Feature",
      "geometry": {
        "type": "Point",
        "coordinates": [
          16.5555903,
          47.3806686
        ]
      },
      "properties": {
        "id": 135338105,
        "osm_type": "way",
        "name": "PENNY",
        "brand": "Penny",
        "opening_hours": "Mo-Sa 06:00-20:00; Su 07:00-18:00; PH off"
      }
    },
    {
      "type": "Feature",
      "geometry": {
        "type": "Point",
        "coordinates": [
          16.5492647,
          47.3827512
        ]
      },
      "properties": {
        "id": 135393053,
        "osm_type": "way",
        "name": "Spar",
        "brand": "Spar",
        "opening_hours": "Mo-Fr 06:30-20:00; Sa 06:30-17:00; Su 08:00-13:00"
      }
    },
    {
      "type": "Feature",
      "geometry": {
        "type": "Point",
        "coordinates": [
          16.7695059,
          47.3749815
        ]
      },
      "properties": {
        "id": 178355750,
        "osm_type": "way",
        "name": "Coop",
        "opening_hours": "Mo-Sa 07:30-19:00"
      }
    },
    {
      "type": "Feature",
      "geometry": {
        "type": "Point",
        "coordinates": [
          16.6186615,
          47.2553447
        ]
      },
      "properties": {
        "id": 178489411,
        "osm_type": "way",
        "name": "ALDI",
        "brand": "ALDI",
        "opening_hours": "Mo-Sa 06:30-21:00; Su 07:00-19:00; PH off"
      }
    },
    {
      "type": "Feature",
      "geometry": {
        "type": "Point",
        "coordinates": [
          16.6192063,
          47.2534259
        ]
      },
      "properties": {
        "id": 178489415,
        "osm_type": "way",
        "name": "Lidl",
        "brand": "Lidl",
        "opening_hours": "Mo-Sa 06:30-21:00; Su 07:00-21:00"
      }
    },
    {
      "type": "Feature",
      "geometry": {
        "type": "Point",
        "coordinates": [
          17.1393022,
          47.2628577
        ]
      },
      "properties": {
        "id": 179013313,
        "osm_type": "way",
        "name": "ALDI",
        "brand": "ALDI",
        "opening_hours": "Mo-Sa 07:00-20:00; Su 08:00-19:00; PH off"
      }
    },
    {
      "type": "Feature",
      "geometry": {
        "type": "Point",
        "coordinates": [
          17.1514349,
          47.2526193
        ]
      },
      "properties": {
        "id": 188689765,
        "osm_type": "way",
        "name": "Tesco",
        "brand": "Tesco",
        "opening_hours": "Mo-Sa 06:00-21:00; Su 07:00-18:00; PH off"
      }
    },
    {
      "type": "Feature",
      "geometry": {
        "type": "Point",
        "coordinates": [
          16.6527658,
          47.2394427
        ]
      },
      "properties": {
        "id": 201603992,
        "osm_type": "way",
        "name": "Tesco",
        "brand": "Tesco",
        "opening_hours": "Su 06:00-21:00; PH off; Mo-Sa 06:00-22:00"
      }
    },
    {
      "type": "Feature",
      "geometry": {
        "type": "Point",
        "coordinates": [
          16.5939924,
          47.0089411
        ]
      },
      "properties": {
        "id": 205987713,
        "osm_type": "way",
        "name": "PENNY",
        "brand": "PENNY",
        "opening_hours": "Mo-Sa 07:00-20:00; Su 07:00-18:00"
      }
    },
    {
      "type": "Feature",
      "geometry": {
        "type": "Point",
        "coordinates": [
          16.592867,
          47.0084287
        ]
      },
      "properties": {
        "id": 205990027,
        "osm_type": "way",
        "name": "Lidl",
        "brand": "Lidl",
        "opening_hours": "Mo-Su 07:00-20:00"
      }
    },
    {
      "type": "Feature",
      "geometry": {
        "type": "Point",
        "coordinates": [
          16.5901398,
          47.0089631
        ]
      },
      "properties": {
        "id": 205992218,
        "osm_type": "way",
        "name": "ALDI",
        "brand": "ALDI",
        "opening_hours": "Mo-Sa 06:30-20:00; Su 07:00-19:00"
      }
    },
    {
      "type": "Feature",
      "geometry": {
        "type": "Point",
        "coordinates": [
          16.6232894,
          47.241124
        ]
      },
      "properties": {
        "id": 229468771,
        "osm_type": "way",
        "name": "Spar",
        "brand": "Spar",
        "opening_hours": "Mo-Fr 06:30-20:00; Sa 06:30-17:00; Su 07:00-13:00"
      }
    },
    {
      "type": "Feature",
      "geometry": {
        "type": "Point",
        "coordinates": [
          16.633105,
          47.2245006
        ]
      },
      "properties": {
        "id": 230143073,
        "osm_type": "way",
        "name": "Lidl",
        "brand": "Lidl",
        "opening_hours": "Mo-Sa 06:30-21:00; Su 07:00-17:00"
      }
    },
    {
      "type": "Feature",
      "geometry": {
        "type": "Point",
        "coordinates": [
          16.591479,
          47.242786
        ]
      },
      "properties": {
        "id": 230566768,
        "osm_type": "way",
        "name": "Tesco",
        "brand": "Tesco",
        "opening_hours": "Mo-Sa 06:00-22:00; Su 07:00-18:00; PH off"
      }
    },
    {
      "type": "Feature",
      "geometry": {
        "type": "Point",
        "coordinates": [
          16.5899834,
          47.242691
        ]
      },
      "properties": {
        "id": 230567153,
        "osm_type": "way",
        "name": "PENNY",
        "brand": "PENNY",
        "opening_hours": "Mo-Sa 06:00-20:30; Su 07:00-18:00; PH off"
      }
    },
    {
      "type": "Feature",
      "geometry": {
        "type": "Point",
        "coordinates": [
          16.2764467,
          46.9585446
        ]
      },
      "properties": {
        "id": 245832094,
        "osm_type": "way",
        "name": "PENNY",
        "brand": "PENNY",
        "opening_hours": "Mo-Sa 06:00-20:00; Su 07:00-18:00"
      }
    },
    {
      "type": "Feature",
      "geometry": {
        "type": "Point",
        "coordinates": [
          16.9384267,
          47.2570534
        ]
      },
      "properties": {
        "id": 265233239,
        "osm_type": "way",
        "name": "ALDI",
        "brand": "ALDI",
        "opening_hours": "Mo-Sa 07:00-20:00; Su 07:00-19:00; PH off"
      }
    },
    {
      "type": "Feature",
      "geometry": {
        "type": "Point",
        "coordinates": [
          16.618951,
          47.2154178
        ]
      },
      "properties": {
        "id": 287286997,
        "osm_type": "way",
        "name": "ALDI",
        "brand": "ALDI",
        "opening_hours": "Mo-Sa 07:00-21:00; Su 07:00-19:00; PH off"
      }
    },
    {
      "type": "Feature",
      "geometry": {
        "type": "Point",
        "coordinates": [
          16.6169142,
          47.2227955
        ]
      },
      "properties": {
        "id": 288962373,
        "osm_type": "way",
        "name": "PENNY",
        "brand": "PENNY",
        "opening_hours": "Mo-Sa 07:00-21:00; Su 07:00-18:00"
      }
    },
    {
      "type": "Feature",
      "geometry": {
        "type": "Point",
        "coordinates": [
          16.8082892,
          47.0566676
        ]
      },
      "properties": {
        "id": 290570766,
        "osm_type": "way",
        "name": "Spar",
        "brand": "Spar"
      }
    },
    {
      "type": "Feature",
      "geometry": {
        "type": "Point",
        "coordinates": [
          16.6147846,
          47.0165716
        ]
      },
      "properties": {
        "id": 294870925,
        "osm_type": "way",
        "name": "Tesco",
        "brand": "Tesco",
        "opening_hours": "Mo-Sa 06:00-21:00; Su 08:00-18:00; PH off"
      }
    },
    {
      "type": "Feature",
      "geometry": {
        "type": "Point",
        "coordinates": [
          16.956649,
          47.2467776
        ]
      },
      "properties": {
        "id": 295648546,
        "osm_type": "way",
        "name": "Tesco",
        "brand": "Tesco",
        "opening_hours": "Mo-Sa 06:00-22:00; Su 07:00-20:00; PH off"
      }
    },
    {
      "type": "Feature",
      "geometry": {
        "type": "Point",
        "coordinates": [
          16.4195823,
          46.838701
        ]
      },
      "properties": {
        "id": 297120274,
        "osm_type": "way",
        "name": "Spar",
        "brand": "Spar",
        "opening_hours": "Mo-Sa 06:00-19:00; Su 06:00-13:00"
      }
    },
    {
      "type": "Feature",
      "geometry": {
        "type": "Point",
        "coordinates": [
          16.9286227,
          47.2544236
        ]
      },
      "properties": {
        "id": 299227331,
        "osm_type": "way",
        "name": "Spar",
        "brand": "Spar"
      }
    },
    {
      "type": "Feature",
      "geometry": {
        "type": "Point",
        "coordinates": [
          16.8415849,
          47.4257782
        ]
      },
      "properties": {
        "id": 300071268,
        "osm_type": "way",
        "name": "Coop Abc"
      }
    },
    {
      "type": "Feature",
      "geometry": {
        "type": "Point",
        "coordinates": [
          16.9253424,
          47.2542105
        ]
      },
      "properties": {
        "id": 304085028,
        "osm_type": "way",
        "name": "PENNY",
        "brand": "PENNY",
        "opening_hours": "Mo-Sa 06:00-20:00; Su 07:00-18:00; PH off"
      }
    },
    {
      "type": "Feature",
      "geometry": {
        "type": "Point",
        "coordinates": [
          16.9406812,
          47.2503444
        ]
      },
      "properties": {
        "id": 304770561,
        "osm_type": "way",
        "name": "Lidl",
        "brand": "Lidl",
        "opening_hours": "Mo-Sa 06:30-21:00; Su 07:00-19:00"
      }
    },
    {
      "type": "Feature",
      "geometry": {
        "type": "Point",
        "coordinates": [
          16.6484808,
          47.2394001
        ]
      },
      "properties": {
        "id": 325707651,
        "osm_type": "way",
        "name": "Penny",
        "brand": "Penny"
      }
    },
    {
      "type": "Feature",
      "geometry": {
        "type": "Point",
        "coordinates": [
          16.6452133,
          47.2380617
        ]
      },
      "properties": {
        "id": 375602985,
        "osm_type": "way",
        "name": "Lidl",
        "brand": "Lidl",
        "opening_hours": "Mo-Sa 06:30-21:00; Su 07:00-19:00"
      }
    },
    {
      "type": "Feature",
      "geometry": {
        "type": "Point",
        "coordinates": [
          16.2761948,
          46.960675
        ]
      },
      "properties": {
        "id": 389375675,
        "osm_type": "way",
        "name": "FEZO",
        "brand": "FEZO",
        "opening_hours": "Mo-Fr 05:30-19:00; Sa 05:30-16:00; Su 07:00-12:00"
      }
    },
    {
      "type": "Feature",
      "geometry": {
        "type": "Point",
        "coordinates": [
          16.7467235,
          47.388532
        ]
      },
      "properties": {
        "id": 521345951,
        "osm_type": "way",
        "name": "Coop"
      }
    },
    {
      "type": "Feature",
      "geometry": {
        "type": "Point",
        "coordinates": [
          16.554355,
          47.3796258
        ]
      },
      "properties": {
        "id": 553324162,
        "osm_type": "way",
        "name": "Tesco",
        "brand": "Tesco",
        "opening_hours": "Mo-Sa 06:00-21:00; Su 08:00-18:00; PH off"
      }
    },
    {
      "type": "Feature",
      "geometry": {
        "type": "Point",
        "coordinates": [
          16.6207364,
          47.2552508
        ]
      },
      "properties": {
        "id": 1458379976,
        "osm_type": "way",
        "name": "EcoFamily",
        "opening_hours": "Mo-Sa 08:00-20:00; Su 09:00-18:00",
        "check_date": "2025-12-14"
      }
    }
  ]
}