{
  "type": "FeatureCollection",
  "features": [
    {
      "type": "Feature",
      "geometry": {
        "type": "Point",
        "coordinates": [
          13.8030482,
          66.9606268
        ]
      },
      "properties": {
        "id": 721234556,
        "osm_type": "node"
      }
    },
    {
      "type": "Feature",
      "geometry": {
        "type": "Point",
        "coordinates": [
          17.3095252,
          68.4054107
        ]
      },
      "properties": {
        "id": 1274741024,
        "osm_type": "node"
      }
    },
    {
      "type": "Feature",
      "geometry": {
        "type": "Point",
        "coordinates": [
          13.1626647,
          68.0988034
        ]
      },
      "properties": {
        "id": 1808665459,
        "osm_type": "node",
        "check_date": "2022-07-29"
      }
    },
    {
      "type": "Feature",
      "geometry": {
        "type": "Point",
        "coordinates": [
          13.3493093,
          66.782363
        ]
      },
      "properties": {
        "id": 2482436633,
        "osm_type": "node",
        "access": "customers",
        "check_date": "2023-07-06"
      }
    },
    {
      "type": "Feature",
      "geometry": {
        "type": "Point",
        "coordinates": [
          15.2359007,
          68.5314496
        ]
      },
      "properties": {
        "id": 4258415763,
        "osm_type": "node",
        "access": "customers"
      }
    },
    {
      "type": "Feature",
      "geometry": {
        "type": "Point",
        "coordinates": [
          13.099049,
          67.9354482
        ]
      },
      "properties": {
        "id": 4913016224,
        "osm_type": "node",
        "access": "customers",
        "fee": "no",
        "check_date": "2024-02-22"
      }
    },
    {
      "type": "Feature",
      "geometry": {
        "type": "Point",
        "coordinates": [
          13.5032002,
          68.2094377
        ]
      },
      "properties": {
        "id": 4916562121,
        "osm_type": "node",
        "check_date": "2023-08-25"
      }
    },
    {
      "type": "Feature",
      "geometry": {
        "type": "Point",
        "coordinates": [
          13.5054854,
          68.2093263
        ]
      },
      "properties": {
        "id": 4916572621,
        "osm_type": "node",
        "check_date": "2023-08-25"
      }
    },
    {
      "type": "Feature",
      "geometry": {
        "type": "Point",
        "coordinates": [
          13.194551,
          65.863744
        ]
      },
      "properties": {
        "id": 5026277922,
        "osm_type": "node"
      }
    },
    {
      "type": "Feature",
      "geometry": {
        "type": "Point",
        "coordinates": [
          13.4801778,
          66.3022992
        ]
      },
      "properties": {
        "id": 5405739090,
        "osm_type": "node"
      }
    },
    {
      "type": "Feature",
      "geometry": {
        "type": "Point",
        "coordinates": [
          12.5973138,
          67.6413061
        ]
      },
      "properties": {
        "id": 5794476688,
        "osm_type": "node"
      }
    },
    {
      "type": "Feature",
      "geometry": {
        "type": "Point",
        "coordinates": [
          12.6567859,
          67.6841281
        ]
      },
      "properties": {
        "id": 5794476696,
        "osm_type": "node"
      }
    },
    {
      "type": "Feature",
      "geometry": {
        "type": "Point",
        "coordinates": [
          13.6534551,
          68.3076336
        ]
      },
      "properties": {
        "id": 9820872780,
        "osm_type": "node"
      }
    },
    {
      "type": "Feature",
      "geometry": {
        "type": "Point",
        "coordinates": [
          14.2124905,
          68.1724258
        ]
      },
      "properties": {
        "id": 9983542300,
        "osm_type": "node"
      }
    },
    {
      "type": "Feature",
      "geometry": {
        "type": "Point",
        "coordinates": [
          12.6236803,
          65.9902112
        ]
      },
      "properties": {
        "id": 11603565094,
        "osm_type": "node"
      }
    },
    {
      "type": "Feature",
      "geometry": {
        "type": "Point",
        "coordinates": [
          14.5330301,
          66.403348
        ]
      },
      "properties": {
        "id": 11976406569,
        "osm_type": "node"
      }
    },
    {
      "type": "Feature",
      "geometry": {
        "type": "Point",
        "coordinates": [
          14.2355216,
          68.2034854
        ]
      },
      "properties": {
        "id": 12023207893,
        "osm_type": "node"
      }
    },
    {
      "type": "Feature",
      "geometry": {
        "type": "Point",
        "coordinates": [
          14.8131583,
          68.5013492
        ]
      },
      "properties": {
        "id": 12040534887,
        "osm_type": "node"
      }
    },
    {
      "type": "Feature",
      "geometry": {
        "type": "Point",
        "coordinates": [
          15.3859427,
          67.0846738
        ]
      },
      "properties": {
        "id": 12099588666,
        "osm_type": "node"
      }
    },
    {
      "type": "Feature",
      "geometry": {
        "type": "Point",
        "coordinates": [
          14.2731442,
          67.3804795
        ]
      },
      "properties": {
        "id": 12374273681,
        "osm_type": "node"
      }
    },
    {
      "type": "Feature",
      "geometry": {
        "type": "Point",
        "coordinates": [
          13.6183961,
          68.1454739
        ]
      },
      "properties": {
        "id": 12917831148,
        "osm_type": "node"
      }
    },
    {
      "type": "Feature",
      "geometry": {
        "type": "Point",
        "coordinates": [
          11.7994678,
          65.6690235
        ]
      },
      "properties": {
        "id": 12954396427,
        "osm_type": "node"
      }
    },
    {
      "type": "Feature",
      "geometry": {
        "type": "Point",
        "coordinates": [
          12.2775899,
          65.4795674
        ]
      },
      "properties": {
        "id": 13008554514,
        "osm_type": "node",
        "name": "Fresh cold spring water"
      }
    },
    {
      "type": "Feature",
      "geometry": {
        "type": "Point",
        "coordinates": [
          12.2167775,
          65.4792933
        ]
      },
      "properties": {
        "id": 13036276122,
        "osm_type": "node"
      }
    },
    {
      "type": "Feature",
      "geometry": {
        "type": "Point",
        "coordinates": [
          17.4275907,
          68.4382367
        ]
      },
      "properties": {
        "id": 13124569288,
        "osm_type": "node"
      }
    },
    {
      "type": "Feature",
      "geometry": {
        "type": "Point",
        "coordinates": [
          12.2080833,
          65.4728868
        ]
      },
      "properties": {
        "id": 13144053701,
        "osm_type": "node",
        "name": "Extra"
      }
    },
    {
      "type": "Feature",
      "geometry": {
        "type": "Point",
        "coordinates": [
          12.2083671,
          65.4730462
        ]
      },
      "properties": {
        "id": 13144053801,
        "osm_type": "node",
        "name": "Extra"
      }
    },
    {
      "type": "Feature",
      "geometry": {
        "type": "Point",
        "coordinates": [
          15.5367083,
          69.0674842
        ]
      },
      "properties": {
        "id": 13229986488,
        "osm_type": "node"
      }
    }
  ]
}