{
  "type": "FeatureCollection",
  "features": [
    {
      "type": "Feature",
      "geometry": {
        "type": "Point",
        "coordinates": [
          39.3235418,
          38.8675905
        ]
      },
      "properties": {
        "id": 3724764883,
        "osm_type": "node",
        "name": "BİM",
        "brand": "BİM",
        "opening_hours": "Mo-Su 09:00-21:00"
      }
    },
    {
      "type": "Feature",
      "geometry": {
        "type": "Point",
        "coordinates": [
          39.3244966,
          38.8675174
        ]
      },
      "properties": {
        "id": 3724764884,
        "osm_type": "node",
        "name": "A101",
        "brand": "A101",
        "opening_hours": "Mo-Su 09:00-21:30"
      }
    },
    {
      "type": "Feature",
      "geometry": {
        "type": "Point",
        "coordinates": [
          39.5490061,
          39.1061415
        ]
      },
      "properties": {
        "id": 3807049098,
        "osm_type": "node",
        "name": "Tunmar"
      }
    },
    {
      "type": "Feature",
      "geometry": {
        "type": "Point",
        "coordinates": [
          39.5498271,
          39.1065343
        ]
      },
      "properties": {
        "id": 3807049115,
        "osm_type": "node",
        "name": "A101",
        "brand": "A101",
        "opening_hours": "Mo-Su 09:00-21:30"
      }
    },
    {
      "type": "Feature",
      "geometry": {
        "type": "Point",
        "coordinates": [
          39.5384302,
          39.0845558
        ]
      },
      "properties": {
        "id": 11264991817,
        "osm_type": "node",
        "name": "Canmar"
      }
    },
    {
      "type": "Feature",
      "geometry": {
        "type": "Point",
        "coordinates": [
          39.539032,
          39.0859665
        ]
      },
      "properties": {
        "id": 11265002649,
        "osm_type": "node",
        "name": "Migros"
      }
    },
    {
      "type": "Feature",
      "geometry": {
        "type": "Point",
        "coordinates": [
          39.5384008,
          39.0847788
        ]
      },
      "properties": {
        "id": 11265021588,
        "osm_type": "node",
        "name": "BIM"
      }
    },
    {
      "type": "Feature",
      "geometry": {
        "type": "Point",
        "coordinates": [
          39.5377932,
          39.0817999
        ]
      },
      "properties": {
        "id": 11265026208,
        "osm_type": "node",
        "name": "SOK"
      }
    },
    {
      "type": "Feature",
      "geometry": {
        "type": "Point",
        "coordinates": [
          39.5510377,
          39.1069794
        ]
      },
      "properties": {
        "id": 11265035747,
        "osm_type": "node",
        "name": "BIM"
      }
    },
    {
      "type": "Feature",
      "geometry": {
        "type": "Point",
        "coordinates": [
          39.550858,
          39.1063929
        ]
      },
      "properties": {
        "id": 11265041404,
        "osm_type": "node",
        "name": "SOK"
      }
    },
    {
      "type": "Feature",
      "geometry": {
        "type": "Point",
        "coordinates": [
          39.5362973,
          39.0797419
        ]
      },
      "properties": {
        "id": 11668864922,
        "osm_type": "node",
        "name": "BİM",
        "brand": "BİM",
        "opening_hours": "Mo-Su 09:00-21:00"
      }
    },
    {
      "type": "Feature",
      "geometry": {
        "type": "Point",
        "coordinates": [
          39.5362209,
          39.0796557
        ]
      },
      "properties": {
        "id": 11668866041,
        "osm_type": "node",
        "name": "CarrefourSA",
        "brand": "CarrefourSA"
      }
    },
    {
      "type": "Feature",
      "geometry": {
        "type": "Point",
        "coordinates": [
          39.5373743,
          39.0811613
        ]
      },
      "properties": {
        "id": 11668866044,
        "osm_type": "node",
        "name": "Migros Jet",
        "brand": "Migros Jet"
      }
    }
  ]
}