{
  "type": "FeatureCollection",
  "features": [
    {
      "type": "Feature",
      "geometry": {
        "type": "Point",
        "coordinates": [
          25.9897916,
          43.8504918
        ]
      },
      "properties": {
        "id": 1410320538,
        "osm_type": "node",
        "name": "Димана"
      }
    },
    {
      "type": "Feature",
      "geometry": {
        "type": "Point",
        "coordinates": [
          25.9858809,
          43.8491069
        ]
      },
      "properties": {
        "id": 1410332900,
        "osm_type": "node",
        "name": "Фурна Папа"
      }
    },
    {
      "type": "Feature",
      "geometry": {
        "type": "Point",
        "coordinates": [
          25.9863047,
          43.8463175
        ]
      },
      "properties": {
        "id": 1410390109,
        "osm_type": "node",
        "name": "Urban Lion Cafe",
        "opening_hours": "Mo-Su 08:00-20:00",
        "outdoor_seating": "yes"
      }
    },
    {
      "type": "Feature",
      "geometry": {
        "type": "Point",
        "coordinates": [
          25.9804199,
          43.8502172
        ]
      },
      "properties": {
        "id": 1410390115,
        "osm_type": "node"
      }
    },
    {
      "type": "Feature",
      "geometry": {
        "type": "Point",
        "coordinates": [
          25.9803375,
          43.8485692
        ]
      },
      "properties": {
        "id": 1410390126,
        "osm_type": "node",
        "name": "Жълтото"
      }
    },
    {
      "type": "Feature",
      "geometry": {
        "type": "Point",
        "coordinates": [
          25.975085,
          43.8242792
        ]
      },
      "properties": {
        "id": 2002403699,
        "osm_type": "node",
        "name": "Еврофутбол"
      }
    },
    {
      "type": "Feature",
      "geometry": {
        "type": "Point",
        "coordinates": [
          25.9748067,
          43.8240758
        ]
      },
      "properties": {
        "id": 2002403997,
        "osm_type": "node",
        "name": "Еклери"
      }
    },
    {
      "type": "Feature",
      "geometry": {
        "type": "Point",
        "coordinates": [
          25.9540576,
          43.8334631
        ]
      },
      "properties": {
        "id": 2461465420,
        "osm_type": "node",
        "name": "VIVA",
        "check_date": "2025-12-30"
      }
    },
    {
      "type": "Feature",
      "geometry": {
        "type": "Point",
        "coordinates": [
          25.9525616,
          43.849037
        ]
      },
      "properties": {
        "id": 2578712140,
        "osm_type": "node",
        "name": "Пепи"
      }
    },
    {
      "type": "Feature",
      "geometry": {
        "type": "Point",
        "coordinates": [
          25.9541557,
          43.8453127
        ]
      },
      "properties": {
        "id": 2578715620,
        "osm_type": "node"
      }
    },
    {
      "type": "Feature",
      "geometry": {
        "type": "Point",
        "coordinates": [
          25.9515041,
          43.8473398
        ]
      },
      "properties": {
        "id": 2626019623,
        "osm_type": "node",
        "name": "Royal City Center"
      }
    },
    {
      "type": "Feature",
      "geometry": {
        "type": "Point",
        "coordinates": [
          25.9674629,
          43.8556484
        ]
      },
      "properties": {
        "id": 2683353952,
        "osm_type": "node",
        "name": "Рубинената пекарна",
        "opening_hours": "Mo-Sa 06:30-19:30; Su 07:00-18:00"
      }
    },
    {
      "type": "Feature",
      "geometry": {
        "type": "Point",
        "coordinates": [
          25.968032,
          43.855697
        ]
      },
      "properties": {
        "id": 2683357421,
        "osm_type": "node",
        "name": "Dreams"
      }
    },
    {
      "type": "Feature",
      "geometry": {
        "type": "Point",
        "coordinates": [
          25.968161,
          43.855759
        ]
      },
      "properties": {
        "id": 2683357864,
        "osm_type": "node",
        "name": "White Cafe"
      }
    },
    {
      "type": "Feature",
      "geometry": {
        "type": "Point",
        "coordinates": [
          25.968289,
          43.855806
        ]
      },
      "properties": {
        "id": 2683358163,
        "osm_type": "node",
        "name": "Cool",
        "opening_hours": "Mo-Su 07:00-23:00"
      }
    },
    {
      "type": "Feature",
      "geometry": {
        "type": "Point",
        "coordinates": [
          25.968697,
          43.855991
        ]
      },
      "properties": {
        "id": 2683358891,
        "osm_type": "node",
        "name": "Wall Street"
      }
    },
    {
      "type": "Feature",
      "geometry": {
        "type": "Point",
        "coordinates": [
          25.9690047,
          43.8555961
        ]
      },
      "properties": {
        "id": 2683360152,
        "osm_type": "node",
        "name": "Vibe",
        "opening_hours": "Mo-Fr 07:00-13:00; Sa,Su 08:00-14:00"
      }
    },
    {
      "type": "Feature",
      "geometry": {
        "type": "Point",
        "coordinates": [
          25.969148,
          43.855481
        ]
      },
      "properties": {
        "id": 2683360592,
        "osm_type": "node",
        "name": "Маркони"
      }
    },
    {
      "type": "Feature",
      "geometry": {
        "type": "Point",
        "coordinates": [
          25.969212,
          43.855403
        ]
      },
      "properties": {
        "id": 2683360663,
        "osm_type": "node",
        "name": "Utopia"
      }
    },
    {
      "type": "Feature",
      "geometry": {
        "type": "Point",
        "coordinates": [
          25.96962,
          43.855357
        ]
      },
      "properties": {
        "id": 2683362604,
        "osm_type": "node",
        "name": "Chill Out",
        "opening_hours": "Mo-Su 07:00-23:00"
      }
    },
    {
      "type": "Feature",
      "geometry": {
        "type": "Point",
        "coordinates": [
          25.9518447,
          43.8491154
        ]
      },
      "properties": {
        "id": 3052061550,
        "osm_type": "node"
      }
    },
    {
      "type": "Feature",
      "geometry": {
        "type": "Point",
        "coordinates": [
          25.9520064,
          43.8491589
        ]
      },
      "properties": {
        "id": 3052061551,
        "osm_type": "node"
      }
    },
    {
      "type": "Feature",
      "geometry": {
        "type": "Point",
        "coordinates": [
          25.9580951,
          43.824862
        ]
      },
      "properties": {
        "id": 3052451932,
        "osm_type": "node"
      }
    },
    {
      "type": "Feature",
      "geometry": {
        "type": "Point",
        "coordinates": [
          25.95314,
          43.847899
        ]
      },
      "properties": {
        "id": 3099989930,
        "osm_type": "node",
        "name": "Арт кафе Театър",
        "takeaway": "no",
        "outdoor_seating": "yes"
      }
    },
    {
      "type": "Feature",
      "geometry": {
        "type": "Point",
        "coordinates": [
          25.9639015,
          43.8546412
        ]
      },
      "properties": {
        "id": 3133044028,
        "osm_type": "node",
        "name": "Стеладри"
      }
    },
    {
      "type": "Feature",
      "geometry": {
        "type": "Point",
        "coordinates": [
          25.9648386,
          43.8468392
        ]
      },
      "properties": {
        "id": 3135011553,
        "osm_type": "node"
      }
    },
    {
      "type": "Feature",
      "geometry": {
        "type": "Point",
        "coordinates": [
          25.9601182,
          43.8417986
        ]
      },
      "properties": {
        "id": 3158022301,
        "osm_type": "node",
        "name": "Сладкарница \"Йовис\""
      }
    },
    {
      "type": "Feature",
      "geometry": {
        "type": "Point",
        "coordinates": [
          25.9542928,
          43.8496553
        ]
      },
      "properties": {
        "id": 3530888206,
        "osm_type": "node",
        "name": "Балканика",
        "opening_hours": "Mo-Su 07:00-23:00"
      }
    },
    {
      "type": "Feature",
      "geometry": {
        "type": "Point",
        "coordinates": [
          25.9748504,
          43.8240756
        ]
      },
      "properties": {
        "id": 3605080248,
        "osm_type": "node",
        "name": "Еклери Милениум"
      }
    },
    {
      "type": "Feature",
      "geometry": {
        "type": "Point",
        "coordinates": [
          25.9562018,
          43.8515221
        ]
      },
      "properties": {
        "id": 3708187340,
        "osm_type": "node",
        "name": "Planet Food"
      }
    },
    {
      "type": "Feature",
      "geometry": {
        "type": "Point",
        "coordinates": [
          25.9778319,
          43.8512009
        ]
      },
      "properties": {
        "id": 4195852010,
        "osm_type": "node",
        "name": "Голд Бейкъри ЕООД",
        "opening_hours": "06:00-20:00"
      }
    },
    {
      "type": "Feature",
      "geometry": {
        "type": "Point",
        "coordinates": [
          25.9756119,
          43.8378684
        ]
      },
      "properties": {
        "id": 4195852011,
        "osm_type": "node",
        "name": "Голд Бейкъри ЕООД",
        "opening_hours": "06:00-20:00"
      }
    },
    {
      "type": "Feature",
      "geometry": {
        "type": "Point",
        "coordinates": [
          25.9564,
          43.8426166
        ]
      },
      "properties": {
        "id": 4195852012,
        "osm_type": "node",
        "name": "Голд Бейкъри ЕООД",
        "opening_hours": "06:00-15:00"
      }
    },
    {
      "type": "Feature",
      "geometry": {
        "type": "Point",
        "coordinates": [
          25.971306,
          43.8321087
        ]
      },
      "properties": {
        "id": 4195852013,
        "osm_type": "node",
        "name": "Голд Бейкъри ЕООД",
        "opening_hours": "04:00-19:00"
      }
    },
    {
      "type": "Feature",
      "geometry": {
        "type": "Point",
        "coordinates": [
          25.9601239,
          43.844454
        ]
      },
      "properties": {
        "id": 4195852014,
        "osm_type": "node",
        "name": "Голд Бейкъри ЕООД",
        "opening_hours": "05:00-15:00"
      }
    },
    {
      "type": "Feature",
      "geometry": {
        "type": "Point",
        "coordinates": [
          25.9752293,
          43.8591489
        ]
      },
      "properties": {
        "id": 4195852015,
        "osm_type": "node",
        "name": "Голд Бейкъри ЕООД",
        "opening_hours": "06:00-20:00"
      }
    },
    {
      "type": "Feature",
      "geometry": {
        "type": "Point",
        "coordinates": [
          25.9648091,
          43.8410745
        ]
      },
      "properties": {
        "id": 4282209042,
        "osm_type": "node",
        "name": "\"Прелеза\""
      }
    },
    {
      "type": "Feature",
      "geometry": {
        "type": "Point",
        "coordinates": [
          25.9907167,
          43.8549259
        ]
      },
      "properties": {
        "id": 4610318302,
        "osm_type": "node",
        "name": "Сладкарница Dolce Vita",
        "outdoor_seating": "terrace"
      }
    },
    {
      "type": "Feature",
      "geometry": {
        "type": "Point",
        "coordinates": [
          25.9548159,
          43.85055
        ]
      },
      "properties": {
        "id": 5184093932,
        "osm_type": "node",
        "name": "Планет Фуд",
        "opening_hours": "Mo-Su 08:00-20:00"
      }
    },
    {
      "type": "Feature",
      "geometry": {
        "type": "Point",
        "coordinates": [
          25.9548999,
          43.8496025
        ]
      },
      "properties": {
        "id": 7831700285,
        "osm_type": "node",
        "name": "Coffee shop КафеВарка",
        "opening_hours": "Mo-Fr 08:00-19:00; Sa 09:00-19:00; Su 10:00-18:00"
      }
    },
    {
      "type": "Feature",
      "geometry": {
        "type": "Point",
        "coordinates": [
          25.954134,
          43.8500573
        ]
      },
      "properties": {
        "id": 7831723585,
        "osm_type": "node"
      }
    },
    {
      "type": "Feature",
      "geometry": {
        "type": "Point",
        "coordinates": [
          25.9553448,
          43.847155
        ]
      },
      "properties": {
        "id": 7831754385,
        "osm_type": "node",
        "name": "The Corner"
      }
    },
    {
      "type": "Feature",
      "geometry": {
        "type": "Point",
        "coordinates": [
          25.9650373,
          43.8514075
        ]
      },
      "properties": {
        "id": 7831782385,
        "osm_type": "node",
        "name": "Ъгъла",
        "opening_hours": "Mo-Su 07:30-22:00"
      }
    },
    {
      "type": "Feature",
      "geometry": {
        "type": "Point",
        "coordinates": [
          25.949931,
          43.8460812
        ]
      },
      "properties": {
        "id": 7831798985,
        "osm_type": "node"
      }
    },
    {
      "type": "Feature",
      "geometry": {
        "type": "Point",
        "coordinates": [
          25.9536038,
          43.8466849
        ]
      },
      "properties": {
        "id": 7832077085,
        "osm_type": "node"
      }
    },
    {
      "type": "Feature",
      "geometry": {
        "type": "Point",
        "coordinates": [
          25.967781,
          43.8540888
        ]
      },
      "properties": {
        "id": 8357461006,
        "osm_type": "node",
        "name": "Филаделфия",
        "opening_hours": "Mo-Sa 07:00-19:00; Su 07:00-18:00"
      }
    },
    {
      "type": "Feature",
      "geometry": {
        "type": "Point",
        "coordinates": [
          25.9679197,
          43.8540876
        ]
      },
      "properties": {
        "id": 8357461446,
        "osm_type": "node",
        "opening_hours": "Mo-Sa 06:30-12:30"
      }
    },
    {
      "type": "Feature",
      "geometry": {
        "type": "Point",
        "coordinates": [
          25.9736473,
          43.8584231
        ]
      },
      "properties": {
        "id": 8933726417,
        "osm_type": "node",
        "name": "Фантастико",
        "opening_hours": "Mo-Su 08:00-23:00",
        "outdoor_seating": "yes"
      }
    },
    {
      "type": "Feature",
      "geometry": {
        "type": "Point",
        "coordinates": [
          25.9596768,
          43.593835
        ]
      },
      "properties": {
        "id": 9701025507,
        "osm_type": "node"
      }
    },
    {
      "type": "Feature",
      "geometry": {
        "type": "Point",
        "coordinates": [
          25.9512416,
          43.8478451
        ]
      },
      "properties": {
        "id": 10116553019,
        "osm_type": "node",
        "name": "Food & Healthy",
        "outdoor_seating": "yes"
      }
    },
    {
      "type": "Feature",
      "geometry": {
        "type": "Point",
        "coordinates": [
          25.9505411,
          43.8380137
        ]
      },
      "properties": {
        "id": 10198502424,
        "osm_type": "node",
        "name": "Fornetti",
        "brand": "Fornetti"
      }
    },
    {
      "type": "Feature",
      "geometry": {
        "type": "Point",
        "coordinates": [
          25.9535316,
          43.8471982
        ]
      },
      "properties": {
        "id": 11164481557,
        "osm_type": "node",
        "name": "Пекарната",
        "opening_hours": "Mo-Fr 07:30-18:30; Sa 09:00-18:30; Su 09:30-17:30"
      }
    },
    {
      "type": "Feature",
      "geometry": {
        "type": "Point",
        "coordinates": [
          25.9485259,
          43.8500353
        ]
      },
      "properties": {
        "id": 12049387769,
        "osm_type": "node",
        "name": "Sapiens Specialty Coffee and all day brunch",
        "opening_hours": "Su-Tu, Th 00:00-24:00; We, Fr-Sa 08:00-22:30"
      }
    },
    {
      "type": "Feature",
      "geometry": {
        "type": "Point",
        "coordinates": [
          25.9505964,
          43.7775465
        ]
      },
      "properties": {
        "id": 13685088848,
        "osm_type": "node",
        "name": "Елада"
      }
    },
    {
      "type": "Feature",
      "geometry": {
        "type": "Point",
        "coordinates": [
          25.9778221,
          43.8318942
        ]
      },
      "properties": {
        "id": 228243301,
        "osm_type": "way"
      }
    },
    {
      "type": "Feature",
      "geometry": {
        "type": "Point",
        "coordinates": [
          25.9670918,
          43.8585081
        ]
      },
      "properties": {
        "id": 230957188,
        "osm_type": "way"
      }
    },
    {
      "type": "Feature",
      "geometry": {
        "type": "Point",
        "coordinates": [
          25.9681158,
          43.8287111
        ]
      },
      "properties": {
        "id": 240271184,
        "osm_type": "way",
        "name": "Кафе Роял"
      }
    },
    {
      "type": "Feature",
      "geometry": {
        "type": "Point",
        "coordinates": [
          25.96869,
          43.8294479
        ]
      },
      "properties": {
        "id": 240271186,
        "osm_type": "way",
        "name": "6th Sense"
      }
    },
    {
      "type": "Feature",
      "geometry": {
        "type": "Point",
        "coordinates": [
          25.9668085,
          43.8303259
        ]
      },
      "properties": {
        "id": 240273347,
        "osm_type": "way"
      }
    },
    {
      "type": "Feature",
      "geometry": {
        "type": "Point",
        "coordinates": [
          25.9481842,
          43.8424682
        ]
      },
      "properties": {
        "id": 252748807,
        "osm_type": "way",
        "name": "Сладкарница \"Мариела-Сони\""
      }
    },
    {
      "type": "Feature",
      "geometry": {
        "type": "Point",
        "coordinates": [
          25.9923121,
          43.8524177
        ]
      },
      "properties": {
        "id": 254938415,
        "osm_type": "way",
        "name": "Gazprom"
      }
    },
    {
      "type": "Feature",
      "geometry": {
        "type": "Point",
        "coordinates": [
          25.9754075,
          43.8458461
        ]
      },
      "properties": {
        "id": 257926647,
        "osm_type": "way",
        "name": "Жорела"
      }
    },
    {
      "type": "Feature",
      "geometry": {
        "type": "Point",
        "coordinates": [
          25.9711665,
          43.8264458
        ]
      },
      "properties": {
        "id": 298474603,
        "osm_type": "way",
        "name": "Каприз"
      }
    },
    {
      "type": "Feature",
      "geometry": {
        "type": "Point",
        "coordinates": [
          26.1020569,
          43.8054477
        ]
      },
      "properties": {
        "id": 301707390,
        "osm_type": "way",
        "name": "Фурна"
      }
    }
  ]
}