{
  "type": "FeatureCollection",
  "features": [
    {
      "type": "Feature",
      "geometry": {
        "type": "Point",
        "coordinates": [
          6.0774565,
          51.283829
        ]
      },
      "properties": {
        "id": 3245944461,
        "osm_type": "node",
        "check_date": "2023-09-16"
      }
    },
    {
      "type": "Feature",
      "geometry": {
        "type": "Point",
        "coordinates": [
          5.9475736,
          50.8524053
        ]
      },
      "properties": {
        "id": 3651406153,
        "osm_type": "node",
        "fee": "no",
        "seasonal": "yes",
        "operator": "Waterleiding Maatschappij Limburg"
      }
    },
    {
      "type": "Feature",
      "geometry": {
        "type": "Point",
        "coordinates": [
          5.7133223,
          50.8354146
        ]
      },
      "properties": {
        "id": 3682124937,
        "osm_type": "node",
        "seasonal": "yes",
        "operator": "WML Limburgs drinkwater"
      }
    },
    {
      "type": "Feature",
      "geometry": {
        "type": "Point",
        "coordinates": [
          5.8948626,
          50.8154814
        ]
      },
      "properties": {
        "id": 3682128086,
        "osm_type": "node",
        "seasonal": "yes",
        "operator": "WML Limburgs drinkwater",
        "check_date": "2025-07-27"
      }
    },
    {
      "type": "Feature",
      "geometry": {
        "type": "Point",
        "coordinates": [
          6.0208102,
          50.7724157
        ]
      },
      "properties": {
        "id": 3682130429,
        "osm_type": "node",
        "seasonal": "yes",
        "operator": "WML Limburgs drinkwater"
      }
    },
    {
      "type": "Feature",
      "geometry": {
        "type": "Point",
        "coordinates": [
          5.9853715,
          51.1969986
        ]
      },
      "properties": {
        "id": 3709777402,
        "osm_type": "node"
      }
    },
    {
      "type": "Feature",
      "geometry": {
        "type": "Point",
        "coordinates": [
          5.7032889,
          50.8400911
        ]
      },
      "properties": {
        "id": 3711022127,
        "osm_type": "node",
        "seasonal": "yes",
        "operator": "WML Limburgs drinkwater"
      }
    },
    {
      "type": "Feature",
      "geometry": {
        "type": "Point",
        "coordinates": [
          5.6943501,
          50.8471881
        ]
      },
      "properties": {
        "id": 3754680492,
        "osm_type": "node",
        "seasonal": "yes",
        "operator": "WML"
      }
    },
    {
      "type": "Feature",
      "geometry": {
        "type": "Point",
        "coordinates": [
          5.993265,
          51.1924958
        ]
      },
      "properties": {
        "id": 3799928457,
        "osm_type": "node",
        "check_date": "2024-07-05"
      }
    },
    {
      "type": "Feature",
      "geometry": {
        "type": "Point",
        "coordinates": [
          5.7531426,
          50.8392005
        ]
      },
      "properties": {
        "id": 3818717039,
        "osm_type": "node"
      }
    },
    {
      "type": "Feature",
      "geometry": {
        "type": "Point",
        "coordinates": [
          5.6902168,
          50.8512971
        ]
      },
      "properties": {
        "id": 3876065421,
        "osm_type": "node",
        "access": "yes",
        "seasonal": "yes",
        "operator": "WML Limburgs drinkwater"
      }
    },
    {
      "type": "Feature",
      "geometry": {
        "type": "Point",
        "coordinates": [
          5.9731016,
          51.6938604
        ]
      },
      "properties": {
        "id": 4109056172,
        "osm_type": "node",
        "seasonal": "yes",
        "operator": "WML Limburgs drinkwater"
      }
    },
    {
      "type": "Feature",
      "geometry": {
        "type": "Point",
        "coordinates": [
          6.0245008,
          50.9053986
        ]
      },
      "properties": {
        "id": 4394832754,
        "osm_type": "node"
      }
    },
    {
      "type": "Feature",
      "geometry": {
        "type": "Point",
        "coordinates": [
          5.7011057,
          50.8406216
        ]
      },
      "properties": {
        "id": 4472778615,
        "osm_type": "node",
        "seasonal": "yes",
        "operator": "WML Limburgs drinkwater"
      }
    },
    {
      "type": "Feature",
      "geometry": {
        "type": "Point",
        "coordinates": [
          5.7048538,
          51.251608
        ]
      },
      "properties": {
        "id": 4782718914,
        "osm_type": "node"
      }
    },
    {
      "type": "Feature",
      "geometry": {
        "type": "Point",
        "coordinates": [
          5.9637077,
          50.7876537
        ]
      },
      "properties": {
        "id": 4782718916,
        "osm_type": "node",
        "seasonal": "yes",
        "operator": "WML Limburgs drinkwater"
      }
    },
    {
      "type": "Feature",
      "geometry": {
        "type": "Point",
        "coordinates": [
          5.8273164,
          50.8646644
        ]
      },
      "properties": {
        "id": 4782718917,
        "osm_type": "node",
        "seasonal": "yes",
        "operator": "WML Limburgs drinkwater"
      }
    },
    {
      "type": "Feature",
      "geometry": {
        "type": "Point",
        "coordinates": [
          5.9843789,
          50.8352746
        ]
      },
      "properties": {
        "id": 4782718918,
        "osm_type": "node",
        "fee": "no",
        "seasonal": "yes",
        "operator": "Waterleiding Maatschappij Limburg"
      }
    },
    {
      "type": "Feature",
      "geometry": {
        "type": "Point",
        "coordinates": [
          6.0260092,
          50.8539678
        ]
      },
      "properties": {
        "id": 4782718919,
        "osm_type": "node",
        "seasonal": "yes",
        "operator": "WML Limburgs drinkwater"
      }
    },
    {
      "type": "Feature",
      "geometry": {
        "type": "Point",
        "coordinates": [
          5.9767961,
          50.887498
        ]
      },
      "properties": {
        "id": 4782718920,
        "osm_type": "node",
        "seasonal": "yes",
        "operator": "WML Limburgs drinkwater"
      }
    },
    {
      "type": "Feature",
      "geometry": {
        "type": "Point",
        "coordinates": [
          5.9707113,
          50.9442442
        ]
      },
      "properties": {
        "id": 4782719121,
        "osm_type": "node",
        "seasonal": "yes",
        "operator": "WML Limburgs drinkwater"
      }
    },
    {
      "type": "Feature",
      "geometry": {
        "type": "Point",
        "coordinates": [
          5.9080246,
          50.9498766
        ]
      },
      "properties": {
        "id": 4782719122,
        "osm_type": "node",
        "seasonal": "yes",
        "operator": "WML Limburgs drinkwater"
      }
    },
    {
      "type": "Feature",
      "geometry": {
        "type": "Point",
        "coordinates": [
          5.7364025,
          50.9761793
        ]
      },
      "properties": {
        "id": 4782719123,
        "osm_type": "node",
        "seasonal": "yes",
        "operator": "WML Limburgs drinkwater"
      }
    },
    {
      "type": "Feature",
      "geometry": {
        "type": "Point",
        "coordinates": [
          5.8659568,
          51.1053372
        ]
      },
      "properties": {
        "id": 4782719124,
        "osm_type": "node",
        "access": "yes",
        "fee": "no",
        "seasonal": "yes",
        "operator": "WML Limburgs drinkwater"
      }
    },
    {
      "type": "Feature",
      "geometry": {
        "type": "Point",
        "coordinates": [
          6.0011545,
          51.1465267
        ]
      },
      "properties": {
        "id": 4782719125,
        "osm_type": "node",
        "seasonal": "yes",
        "operator": "WML Limburgs drinkwater"
      }
    },
    {
      "type": "Feature",
      "geometry": {
        "type": "Point",
        "coordinates": [
          5.9507441,
          51.7222103
        ]
      },
      "properties": {
        "id": 4782719126,
        "osm_type": "node",
        "seasonal": "yes",
        "operator": "WML Limburgs drinkwater"
      }
    },
    {
      "type": "Feature",
      "geometry": {
        "type": "Point",
        "coordinates": [
          6.0492744,
          51.6032146
        ]
      },
      "properties": {
        "id": 4782719127,
        "osm_type": "node",
        "seasonal": "yes",
        "operator": "WML Limburgs drinkwater"
      }
    },
    {
      "type": "Feature",
      "geometry": {
        "type": "Point",
        "coordinates": [
          6.0929762,
          51.4954435
        ]
      },
      "properties": {
        "id": 4782719128,
        "osm_type": "node",
        "seasonal": "yes",
        "operator": "WML Limburgs drinkwater"
      }
    },
    {
      "type": "Feature",
      "geometry": {
        "type": "Point",
        "coordinates": [
          6.1475536,
          51.4196921
        ]
      },
      "properties": {
        "id": 4782719130,
        "osm_type": "node",
        "seasonal": "yes",
        "operator": "WML Limburgs drinkwater"
      }
    },
    {
      "type": "Feature",
      "geometry": {
        "type": "Point",
        "coordinates": [
          6.1743757,
          51.3744846
        ]
      },
      "properties": {
        "id": 4782719131,
        "osm_type": "node"
      }
    },
    {
      "type": "Feature",
      "geometry": {
        "type": "Point",
        "coordinates": [
          6.1743586,
          51.374712
        ]
      },
      "properties": {
        "id": 4782719132,
        "osm_type": "node"
      }
    },
    {
      "type": "Feature",
      "geometry": {
        "type": "Point",
        "coordinates": [
          6.1744445,
          51.3756477
        ]
      },
      "properties": {
        "id": 4782719133,
        "osm_type": "node"
      }
    },
    {
      "type": "Feature",
      "geometry": {
        "type": "Point",
        "coordinates": [
          6.2108307,
          51.3581532
        ]
      },
      "properties": {
        "id": 4782719134,
        "osm_type": "node",
        "seasonal": "yes",
        "operator": "WML Limburgs drinkwater"
      }
    },
    {
      "type": "Feature",
      "geometry": {
        "type": "Point",
        "coordinates": [
          5.9918713,
          51.1905704
        ]
      },
      "properties": {
        "id": 4782719135,
        "osm_type": "node",
        "seasonal": "yes",
        "operator": "WML Limburgs drinkwater"
      }
    },
    {
      "type": "Feature",
      "geometry": {
        "type": "Point",
        "coordinates": [
          5.9096456,
          51.1895305
        ]
      },
      "properties": {
        "id": 4782719136,
        "osm_type": "node",
        "seasonal": "yes",
        "operator": "WML Limburgs drinkwater"
      }
    },
    {
      "type": "Feature",
      "geometry": {
        "type": "Point",
        "coordinates": [
          5.6888786,
          50.8496718
        ]
      },
      "properties": {
        "id": 4782771661,
        "osm_type": "node",
        "seasonal": "yes",
        "operator": "WML Limburgs drinkwater"
      }
    },
    {
      "type": "Feature",
      "geometry": {
        "type": "Point",
        "coordinates": [
          5.6939619,
          50.8493153
        ]
      },
      "properties": {
        "id": 4782771662,
        "osm_type": "node",
        "seasonal": "yes",
        "operator": "WML"
      }
    },
    {
      "type": "Feature",
      "geometry": {
        "type": "Point",
        "coordinates": [
          5.6913473,
          50.8438739
        ]
      },
      "properties": {
        "id": 4782771663,
        "osm_type": "node",
        "fee": "no",
        "seasonal": "no",
        "operator": "WML Limburgs drinkwater"
      }
    },
    {
      "type": "Feature",
      "geometry": {
        "type": "Point",
        "coordinates": [
          5.7161261,
          50.8338915
        ]
      },
      "properties": {
        "id": 4782771664,
        "osm_type": "node",
        "seasonal": "yes",
        "operator": "WML Limburgs drinkwater"
      }
    },
    {
      "type": "Feature",
      "geometry": {
        "type": "Point",
        "coordinates": [
          5.9811668,
          51.328914
        ]
      },
      "properties": {
        "id": 4782885268,
        "osm_type": "node",
        "check_date": "2023-07-25"
      }
    },
    {
      "type": "Feature",
      "geometry": {
        "type": "Point",
        "coordinates": [
          5.7966176,
          50.9493409
        ]
      },
      "properties": {
        "id": 4782885277,
        "osm_type": "node"
      }
    },
    {
      "type": "Feature",
      "geometry": {
        "type": "Point",
        "coordinates": [
          5.8451856,
          50.9837307
        ]
      },
      "properties": {
        "id": 4782885278,
        "osm_type": "node"
      }
    },
    {
      "type": "Feature",
      "geometry": {
        "type": "Point",
        "coordinates": [
          5.9664351,
          51.5236154
        ]
      },
      "properties": {
        "id": 4793414354,
        "osm_type": "node",
        "seasonal": "yes",
        "operator": "WML Limburgs drinkwater"
      }
    },
    {
      "type": "Feature",
      "geometry": {
        "type": "Point",
        "coordinates": [
          5.9018361,
          51.2995272
        ]
      },
      "properties": {
        "id": 5312486677,
        "osm_type": "node"
      }
    },
    {
      "type": "Feature",
      "geometry": {
        "type": "Point",
        "coordinates": [
          5.9835212,
          51.3269935
        ]
      },
      "properties": {
        "id": 5316376380,
        "osm_type": "node"
      }
    },
    {
      "type": "Feature",
      "geometry": {
        "type": "Point",
        "coordinates": [
          5.7554029,
          51.2820813
        ]
      },
      "properties": {
        "id": 5694276984,
        "osm_type": "node"
      }
    },
    {
      "type": "Feature",
      "geometry": {
        "type": "Point",
        "coordinates": [
          5.7123241,
          50.8384449
        ]
      },
      "properties": {
        "id": 5720390521,
        "osm_type": "node",
        "seasonal": "yes",
        "operator": "WML Limburgs drinkwater"
      }
    },
    {
      "type": "Feature",
      "geometry": {
        "type": "Point",
        "coordinates": [
          6.0213465,
          50.8772449
        ]
      },
      "properties": {
        "id": 5852993360,
        "osm_type": "node",
        "access": "yes",
        "fee": "no",
        "operator": "WML"
      }
    },
    {
      "type": "Feature",
      "geometry": {
        "type": "Point",
        "coordinates": [
          5.976294,
          50.9646379
        ]
      },
      "properties": {
        "id": 5922001387,
        "osm_type": "node",
        "seasonal": "yes",
        "operator": "WML Limburgs drinkwater"
      }
    },
    {
      "type": "Feature",
      "geometry": {
        "type": "Point",
        "coordinates": [
          6.064157,
          50.8686925
        ]
      },
      "properties": {
        "id": 5980801638,
        "osm_type": "node",
        "name": "WML"
      }
    },
    {
      "type": "Feature",
      "geometry": {
        "type": "Point",
        "coordinates": [
          6.1788755,
          51.4278489
        ]
      },
      "properties": {
        "id": 6290928511,
        "osm_type": "node"
      }
    },
    {
      "type": "Feature",
      "geometry": {
        "type": "Point",
        "coordinates": [
          6.1725087,
          51.3663207
        ]
      },
      "properties": {
        "id": 6363258879,
        "osm_type": "node",
        "seasonal": "yes",
        "operator": "WML Limburgs drinkwater"
      }
    },
    {
      "type": "Feature",
      "geometry": {
        "type": "Point",
        "coordinates": [
          6.1712952,
          51.3655488
        ]
      },
      "properties": {
        "id": 6364291051,
        "osm_type": "node",
        "seasonal": "yes",
        "operator": "WML Limburgs drinkwater"
      }
    },
    {
      "type": "Feature",
      "geometry": {
        "type": "Point",
        "coordinates": [
          5.7849706,
          50.9067306
        ]
      },
      "properties": {
        "id": 6426498815,
        "osm_type": "node",
        "access": "yes",
        "fee": "no",
        "seasonal": "yes",
        "operator": "WML Limburgs drinkwater"
      }
    },
    {
      "type": "Feature",
      "geometry": {
        "type": "Point",
        "coordinates": [
          6.0143238,
          51.5261904
        ]
      },
      "properties": {
        "id": 6473489985,
        "osm_type": "node",
        "seasonal": "yes",
        "operator": "WML Limburgs drinkwater"
      }
    },
    {
      "type": "Feature",
      "geometry": {
        "type": "Point",
        "coordinates": [
          5.801494,
          51.3258908
        ]
      },
      "properties": {
        "id": 6511634389,
        "osm_type": "node",
        "access": "yes",
        "fee": "no",
        "seasonal": "yes",
        "operator": "WML Limburgs drinkwater"
      }
    },
    {
      "type": "Feature",
      "geometry": {
        "type": "Point",
        "coordinates": [
          5.7414164,
          50.873579
        ]
      },
      "properties": {
        "id": 6576867690,
        "osm_type": "node",
        "seasonal": "yes",
        "operator": "WML Limburgs drinkwater"
      }
    },
    {
      "type": "Feature",
      "geometry": {
        "type": "Point",
        "coordinates": [
          6.0547787,
          50.8925494
        ]
      },
      "properties": {
        "id": 6755279121,
        "osm_type": "node",
        "seasonal": "yes",
        "operator": "WML Limburgs drinkwater"
      }
    },
    {
      "type": "Feature",
      "geometry": {
        "type": "Point",
        "coordinates": [
          5.6908756,
          50.856007
        ]
      },
      "properties": {
        "id": 6789365600,
        "osm_type": "node"
      }
    },
    {
      "type": "Feature",
      "geometry": {
        "type": "Point",
        "coordinates": [
          5.6851469,
          50.8311546
        ]
      },
      "properties": {
        "id": 6795720818,
        "osm_type": "node",
        "access": "yes",
        "fee": "no",
        "seasonal": "yes",
        "operator": "WML Limburgs drinkwater"
      }
    },
    {
      "type": "Feature",
      "geometry": {
        "type": "Point",
        "coordinates": [
          5.7861849,
          50.9469195
        ]
      },
      "properties": {
        "id": 7028564989,
        "osm_type": "node",
        "seasonal": "yes",
        "operator": "WML Limburgs drinkwater"
      }
    },
    {
      "type": "Feature",
      "geometry": {
        "type": "Point",
        "coordinates": [
          5.8115168,
          51.0321475
        ]
      },
      "properties": {
        "id": 7028564990,
        "osm_type": "node",
        "access": "yes",
        "fee": "no",
        "seasonal": "yes",
        "operator": "WML Limburgs drinkwater"
      }
    },
    {
      "type": "Feature",
      "geometry": {
        "type": "Point",
        "coordinates": [
          6.0608945,
          51.5882263
        ]
      },
      "properties": {
        "id": 7028564991,
        "osm_type": "node",
        "seasonal": "yes",
        "operator": "WML Limburgs drinkwater"
      }
    },
    {
      "type": "Feature",
      "geometry": {
        "type": "Point",
        "coordinates": [
          5.7223887,
          50.7780892
        ]
      },
      "properties": {
        "id": 7028605885,
        "osm_type": "node",
        "seasonal": "yes",
        "operator": "WML Limburgs drinkwater"
      }
    },
    {
      "type": "Feature",
      "geometry": {
        "type": "Point",
        "coordinates": [
          5.8407329,
          50.9586962
        ]
      },
      "properties": {
        "id": 7028605886,
        "osm_type": "node",
        "seasonal": "yes",
        "operator": "WML Limburgs drinkwater"
      }
    },
    {
      "type": "Feature",
      "geometry": {
        "type": "Point",
        "coordinates": [
          5.8433008,
          50.9675789
        ]
      },
      "properties": {
        "id": 7028605887,
        "osm_type": "node",
        "seasonal": "yes",
        "operator": "WML Limburgs drinkwater"
      }
    },
    {
      "type": "Feature",
      "geometry": {
        "type": "Point",
        "coordinates": [
          5.8250883,
          50.974262
        ]
      },
      "properties": {
        "id": 7028605888,
        "osm_type": "node",
        "seasonal": "yes",
        "operator": "WML Limburgs drinkwater"
      }
    },
    {
      "type": "Feature",
      "geometry": {
        "type": "Point",
        "coordinates": [
          5.8150198,
          50.9847593
        ]
      },
      "properties": {
        "id": 7028605889,
        "osm_type": "node",
        "seasonal": "yes",
        "operator": "WML Limburgs drinkwater"
      }
    },
    {
      "type": "Feature",
      "geometry": {
        "type": "Point",
        "coordinates": [
          5.7675843,
          51.0408204
        ]
      },
      "properties": {
        "id": 7028612075,
        "osm_type": "node",
        "access": "yes",
        "fee": "no",
        "seasonal": "yes",
        "operator": "WML Limburgs drinkwater"
      }
    },
    {
      "type": "Feature",
      "geometry": {
        "type": "Point",
        "coordinates": [
          5.8992991,
          51.1838385
        ]
      },
      "properties": {
        "id": 7028612076,
        "osm_type": "node",
        "seasonal": "yes",
        "operator": "WML Limburgs drinkwater"
      }
    },
    {
      "type": "Feature",
      "geometry": {
        "type": "Point",
        "coordinates": [
          5.9357757,
          51.2493918
        ]
      },
      "properties": {
        "id": 7028612077,
        "osm_type": "node",
        "seasonal": "yes",
        "operator": "WML Limburgs drinkwater"
      }
    },
    {
      "type": "Feature",
      "geometry": {
        "type": "Point",
        "coordinates": [
          5.9643559,
          51.6960183
        ]
      },
      "properties": {
        "id": 7028612078,
        "osm_type": "node",
        "seasonal": "yes",
        "operator": "WML Limburgs drinkwater"
      }
    },
    {
      "type": "Feature",
      "geometry": {
        "type": "Point",
        "coordinates": [
          5.8857993,
          51.1374076
        ]
      },
      "properties": {
        "id": 7028627353,
        "osm_type": "node",
        "seasonal": "yes",
        "operator": "WML Limburgs drinkwater"
      }
    },
    {
      "type": "Feature",
      "geometry": {
        "type": "Point",
        "coordinates": [
          5.8950683,
          51.1429188
        ]
      },
      "properties": {
        "id": 7028627354,
        "osm_type": "node",
        "seasonal": "yes",
        "operator": "WML Limburgs drinkwater"
      }
    },
    {
      "type": "Feature",
      "geometry": {
        "type": "Point",
        "coordinates": [
          5.7175697,
          50.871208
        ]
      },
      "properties": {
        "id": 7028627355,
        "osm_type": "node",
        "seasonal": "yes",
        "operator": "WML Limburgs drinkwater"
      }
    },
    {
      "type": "Feature",
      "geometry": {
        "type": "Point",
        "coordinates": [
          6.0295853,
          50.8620479
        ]
      },
      "properties": {
        "id": 7028654096,
        "osm_type": "node",
        "seasonal": "yes",
        "operator": "WML Limburgs drinkwater"
      }
    },
    {
      "type": "Feature",
      "geometry": {
        "type": "Point",
        "coordinates": [
          5.9517596,
          50.9194975
        ]
      },
      "properties": {
        "id": 7028654097,
        "osm_type": "node",
        "seasonal": "yes",
        "operator": "WML Limburgs drinkwater"
      }
    },
    {
      "type": "Feature",
      "geometry": {
        "type": "Point",
        "coordinates": [
          6.0411613,
          51.4272473
        ]
      },
      "properties": {
        "id": 7028654098,
        "osm_type": "node",
        "seasonal": "yes",
        "operator": "WML Limburgs drinkwater"
      }
    },
    {
      "type": "Feature",
      "geometry": {
        "type": "Point",
        "coordinates": [
          6.0474641,
          51.4607823
        ]
      },
      "properties": {
        "id": 7028654099,
        "osm_type": "node",
        "seasonal": "yes",
        "operator": "WML Limburgs drinkwater"
      }
    },
    {
      "type": "Feature",
      "geometry": {
        "type": "Point",
        "coordinates": [
          6.0588905,
          50.8612289
        ]
      },
      "properties": {
        "id": 7028654100,
        "osm_type": "node",
        "seasonal": "yes",
        "operator": "WML Limburgs drinkwater"
      }
    },
    {
      "type": "Feature",
      "geometry": {
        "type": "Point",
        "coordinates": [
          5.9340674,
          50.9545487
        ]
      },
      "properties": {
        "id": 7028669153,
        "osm_type": "node",
        "seasonal": "yes",
        "operator": "WML Limburgs drinkwater"
      }
    },
    {
      "type": "Feature",
      "geometry": {
        "type": "Point",
        "coordinates": [
          5.8923126,
          50.9198589
        ]
      },
      "properties": {
        "id": 7028669154,
        "osm_type": "node",
        "seasonal": "yes",
        "operator": "WML Limburgs drinkwater"
      }
    },
    {
      "type": "Feature",
      "geometry": {
        "type": "Point",
        "coordinates": [
          5.8774511,
          50.9132068
        ]
      },
      "properties": {
        "id": 7028669155,
        "osm_type": "node",
        "seasonal": "yes",
        "operator": "WML Limburgs drinkwater"
      }
    },
    {
      "type": "Feature",
      "geometry": {
        "type": "Point",
        "coordinates": [
          5.7508862,
          50.8827812
        ]
      },
      "properties": {
        "id": 7028669156,
        "osm_type": "node",
        "seasonal": "yes",
        "operator": "WML Limburgs drinkwater"
      }
    },
    {
      "type": "Feature",
      "geometry": {
        "type": "Point",
        "coordinates": [
          5.8663151,
          50.9998377
        ]
      },
      "properties": {
        "id": 7028682471,
        "osm_type": "node",
        "seasonal": "yes",
        "operator": "WML Limburgs drinkwater"
      }
    },
    {
      "type": "Feature",
      "geometry": {
        "type": "Point",
        "coordinates": [
          5.8956004,
          51.0044266
        ]
      },
      "properties": {
        "id": 7028682472,
        "osm_type": "node",
        "seasonal": "yes",
        "operator": "WML Limburgs drinkwater"
      }
    },
    {
      "type": "Feature",
      "geometry": {
        "type": "Point",
        "coordinates": [
          6.0108626,
          51.1866285
        ]
      },
      "properties": {
        "id": 7028682473,
        "osm_type": "node",
        "seasonal": "yes",
        "operator": "WML Limburgs drinkwater"
      }
    },
    {
      "type": "Feature",
      "geometry": {
        "type": "Point",
        "coordinates": [
          6.0357261,
          51.1218917
        ]
      },
      "properties": {
        "id": 7028720760,
        "osm_type": "node",
        "seasonal": "yes",
        "operator": "WML Limburgs drinkwater"
      }
    },
    {
      "type": "Feature",
      "geometry": {
        "type": "Point",
        "coordinates": [
          5.7818687,
          51.0277969
        ]
      },
      "properties": {
        "id": 7028720761,
        "osm_type": "node",
        "seasonal": "yes",
        "operator": "WML Limburgs drinkwater"
      }
    },
    {
      "type": "Feature",
      "geometry": {
        "type": "Point",
        "coordinates": [
          5.9944568,
          50.9780373
        ]
      },
      "properties": {
        "id": 7028720762,
        "osm_type": "node",
        "seasonal": "yes",
        "operator": "WML Limburgs drinkwater"
      }
    },
    {
      "type": "Feature",
      "geometry": {
        "type": "Point",
        "coordinates": [
          5.849829,
          51.1296463
        ]
      },
      "properties": {
        "id": 7028751341,
        "osm_type": "node",
        "seasonal": "yes",
        "operator": "WML Limburgs drinkwater"
      }
    },
    {
      "type": "Feature",
      "geometry": {
        "type": "Point",
        "coordinates": [
          5.8593435,
          51.0014763
        ]
      },
      "properties": {
        "id": 7028751342,
        "osm_type": "node",
        "seasonal": "yes",
        "operator": "WML Limburgs drinkwater"
      }
    },
    {
      "type": "Feature",
      "geometry": {
        "type": "Point",
        "coordinates": [
          5.8779531,
          50.9981509
        ]
      },
      "properties": {
        "id": 7028751343,
        "osm_type": "node",
        "seasonal": "yes",
        "operator": "WML Limburgs drinkwater"
      }
    },
    {
      "type": "Feature",
      "geometry": {
        "type": "Point",
        "coordinates": [
          5.8458353,
          50.9922517
        ]
      },
      "properties": {
        "id": 7028751344,
        "osm_type": "node",
        "seasonal": "yes",
        "operator": "WML Limburgs drinkwater"
      }
    },
    {
      "type": "Feature",
      "geometry": {
        "type": "Point",
        "coordinates": [
          5.8625901,
          51.0608297
        ]
      },
      "properties": {
        "id": 7028751345,
        "osm_type": "node",
        "access": "yes",
        "fee": "no",
        "seasonal": "yes",
        "operator": "WML Limburgs drinkwater",
        "indoor": "no"
      }
    },
    {
      "type": "Feature",
      "geometry": {
        "type": "Point",
        "coordinates": [
          5.8329331,
          50.8690195
        ]
      },
      "properties": {
        "id": 7028761729,
        "osm_type": "node",
        "seasonal": "yes",
        "operator": "WML Limburgs drinkwater"
      }
    },
    {
      "type": "Feature",
      "geometry": {
        "type": "Point",
        "coordinates": [
          5.6684727,
          51.2440251
        ]
      },
      "properties": {
        "id": 7028791020,
        "osm_type": "node",
        "seasonal": "yes",
        "operator": "WML Limburgs drinkwater"
      }
    },
    {
      "type": "Feature",
      "geometry": {
        "type": "Point",
        "coordinates": [
          5.7048582,
          51.2517763
        ]
      },
      "properties": {
        "id": 7028791021,
        "osm_type": "node",
        "seasonal": "yes",
        "operator": "WML Limburgs drinkwater"
      }
    },
    {
      "type": "Feature",
      "geometry": {
        "type": "Point",
        "coordinates": [
          6.1652337,
          51.3563117
        ]
      },
      "properties": {
        "id": 7028791022,
        "osm_type": "node",
        "seasonal": "yes",
        "operator": "WML Limburgs drinkwater"
      }
    },
    {
      "type": "Feature",
      "geometry": {
        "type": "Point",
        "coordinates": [
          6.1250627,
          51.5355867
        ]
      },
      "properties": {
        "id": 7028842210,
        "osm_type": "node",
        "seasonal": "yes",
        "operator": "WML Limburgs drinkwater"
      }
    },
    {
      "type": "Feature",
      "geometry": {
        "type": "Point",
        "coordinates": [
          5.8978672,
          51.4866002
        ]
      },
      "properties": {
        "id": 7028842211,
        "osm_type": "node",
        "access": "yes",
        "fee": "no",
        "seasonal": "yes",
        "operator": "WML Limburgs drinkwater"
      }
    },
    {
      "type": "Feature",
      "geometry": {
        "type": "Point",
        "coordinates": [
          5.7038187,
          51.249
        ]
      },
      "properties": {
        "id": 7028842212,
        "osm_type": "node",
        "seasonal": "yes",
        "operator": "WML Limburgs drinkwater"
      }
    },
    {
      "type": "Feature",
      "geometry": {
        "type": "Point",
        "coordinates": [
          5.9435278,
          51.3376052
        ]
      },
      "properties": {
        "id": 7405886646,
        "osm_type": "node"
      }
    },
    {
      "type": "Feature",
      "geometry": {
        "type": "Point",
        "coordinates": [
          5.8900912,
          50.8664646
        ]
      },
      "properties": {
        "id": 7677317860,
        "osm_type": "node",
        "fee": "no",
        "seasonal": "yes",
        "operator": "Waterleiding Maatschappij Limburg"
      }
    },
    {
      "type": "Feature",
      "geometry": {
        "type": "Point",
        "coordinates": [
          5.9750048,
          50.8342834
        ]
      },
      "properties": {
        "id": 8010514819,
        "osm_type": "node",
        "fee": "no",
        "seasonal": "yes",
        "operator": "Waterleiding Maatschappij Limburg"
      }
    },
    {
      "type": "Feature",
      "geometry": {
        "type": "Point",
        "coordinates": [
          5.8446413,
          50.860948
        ]
      },
      "properties": {
        "id": 8042312524,
        "osm_type": "node",
        "operator": "WML Limburgs drinkwater"
      }
    },
    {
      "type": "Feature",
      "geometry": {
        "type": "Point",
        "coordinates": [
          5.9042615,
          50.9477256
        ]
      },
      "properties": {
        "id": 8194452154,
        "osm_type": "node",
        "access": "yes",
        "fee": "no",
        "operator": "WML"
      }
    },
    {
      "type": "Feature",
      "geometry": {
        "type": "Point",
        "coordinates": [
          6.1621233,
          51.4623493
        ]
      },
      "properties": {
        "id": 8465031983,
        "osm_type": "node"
      }
    },
    {
      "type": "Feature",
      "geometry": {
        "type": "Point",
        "coordinates": [
          5.9785603,
          50.8633781
        ]
      },
      "properties": {
        "id": 8569055813,
        "osm_type": "node",
        "access": "yes",
        "fee": "no",
        "operator": "WML"
      }
    },
    {
      "type": "Feature",
      "geometry": {
        "type": "Point",
        "coordinates": [
          5.7051945,
          50.849592
        ]
      },
      "properties": {
        "id": 8847872258,
        "osm_type": "node",
        "operator": "WML"
      }
    },
    {
      "type": "Feature",
      "geometry": {
        "type": "Point",
        "coordinates": [
          5.7142963,
          50.8457074
        ]
      },
      "properties": {
        "id": 8931192137,
        "osm_type": "node"
      }
    },
    {
      "type": "Feature",
      "geometry": {
        "type": "Point",
        "coordinates": [
          6.0493404,
          51.3589719
        ]
      },
      "properties": {
        "id": 9045484478,
        "osm_type": "node",
        "access": "permissive",
        "fee": "no"
      }
    },
    {
      "type": "Feature",
      "geometry": {
        "type": "Point",
        "coordinates": [
          5.9194477,
          51.7382956
        ]
      },
      "properties": {
        "id": 9109297410,
        "osm_type": "node",
        "fee": "no",
        "operator": "WML Limburgs drinkwater"
      }
    },
    {
      "type": "Feature",
      "geometry": {
        "type": "Point",
        "coordinates": [
          5.7680426,
          51.0059748
        ]
      },
      "properties": {
        "id": 10074947943,
        "osm_type": "node",
        "name": "Limburgs Drinkwater"
      }
    },
    {
      "type": "Feature",
      "geometry": {
        "type": "Point",
        "coordinates": [
          6.0198763,
          50.8962116
        ]
      },
      "properties": {
        "id": 10219356163,
        "osm_type": "node"
      }
    },
    {
      "type": "Feature",
      "geometry": {
        "type": "Point",
        "coordinates": [
          5.6902267,
          50.8565608
        ]
      },
      "properties": {
        "id": 10792425042,
        "osm_type": "node",
        "access": "yes",
        "fee": "no"
      }
    },
    {
      "type": "Feature",
      "geometry": {
        "type": "Point",
        "coordinates": [
          5.9751526,
          50.8901581
        ]
      },
      "properties": {
        "id": 10982659544,
        "osm_type": "node",
        "access": "yes",
        "fee": "no",
        "seasonal": "yes"
      }
    },
    {
      "type": "Feature",
      "geometry": {
        "type": "Point",
        "coordinates": [
          5.7908611,
          50.7830484
        ]
      },
      "properties": {
        "id": 11021654806,
        "osm_type": "node"
      }
    },
    {
      "type": "Feature",
      "geometry": {
        "type": "Point",
        "coordinates": [
          5.873521,
          51.7681608
        ]
      },
      "properties": {
        "id": 11044356273,
        "osm_type": "node",
        "access": "yes",
        "fee": "no"
      }
    },
    {
      "type": "Feature",
      "geometry": {
        "type": "Point",
        "coordinates": [
          5.9780357,
          50.9235541
        ]
      },
      "properties": {
        "id": 11063744457,
        "osm_type": "node",
        "operator": "WML"
      }
    },
    {
      "type": "Feature",
      "geometry": {
        "type": "Point",
        "coordinates": [
          5.9118445,
          50.7608808
        ]
      },
      "properties": {
        "id": 11071107267,
        "osm_type": "node"
      }
    },
    {
      "type": "Feature",
      "geometry": {
        "type": "Point",
        "coordinates": [
          5.9345818,
          50.8256121
        ]
      },
      "properties": {
        "id": 11148130052,
        "osm_type": "node"
      }
    },
    {
      "type": "Feature",
      "geometry": {
        "type": "Point",
        "coordinates": [
          5.9928663,
          50.8609955
        ]
      },
      "properties": {
        "id": 11165007527,
        "osm_type": "node",
        "operator": "WML Limburgs drinkwater"
      }
    },
    {
      "type": "Feature",
      "geometry": {
        "type": "Point",
        "coordinates": [
          5.6776506,
          50.843304
        ]
      },
      "properties": {
        "id": 11220542497,
        "osm_type": "node"
      }
    },
    {
      "type": "Feature",
      "geometry": {
        "type": "Point",
        "coordinates": [
          5.9692539,
          51.7013586
        ]
      },
      "properties": {
        "id": 11756452861,
        "osm_type": "node"
      }
    },
    {
      "type": "Feature",
      "geometry": {
        "type": "Point",
        "coordinates": [
          5.7089059,
          51.2576083
        ]
      },
      "properties": {
        "id": 11784730626,
        "osm_type": "node",
        "access": "yes"
      }
    },
    {
      "type": "Feature",
      "geometry": {
        "type": "Point",
        "coordinates": [
          5.8784274,
          51.0999999
        ]
      },
      "properties": {
        "id": 11873364338,
        "osm_type": "node"
      }
    },
    {
      "type": "Feature",
      "geometry": {
        "type": "Point",
        "coordinates": [
          6.0136521,
          50.776193
        ]
      },
      "properties": {
        "id": 12107122246,
        "osm_type": "node",
        "access": "yes",
        "fee": "no",
        "seasonal": "yes",
        "operator": "WML Limburgs drinkwater"
      }
    },
    {
      "type": "Feature",
      "geometry": {
        "type": "Point",
        "coordinates": [
          5.892215,
          50.8376712
        ]
      },
      "properties": {
        "id": 12107132283,
        "osm_type": "node",
        "access": "yes",
        "fee": "no",
        "seasonal": "yes",
        "operator": "WML Limburgs drinkwater"
      }
    },
    {
      "type": "Feature",
      "geometry": {
        "type": "Point",
        "coordinates": [
          5.9634453,
          51.1927507
        ]
      },
      "properties": {
        "id": 12118345155,
        "osm_type": "node"
      }
    },
    {
      "type": "Feature",
      "geometry": {
        "type": "Point",
        "coordinates": [
          5.9634405,
          51.193014
        ]
      },
      "properties": {
        "id": 12118346736,
        "osm_type": "node"
      }
    },
    {
      "type": "Feature",
      "geometry": {
        "type": "Point",
        "coordinates": [
          5.9636762,
          51.1932828
        ]
      },
      "properties": {
        "id": 12118393069,
        "osm_type": "node"
      }
    },
    {
      "type": "Feature",
      "geometry": {
        "type": "Point",
        "coordinates": [
          5.7222701,
          50.8592318
        ]
      },
      "properties": {
        "id": 12768664263,
        "osm_type": "node"
      }
    },
    {
      "type": "Feature",
      "geometry": {
        "type": "Point",
        "coordinates": [
          5.7555689,
          51.2831917
        ]
      },
      "properties": {
        "id": 13028078261,
        "osm_type": "node",
        "operator": "WML Limburgs drinkwater"
      }
    },
    {
      "type": "Feature",
      "geometry": {
        "type": "Point",
        "coordinates": [
          5.9433497,
          51.1570248
        ]
      },
      "properties": {
        "id": 13030357369,
        "osm_type": "node",
        "operator": "Limburgs Drinkwater"
      }
    },
    {
      "type": "Feature",
      "geometry": {
        "type": "Point",
        "coordinates": [
          5.8720043,
          50.8561415
        ]
      },
      "properties": {
        "id": 13073963901,
        "osm_type": "node"
      }
    },
    {
      "type": "Feature",
      "geometry": {
        "type": "Point",
        "coordinates": [
          5.7416815,
          51.2807013
        ]
      },
      "properties": {
        "id": 13140736309,
        "osm_type": "node",
        "operator": "WML Limburgs drinkwater"
      }
    },
    {
      "type": "Feature",
      "geometry": {
        "type": "Point",
        "coordinates": [
          5.9872854,
          51.1821078
        ]
      },
      "properties": {
        "id": 13426200622,
        "osm_type": "node"
      }
    },
    {
      "type": "Feature",
      "geometry": {
        "type": "Point",
        "coordinates": [
          5.6795517,
          51.2199342
        ]
      },
      "properties": {
        "id": 13435263783,
        "osm_type": "node",
        "operator": "WML Limburgs drinkwater"
      }
    }
  ]
}