{
  "type": "FeatureCollection",
  "features": [
    {
      "type": "Feature",
      "geometry": {
        "type": "Point",
        "coordinates": [
          17.3870575,
          45.8311682
        ]
      },
      "properties": {
        "id": 1030098835,
        "osm_type": "node",
        "name": "Konzum",
        "brand": "Konzum"
      }
    },
    {
      "type": "Feature",
      "geometry": {
        "type": "Point",
        "coordinates": [
          17.3871571,
          45.8322008
        ]
      },
      "properties": {
        "id": 1217558905,
        "osm_type": "node",
        "name": "NTL"
      }
    },
    {
      "type": "Feature",
      "geometry": {
        "type": "Point",
        "coordinates": [
          17.3818833,
          45.8300506
        ]
      },
      "properties": {
        "id": 1342105724,
        "osm_type": "node",
        "name": "Metss NTL"
      }
    },
    {
      "type": "Feature",
      "geometry": {
        "type": "Point",
        "coordinates": [
          17.3742509,
          45.835524
        ]
      },
      "properties": {
        "id": 1342105731,
        "osm_type": "node",
        "name": "Trgocentar"
      }
    },
    {
      "type": "Feature",
      "geometry": {
        "type": "Point",
        "coordinates": [
          17.3469835,
          45.8253571
        ]
      },
      "properties": {
        "id": 1342133061,
        "osm_type": "node",
        "name": "Trgocentar"
      }
    },
    {
      "type": "Feature",
      "geometry": {
        "type": "Point",
        "coordinates": [
          17.4954277,
          45.8027141
        ]
      },
      "properties": {
        "id": 1342144022,
        "osm_type": "node",
        "name": "Spar",
        "brand": "Spar",
        "opening_hours": "Mo-Sa 07:00-21:00; Su 07:00-14:00"
      }
    },
    {
      "type": "Feature",
      "geometry": {
        "type": "Point",
        "coordinates": [
          17.6354069,
          45.7990097
        ]
      },
      "properties": {
        "id": 1342179201,
        "osm_type": "node",
        "name": "Trgovina"
      }
    },
    {
      "type": "Feature",
      "geometry": {
        "type": "Point",
        "coordinates": [
          17.700644,
          45.8090633
        ]
      },
      "properties": {
        "id": 1342179206,
        "osm_type": "node",
        "name": "NTL"
      }
    },
    {
      "type": "Feature",
      "geometry": {
        "type": "Point",
        "coordinates": [
          17.6334569,
          45.8022783
        ]
      },
      "properties": {
        "id": 1342179207,
        "osm_type": "node",
        "name": "Biljemerkant"
      }
    },
    {
      "type": "Feature",
      "geometry": {
        "type": "Point",
        "coordinates": [
          17.3869109,
          45.8427911
        ]
      },
      "properties": {
        "id": 1342179208,
        "osm_type": "node",
        "name": "Metss"
      }
    },
    {
      "type": "Feature",
      "geometry": {
        "type": "Point",
        "coordinates": [
          17.5864218,
          45.81373
        ]
      },
      "properties": {
        "id": 1342179210,
        "osm_type": "node",
        "name": "Trgocentar"
      }
    },
    {
      "type": "Feature",
      "geometry": {
        "type": "Point",
        "coordinates": [
          17.426275,
          45.8728585
        ]
      },
      "properties": {
        "id": 1342179211,
        "osm_type": "node",
        "name": "Trgocentar"
      }
    },
    {
      "type": "Feature",
      "geometry": {
        "type": "Point",
        "coordinates": [
          17.7462625,
          45.8015398
        ]
      },
      "properties": {
        "id": 1342206120,
        "osm_type": "node",
        "name": "Biljemerkant"
      }
    },
    {
      "type": "Feature",
      "geometry": {
        "type": "Point",
        "coordinates": [
          17.700467,
          45.7023481
        ]
      },
      "properties": {
        "id": 1342206133,
        "osm_type": "node",
        "name": "NTL"
      }
    },
    {
      "type": "Feature",
      "geometry": {
        "type": "Point",
        "coordinates": [
          17.9133266,
          45.7558134
        ]
      },
      "properties": {
        "id": 1342230669,
        "osm_type": "node",
        "name": "NTL"
      }
    },
    {
      "type": "Feature",
      "geometry": {
        "type": "Point",
        "coordinates": [
          17.8563565,
          45.7433446
        ]
      },
      "properties": {
        "id": 1342230685,
        "osm_type": "node",
        "name": "Biljemerkant"
      }
    },
    {
      "type": "Feature",
      "geometry": {
        "type": "Point",
        "coordinates": [
          17.9375952,
          45.6918208
        ]
      },
      "properties": {
        "id": 1342304907,
        "osm_type": "node",
        "name": "NTL"
      }
    },
    {
      "type": "Feature",
      "geometry": {
        "type": "Point",
        "coordinates": [
          17.3865086,
          45.8353042
        ]
      },
      "properties": {
        "id": 1349087913,
        "osm_type": "node",
        "name": "Trgocentar"
      }
    },
    {
      "type": "Feature",
      "geometry": {
        "type": "Point",
        "coordinates": [
          17.4095723,
          45.8213407
        ]
      },
      "properties": {
        "id": 1707487730,
        "osm_type": "node",
        "name": "Konzum",
        "brand": "Konzum"
      }
    },
    {
      "type": "Feature",
      "geometry": {
        "type": "Point",
        "coordinates": [
          17.2317497,
          45.9526058
        ]
      },
      "properties": {
        "id": 9180355247,
        "osm_type": "node",
        "name": "Konzum",
        "brand": "Konzum",
        "opening_hours": "Mo-Sa 07:00-21:00; Su 07:00-13:00"
      }
    },
    {
      "type": "Feature",
      "geometry": {
        "type": "Point",
        "coordinates": [
          17.3944747,
          45.8199001
        ]
      },
      "properties": {
        "id": 12480647376,
        "osm_type": "node",
        "name": "EuroSpin"
      }
    },
    {
      "type": "Feature",
      "geometry": {
        "type": "Point",
        "coordinates": [
          17.54819,
          45.6205937
        ]
      },
      "properties": {
        "id": 12755215441,
        "osm_type": "node"
      }
    },
    {
      "type": "Feature",
      "geometry": {
        "type": "Point",
        "coordinates": [
          17.3897043,
          45.8215805
        ]
      },
      "properties": {
        "id": 99391583,
        "osm_type": "way"
      }
    },
    {
      "type": "Feature",
      "geometry": {
        "type": "Point",
        "coordinates": [
          17.7097106,
          45.6996018
        ]
      },
      "properties": {
        "id": 152747551,
        "osm_type": "way",
        "name": "Vinkoprom Slatina"
      }
    },
    {
      "type": "Feature",
      "geometry": {
        "type": "Point",
        "coordinates": [
          17.6963017,
          45.7109048
        ]
      },
      "properties": {
        "id": 152814580,
        "osm_type": "way",
        "name": "KTC"
      }
    },
    {
      "type": "Feature",
      "geometry": {
        "type": "Point",
        "coordinates": [
          17.7069052,
          45.6993882
        ]
      },
      "properties": {
        "id": 152817937,
        "osm_type": "way",
        "name": "Lidl",
        "brand": "Lidl"
      }
    },
    {
      "type": "Feature",
      "geometry": {
        "type": "Point",
        "coordinates": [
          17.6984148,
          45.7062572
        ]
      },
      "properties": {
        "id": 152819679,
        "osm_type": "way",
        "name": "Plodine",
        "brand": "Plodine",
        "opening_hours": "Mo-Su 07:00-21:00"
      }
    },
    {
      "type": "Feature",
      "geometry": {
        "type": "Point",
        "coordinates": [
          17.6984442,
          45.707683
        ]
      },
      "properties": {
        "id": 156079033,
        "osm_type": "way",
        "name": "Billa"
      }
    },
    {
      "type": "Feature",
      "geometry": {
        "type": "Point",
        "coordinates": [
          17.3924502,
          45.8277717
        ]
      },
      "properties": {
        "id": 172432076,
        "osm_type": "way",
        "name": "Lidl",
        "brand": "Lidl",
        "opening_hours": "Mo-Sa 08:00-21:00"
      }
    },
    {
      "type": "Feature",
      "geometry": {
        "type": "Point",
        "coordinates": [
          17.3938906,
          45.8275549
        ]
      },
      "properties": {
        "id": 172432079,
        "osm_type": "way",
        "name": "Spar",
        "brand": "Spar",
        "opening_hours": "Mo-Sa 07:00-21:00; Su 07:00-12:00"
      }
    },
    {
      "type": "Feature",
      "geometry": {
        "type": "Point",
        "coordinates": [
          17.3919688,
          45.8219605
        ]
      },
      "properties": {
        "id": 173194948,
        "osm_type": "way",
        "name": "Plodine",
        "brand": "Plodine",
        "opening_hours": "Mo-Su 07:00-21:00"
      }
    },
    {
      "type": "Feature",
      "geometry": {
        "type": "Point",
        "coordinates": [
          17.3980463,
          45.8285062
        ]
      },
      "properties": {
        "id": 173651212,
        "osm_type": "way",
        "name": "Kaufland",
        "brand": "Kaufland"
      }
    },
    {
      "type": "Feature",
      "geometry": {
        "type": "Point",
        "coordinates": [
          17.3893676,
          45.8222313
        ]
      },
      "properties": {
        "id": 174011805,
        "osm_type": "way",
        "name": "KTC Virovitica",
        "opening_hours": "Mo-Sa 07:00-21:00"
      }
    },
    {
      "type": "Feature",
      "geometry": {
        "type": "Point",
        "coordinates": [
          17.2363083,
          45.9513915
        ]
      },
      "properties": {
        "id": 185880928,
        "osm_type": "way",
        "name": "Plodine",
        "brand": "Plodine",
        "opening_hours": "Mo-Su 07:00-21:00"
      }
    },
    {
      "type": "Feature",
      "geometry": {
        "type": "Point",
        "coordinates": [
          17.3922939,
          45.8264338
        ]
      },
      "properties": {
        "id": 193301877,
        "osm_type": "way",
        "name": "Prima"
      }
    },
    {
      "type": "Feature",
      "geometry": {
        "type": "Point",
        "coordinates": [
          17.8938122,
          45.5391989
        ]
      },
      "properties": {
        "id": 744756721,
        "osm_type": "way",
        "name": "Spar",
        "brand": "Spar",
        "opening_hours": "Mo-Sa 07:00-21:00; Su 08:00-15:00"
      }
    }
  ]
}