{
  "type": "FeatureCollection",
  "features": [
    {
      "type": "Feature",
      "geometry": {
        "type": "Point",
        "coordinates": [
          18.8146366,
          45.6308794
        ]
      },
      "properties": {
        "id": 356898791,
        "osm_type": "node",
        "name": "Kormoran",
        "cuisine": "regional"
      }
    },
    {
      "type": "Feature",
      "geometry": {
        "type": "Point",
        "coordinates": [
          18.8006235,
          45.798214
        ]
      },
      "properties": {
        "id": 370696415,
        "osm_type": "node",
        "name": "Josić",
        "phone": "+38531734410",
        "website": "https://www.josic.hr/"
      }
    },
    {
      "type": "Feature",
      "geometry": {
        "type": "Point",
        "coordinates": [
          18.5215429,
          45.6177945
        ]
      },
      "properties": {
        "id": 414203395,
        "osm_type": "node",
        "name": "Jelengrad"
      }
    },
    {
      "type": "Feature",
      "geometry": {
        "type": "Point",
        "coordinates": [
          18.6757681,
          45.5566515
        ]
      },
      "properties": {
        "id": 448134225,
        "osm_type": "node",
        "name": "Gundulić"
      }
    },
    {
      "type": "Feature",
      "geometry": {
        "type": "Point",
        "coordinates": [
          18.6823952,
          45.5586421
        ]
      },
      "properties": {
        "id": 454975881,
        "osm_type": "node",
        "name": "As",
        "opening_hours": "Mo-Th 09:00-23:00; Fr-Sa 09:00-23:00; Su 11:00-23:00",
        "phone": "+385 31 212 500",
        "cuisine": "pizza"
      }
    },
    {
      "type": "Feature",
      "geometry": {
        "type": "Point",
        "coordinates": [
          18.681775,
          45.5580248
        ]
      },
      "properties": {
        "id": 454979297,
        "osm_type": "node",
        "name": "Bonus"
      }
    },
    {
      "type": "Feature",
      "geometry": {
        "type": "Point",
        "coordinates": [
          18.4898476,
          45.6282578
        ]
      },
      "properties": {
        "id": 457697405,
        "osm_type": "node",
        "name": "Emaus"
      }
    },
    {
      "type": "Feature",
      "geometry": {
        "type": "Point",
        "coordinates": [
          18.160418,
          45.7614741
        ]
      },
      "properties": {
        "id": 457906307,
        "osm_type": "node",
        "name": "Kapuciner",
        "cuisine": "regional"
      }
    },
    {
      "type": "Feature",
      "geometry": {
        "type": "Point",
        "coordinates": [
          18.4208469,
          45.3084081
        ]
      },
      "properties": {
        "id": 484552334,
        "osm_type": "node",
        "name": "Restoran i Vinoteka Sokak",
        "phone": "+385 31 820 332",
        "website": "http://sokak.mlaco.hr/",
        "cuisine": "croatian"
      }
    },
    {
      "type": "Feature",
      "geometry": {
        "type": "Point",
        "coordinates": [
          18.6930433,
          45.5603183
        ]
      },
      "properties": {
        "id": 485256607,
        "osm_type": "node",
        "name": "Slavonska kuća"
      }
    },
    {
      "type": "Feature",
      "geometry": {
        "type": "Point",
        "coordinates": [
          18.6770743,
          45.5516436
        ]
      },
      "properties": {
        "id": 489414395,
        "osm_type": "node",
        "name": "Prehrana",
        "opening_hours": "Mo-Fr 08:00-20:00",
        "cuisine": "regional"
      }
    },
    {
      "type": "Feature",
      "geometry": {
        "type": "Point",
        "coordinates": [
          18.6796317,
          45.5623882
        ]
      },
      "properties": {
        "id": 490771278,
        "osm_type": "node",
        "name": "Zimska luka"
      }
    },
    {
      "type": "Feature",
      "geometry": {
        "type": "Point",
        "coordinates": [
          18.3726383,
          45.6823832
        ]
      },
      "properties": {
        "id": 496261584,
        "osm_type": "node",
        "name": "Kod Svrtana",
        "cuisine": "regional"
      }
    },
    {
      "type": "Feature",
      "geometry": {
        "type": "Point",
        "coordinates": [
          18.6825482,
          45.5615556
        ]
      },
      "properties": {
        "id": 527124686,
        "osm_type": "node",
        "name": "Lumiere",
        "opening_hours": "Mo-Sa 08:00-23:00",
        "phone": "+385 31 201 088"
      }
    },
    {
      "type": "Feature",
      "geometry": {
        "type": "Point",
        "coordinates": [
          18.4060241,
          45.666296
        ]
      },
      "properties": {
        "id": 616784233,
        "osm_type": "node",
        "name": "Valpovački dvori"
      }
    },
    {
      "type": "Feature",
      "geometry": {
        "type": "Point",
        "coordinates": [
          18.7007724,
          45.5499143
        ]
      },
      "properties": {
        "id": 652646887,
        "osm_type": "node",
        "name": "Pizzeria Sebastian",
        "opening_hours": "Mo-Sa 09:00-23:00; Su 17:00-23:00",
        "phone": "+031 570 904",
        "outdoor_seating": "yes",
        "takeaway": "yes"
      }
    },
    {
      "type": "Feature",
      "geometry": {
        "type": "Point",
        "coordinates": [
          18.6835627,
          45.5594057
        ]
      },
      "properties": {
        "id": 665066019,
        "osm_type": "node",
        "name": "Vege Lege",
        "opening_hours": "Mo-Fr 09:00-19:00"
      }
    },
    {
      "type": "Feature",
      "geometry": {
        "type": "Point",
        "coordinates": [
          18.7440742,
          45.5028968
        ]
      },
      "properties": {
        "id": 703622649,
        "osm_type": "node",
        "name": "Padrino",
        "phone": "+385 31 291291",
        "cuisine": "pizza"
      }
    },
    {
      "type": "Feature",
      "geometry": {
        "type": "Point",
        "coordinates": [
          18.7430319,
          45.5933675
        ]
      },
      "properties": {
        "id": 741564762,
        "osm_type": "node",
        "name": "Baranjska Ruža"
      }
    },
    {
      "type": "Feature",
      "geometry": {
        "type": "Point",
        "coordinates": [
          18.7432448,
          45.5975329
        ]
      },
      "properties": {
        "id": 741578079,
        "osm_type": "node",
        "name": "Kod Varge"
      }
    },
    {
      "type": "Feature",
      "geometry": {
        "type": "Point",
        "coordinates": [
          18.4127403,
          45.3133839
        ]
      },
      "properties": {
        "id": 797916609,
        "osm_type": "node",
        "name": "Pizzerija Slavonija"
      }
    },
    {
      "type": "Feature",
      "geometry": {
        "type": "Point",
        "coordinates": [
          18.8355,
          45.6972049
        ]
      },
      "properties": {
        "id": 908088879,
        "osm_type": "node",
        "name": "Tikveški dvorac",
        "cuisine": "regional"
      }
    },
    {
      "type": "Feature",
      "geometry": {
        "type": "Point",
        "coordinates": [
          18.716302,
          45.5562971
        ]
      },
      "properties": {
        "id": 923986666,
        "osm_type": "node",
        "name": "Lipov Hlad",
        "opening_hours": "Mo-Sa 07:00-23:00; Su 10:00-23:00"
      }
    },
    {
      "type": "Feature",
      "geometry": {
        "type": "Point",
        "coordinates": [
          18.6718789,
          45.5619937
        ]
      },
      "properties": {
        "id": 933232131,
        "osm_type": "node",
        "name": "Rustika"
      }
    },
    {
      "type": "Feature",
      "geometry": {
        "type": "Point",
        "coordinates": [
          18.7154842,
          45.5531308
        ]
      },
      "properties": {
        "id": 972954635,
        "osm_type": "node",
        "name": "Mali sokak"
      }
    },
    {
      "type": "Feature",
      "geometry": {
        "type": "Point",
        "coordinates": [
          18.6755562,
          45.5552994
        ]
      },
      "properties": {
        "id": 1308373045,
        "osm_type": "node",
        "name": "Pizzeria Gondola",
        "opening_hours": "Mo-Sa 09:00-23:00, Su",
        "phone": "+385 31 200 968",
        "website": "https://www.pizzeriagondolaosijek.com.hr/"
      }
    },
    {
      "type": "Feature",
      "geometry": {
        "type": "Point",
        "coordinates": [
          18.7879682,
          45.7895505
        ]
      },
      "properties": {
        "id": 1344344390,
        "osm_type": "node",
        "name": "Kovac Csarda"
      }
    },
    {
      "type": "Feature",
      "geometry": {
        "type": "Point",
        "coordinates": [
          18.6719613,
          45.5632471
        ]
      },
      "properties": {
        "id": 1602462885,
        "osm_type": "node",
        "name": "Pizza Grill Corolla",
        "opening_hours": "Mo-Sa 08:30-23:00, Su 11:30-23:00",
        "website": "https://www.corolla.com.hr/",
        "cuisine": "pizza;grill"
      }
    },
    {
      "type": "Feature",
      "geometry": {
        "type": "Point",
        "coordinates": [
          18.6221715,
          45.7644942
        ]
      },
      "properties": {
        "id": 1717113058,
        "osm_type": "node",
        "name": "Restoran \"Kod Kaje\""
      }
    },
    {
      "type": "Feature",
      "geometry": {
        "type": "Point",
        "coordinates": [
          18.415642,
          45.3078557
        ]
      },
      "properties": {
        "id": 2327053483,
        "osm_type": "node",
        "name": "Verona",
        "opening_hours": "Mo-Sa 08:00-23:00; Su 12:00-23:00",
        "phone": "031/812-313",
        "website": "http://www.verona.hr/",
        "cuisine": "regional"
      }
    },
    {
      "type": "Feature",
      "geometry": {
        "type": "Point",
        "coordinates": [
          18.4124165,
          45.3040641
        ]
      },
      "properties": {
        "id": 2384349943,
        "osm_type": "node",
        "name": "Croatia",
        "opening_hours": "Mo-Fr 07:00-22:00; Sa,Su 08:00-22:00",
        "cuisine": "regional"
      }
    },
    {
      "type": "Feature",
      "geometry": {
        "type": "Point",
        "coordinates": [
          18.4140011,
          45.3065117
        ]
      },
      "properties": {
        "id": 2402202880,
        "osm_type": "node",
        "name": "Grill Adrian",
        "opening_hours": "Mo-Sa 08:00-23:00; Su 17:00-23:00",
        "phone": "031/814-331",
        "cuisine": "regional"
      }
    },
    {
      "type": "Feature",
      "geometry": {
        "type": "Point",
        "coordinates": [
          18.6901448,
          45.5548711
        ]
      },
      "properties": {
        "id": 2909021034,
        "osm_type": "node",
        "name": "Alas"
      }
    },
    {
      "type": "Feature",
      "geometry": {
        "type": "Point",
        "coordinates": [
          18.6931553,
          45.5574295
        ]
      },
      "properties": {
        "id": 2910000021,
        "osm_type": "node",
        "name": "Plus"
      }
    },
    {
      "type": "Feature",
      "geometry": {
        "type": "Point",
        "coordinates": [
          18.6763341,
          45.5614149
        ]
      },
      "properties": {
        "id": 2917087354,
        "osm_type": "node",
        "name": "Corolla",
        "cuisine": "pizza"
      }
    },
    {
      "type": "Feature",
      "geometry": {
        "type": "Point",
        "coordinates": [
          18.4103907,
          45.309546
        ]
      },
      "properties": {
        "id": 3202201319,
        "osm_type": "node",
        "name": "Bistro Loora",
        "phone": "+385 31 780 510",
        "website": "https://loora.hr/"
      }
    },
    {
      "type": "Feature",
      "geometry": {
        "type": "Point",
        "coordinates": [
          18.6728047,
          45.4860287
        ]
      },
      "properties": {
        "id": 3315749323,
        "osm_type": "node",
        "name": "Mama mia",
        "cuisine": "pizza"
      }
    },
    {
      "type": "Feature",
      "geometry": {
        "type": "Point",
        "coordinates": [
          18.4279735,
          45.655354
        ]
      },
      "properties": {
        "id": 3378005065,
        "osm_type": "node",
        "name": "Gurman",
        "cuisine": "pizza;burger"
      }
    },
    {
      "type": "Feature",
      "geometry": {
        "type": "Point",
        "coordinates": [
          18.9925192,
          45.4894854
        ]
      },
      "properties": {
        "id": 4029052056,
        "osm_type": "node",
        "name": "Stari Mlin",
        "phone": "+38531625810",
        "website": "https://stari-mlin.com",
        "cuisine": "regional",
        "outdoor_seating": "yes"
      }
    },
    {
      "type": "Feature",
      "geometry": {
        "type": "Point",
        "coordinates": [
          18.7668584,
          45.6195001
        ]
      },
      "properties": {
        "id": 4081137289,
        "osm_type": "node",
        "name": "Citadela",
        "cuisine": "regional"
      }
    },
    {
      "type": "Feature",
      "geometry": {
        "type": "Point",
        "coordinates": [
          18.7706145,
          45.6239038
        ]
      },
      "properties": {
        "id": 4145949590,
        "osm_type": "node",
        "name": "Restoran Darócz",
        "phone": "031 753 113",
        "website": "https://darocz.com/",
        "cuisine": "regional"
      }
    },
    {
      "type": "Feature",
      "geometry": {
        "type": "Point",
        "coordinates": [
          18.8639909,
          45.7211123
        ]
      },
      "properties": {
        "id": 4309487626,
        "osm_type": "node",
        "name": "Kuća u prirodi Zlatna Greda",
        "cuisine": "regional",
        "takeaway": "no"
      }
    },
    {
      "type": "Feature",
      "geometry": {
        "type": "Point",
        "coordinates": [
          18.4059768,
          45.6866094
        ]
      },
      "properties": {
        "id": 4398429046,
        "osm_type": "node",
        "name": "Fonatana",
        "cuisine": "pizza",
        "takeaway": "yes"
      }
    },
    {
      "type": "Feature",
      "geometry": {
        "type": "Point",
        "coordinates": [
          18.6943853,
          45.5559974
        ]
      },
      "properties": {
        "id": 4714064407,
        "osm_type": "node",
        "name": "Gaudeamus",
        "takeaway": "no"
      }
    },
    {
      "type": "Feature",
      "geometry": {
        "type": "Point",
        "coordinates": [
          18.6941914,
          45.5561522
        ]
      },
      "properties": {
        "id": 4714064408,
        "osm_type": "node",
        "name": "Restoran Istarska",
        "opening_hours": "Mo-Fr 08:00-19:30",
        "phone": "+38531220600",
        "takeaway": "no"
      }
    },
    {
      "type": "Feature",
      "geometry": {
        "type": "Point",
        "coordinates": [
          18.6765364,
          45.5603009
        ]
      },
      "properties": {
        "id": 5380392822,
        "osm_type": "node",
        "name": "America Bar Dollar"
      }
    },
    {
      "type": "Feature",
      "geometry": {
        "type": "Point",
        "coordinates": [
          18.6680343,
          45.5681621
        ]
      },
      "properties": {
        "id": 5419818279,
        "osm_type": "node",
        "name": "Riverside restaurant"
      }
    },
    {
      "type": "Feature",
      "geometry": {
        "type": "Point",
        "coordinates": [
          18.7603358,
          45.7682502
        ]
      },
      "properties": {
        "id": 5983171357,
        "osm_type": "node",
        "name": "Knežev Dol",
        "opening_hours": "Fr-Su 11:00-00:00",
        "phone": "098/546830",
        "cuisine": "local",
        "outdoor_seating": "yes"
      }
    },
    {
      "type": "Feature",
      "geometry": {
        "type": "Point",
        "coordinates": [
          18.9840159,
          45.4784697
        ]
      },
      "properties": {
        "id": 5996411960,
        "osm_type": "node",
        "name": "Ugostiteljska zadruga Opus Plus"
      }
    },
    {
      "type": "Feature",
      "geometry": {
        "type": "Point",
        "coordinates": [
          18.984936,
          45.4869225
        ]
      },
      "properties": {
        "id": 5996411962,
        "osm_type": "node",
        "name": "Kovčalija j.d.o.o."
      }
    },
    {
      "type": "Feature",
      "geometry": {
        "type": "Point",
        "coordinates": [
          18.9925099,
          45.4894351
        ]
      },
      "properties": {
        "id": 5996411968,
        "osm_type": "node",
        "name": "Čikl j.d.o.o.",
        "phone": "+385921239293"
      }
    },
    {
      "type": "Feature",
      "geometry": {
        "type": "Point",
        "coordinates": [
          19.0609128,
          45.5249033
        ]
      },
      "properties": {
        "id": 5996411983,
        "osm_type": "node",
        "name": "Miha",
        "phone": "+38531596231"
      }
    },
    {
      "type": "Feature",
      "geometry": {
        "type": "Point",
        "coordinates": [
          19.0585204,
          45.5260381
        ]
      },
      "properties": {
        "id": 5996411984,
        "osm_type": "node",
        "name": "Izletište Stojčić",
        "phone": "+385993169733",
        "website": "http://www.izletiste-stojcic.hr"
      }
    },
    {
      "type": "Feature",
      "geometry": {
        "type": "Point",
        "coordinates": [
          18.9494243,
          45.527402
        ]
      },
      "properties": {
        "id": 5996412895,
        "osm_type": "node",
        "name": "Konoba - Aljmaš",
        "phone": "+385989545257",
        "website": "http://www.konoba-zeko.net.hr"
      }
    },
    {
      "type": "Feature",
      "geometry": {
        "type": "Point",
        "coordinates": [
          18.9500987,
          45.5294702
        ]
      },
      "properties": {
        "id": 5996412898,
        "osm_type": "node",
        "name": "Restoran Vikend",
        "phone": "+38531595020"
      }
    },
    {
      "type": "Feature",
      "geometry": {
        "type": "Point",
        "coordinates": [
          18.6854825,
          45.7600058
        ]
      },
      "properties": {
        "id": 5996412909,
        "osm_type": "node",
        "name": "Etno-restoran Baranjska kuća",
        "phone": "+38531720180",
        "website": "http://www.baranjska-kuca.com",
        "cuisine": "regional"
      }
    },
    {
      "type": "Feature",
      "geometry": {
        "type": "Point",
        "coordinates": [
          18.7917309,
          45.6059465
        ]
      },
      "properties": {
        "id": 7985863586,
        "osm_type": "node",
        "name": "Didin konak",
        "website": "http://didinkonak.hr",
        "cuisine": "regional",
        "outdoor_seating": "yes"
      }
    },
    {
      "type": "Feature",
      "geometry": {
        "type": "Point",
        "coordinates": [
          18.6522786,
          45.566124
        ]
      },
      "properties": {
        "id": 9024827117,
        "osm_type": "node",
        "name": "Ugostiteljstvo Madarska Retfala"
      }
    },
    {
      "type": "Feature",
      "geometry": {
        "type": "Point",
        "coordinates": [
          18.7372808,
          45.5921194
        ]
      },
      "properties": {
        "id": 11771962877,
        "osm_type": "node",
        "name": "Čingi Lingi čarda",
        "opening_hours": "Mo-Su 11:00-23:00",
        "phone": "+385 31 281 700",
        "website": "https://cingilingicarda.hr",
        "cuisine": "european",
        "check_date": "2024-03-29"
      }
    },
    {
      "type": "Feature",
      "geometry": {
        "type": "Point",
        "coordinates": [
          18.409071,
          45.3128637
        ]
      },
      "properties": {
        "id": 12003699979,
        "osm_type": "node",
        "name": "Pizzeria Lipizzano",
        "phone": "+385 31 296 296",
        "website": "https://www.pizzerialipizzano.com.hr/"
      }
    },
    {
      "type": "Feature",
      "geometry": {
        "type": "Point",
        "coordinates": [
          18.6798443,
          45.5623697
        ]
      },
      "properties": {
        "id": 12340932818,
        "osm_type": "node",
        "name": "Pepe pizza place",
        "cuisine": "pizza"
      }
    },
    {
      "type": "Feature",
      "geometry": {
        "type": "Point",
        "coordinates": [
          18.6365331,
          45.5605087
        ]
      },
      "properties": {
        "id": 12415858518,
        "osm_type": "node",
        "name": "Batak",
        "website": "https://batak.hr/",
        "cuisine": "international;chinese"
      }
    },
    {
      "type": "Feature",
      "geometry": {
        "type": "Point",
        "coordinates": [
          18.0905703,
          45.4903543
        ]
      },
      "properties": {
        "id": 12464829465,
        "osm_type": "node",
        "name": "androliko's",
        "opening_hours": "Mo-Sa - 11:00-22:00, Sun - 12:00-16:00",
        "phone": "+38531240040",
        "website": "bistro-androlikos.eatbu.com",
        "takeaway": "yes"
      }
    },
    {
      "type": "Feature",
      "geometry": {
        "type": "Point",
        "coordinates": [
          18.2932927,
          45.6677746
        ]
      },
      "properties": {
        "id": 12464953773,
        "osm_type": "node",
        "name": "Buffet B&D"
      }
    },
    {
      "type": "Feature",
      "geometry": {
        "type": "Point",
        "coordinates": [
          18.694836,
          45.5547693
        ]
      },
      "properties": {
        "id": 12745722520,
        "osm_type": "node",
        "name": "Pickles Burger Bar",
        "phone": "+385 95 765 2515",
        "website": "https://www.picklesburgerbar.eu/",
        "cuisine": "burger"
      }
    },
    {
      "type": "Feature",
      "geometry": {
        "type": "Point",
        "coordinates": [
          18.854227,
          45.7854517
        ]
      },
      "properties": {
        "id": 12750088748,
        "osm_type": "node",
        "name": "Sunjog Čarda"
      }
    },
    {
      "type": "Feature",
      "geometry": {
        "type": "Point",
        "coordinates": [
          18.694551,
          45.5548471
        ]
      },
      "properties": {
        "id": 12842230095,
        "osm_type": "node",
        "name": "Pečenjarnica More"
      }
    },
    {
      "type": "Feature",
      "geometry": {
        "type": "Point",
        "coordinates": [
          18.6974744,
          45.5598854
        ]
      },
      "properties": {
        "id": 12961576048,
        "osm_type": "node",
        "name": "Bulart"
      }
    },
    {
      "type": "Feature",
      "geometry": {
        "type": "Point",
        "coordinates": [
          18.2848688,
          45.5448828
        ]
      },
      "properties": {
        "id": 13528591357,
        "osm_type": "node",
        "name": "Pizza Grill Cafe Hamby",
        "opening_hours": "Mo-Fr 08:00-23:00; Sa-Su 08:00-23:30",
        "website": "https://pizza-grill-caffe-hamby.eatbu.hr",
        "cuisine": "pizza;coffee_shop;regional;burger;ice_cream;grill"
      }
    },
    {
      "type": "Feature",
      "geometry": {
        "type": "Point",
        "coordinates": [
          18.6930422,
          45.5446952
        ]
      },
      "properties": {
        "id": 13598050630,
        "osm_type": "node",
        "name": "Pizzeria Novi Saloon",
        "cuisine": "pizza"
      }
    },
    {
      "type": "Feature",
      "geometry": {
        "type": "Point",
        "coordinates": [
          18.1678907,
          45.7514049
        ]
      },
      "properties": {
        "id": 41234097,
        "osm_type": "way",
        "name": "Gastro",
        "opening_hours": "Mo-Fr 07:00-20:00; Sa 07:00-17:00"
      }
    },
    {
      "type": "Feature",
      "geometry": {
        "type": "Point",
        "coordinates": [
          18.6862133,
          45.5531712
        ]
      },
      "properties": {
        "id": 75487588,
        "osm_type": "way",
        "name": "Sport House",
        "opening_hours": "Tu-Fr 14:00-23:00, Sa 12:00-24:00, Su 12:00-23:00",
        "phone": "(031) 215 555",
        "website": "http://www.sporthouse.hr",
        "cuisine": "pizza;sandwich;steak_house;barbecue",
        "outdoor_seating": "yes"
      }
    },
    {
      "type": "Feature",
      "geometry": {
        "type": "Point",
        "coordinates": [
          18.6812648,
          45.562591
        ]
      },
      "properties": {
        "id": 75488780,
        "osm_type": "way",
        "name": "El Paso",
        "operator": "Kubo",
        "cuisine": "mexican;pizza;regional;barbecue;chicken;italian;coffee_shop"
      }
    },
    {
      "type": "Feature",
      "geometry": {
        "type": "Point",
        "coordinates": [
          18.6761853,
          45.5642575
        ]
      },
      "properties": {
        "id": 75488789,
        "osm_type": "way",
        "name": "Projekt 9",
        "opening_hours": "Su-Th 11:00-23:00; Fr-Sa 11:00-01:00",
        "phone": "+385 (0)31 283 500",
        "website": "https://www.projekt9.hr",
        "cuisine": "regional;fish_and_chips;barbecue"
      }
    },
    {
      "type": "Feature",
      "geometry": {
        "type": "Point",
        "coordinates": [
          18.6953295,
          45.5487473
        ]
      },
      "properties": {
        "id": 75649206,
        "osm_type": "way",
        "name": "Restoran Bijelo-Plavi"
      }
    },
    {
      "type": "Feature",
      "geometry": {
        "type": "Point",
        "coordinates": [
          18.6951749,
          45.5599312
        ]
      },
      "properties": {
        "id": 77040599,
        "osm_type": "way",
        "name": "Merlon"
      }
    },
    {
      "type": "Feature",
      "geometry": {
        "type": "Point",
        "coordinates": [
          18.7077268,
          45.5566054
        ]
      },
      "properties": {
        "id": 77069829,
        "osm_type": "way",
        "name": "Restoran Campus",
        "outdoor_seating": "no"
      }
    },
    {
      "type": "Feature",
      "geometry": {
        "type": "Point",
        "coordinates": [
          18.6923825,
          45.5489784
        ]
      },
      "properties": {
        "id": 77228501,
        "osm_type": "way",
        "name": "Restoran Karaka",
        "phone": "031 /203 400",
        "website": "https://karaka.co/"
      }
    },
    {
      "type": "Feature",
      "geometry": {
        "type": "Point",
        "coordinates": [
          18.1647703,
          45.7643637
        ]
      },
      "properties": {
        "id": 88081549,
        "osm_type": "way",
        "name": "Mailath",
        "cuisine": "pizza"
      }
    },
    {
      "type": "Feature",
      "geometry": {
        "type": "Point",
        "coordinates": [
          18.15547,
          45.7757011
        ]
      },
      "properties": {
        "id": 88255836,
        "osm_type": "way",
        "name": "Krčma Stara Drava"
      }
    },
    {
      "type": "Feature",
      "geometry": {
        "type": "Point",
        "coordinates": [
          18.4182552,
          45.6598259
        ]
      },
      "properties": {
        "id": 97977686,
        "osm_type": "way",
        "name": "Gradska kavana Art",
        "cuisine": "regional"
      }
    },
    {
      "type": "Feature",
      "geometry": {
        "type": "Point",
        "coordinates": [
          18.4172816,
          45.6512403
        ]
      },
      "properties": {
        "id": 98170829,
        "osm_type": "way",
        "name": "Restoran Park"
      }
    },
    {
      "type": "Feature",
      "geometry": {
        "type": "Point",
        "coordinates": [
          18.6973231,
          45.5651811
        ]
      },
      "properties": {
        "id": 127525849,
        "osm_type": "way",
        "name": "Restoran Kopika",
        "website": "http://www.restoran-kopika.hr/",
        "outdoor_seating": "yes"
      }
    },
    {
      "type": "Feature",
      "geometry": {
        "type": "Point",
        "coordinates": [
          18.677638,
          45.563249
        ]
      },
      "properties": {
        "id": 131292083,
        "osm_type": "way",
        "name": "Žuta podmornica",
        "cuisine": "fish_and_chips;barbecue;coffee_shop",
        "takeaway": "yes"
      }
    },
    {
      "type": "Feature",
      "geometry": {
        "type": "Point",
        "coordinates": [
          18.7177058,
          45.5607887
        ]
      },
      "properties": {
        "id": 177479369,
        "osm_type": "way",
        "name": "Kod Javora",
        "website": "http://www.kod-javora.com",
        "cuisine": "regional;fish",
        "outdoor_seating": "yes"
      }
    },
    {
      "type": "Feature",
      "geometry": {
        "type": "Point",
        "coordinates": [
          18.4065916,
          45.3084595
        ]
      },
      "properties": {
        "id": 270456870,
        "osm_type": "way",
        "name": "Zelena laguna"
      }
    },
    {
      "type": "Feature",
      "geometry": {
        "type": "Point",
        "coordinates": [
          18.7877594,
          45.5985139
        ]
      },
      "properties": {
        "id": 306938059,
        "osm_type": "way",
        "name": "Zelena Žaba",
        "cuisine": "regional"
      }
    },
    {
      "type": "Feature",
      "geometry": {
        "type": "Point",
        "coordinates": [
          18.6689281,
          45.5657736
        ]
      },
      "properties": {
        "id": 310879220,
        "osm_type": "way",
        "name": "Kompa"
      }
    },
    {
      "type": "Feature",
      "geometry": {
        "type": "Point",
        "coordinates": [
          18.9501161,
          45.5283961
        ]
      },
      "properties": {
        "id": 323368372,
        "osm_type": "way",
        "name": "Krčma Kod Daneta",
        "phone": "+38531595007",
        "website": "http://www.koddaneta.com.hr",
        "cuisine": "regional",
        "outdoor_seating": "yes"
      }
    },
    {
      "type": "Feature",
      "geometry": {
        "type": "Point",
        "coordinates": [
          18.4106043,
          45.3092834
        ]
      },
      "properties": {
        "id": 522826747,
        "osm_type": "way",
        "name": "Gradski podrum",
        "phone": "099/7945-061"
      }
    },
    {
      "type": "Feature",
      "geometry": {
        "type": "Point",
        "coordinates": [
          18.6790432,
          45.8028256
        ]
      },
      "properties": {
        "id": 533125758,
        "osm_type": "way"
      }
    },
    {
      "type": "Feature",
      "geometry": {
        "type": "Point",
        "coordinates": [
          18.7283663,
          45.5454922
        ]
      },
      "properties": {
        "id": 559879855,
        "osm_type": "way",
        "name": "Restoran Corner",
        "opening_hours": "Mo-Su 09:00-23:00",
        "phone": "+38531333584",
        "website": "www.restoran-corner.com",
        "cuisine": "regional;barbecue;fish;balkan;croatian;grill;local"
      }
    },
    {
      "type": "Feature",
      "geometry": {
        "type": "Point",
        "coordinates": [
          18.7056028,
          45.5505405
        ]
      },
      "properties": {
        "id": 560062759,
        "osm_type": "way",
        "name": "Pizzeria Strossmayer No. 2",
        "cuisine": "pizza"
      }
    },
    {
      "type": "Feature",
      "geometry": {
        "type": "Point",
        "coordinates": [
          18.6682601,
          45.5681206
        ]
      },
      "properties": {
        "id": 562171472,
        "osm_type": "way",
        "name": "Pizzeria Maslina",
        "cuisine": "pizza;barbecue"
      }
    },
    {
      "type": "Feature",
      "geometry": {
        "type": "Point",
        "coordinates": [
          18.7038618,
          45.5650424
        ]
      },
      "properties": {
        "id": 562768229,
        "osm_type": "way",
        "name": "Čarda kod Baranjca",
        "cuisine": "regional;barbecue"
      }
    },
    {
      "type": "Feature",
      "geometry": {
        "type": "Point",
        "coordinates": [
          18.6766561,
          45.5624753
        ]
      },
      "properties": {
        "id": 570347179,
        "osm_type": "way",
        "name": "Davos"
      }
    },
    {
      "type": "Feature",
      "geometry": {
        "type": "Point",
        "coordinates": [
          18.1424905,
          45.5524009
        ]
      },
      "properties": {
        "id": 680685742,
        "osm_type": "way",
        "name": "Ribnjak",
        "opening_hours": "Mo-Su 08:30-24:00"
      }
    },
    {
      "type": "Feature",
      "geometry": {
        "type": "Point",
        "coordinates": [
          18.7426045,
          45.5454768
        ]
      },
      "properties": {
        "id": 708936489,
        "osm_type": "way",
        "name": "Bauštela",
        "cuisine": "regional"
      }
    },
    {
      "type": "Feature",
      "geometry": {
        "type": "Point",
        "coordinates": [
          18.048713,
          45.542814
        ]
      },
      "properties": {
        "id": 837476673,
        "osm_type": "way",
        "name": "Camel"
      }
    },
    {
      "type": "Feature",
      "geometry": {
        "type": "Point",
        "coordinates": [
          18.0460212,
          45.5427639
        ]
      },
      "properties": {
        "id": 837476794,
        "osm_type": "way",
        "name": "Zrinski"
      }
    },
    {
      "type": "Feature",
      "geometry": {
        "type": "Point",
        "coordinates": [
          18.408975,
          45.3128414
        ]
      },
      "properties": {
        "id": 1295400178,
        "osm_type": "way",
        "name": "Pizzeria Lipizzano",
        "phone": "+385 31 296 296",
        "website": "https://www.pizzerialipizzano.com.hr/"
      }
    },
    {
      "type": "Feature",
      "geometry": {
        "type": "Point",
        "coordinates": [
          18.5658963,
          45.5024897
        ]
      },
      "properties": {
        "id": 1340626782,
        "osm_type": "way",
        "name": "Restoran Crna Svinja",
        "phone": "+385 91 451 2676",
        "cuisine": "regional"
      }
    },
    {
      "type": "Feature",
      "geometry": {
        "type": "Point",
        "coordinates": [
          18.6934018,
          45.5601121
        ]
      },
      "properties": {
        "id": 1395987681,
        "osm_type": "way",
        "name": "Osječka pivnica Tvrđa",
        "phone": "+385 91 792 0111",
        "website": "https://osjeckapivnica.com"
      }
    }
  ]
}