{
  "type": "FeatureCollection",
  "features": [
    {
      "type": "Feature",
      "geometry": {
        "type": "Point",
        "coordinates": [
          12.4649865,
          52.2894769
        ]
      },
      "properties": {
        "id": 81537420,
        "osm_type": "node",
        "name": "Burger King",
        "brand": "Burger King",
        "opening_hours": "Mo-Th 07:00-22:00; Fr 07:00-23:00; Sa 08:00-23:00; Su 10:00-22:00"
      }
    },
    {
      "type": "Feature",
      "geometry": {
        "type": "Point",
        "coordinates": [
          13.6053922,
          52.3151369
        ]
      },
      "properties": {
        "id": 365083575,
        "osm_type": "node",
        "name": "Burger King",
        "brand": "Burger King",
        "phone": "+49 3375 553844",
        "website": "https://www.burgerking.de/"
      }
    },
    {
      "type": "Feature",
      "geometry": {
        "type": "Point",
        "coordinates": [
          13.5270134,
          52.3703862
        ]
      },
      "properties": {
        "id": 1872071854,
        "osm_type": "node",
        "name": "Burger King",
        "brand": "Burger King",
        "opening_hours": "Mo-Su 12:00-20:00",
        "phone": "+49 30 20277321",
        "website": "https://www.burgerking.de/"
      }
    },
    {
      "type": "Feature",
      "geometry": {
        "type": "Point",
        "coordinates": [
          12.3069589,
          52.2521906
        ]
      },
      "properties": {
        "id": 4800617822,
        "osm_type": "node",
        "name": "Burger King",
        "brand": "Burger King",
        "opening_hours": "24/7"
      }
    },
    {
      "type": "Feature",
      "geometry": {
        "type": "Point",
        "coordinates": [
          13.5970083,
          52.6777087
        ]
      },
      "properties": {
        "id": 6146626200,
        "osm_type": "node",
        "name": "Burger King",
        "brand": "Burger King"
      }
    },
    {
      "type": "Feature",
      "geometry": {
        "type": "Point",
        "coordinates": [
          13.5070943,
          52.3646529
        ]
      },
      "properties": {
        "id": 12233179031,
        "osm_type": "node",
        "name": "Burger King",
        "brand": "Burger King"
      }
    },
    {
      "type": "Feature",
      "geometry": {
        "type": "Point",
        "coordinates": [
          13.5092263,
          52.3648444
        ]
      },
      "properties": {
        "id": 12233179034,
        "osm_type": "node",
        "name": "Burger King",
        "brand": "Burger King"
      }
    },
    {
      "type": "Feature",
      "geometry": {
        "type": "Point",
        "coordinates": [
          12.7532866,
          52.1323101
        ]
      },
      "properties": {
        "id": 12785769476,
        "osm_type": "node",
        "name": "Burger King",
        "brand": "Burger King"
      }
    },
    {
      "type": "Feature",
      "geometry": {
        "type": "Point",
        "coordinates": [
          14.3177741,
          51.7180575
        ]
      },
      "properties": {
        "id": 25911982,
        "osm_type": "way",
        "name": "Burger King",
        "brand": "Burger King"
      }
    },
    {
      "type": "Feature",
      "geometry": {
        "type": "Point",
        "coordinates": [
          13.0958932,
          52.3841542
        ]
      },
      "properties": {
        "id": 29113129,
        "osm_type": "way",
        "name": "Burger King",
        "brand": "Burger King",
        "opening_hours": "Mo-Th 08:00-01:00; Fr,Sa 08:00-03:00; Su 09:00-01:00"
      }
    },
    {
      "type": "Feature",
      "geometry": {
        "type": "Point",
        "coordinates": [
          13.5938564,
          52.5487665
        ]
      },
      "properties": {
        "id": 44297693,
        "osm_type": "way",
        "name": "Burger King",
        "brand": "Burger King",
        "phone": "+49 30 99284377",
        "website": "https://www.burgerking.de/"
      }
    },
    {
      "type": "Feature",
      "geometry": {
        "type": "Point",
        "coordinates": [
          13.2102837,
          52.6384725
        ]
      },
      "properties": {
        "id": 181676730,
        "osm_type": "way",
        "name": "Burger King",
        "brand": "Burger King",
        "opening_hours": "Mo-Sa 08:00-00:00; Su 09:00-00:00",
        "website": "https://www.burgerking.de/"
      }
    },
    {
      "type": "Feature",
      "geometry": {
        "type": "Point",
        "coordinates": [
          13.7450283,
          52.4994459
        ]
      },
      "properties": {
        "id": 221582768,
        "osm_type": "way",
        "name": "Burger King",
        "brand": "Burger King",
        "opening_hours": "Su-Th 10:00-23:00, Fr,Sa 10:00-01:00"
      }
    },
    {
      "type": "Feature",
      "geometry": {
        "type": "Point",
        "coordinates": [
          13.1056054,
          52.7085147
        ]
      },
      "properties": {
        "id": 426830133,
        "osm_type": "way",
        "name": "Burger King",
        "brand": "Burger King",
        "opening_hours": "Mo-Su 09:00-23:00",
        "phone": "+49 3304 5212284",
        "website": "https://www.burgerking.de/store-locator/store/restaurant_62323"
      }
    },
    {
      "type": "Feature",
      "geometry": {
        "type": "Point",
        "coordinates": [
          14.5476404,
          52.3367997
        ]
      },
      "properties": {
        "id": 437774779,
        "osm_type": "way",
        "name": "Burger King",
        "brand": "Burger King",
        "opening_hours": "Su-Th,PH 09:00-23:00; Fr,Sa 09:00-01:00"
      }
    },
    {
      "type": "Feature",
      "geometry": {
        "type": "Point",
        "coordinates": [
          12.3367014,
          52.5836702
        ]
      },
      "properties": {
        "id": 589122183,
        "osm_type": "way",
        "name": "Burger King",
        "brand": "Burger King",
        "opening_hours": "Mo-Th 09:00-24:00; Fr-Sa 09:00-24:00"
      }
    },
    {
      "type": "Feature",
      "geometry": {
        "type": "Point",
        "coordinates": [
          14.2719066,
          53.0661653
        ]
      },
      "properties": {
        "id": 904628088,
        "osm_type": "way",
        "name": "Burger King",
        "brand": "Burger King"
      }
    }
  ]
}