{
  "type": "FeatureCollection",
  "features": [
    {
      "type": "Feature",
      "geometry": {
        "type": "Point",
        "coordinates": [
          12.7820201,
          52.160478
        ]
      },
      "properties": {
        "id": 16541937,
        "osm_type": "node",
        "name": "McDonald's",
        "brand": "McDonald's",
        "opening_hours": "06:00-01:00",
        "phone": "+49 33844 52034"
      }
    },
    {
      "type": "Feature",
      "geometry": {
        "type": "Point",
        "coordinates": [
          13.6965884,
          52.841839
        ]
      },
      "properties": {
        "id": 29353477,
        "osm_type": "node",
        "name": "McDonald's",
        "brand": "McDonald's"
      }
    },
    {
      "type": "Feature",
      "geometry": {
        "type": "Point",
        "coordinates": [
          13.6030644,
          52.3173303
        ]
      },
      "properties": {
        "id": 259767583,
        "osm_type": "node",
        "name": "McDonald's",
        "brand": "McDonald's",
        "opening_hours": "Mo-Su 08:00-01:00",
        "phone": "+49 3375 554259"
      }
    },
    {
      "type": "Feature",
      "geometry": {
        "type": "Point",
        "coordinates": [
          13.0170633,
          52.3013769
        ]
      },
      "properties": {
        "id": 267724478,
        "osm_type": "node",
        "name": "McDonald's",
        "brand": "McDonald's",
        "opening_hours": "24/7"
      }
    },
    {
      "type": "Feature",
      "geometry": {
        "type": "Point",
        "coordinates": [
          12.8525904,
          52.7554387
        ]
      },
      "properties": {
        "id": 267982705,
        "osm_type": "node",
        "name": "McDonald's",
        "brand": "McDonald's",
        "opening_hours": "24/7",
        "website": "https://www.mcdonalds.de/restaurant/linum-an-der-bab-24-linumer-bruch-nord"
      }
    },
    {
      "type": "Feature",
      "geometry": {
        "type": "Point",
        "coordinates": [
          12.8552251,
          52.7523997
        ]
      },
      "properties": {
        "id": 267984260,
        "osm_type": "node",
        "name": "McDonald's",
        "brand": "McDonald's",
        "opening_hours": "24/7",
        "website": "https://www.mcdonalds.de/restaurant?id=489"
      }
    },
    {
      "type": "Feature",
      "geometry": {
        "type": "Point",
        "coordinates": [
          14.2712206,
          53.0649059
        ]
      },
      "properties": {
        "id": 288890715,
        "osm_type": "node",
        "name": "McDonald's",
        "brand": "McDonald's"
      }
    },
    {
      "type": "Feature",
      "geometry": {
        "type": "Point",
        "coordinates": [
          14.5508077,
          52.3474085
        ]
      },
      "properties": {
        "id": 327445193,
        "osm_type": "node",
        "name": "McDonald's",
        "brand": "McDonald's",
        "opening_hours": "Su-Th,PH 07:00-01:00, Fr,Sa 07:00-02:00"
      }
    },
    {
      "type": "Feature",
      "geometry": {
        "type": "Point",
        "coordinates": [
          12.5333714,
          52.4332958
        ]
      },
      "properties": {
        "id": 372340406,
        "osm_type": "node",
        "name": "McDonald's",
        "brand": "McDonald's",
        "opening_hours": "07:00-01:00"
      }
    },
    {
      "type": "Feature",
      "geometry": {
        "type": "Point",
        "coordinates": [
          13.561218,
          52.367542
        ]
      },
      "properties": {
        "id": 461899526,
        "osm_type": "node",
        "name": "McDonald's",
        "brand": "McDonald's"
      }
    },
    {
      "type": "Feature",
      "geometry": {
        "type": "Point",
        "coordinates": [
          12.9371143,
          52.364756
        ]
      },
      "properties": {
        "id": 477204998,
        "osm_type": "node",
        "name": "McDonald's",
        "brand": "McDonald's",
        "opening_hours": "Su-Th 09:00-23:00; Fr-Sa 09:00-24:00",
        "website": "https://www.mcdonalds.com/de/de-de/restaurant-suche.html/l/werder-havel-/obstzuchterstrasse-1/841"
      }
    },
    {
      "type": "Feature",
      "geometry": {
        "type": "Point",
        "coordinates": [
          13.1344422,
          52.3713877
        ]
      },
      "properties": {
        "id": 1435425843,
        "osm_type": "node",
        "name": "McDonald's",
        "brand": "McDonald's",
        "opening_hours": "Mo-Th 10:00-20:00; Fr 10:00-21:00; Sa 09:00-21:00; PH,Su off"
      }
    },
    {
      "type": "Feature",
      "geometry": {
        "type": "Point",
        "coordinates": [
          13.9122917,
          51.5367079
        ]
      },
      "properties": {
        "id": 2326845299,
        "osm_type": "node",
        "name": "McDonald's",
        "brand": "McDonald's",
        "opening_hours": "Su-Th 07:00-24:00, Fr,Sa 07:00-01:00"
      }
    },
    {
      "type": "Feature",
      "geometry": {
        "type": "Point",
        "coordinates": [
          13.5982371,
          52.5491897
        ]
      },
      "properties": {
        "id": 3772689495,
        "osm_type": "node",
        "name": "McDonald's",
        "brand": "McDonald's"
      }
    },
    {
      "type": "Feature",
      "geometry": {
        "type": "Point",
        "coordinates": [
          12.4663276,
          53.1149777
        ]
      },
      "properties": {
        "id": 9920767339,
        "osm_type": "node",
        "name": "McDonald's",
        "brand": "McDonald's"
      }
    },
    {
      "type": "Feature",
      "geometry": {
        "type": "Point",
        "coordinates": [
          13.5657215,
          52.688002
        ]
      },
      "properties": {
        "id": 10750276539,
        "osm_type": "node",
        "name": "McDonald's",
        "brand": "McDonald's",
        "opening_hours": "07:00-01:00, Fr,Sa 07:00-02:00",
        "phone": "+49 3338 702153",
        "website": "https://www.mcdonalds.de/restaurant/bernau-johann-friedrich-a-borsig-str-2"
      }
    },
    {
      "type": "Feature",
      "geometry": {
        "type": "Point",
        "coordinates": [
          13.4958734,
          52.3183733
        ]
      },
      "properties": {
        "id": 12783387312,
        "osm_type": "node",
        "name": "McDonald's",
        "brand": "McDonald's"
      }
    },
    {
      "type": "Feature",
      "geometry": {
        "type": "Point",
        "coordinates": [
          13.2508477,
          51.6967536
        ]
      },
      "properties": {
        "id": 13364273963,
        "osm_type": "node",
        "name": "McDonald's",
        "brand": "McDonald's"
      }
    },
    {
      "type": "Feature",
      "geometry": {
        "type": "Point",
        "coordinates": [
          13.7433469,
          52.4282021
        ]
      },
      "properties": {
        "id": 24934991,
        "osm_type": "way",
        "name": "McDonald's",
        "brand": "McDonald's",
        "opening_hours": "Mo-Su 09:00-24:00",
        "website": "https://www.mcdonalds.com/de/de-de/restaurant-suche.html/l/erkner/berliner-str-12/924"
      }
    },
    {
      "type": "Feature",
      "geometry": {
        "type": "Point",
        "coordinates": [
          13.0873619,
          52.3827749
        ]
      },
      "properties": {
        "id": 27715916,
        "osm_type": "way",
        "name": "McDonald's",
        "brand": "McDonald's",
        "opening_hours": "Mo-Th 09:00-24:00, Fr 09:00-01:00, Sa 09:00-01:00, Su,PH 09:00-24:00",
        "phone": "+49 331 8710155",
        "website": "https://www.mcdonalds.com/de/de-de/restaurant-suche.html/l/potsdam/horstweg-53b/844&cid=listing_0844"
      }
    },
    {
      "type": "Feature",
      "geometry": {
        "type": "Point",
        "coordinates": [
          13.2379708,
          52.3949256
        ]
      },
      "properties": {
        "id": 31679386,
        "osm_type": "way",
        "name": "McDonald's",
        "brand": "McDonald's",
        "opening_hours": "Mo-Th 08:00-01:00, Fr 08:00-02:00, Sa 09:00-02:00, Su 09:00-01:00"
      }
    },
    {
      "type": "Feature",
      "geometry": {
        "type": "Point",
        "coordinates": [
          13.6444981,
          52.5435881
        ]
      },
      "properties": {
        "id": 33000090,
        "osm_type": "way",
        "name": "McDonald's",
        "brand": "McDonald's",
        "opening_hours": "Mo-Fr 00:00-01:00,07:00-24:00; Sa,Su 00:00-02:00,07:00-24:00"
      }
    },
    {
      "type": "Feature",
      "geometry": {
        "type": "Point",
        "coordinates": [
          13.433027,
          52.3585112
        ]
      },
      "properties": {
        "id": 33542954,
        "osm_type": "way",
        "name": "McDonald's",
        "brand": "McDonald's",
        "opening_hours": "Mo-Sa 09:00-01:00, Su 09:00-24:00"
      }
    },
    {
      "type": "Feature",
      "geometry": {
        "type": "Point",
        "coordinates": [
          13.2044494,
          52.6525322
        ]
      },
      "properties": {
        "id": 33733048,
        "osm_type": "way",
        "name": "McDonald's",
        "brand": "McDonald's",
        "phone": "+49 3302 810675",
        "website": "https://www.mcdonalds.de/restaurant/hennigsdorf-veltenerstr-16"
      }
    },
    {
      "type": "Feature",
      "geometry": {
        "type": "Point",
        "coordinates": [
          13.8667574,
          52.5564197
        ]
      },
      "properties": {
        "id": 39216903,
        "osm_type": "way",
        "name": "McDonald's",
        "brand": "McDonald's",
        "opening_hours": "Mo-Th 08:00-24:00, Fr,Sa 08:00-01:00, Su 09:00-24:00",
        "phone": "+49 3341 449603",
        "website": "https://mcdonalds.de/"
      }
    },
    {
      "type": "Feature",
      "geometry": {
        "type": "Point",
        "coordinates": [
          13.3138109,
          52.3082311
        ]
      },
      "properties": {
        "id": 39812863,
        "osm_type": "way",
        "name": "McDonald's",
        "brand": "McDonald's",
        "opening_hours": "Su-Th 07:00-01:00, Fr,Sa 07:00-02:00"
      }
    },
    {
      "type": "Feature",
      "geometry": {
        "type": "Point",
        "coordinates": [
          13.3077756,
          52.6355321
        ]
      },
      "properties": {
        "id": 52713984,
        "osm_type": "way",
        "name": "McDonald's",
        "brand": "McDonald's",
        "opening_hours": "08:00 - 00:00"
      }
    },
    {
      "type": "Feature",
      "geometry": {
        "type": "Point",
        "coordinates": [
          13.1866738,
          52.4029504
        ]
      },
      "properties": {
        "id": 52986417,
        "osm_type": "way",
        "name": "McDonald's",
        "brand": "McDonald's",
        "opening_hours": "Mo-Sa 07:00-01:00, Su 08:00-01:00",
        "phone": "+49 33203 804697",
        "website": "https://www.mcdonalds.de/restaurant/kleinmachnow-stolper-weg-55"
      }
    },
    {
      "type": "Feature",
      "geometry": {
        "type": "Point",
        "coordinates": [
          13.0665712,
          52.3918758
        ]
      },
      "properties": {
        "id": 61649570,
        "osm_type": "way",
        "name": "McDonald's",
        "brand": "McDonald's",
        "opening_hours": "Mo-Th 09:00-23:00, Fr,Sa 09:00-01:00, Su,PH 09:00-23:00"
      }
    },
    {
      "type": "Feature",
      "geometry": {
        "type": "Point",
        "coordinates": [
          13.2458625,
          52.7656162
        ]
      },
      "properties": {
        "id": 104369587,
        "osm_type": "way",
        "name": "McDonald's",
        "brand": "McDonald's",
        "opening_hours": "Mo-Th 07:00-24:00, Fr,Sa 07:00-02:00, Su,PH 08:00-24:00"
      }
    },
    {
      "type": "Feature",
      "geometry": {
        "type": "Point",
        "coordinates": [
          14.635003,
          52.1304846
        ]
      },
      "properties": {
        "id": 105275383,
        "osm_type": "way",
        "name": "McDonald's",
        "brand": "McDonald's",
        "opening_hours": "Mo-Su 08:00-24:00",
        "phone": "+49 3364 410661"
      }
    },
    {
      "type": "Feature",
      "geometry": {
        "type": "Point",
        "coordinates": [
          12.7847577,
          52.9178839
        ]
      },
      "properties": {
        "id": 112599165,
        "osm_type": "way",
        "name": "McDonald's",
        "brand": "McDonald's",
        "opening_hours": "Mo-Fr 07:00-24:00; Sa 00:00-02:00,07:00-24:00; Su 00:00-02:00,08:00-24:00",
        "phone": "+49 3391 506331",
        "website": "https://www.mcdonalds.de/restaurant/neuruppin-neustaedterstr-27"
      }
    },
    {
      "type": "Feature",
      "geometry": {
        "type": "Point",
        "coordinates": [
          12.9786914,
          52.5397935
        ]
      },
      "properties": {
        "id": 115953457,
        "osm_type": "way",
        "name": "McDonald's",
        "brand": "McDonald's",
        "opening_hours": "Mo-Su 07:00-02:00"
      }
    },
    {
      "type": "Feature",
      "geometry": {
        "type": "Point",
        "coordinates": [
          14.3196464,
          51.7783755
        ]
      },
      "properties": {
        "id": 121158827,
        "osm_type": "way",
        "name": "McDonald's",
        "brand": "McDonald's",
        "website": "https://www.mcdonalds.de/"
      }
    },
    {
      "type": "Feature",
      "geometry": {
        "type": "Point",
        "coordinates": [
          13.8829129,
          53.3044865
        ]
      },
      "properties": {
        "id": 125089255,
        "osm_type": "way",
        "name": "McDonald's",
        "brand": "McDonald's",
        "opening_hours": "Mo-Th 07:00-24:00, Fr,Sa 07:00-01:00, Su 08:00-24:00",
        "phone": "+49 3984 808757"
      }
    },
    {
      "type": "Feature",
      "geometry": {
        "type": "Point",
        "coordinates": [
          12.4507394,
          53.1572791
        ]
      },
      "properties": {
        "id": 126390950,
        "osm_type": "way",
        "name": "McDonald's",
        "brand": "McDonald's",
        "opening_hours": "PH,Mo-Su 07:00-24:00"
      }
    },
    {
      "type": "Feature",
      "geometry": {
        "type": "Point",
        "coordinates": [
          13.9070096,
          51.8497692
        ]
      },
      "properties": {
        "id": 136787225,
        "osm_type": "way",
        "name": "McDonald's",
        "brand": "McDonald's",
        "opening_hours": "Mo-Fr 00:00-01:00,06:00-24:00, Sa,Su 00:00-02:00,06:00-24:00",
        "phone": "+49 3542 46748"
      }
    },
    {
      "type": "Feature",
      "geometry": {
        "type": "Point",
        "coordinates": [
          13.515652,
          52.6009677
        ]
      },
      "properties": {
        "id": 143132648,
        "osm_type": "way",
        "name": "McDonald's",
        "brand": "McDonald's",
        "opening_hours": "Mo-Su 08:00-24:00",
        "website": "https://www.mcdonalds.com/de/de-de/restaurant-suche.html/l/ahrensfelde/karl-marx-strasse-50/700"
      }
    },
    {
      "type": "Feature",
      "geometry": {
        "type": "Point",
        "coordinates": [
          13.1112734,
          52.3761002
        ]
      },
      "properties": {
        "id": 158944327,
        "osm_type": "way",
        "name": "McDonald's",
        "brand": "McDonald's",
        "opening_hours": "Mo-Sa 07:00-01:00, Su 08:00-01:00"
      }
    },
    {
      "type": "Feature",
      "geometry": {
        "type": "Point",
        "coordinates": [
          11.7197265,
          53.0042419
        ]
      },
      "properties": {
        "id": 178582045,
        "osm_type": "way",
        "name": "McDonald's",
        "brand": "McDonald's",
        "opening_hours": "Mo-Th 07:00-24:00, Fr,Sa 07:00-01:00, Su,PH 08:00-24:00",
        "phone": "+49 3877 60254",
        "website": "https://www.mcdonalds.com/de/de-de/restaurant-suche.html/l/wittenberge/lenzener-chaussee-21/877"
      }
    },
    {
      "type": "Feature",
      "geometry": {
        "type": "Point",
        "coordinates": [
          14.076778,
          52.3371284
        ]
      },
      "properties": {
        "id": 247120720,
        "osm_type": "way",
        "name": "McDonald's",
        "brand": "McDonald's",
        "opening_hours": "Mo-Th 07:00-01:00, Fr,Sa 07:00-03:00, Su,PH 08:00-24:00",
        "phone": "+49 3356851953"
      }
    },
    {
      "type": "Feature",
      "geometry": {
        "type": "Point",
        "coordinates": [
          13.7371327,
          51.6366472
        ]
      },
      "properties": {
        "id": 254399120,
        "osm_type": "way",
        "name": "McDonald's",
        "brand": "McDonald's",
        "opening_hours": "Mo-Su 09:00-23:00; Fr,Sa 09:00-02:00"
      }
    },
    {
      "type": "Feature",
      "geometry": {
        "type": "Point",
        "coordinates": [
          14.3253399,
          51.7501153
        ]
      },
      "properties": {
        "id": 449844374,
        "osm_type": "way",
        "name": "McDonald's",
        "brand": "McDonald's",
        "opening_hours": "Su-Th 09:30-22:00; Fr,Sa 09:30-23:00",
        "website": "https://www.mcdonalds.com/de/de-de/restaurant-suche.html/l/cottbus/vetschauer-str-70/1509"
      }
    },
    {
      "type": "Feature",
      "geometry": {
        "type": "Point",
        "coordinates": [
          14.0086292,
          51.5274023
        ]
      },
      "properties": {
        "id": 917132679,
        "osm_type": "way",
        "name": "McDonald's",
        "brand": "McDonald's",
        "phone": "+49 3573 791036",
        "website": "https://mcdonalds.de/"
      }
    },
    {
      "type": "Feature",
      "geometry": {
        "type": "Point",
        "coordinates": [
          13.5988187,
          52.5959562
        ]
      },
      "properties": {
        "id": 1190818299,
        "osm_type": "way",
        "name": "McDonald's",
        "brand": "McDonald's",
        "opening_hours": "07:00-01:00",
        "phone": "+49 33394 59574"
      }
    },
    {
      "type": "Feature",
      "geometry": {
        "type": "Point",
        "coordinates": [
          13.1066962,
          52.7096521
        ]
      },
      "properties": {
        "id": 1265758245,
        "osm_type": "way",
        "name": "McDonald's",
        "brand": "McDonald's"
      }
    },
    {
      "type": "Feature",
      "geometry": {
        "type": "Point",
        "coordinates": [
          13.9123022,
          51.5366424
        ]
      },
      "properties": {
        "id": 1387198704,
        "osm_type": "way",
        "name": "McDonald's",
        "brand": "McDonald's"
      }
    }
  ]
}