{
  "type": "FeatureCollection",
  "features": [
    {
      "type": "Feature",
      "geometry": {
        "type": "Point",
        "coordinates": [
          23.3408042,
          42.134117
        ]
      },
      "properties": {
        "id": 1429042413,
        "osm_type": "node",
        "opening_hours": "Mo-Su 09:30-16:30",
        "outdoor_seating": "yes"
      }
    },
    {
      "type": "Feature",
      "geometry": {
        "type": "Point",
        "coordinates": [
          23.1123761,
          42.2639855
        ]
      },
      "properties": {
        "id": 3529223655,
        "osm_type": "node"
      }
    },
    {
      "type": "Feature",
      "geometry": {
        "type": "Point",
        "coordinates": [
          23.0381963,
          42.1166266
        ]
      },
      "properties": {
        "id": 4004807076,
        "osm_type": "node"
      }
    },
    {
      "type": "Feature",
      "geometry": {
        "type": "Point",
        "coordinates": [
          23.1316253,
          42.1255126
        ]
      },
      "properties": {
        "id": 4165209995,
        "osm_type": "node",
        "name": "Земя и Хляб"
      }
    },
    {
      "type": "Feature",
      "geometry": {
        "type": "Point",
        "coordinates": [
          22.6796385,
          42.2763909
        ]
      },
      "properties": {
        "id": 4196907314,
        "osm_type": "node",
        "name": "ABC"
      }
    },
    {
      "type": "Feature",
      "geometry": {
        "type": "Point",
        "coordinates": [
          23.0593892,
          42.0866517
        ]
      },
      "properties": {
        "id": 4846913197,
        "osm_type": "node",
        "name": "Ava"
      }
    },
    {
      "type": "Feature",
      "geometry": {
        "type": "Point",
        "coordinates": [
          23.0580491,
          42.0858485
        ]
      },
      "properties": {
        "id": 4847108960,
        "osm_type": "node",
        "name": "Кафе",
        "outdoor_seating": "yes"
      }
    },
    {
      "type": "Feature",
      "geometry": {
        "type": "Point",
        "coordinates": [
          23.064744,
          42.0895449
        ]
      },
      "properties": {
        "id": 4847650158,
        "osm_type": "node",
        "name": "Cafe"
      }
    },
    {
      "type": "Feature",
      "geometry": {
        "type": "Point",
        "coordinates": [
          23.2624567,
          42.2887462
        ]
      },
      "properties": {
        "id": 4911410485,
        "osm_type": "node"
      }
    },
    {
      "type": "Feature",
      "geometry": {
        "type": "Point",
        "coordinates": [
          23.2627089,
          42.2888886
        ]
      },
      "properties": {
        "id": 4911410486,
        "osm_type": "node"
      }
    },
    {
      "type": "Feature",
      "geometry": {
        "type": "Point",
        "coordinates": [
          23.2630697,
          42.2886846
        ]
      },
      "properties": {
        "id": 5108699137,
        "osm_type": "node",
        "name": "Downtown cafe"
      }
    },
    {
      "type": "Feature",
      "geometry": {
        "type": "Point",
        "coordinates": [
          23.2646819,
          42.2892591
        ]
      },
      "properties": {
        "id": 6810846686,
        "osm_type": "node",
        "name": "Лападунди"
      }
    },
    {
      "type": "Feature",
      "geometry": {
        "type": "Point",
        "coordinates": [
          22.6887812,
          42.2793721
        ]
      },
      "properties": {
        "id": 7147531185,
        "osm_type": "node"
      }
    },
    {
      "type": "Feature",
      "geometry": {
        "type": "Point",
        "coordinates": [
          23.116957,
          42.2649135
        ]
      },
      "properties": {
        "id": 9847966056,
        "osm_type": "node"
      }
    },
    {
      "type": "Feature",
      "geometry": {
        "type": "Point",
        "coordinates": [
          23.1138624,
          42.2641302
        ]
      },
      "properties": {
        "id": 10671878314,
        "osm_type": "node",
        "name": "Кафе \"Симона фреш\""
      }
    },
    {
      "type": "Feature",
      "geometry": {
        "type": "Point",
        "coordinates": [
          23.1160376,
          42.2642892
        ]
      },
      "properties": {
        "id": 10671878317,
        "osm_type": "node",
        "name": "Кафе \"Бариста\""
      }
    },
    {
      "type": "Feature",
      "geometry": {
        "type": "Point",
        "coordinates": [
          23.164013,
          42.2630358
        ]
      },
      "properties": {
        "id": 10759665228,
        "osm_type": "node"
      }
    },
    {
      "type": "Feature",
      "geometry": {
        "type": "Point",
        "coordinates": [
          23.1280299,
          42.2509391
        ]
      },
      "properties": {
        "id": 10759726763,
        "osm_type": "node",
        "name": "Кафе Емили"
      }
    },
    {
      "type": "Feature",
      "geometry": {
        "type": "Point",
        "coordinates": [
          23.0599657,
          42.193287
        ]
      },
      "properties": {
        "id": 10820342490,
        "osm_type": "node"
      }
    },
    {
      "type": "Feature",
      "geometry": {
        "type": "Point",
        "coordinates": [
          23.2634654,
          42.2891784
        ]
      },
      "properties": {
        "id": 11237672404,
        "osm_type": "node"
      }
    },
    {
      "type": "Feature",
      "geometry": {
        "type": "Point",
        "coordinates": [
          23.260741,
          42.2881959
        ]
      },
      "properties": {
        "id": 11237726196,
        "osm_type": "node",
        "outdoor_seating": "veranda"
      }
    },
    {
      "type": "Feature",
      "geometry": {
        "type": "Point",
        "coordinates": [
          22.7012381,
          42.29099
        ]
      },
      "properties": {
        "id": 12385235976,
        "osm_type": "node",
        "name": "Ропотамо"
      }
    },
    {
      "type": "Feature",
      "geometry": {
        "type": "Point",
        "coordinates": [
          22.6776626,
          42.2781625
        ]
      },
      "properties": {
        "id": 13656915251,
        "osm_type": "node"
      }
    },
    {
      "type": "Feature",
      "geometry": {
        "type": "Point",
        "coordinates": [
          22.6750015,
          42.2801217
        ]
      },
      "properties": {
        "id": 461333925,
        "osm_type": "way",
        "outdoor_seating": "yes"
      }
    },
    {
      "type": "Feature",
      "geometry": {
        "type": "Point",
        "coordinates": [
          22.6747303,
          42.2779761
        ]
      },
      "properties": {
        "id": 461333947,
        "osm_type": "way",
        "name": "Borks",
        "outdoor_seating": "veranda"
      }
    },
    {
      "type": "Feature",
      "geometry": {
        "type": "Point",
        "coordinates": [
          22.6738653,
          42.2791235
        ]
      },
      "properties": {
        "id": 544152151,
        "osm_type": "way",
        "name": "Вилон"
      }
    },
    {
      "type": "Feature",
      "geometry": {
        "type": "Point",
        "coordinates": [
          22.6736021,
          42.2790894
        ]
      },
      "properties": {
        "id": 544152152,
        "osm_type": "way"
      }
    },
    {
      "type": "Feature",
      "geometry": {
        "type": "Point",
        "coordinates": [
          23.0047461,
          42.3657236
        ]
      },
      "properties": {
        "id": 574738459,
        "osm_type": "way",
        "name": "Кафе-аперитив Чадъра"
      }
    },
    {
      "type": "Feature",
      "geometry": {
        "type": "Point",
        "coordinates": [
          23.1194719,
          42.264657
        ]
      },
      "properties": {
        "id": 1146827251,
        "osm_type": "way",
        "name": "До Часовника"
      }
    },
    {
      "type": "Feature",
      "geometry": {
        "type": "Point",
        "coordinates": [
          23.1441553,
          42.2488071
        ]
      },
      "properties": {
        "id": 1161550523,
        "osm_type": "way"
      }
    },
    {
      "type": "Feature",
      "geometry": {
        "type": "Point",
        "coordinates": [
          23.0579885,
          42.0775312
        ]
      },
      "properties": {
        "id": 1192959873,
        "osm_type": "way"
      }
    }
  ]
}