{
  "type": "FeatureCollection",
  "features": [
    {
      "type": "Feature",
      "geometry": {
        "type": "Point",
        "coordinates": [
          19.9424145,
          60.0832921
        ]
      },
      "properties": {
        "id": 418006009,
        "osm_type": "node",
        "name": "Punkten",
        "opening_hours": "Mo-Fr 10:00-20:00; Sa 11:00-20:00; Su 11:00-18:00",
        "check_date": "2024-07-06"
      }
    },
    {
      "type": "Feature",
      "geometry": {
        "type": "Point",
        "coordinates": [
          20.0848526,
          60.0707081
        ]
      },
      "properties": {
        "id": 427161322,
        "osm_type": "node",
        "name": "KEA Market",
        "opening_hours": "Mo-Fr 09:00-18:00; Sa 09:00-15:00"
      }
    },
    {
      "type": "Feature",
      "geometry": {
        "type": "Point",
        "coordinates": [
          19.938064,
          60.0988507
        ]
      },
      "properties": {
        "id": 833129788,
        "osm_type": "node",
        "name": "K-Supermarket",
        "brand": "K-Supermarket",
        "opening_hours": "Mo-Sa 08:00-22:00; Su 10:00-22:00"
      }
    },
    {
      "type": "Feature",
      "geometry": {
        "type": "Point",
        "coordinates": [
          19.9896738,
          60.2299926
        ]
      },
      "properties": {
        "id": 1562855106,
        "osm_type": "node",
        "name": "Mattssons",
        "opening_hours": "Mo-Fr 07:00-21:00; Sa 09:00-21:00; Su 10:00-21:00"
      }
    },
    {
      "type": "Feature",
      "geometry": {
        "type": "Point",
        "coordinates": [
          19.9144909,
          60.113466
        ]
      },
      "properties": {
        "id": 1836532251,
        "osm_type": "node",
        "name": "S-market",
        "brand": "S-market",
        "opening_hours": "Mo-Sa 06:00-24:00; Su 09:00-24:00",
        "check_date": "2023-10-28"
      }
    },
    {
      "type": "Feature",
      "geometry": {
        "type": "Point",
        "coordinates": [
          19.9860529,
          60.2301173
        ]
      },
      "properties": {
        "id": 2517055356,
        "osm_type": "node",
        "name": "S-market",
        "brand": "S-market",
        "opening_hours": "Mo-Fr 07:00-22:00; Sa 07:00-22:00; Su 10:00-22:00"
      }
    },
    {
      "type": "Feature",
      "geometry": {
        "type": "Point",
        "coordinates": [
          21.0379106,
          60.4120857
        ]
      },
      "properties": {
        "id": 4541327615,
        "osm_type": "node",
        "name": "Brändö Andelshandel",
        "opening_hours": "Mo-Fr 09:00-18:00; Sa 09:00-13:00"
      }
    },
    {
      "type": "Feature",
      "geometry": {
        "type": "Point",
        "coordinates": [
          19.9413,
          60.1
        ]
      },
      "properties": {
        "id": 4891783628,
        "osm_type": "node",
        "name": "Varuboden City",
        "opening_hours": "Mo-Fr 07:00-22:00; Sa 09:00-22:00; Su 10:00-22:00",
        "check_date": "2024-11-17"
      }
    },
    {
      "type": "Feature",
      "geometry": {
        "type": "Point",
        "coordinates": [
          20.7661752,
          60.3337954
        ]
      },
      "properties": {
        "id": 4983461429,
        "osm_type": "node",
        "name": "Enklingebutiken",
        "opening_hours": "Mo 09:00-11:00; We,Th 09:00-11:00,15:15-17:00; Fr 14:00-17:00; Sa 09:00-13:30"
      }
    },
    {
      "type": "Feature",
      "geometry": {
        "type": "Point",
        "coordinates": [
          20.9065358,
          59.9204172
        ]
      },
      "properties": {
        "id": 8868855415,
        "osm_type": "node",
        "name": "Kökar Skärgårdsbutik",
        "opening_hours": "Mo-Th 10:00-18:00; Fr 10:00-19:00; Sa 10:00-15:00"
      }
    },
    {
      "type": "Feature",
      "geometry": {
        "type": "Point",
        "coordinates": [
          19.9145122,
          60.1134736
        ]
      },
      "properties": {
        "id": 150519689,
        "osm_type": "way",
        "name": "S-market",
        "brand": "S-market",
        "opening_hours": "Mo-Sa 06:00-00:00; Su 09:00-00:00"
      }
    },
    {
      "type": "Feature",
      "geometry": {
        "type": "Point",
        "coordinates": [
          19.9343318,
          60.1341596
        ]
      },
      "properties": {
        "id": 150523688,
        "osm_type": "way",
        "name": "Kantarellen",
        "opening_hours": "Mo-Fr 07:00-22:00; Sa 09:00-22:00; Su 10:00-22:00"
      }
    },
    {
      "type": "Feature",
      "geometry": {
        "type": "Point",
        "coordinates": [
          19.9379945,
          60.0990171
        ]
      },
      "properties": {
        "id": 165234950,
        "osm_type": "way",
        "name": "K-Supermarket",
        "brand": "K-Supermarket",
        "opening_hours": "Mo-Sa 08:00-22:00; Su 10:00-22:00"
      }
    },
    {
      "type": "Feature",
      "geometry": {
        "type": "Point",
        "coordinates": [
          19.7116185,
          60.2189207
        ]
      },
      "properties": {
        "id": 171967386,
        "osm_type": "way",
        "name": "Hugos Livsmedel",
        "opening_hours": "Mo-Fr 09:30-18:00; Sa 09:30-14:00; Su off",
        "check_date": "2025-10-02"
      }
    },
    {
      "type": "Feature",
      "geometry": {
        "type": "Point",
        "coordinates": [
          19.9331174,
          60.1292999
        ]
      },
      "properties": {
        "id": 496249919,
        "osm_type": "way",
        "name": "Sparhallen",
        "opening_hours": "Mo-Fr 08:00-22:00; Sa 09:00-22:00; Su 10:00-22:00"
      }
    }
  ]
}