{
  "type": "FeatureCollection",
  "features": [
    {
      "type": "Feature",
      "geometry": {
        "type": "Point",
        "coordinates": [
          18.5120279,
          46.1760027
        ]
      },
      "properties": {
        "id": 310000637,
        "osm_type": "node"
      }
    },
    {
      "type": "Feature",
      "geometry": {
        "type": "Point",
        "coordinates": [
          18.5866234,
          46.1335928
        ]
      },
      "properties": {
        "id": 310001081,
        "osm_type": "node"
      }
    },
    {
      "type": "Feature",
      "geometry": {
        "type": "Point",
        "coordinates": [
          18.5804936,
          46.0978675
        ]
      },
      "properties": {
        "id": 310001306,
        "osm_type": "node"
      }
    },
    {
      "type": "Feature",
      "geometry": {
        "type": "Point",
        "coordinates": [
          18.6139261,
          46.1565647
        ]
      },
      "properties": {
        "id": 310001598,
        "osm_type": "node",
        "name": "Kaiser Vegyesbolt"
      }
    },
    {
      "type": "Feature",
      "geometry": {
        "type": "Point",
        "coordinates": [
          18.6166727,
          46.1568084
        ]
      },
      "properties": {
        "id": 310001739,
        "osm_type": "node",
        "name": "Coop Élelmiszerbolt",
        "opening_hours": "Mo-Fr 06:00-15:00; Sa 06:00-10:00"
      }
    },
    {
      "type": "Feature",
      "geometry": {
        "type": "Point",
        "coordinates": [
          18.6263398,
          46.071219
        ]
      },
      "properties": {
        "id": 310002416,
        "osm_type": "node"
      }
    },
    {
      "type": "Feature",
      "geometry": {
        "type": "Point",
        "coordinates": [
          18.6572424,
          46.0813278
        ]
      },
      "properties": {
        "id": 310002787,
        "osm_type": "node"
      }
    },
    {
      "type": "Feature",
      "geometry": {
        "type": "Point",
        "coordinates": [
          18.5424806,
          46.0567997
        ]
      },
      "properties": {
        "id": 310003061,
        "osm_type": "node"
      }
    },
    {
      "type": "Feature",
      "geometry": {
        "type": "Point",
        "coordinates": [
          18.4525043,
          46.1458797
        ]
      },
      "properties": {
        "id": 310004014,
        "osm_type": "node"
      }
    },
    {
      "type": "Feature",
      "geometry": {
        "type": "Point",
        "coordinates": [
          18.3198135,
          46.0657284
        ]
      },
      "properties": {
        "id": 411374605,
        "osm_type": "node"
      }
    },
    {
      "type": "Feature",
      "geometry": {
        "type": "Point",
        "coordinates": [
          18.210576,
          45.8049553
        ]
      },
      "properties": {
        "id": 498397100,
        "osm_type": "node"
      }
    },
    {
      "type": "Feature",
      "geometry": {
        "type": "Point",
        "coordinates": [
          18.3763989,
          46.057887
        ]
      },
      "properties": {
        "id": 566274500,
        "osm_type": "node"
      }
    },
    {
      "type": "Feature",
      "geometry": {
        "type": "Point",
        "coordinates": [
          18.2149195,
          46.0441592
        ]
      },
      "properties": {
        "id": 586769314,
        "osm_type": "node"
      }
    },
    {
      "type": "Feature",
      "geometry": {
        "type": "Point",
        "coordinates": [
          18.2191769,
          46.0451213
        ]
      },
      "properties": {
        "id": 586771315,
        "osm_type": "node"
      }
    },
    {
      "type": "Feature",
      "geometry": {
        "type": "Point",
        "coordinates": [
          18.2192089,
          46.0454128
        ]
      },
      "properties": {
        "id": 586771317,
        "osm_type": "node"
      }
    },
    {
      "type": "Feature",
      "geometry": {
        "type": "Point",
        "coordinates": [
          18.1365253,
          45.9701688
        ]
      },
      "properties": {
        "id": 975391520,
        "osm_type": "node",
        "name": "ABC"
      }
    },
    {
      "type": "Feature",
      "geometry": {
        "type": "Point",
        "coordinates": [
          18.1914011,
          46.0668233
        ]
      },
      "properties": {
        "id": 1156539307,
        "osm_type": "node",
        "name": "BÓT"
      }
    },
    {
      "type": "Feature",
      "geometry": {
        "type": "Point",
        "coordinates": [
          18.2065996,
          45.7957584
        ]
      },
      "properties": {
        "id": 1373300203,
        "osm_type": "node",
        "name": "Bréza Market"
      }
    },
    {
      "type": "Feature",
      "geometry": {
        "type": "Point",
        "coordinates": [
          18.2340542,
          46.0771899
        ]
      },
      "properties": {
        "id": 1579708700,
        "osm_type": "node",
        "name": "Tom Market",
        "opening_hours": "Mo-Sa 06:00-24:00"
      }
    },
    {
      "type": "Feature",
      "geometry": {
        "type": "Point",
        "coordinates": [
          17.8568153,
          45.8741924
        ]
      },
      "properties": {
        "id": 1640402488,
        "osm_type": "node",
        "name": "Coop Mini",
        "brand": "Coop Mini",
        "opening_hours": "Mo, We-Fr 05:30-14:00; Sa 05:30-13:00; PH off"
      }
    },
    {
      "type": "Feature",
      "geometry": {
        "type": "Point",
        "coordinates": [
          17.8498294,
          45.8747901
        ]
      },
      "properties": {
        "id": 1640402514,
        "osm_type": "node",
        "name": "Coop"
      }
    },
    {
      "type": "Feature",
      "geometry": {
        "type": "Point",
        "coordinates": [
          18.2228439,
          46.0283394
        ]
      },
      "properties": {
        "id": 1670536502,
        "osm_type": "node",
        "name": "Oli bolt"
      }
    },
    {
      "type": "Feature",
      "geometry": {
        "type": "Point",
        "coordinates": [
          18.2215243,
          46.0302193
        ]
      },
      "properties": {
        "id": 1670536504,
        "osm_type": "node",
        "name": "Tom Market",
        "opening_hours": "Mo-Fr 06:00-21:00"
      }
    },
    {
      "type": "Feature",
      "geometry": {
        "type": "Point",
        "coordinates": [
          18.1508726,
          46.0318598
        ]
      },
      "properties": {
        "id": 1696032796,
        "osm_type": "node",
        "name": "Hami Kisbolt"
      }
    },
    {
      "type": "Feature",
      "geometry": {
        "type": "Point",
        "coordinates": [
          18.1384698,
          46.1607492
        ]
      },
      "properties": {
        "id": 1752223979,
        "osm_type": "node",
        "opening_hours": "07:00-22:00"
      }
    },
    {
      "type": "Feature",
      "geometry": {
        "type": "Point",
        "coordinates": [
          18.2205538,
          46.0780526
        ]
      },
      "properties": {
        "id": 1753814833,
        "osm_type": "node",
        "name": "Delikát City"
      }
    },
    {
      "type": "Feature",
      "geometry": {
        "type": "Point",
        "coordinates": [
          18.1913072,
          46.2358159
        ]
      },
      "properties": {
        "id": 1875029011,
        "osm_type": "node"
      }
    },
    {
      "type": "Feature",
      "geometry": {
        "type": "Point",
        "coordinates": [
          18.1314963,
          46.3055858
        ]
      },
      "properties": {
        "id": 1968891229,
        "osm_type": "node"
      }
    },
    {
      "type": "Feature",
      "geometry": {
        "type": "Point",
        "coordinates": [
          18.2285252,
          46.076496
        ]
      },
      "properties": {
        "id": 2295509741,
        "osm_type": "node",
        "name": "Fűszer csemege"
      }
    },
    {
      "type": "Feature",
      "geometry": {
        "type": "Point",
        "coordinates": [
          18.2609294,
          46.1830301
        ]
      },
      "properties": {
        "id": 2331980487,
        "osm_type": "node",
        "name": "Fürst csemege"
      }
    },
    {
      "type": "Feature",
      "geometry": {
        "type": "Point",
        "coordinates": [
          18.2440935,
          46.0782766
        ]
      },
      "properties": {
        "id": 2388532188,
        "osm_type": "node"
      }
    },
    {
      "type": "Feature",
      "geometry": {
        "type": "Point",
        "coordinates": [
          18.2885161,
          46.0509917
        ]
      },
      "properties": {
        "id": 2608039606,
        "osm_type": "node",
        "name": "Fagyöngy"
      }
    },
    {
      "type": "Feature",
      "geometry": {
        "type": "Point",
        "coordinates": [
          18.2852728,
          46.0444613
        ]
      },
      "properties": {
        "id": 2608039608,
        "osm_type": "node",
        "name": "Tom Market",
        "brand": "Tom Market"
      }
    },
    {
      "type": "Feature",
      "geometry": {
        "type": "Point",
        "coordinates": [
          18.2843344,
          46.0424933
        ]
      },
      "properties": {
        "id": 2676778306,
        "osm_type": "node"
      }
    },
    {
      "type": "Feature",
      "geometry": {
        "type": "Point",
        "coordinates": [
          18.4730614,
          46.228377
        ]
      },
      "properties": {
        "id": 2696338212,
        "osm_type": "node"
      }
    },
    {
      "type": "Feature",
      "geometry": {
        "type": "Point",
        "coordinates": [
          18.2229645,
          46.3525612
        ]
      },
      "properties": {
        "id": 2844199801,
        "osm_type": "node"
      }
    },
    {
      "type": "Feature",
      "geometry": {
        "type": "Point",
        "coordinates": [
          18.4556327,
          45.8693025
        ]
      },
      "properties": {
        "id": 3037038529,
        "osm_type": "node"
      }
    },
    {
      "type": "Feature",
      "geometry": {
        "type": "Point",
        "coordinates": [
          18.2440853,
          46.3134504
        ]
      },
      "properties": {
        "id": 3037725572,
        "osm_type": "node"
      }
    },
    {
      "type": "Feature",
      "geometry": {
        "type": "Point",
        "coordinates": [
          18.7061916,
          46.0011551
        ]
      },
      "properties": {
        "id": 3128392792,
        "osm_type": "node",
        "name": "ARO"
      }
    },
    {
      "type": "Feature",
      "geometry": {
        "type": "Point",
        "coordinates": [
          18.2214219,
          46.0305082
        ]
      },
      "properties": {
        "id": 3165062812,
        "osm_type": "node",
        "name": "Enger",
        "opening_hours": "Mo-Fr 08:00-18:00; Sa 08:00-12:00"
      }
    },
    {
      "type": "Feature",
      "geometry": {
        "type": "Point",
        "coordinates": [
          18.2333407,
          46.0709746
        ]
      },
      "properties": {
        "id": 3196787210,
        "osm_type": "node",
        "name": "Tom Market",
        "brand": "Tom Market"
      }
    },
    {
      "type": "Feature",
      "geometry": {
        "type": "Point",
        "coordinates": [
          18.1725062,
          46.0660409
        ]
      },
      "properties": {
        "id": 3206227143,
        "osm_type": "node",
        "name": "Sarki bolt"
      }
    },
    {
      "type": "Feature",
      "geometry": {
        "type": "Point",
        "coordinates": [
          18.1840917,
          46.0666738
        ]
      },
      "properties": {
        "id": 3206274290,
        "osm_type": "node",
        "name": "Mini ABC"
      }
    },
    {
      "type": "Feature",
      "geometry": {
        "type": "Point",
        "coordinates": [
          18.2378348,
          45.9490359
        ]
      },
      "properties": {
        "id": 3210780541,
        "osm_type": "node",
        "name": "Tom Market"
      }
    },
    {
      "type": "Feature",
      "geometry": {
        "type": "Point",
        "coordinates": [
          18.2376273,
          45.941917
        ]
      },
      "properties": {
        "id": 3210784636,
        "osm_type": "node",
        "name": "Vegyeskereskedés"
      }
    },
    {
      "type": "Feature",
      "geometry": {
        "type": "Point",
        "coordinates": [
          18.1946093,
          46.0647063
        ]
      },
      "properties": {
        "id": 3289663762,
        "osm_type": "node",
        "name": "Csoma-csemege"
      }
    },
    {
      "type": "Feature",
      "geometry": {
        "type": "Point",
        "coordinates": [
          18.1972685,
          46.0637432
        ]
      },
      "properties": {
        "id": 3311820536,
        "osm_type": "node"
      }
    },
    {
      "type": "Feature",
      "geometry": {
        "type": "Point",
        "coordinates": [
          18.4672002,
          46.2250315
        ]
      },
      "properties": {
        "id": 3411522300,
        "osm_type": "node",
        "name": "COOP"
      }
    },
    {
      "type": "Feature",
      "geometry": {
        "type": "Point",
        "coordinates": [
          18.530609,
          46.220912
        ]
      },
      "properties": {
        "id": 3413206760,
        "osm_type": "node",
        "name": "Vegyesbolt"
      }
    },
    {
      "type": "Feature",
      "geometry": {
        "type": "Point",
        "coordinates": [
          18.168299,
          45.969185
        ]
      },
      "properties": {
        "id": 3440811449,
        "osm_type": "node",
        "name": "Vegyesbolt és Kocsma"
      }
    },
    {
      "type": "Feature",
      "geometry": {
        "type": "Point",
        "coordinates": [
          18.352576,
          46.042111
        ]
      },
      "properties": {
        "id": 3440811451,
        "osm_type": "node",
        "name": "Vegyesbolt"
      }
    },
    {
      "type": "Feature",
      "geometry": {
        "type": "Point",
        "coordinates": [
          18.09945,
          46.087341
        ]
      },
      "properties": {
        "id": 3440811453,
        "osm_type": "node",
        "name": "Vegyesbolt"
      }
    },
    {
      "type": "Feature",
      "geometry": {
        "type": "Point",
        "coordinates": [
          18.1159736,
          46.1428155
        ]
      },
      "properties": {
        "id": 3440812015,
        "osm_type": "node",
        "name": "Abaliget ABC",
        "opening_hours": "Mo-Th 07:00-15:00; Fr,Sa 07:00-17:00; Su 07:00-11:00"
      }
    },
    {
      "type": "Feature",
      "geometry": {
        "type": "Point",
        "coordinates": [
          18.289112,
          46.038362
        ]
      },
      "properties": {
        "id": 3440812017,
        "osm_type": "node",
        "name": "ABC"
      }
    },
    {
      "type": "Feature",
      "geometry": {
        "type": "Point",
        "coordinates": [
          18.146917,
          46.148617
        ]
      },
      "properties": {
        "id": 3440812019,
        "osm_type": "node",
        "name": "ABC"
      }
    },
    {
      "type": "Feature",
      "geometry": {
        "type": "Point",
        "coordinates": [
          18.3498939,
          46.1658311
        ]
      },
      "properties": {
        "id": 3440812060,
        "osm_type": "node",
        "name": "CBA",
        "brand": "CBA"
      }
    },
    {
      "type": "Feature",
      "geometry": {
        "type": "Point",
        "coordinates": [
          18.11717,
          46.07876
        ]
      },
      "properties": {
        "id": 3440812061,
        "osm_type": "node",
        "name": "Coop Mini",
        "brand": "Coop Mini"
      }
    },
    {
      "type": "Feature",
      "geometry": {
        "type": "Point",
        "coordinates": [
          18.12512,
          46.08398
        ]
      },
      "properties": {
        "id": 3440812062,
        "osm_type": "node",
        "name": "Coop Mini",
        "brand": "Coop Mini"
      }
    },
    {
      "type": "Feature",
      "geometry": {
        "type": "Point",
        "coordinates": [
          18.124902,
          46.083403
        ]
      },
      "properties": {
        "id": 3440812063,
        "osm_type": "node",
        "name": "COOP",
        "opening_hours": "Mo-Fr 05:30-16:00; Sa 05:30-12:00; Su,PH off"
      }
    },
    {
      "type": "Feature",
      "geometry": {
        "type": "Point",
        "coordinates": [
          18.190717,
          46.01595
        ]
      },
      "properties": {
        "id": 3440812067,
        "osm_type": "node",
        "name": "Coop Mini"
      }
    },
    {
      "type": "Feature",
      "geometry": {
        "type": "Point",
        "coordinates": [
          18.155017,
          46.137583
        ]
      },
      "properties": {
        "id": 3440814417,
        "osm_type": "node"
      }
    },
    {
      "type": "Feature",
      "geometry": {
        "type": "Point",
        "coordinates": [
          18.238718,
          46.083366
        ]
      },
      "properties": {
        "id": 3440854366,
        "osm_type": "node",
        "name": "Havihegyi ABC"
      }
    },
    {
      "type": "Feature",
      "geometry": {
        "type": "Point",
        "coordinates": [
          18.264033,
          46.083467
        ]
      },
      "properties": {
        "id": 3440854369,
        "osm_type": "node",
        "name": "Il Moretto Kávébolt és Szerviz"
      }
    },
    {
      "type": "Feature",
      "geometry": {
        "type": "Point",
        "coordinates": [
          18.2359507,
          46.0773462
        ]
      },
      "properties": {
        "id": 3440855642,
        "osm_type": "node",
        "name": "Non Stop élelmiszerbolt"
      }
    },
    {
      "type": "Feature",
      "geometry": {
        "type": "Point",
        "coordinates": [
          18.233179,
          46.080715
        ]
      },
      "properties": {
        "id": 3440855674,
        "osm_type": "node",
        "name": "Piroska Élelmiszer"
      }
    },
    {
      "type": "Feature",
      "geometry": {
        "type": "Point",
        "coordinates": [
          18.2235675,
          46.0664703
        ]
      },
      "properties": {
        "id": 3440857682,
        "osm_type": "node",
        "opening_hours": "24/7"
      }
    },
    {
      "type": "Feature",
      "geometry": {
        "type": "Point",
        "coordinates": [
          18.185525,
          46.067315
        ]
      },
      "properties": {
        "id": 3440857683,
        "osm_type": "node"
      }
    },
    {
      "type": "Feature",
      "geometry": {
        "type": "Point",
        "coordinates": [
          18.210064,
          46.080396
        ]
      },
      "properties": {
        "id": 3440859516,
        "osm_type": "node",
        "name": "Bálicsi csemege"
      }
    },
    {
      "type": "Feature",
      "geometry": {
        "type": "Point",
        "coordinates": [
          18.2248205,
          46.0383694
        ]
      },
      "properties": {
        "id": 3440859520,
        "osm_type": "node",
        "name": "ENGER"
      }
    },
    {
      "type": "Feature",
      "geometry": {
        "type": "Point",
        "coordinates": [
          18.2225736,
          46.0461094
        ]
      },
      "properties": {
        "id": 3440859522,
        "osm_type": "node",
        "name": "CBA",
        "brand": "CBA"
      }
    },
    {
      "type": "Feature",
      "geometry": {
        "type": "Point",
        "coordinates": [
          18.3245088,
          46.1381027
        ]
      },
      "properties": {
        "id": 3440859536,
        "osm_type": "node",
        "name": "Cél ABC"
      }
    },
    {
      "type": "Feature",
      "geometry": {
        "type": "Point",
        "coordinates": [
          18.222017,
          46.073553
        ]
      },
      "properties": {
        "id": 3440859542,
        "osm_type": "node",
        "name": "Delikátesz Non-Stop"
      }
    },
    {
      "type": "Feature",
      "geometry": {
        "type": "Point",
        "coordinates": [
          18.209352,
          46.0771
        ]
      },
      "properties": {
        "id": 3440859543,
        "osm_type": "node",
        "name": "Delikátesz kisbolt"
      }
    },
    {
      "type": "Feature",
      "geometry": {
        "type": "Point",
        "coordinates": [
          18.243899,
          46.084305
        ]
      },
      "properties": {
        "id": 3440859640,
        "osm_type": "node",
        "name": "Marx ABC"
      }
    },
    {
      "type": "Feature",
      "geometry": {
        "type": "Point",
        "coordinates": [
          18.1878656,
          46.0694612
        ]
      },
      "properties": {
        "id": 3440860218,
        "osm_type": "node",
        "name": "Sofi élelmiszer"
      }
    },
    {
      "type": "Feature",
      "geometry": {
        "type": "Point",
        "coordinates": [
          18.2174182,
          46.0711809
        ]
      },
      "properties": {
        "id": 3440860238,
        "osm_type": "node",
        "name": "Süni delikátesz"
      }
    },
    {
      "type": "Feature",
      "geometry": {
        "type": "Point",
        "coordinates": [
          18.24075,
          46.085133
        ]
      },
      "properties": {
        "id": 3440860401,
        "osm_type": "node",
        "name": "Zöld Lugas vegyesbolt",
        "opening_hours": "Mo-Fr 06:30-11:30, 13:30-18:00; Sa 06:30-12:00; PH off"
      }
    },
    {
      "type": "Feature",
      "geometry": {
        "type": "Point",
        "coordinates": [
          18.2195,
          46.038868
        ]
      },
      "properties": {
        "id": 3440860427,
        "osm_type": "node"
      }
    },
    {
      "type": "Feature",
      "geometry": {
        "type": "Point",
        "coordinates": [
          18.194083,
          46.093317
        ]
      },
      "properties": {
        "id": 3440860461,
        "osm_type": "node"
      }
    },
    {
      "type": "Feature",
      "geometry": {
        "type": "Point",
        "coordinates": [
          18.2198623,
          46.0787098
        ]
      },
      "properties": {
        "id": 3440860530,
        "osm_type": "node",
        "name": "Vegyesbolt"
      }
    },
    {
      "type": "Feature",
      "geometry": {
        "type": "Point",
        "coordinates": [
          18.2175854,
          46.0763578
        ]
      },
      "properties": {
        "id": 3440860798,
        "osm_type": "node",
        "name": "TOM market",
        "brand": "Tom Market"
      }
    },
    {
      "type": "Feature",
      "geometry": {
        "type": "Point",
        "coordinates": [
          18.3984186,
          45.7781248
        ]
      },
      "properties": {
        "id": 3445403460,
        "osm_type": "node",
        "name": "ABC"
      }
    },
    {
      "type": "Feature",
      "geometry": {
        "type": "Point",
        "coordinates": [
          18.43346,
          45.786567
        ]
      },
      "properties": {
        "id": 3445403461,
        "osm_type": "node",
        "name": "ABC"
      }
    },
    {
      "type": "Feature",
      "geometry": {
        "type": "Point",
        "coordinates": [
          18.326503,
          45.807967
        ]
      },
      "properties": {
        "id": 3445403462,
        "osm_type": "node",
        "name": "ABC"
      }
    },
    {
      "type": "Feature",
      "geometry": {
        "type": "Point",
        "coordinates": [
          18.3821573,
          45.8216173
        ]
      },
      "properties": {
        "id": 3445403463,
        "osm_type": "node",
        "name": "ABC"
      }
    },
    {
      "type": "Feature",
      "geometry": {
        "type": "Point",
        "coordinates": [
          18.16472,
          45.83576
        ]
      },
      "properties": {
        "id": 3445403464,
        "osm_type": "node",
        "name": "ABC"
      }
    },
    {
      "type": "Feature",
      "geometry": {
        "type": "Point",
        "coordinates": [
          18.3922323,
          45.8471528
        ]
      },
      "properties": {
        "id": 3445403465,
        "osm_type": "node",
        "name": "Zsuzsi Csemege"
      }
    },
    {
      "type": "Feature",
      "geometry": {
        "type": "Point",
        "coordinates": [
          18.395473,
          45.847937
        ]
      },
      "properties": {
        "id": 3445403466,
        "osm_type": "node",
        "name": "ABC"
      }
    },
    {
      "type": "Feature",
      "geometry": {
        "type": "Point",
        "coordinates": [
          18.4561,
          45.8698
        ]
      },
      "properties": {
        "id": 3445403467,
        "osm_type": "node",
        "name": "ABC"
      }
    },
    {
      "type": "Feature",
      "geometry": {
        "type": "Point",
        "coordinates": [
          18.162388,
          45.877138
        ]
      },
      "properties": {
        "id": 3445403468,
        "osm_type": "node",
        "name": "ABC"
      }
    },
    {
      "type": "Feature",
      "geometry": {
        "type": "Point",
        "coordinates": [
          18.38475,
          45.958055
        ]
      },
      "properties": {
        "id": 3445403469,
        "osm_type": "node",
        "name": "ABC"
      }
    },
    {
      "type": "Feature",
      "geometry": {
        "type": "Point",
        "coordinates": [
          18.2413,
          45.851733
        ]
      },
      "properties": {
        "id": 3445424843,
        "osm_type": "node",
        "name": "Kisbolt"
      }
    },
    {
      "type": "Feature",
      "geometry": {
        "type": "Point",
        "coordinates": [
          18.44856,
          45.873232
        ]
      },
      "properties": {
        "id": 3445424844,
        "osm_type": "node",
        "name": "Kisbolt"
      }
    },
    {
      "type": "Feature",
      "geometry": {
        "type": "Point",
        "coordinates": [
          18.523552,
          45.800261
        ]
      },
      "properties": {
        "id": 3445424952,
        "osm_type": "node",
        "name": "Vegyesbolt"
      }
    },
    {
      "type": "Feature",
      "geometry": {
        "type": "Point",
        "coordinates": [
          18.2352538,
          45.8501721
        ]
      },
      "properties": {
        "id": 3445424953,
        "osm_type": "node",
        "name": "Tom Market",
        "opening_hours": "Mo-Su 06:00-22:00"
      }
    },
    {
      "type": "Feature",
      "geometry": {
        "type": "Point",
        "coordinates": [
          18.360612,
          45.972222
        ]
      },
      "properties": {
        "id": 3445424954,
        "osm_type": "node",
        "name": "Vegyesbolt"
      }
    },
    {
      "type": "Feature",
      "geometry": {
        "type": "Point",
        "coordinates": [
          18.3988771,
          45.8477381
        ]
      },
      "properties": {
        "id": 3445425005,
        "osm_type": "node",
        "name": "Zsike Élelmiszerbolt"
      }
    },
    {
      "type": "Feature",
      "geometry": {
        "type": "Point",
        "coordinates": [
          18.1519329,
          46.1881507
        ]
      },
      "properties": {
        "id": 3458289099,
        "osm_type": "node",
        "name": "ABC"
      }
    },
    {
      "type": "Feature",
      "geometry": {
        "type": "Point",
        "coordinates": [
          18.196507,
          46.196084
        ]
      },
      "properties": {
        "id": 3458289121,
        "osm_type": "node",
        "name": "COOP"
      }
    },
    {
      "type": "Feature",
      "geometry": {
        "type": "Point",
        "coordinates": [
          18.269597,
          46.186939
        ]
      },
      "properties": {
        "id": 3458295209,
        "osm_type": "node",
        "name": "Mini ABC"
      }
    },
    {
      "type": "Feature",
      "geometry": {
        "type": "Point",
        "coordinates": [
          18.2118998,
          46.224301
        ]
      },
      "properties": {
        "id": 3458295284,
        "osm_type": "node"
      }
    },
    {
      "type": "Feature",
      "geometry": {
        "type": "Point",
        "coordinates": [
          18.408214,
          46.279556
        ]
      },
      "properties": {
        "id": 3458296574,
        "osm_type": "node"
      }
    },
    {
      "type": "Feature",
      "geometry": {
        "type": "Point",
        "coordinates": [
          17.8060606,
          46.0552001
        ]
      },
      "properties": {
        "id": 3461967429,
        "osm_type": "node",
        "name": "Tom Market"
      }
    },
    {
      "type": "Feature",
      "geometry": {
        "type": "Point",
        "coordinates": [
          17.7883354,
          46.0533457
        ]
      },
      "properties": {
        "id": 3461967442,
        "osm_type": "node",
        "name": "COOP"
      }
    },
    {
      "type": "Feature",
      "geometry": {
        "type": "Point",
        "coordinates": [
          17.897732,
          46.047732
        ]
      },
      "properties": {
        "id": 3461967496,
        "osm_type": "node",
        "name": "Kisbolt"
      }
    },
    {
      "type": "Feature",
      "geometry": {
        "type": "Point",
        "coordinates": [
          17.777472,
          46.024506
        ]
      },
      "properties": {
        "id": 3461967538,
        "osm_type": "node",
        "name": "Szalai vegyesbolt"
      }
    },
    {
      "type": "Feature",
      "geometry": {
        "type": "Point",
        "coordinates": [
          17.825371,
          45.974404
        ]
      },
      "properties": {
        "id": 3461967576,
        "osm_type": "node",
        "name": "Vegyesbolt és Presszó"
      }
    },
    {
      "type": "Feature",
      "geometry": {
        "type": "Point",
        "coordinates": [
          17.846212,
          46.080822
        ]
      },
      "properties": {
        "id": 3461967577,
        "osm_type": "node",
        "name": "Vegyesbolt"
      }
    },
    {
      "type": "Feature",
      "geometry": {
        "type": "Point",
        "coordinates": [
          17.892988,
          46.119068
        ]
      },
      "properties": {
        "id": 3461967578,
        "osm_type": "node",
        "name": "Vegyesbolt"
      }
    },
    {
      "type": "Feature",
      "geometry": {
        "type": "Point",
        "coordinates": [
          18.4226745,
          46.1581302
        ]
      },
      "properties": {
        "id": 3464278603,
        "osm_type": "node",
        "name": "Coop 161",
        "opening_hours": "Mo-Fr 05:00-18:00; Sa 06:00-11:00"
      }
    },
    {
      "type": "Feature",
      "geometry": {
        "type": "Point",
        "coordinates": [
          18.41895,
          46.1632
        ]
      },
      "properties": {
        "id": 3464278607,
        "osm_type": "node",
        "name": "Coop"
      }
    },
    {
      "type": "Feature",
      "geometry": {
        "type": "Point",
        "coordinates": [
          18.450071,
          46.062772
        ]
      },
      "properties": {
        "id": 3464278692,
        "osm_type": "node",
        "name": "Vegyesbolt"
      }
    },
    {
      "type": "Feature",
      "geometry": {
        "type": "Point",
        "coordinates": [
          18.456033,
          46.147938
        ]
      },
      "properties": {
        "id": 3464279993,
        "osm_type": "node",
        "name": "Vegyesbolt"
      }
    },
    {
      "type": "Feature",
      "geometry": {
        "type": "Point",
        "coordinates": [
          18.680115,
          46.030379
        ]
      },
      "properties": {
        "id": 3464290254,
        "osm_type": "node",
        "name": "ABC"
      }
    },
    {
      "type": "Feature",
      "geometry": {
        "type": "Point",
        "coordinates": [
          18.65815,
          46.081317
        ]
      },
      "properties": {
        "id": 3464290255,
        "osm_type": "node",
        "name": "ABC"
      }
    },
    {
      "type": "Feature",
      "geometry": {
        "type": "Point",
        "coordinates": [
          18.586643,
          46.13142
        ]
      },
      "properties": {
        "id": 3464290256,
        "osm_type": "node",
        "name": "ABC"
      }
    },
    {
      "type": "Feature",
      "geometry": {
        "type": "Point",
        "coordinates": [
          18.687925,
          45.989593
        ]
      },
      "properties": {
        "id": 3464290258,
        "osm_type": "node",
        "name": "Arany forza",
        "opening_hours": "Mo-Sa 06:00-20:00; Su,PH 07:00-13:30"
      }
    },
    {
      "type": "Feature",
      "geometry": {
        "type": "Point",
        "coordinates": [
          18.5989141,
          45.9063838
        ]
      },
      "properties": {
        "id": 3464290272,
        "osm_type": "node",
        "name": "153. sz. Coop üzlet",
        "brand": "COOP",
        "opening_hours": "Mo,Sa 06:30-12:00; Tu-Fr 06:30-18:00; PH off"
      }
    },
    {
      "type": "Feature",
      "geometry": {
        "type": "Point",
        "coordinates": [
          18.6315099,
          45.9414149
        ]
      },
      "properties": {
        "id": 3464290273,
        "osm_type": "node",
        "name": "Coop"
      }
    },
    {
      "type": "Feature",
      "geometry": {
        "type": "Point",
        "coordinates": [
          18.706667,
          45.948583
        ]
      },
      "properties": {
        "id": 3464290274,
        "osm_type": "node",
        "name": "COOP"
      }
    },
    {
      "type": "Feature",
      "geometry": {
        "type": "Point",
        "coordinates": [
          18.6675984,
          46.0268248
        ]
      },
      "properties": {
        "id": 3464291532,
        "osm_type": "node",
        "name": "Mini ABC"
      }
    },
    {
      "type": "Feature",
      "geometry": {
        "type": "Point",
        "coordinates": [
          18.688114,
          45.996209
        ]
      },
      "properties": {
        "id": 3464291539,
        "osm_type": "node",
        "name": "Molly Market"
      }
    },
    {
      "type": "Feature",
      "geometry": {
        "type": "Point",
        "coordinates": [
          18.6797028,
          45.996094
        ]
      },
      "properties": {
        "id": 3464291556,
        "osm_type": "node",
        "name": "MiniGo áruház",
        "opening_hours": "Mo-Fr 07:00-18:00; Sa 08:00-18:00; Su 08:00-16:00; PH off"
      }
    },
    {
      "type": "Feature",
      "geometry": {
        "type": "Point",
        "coordinates": [
          18.680792,
          45.987815
        ]
      },
      "properties": {
        "id": 3464291557,
        "osm_type": "node",
        "name": "Sarok élelmiszer"
      }
    },
    {
      "type": "Feature",
      "geometry": {
        "type": "Point",
        "coordinates": [
          18.513559,
          46.077235
        ]
      },
      "properties": {
        "id": 3464291970,
        "osm_type": "node"
      }
    },
    {
      "type": "Feature",
      "geometry": {
        "type": "Point",
        "coordinates": [
          18.23414,
          46.347565
        ]
      },
      "properties": {
        "id": 3465768927,
        "osm_type": "node",
        "name": "Coop-bolt"
      }
    },
    {
      "type": "Feature",
      "geometry": {
        "type": "Point",
        "coordinates": [
          18.332893,
          46.38995
        ]
      },
      "properties": {
        "id": 3465768929,
        "osm_type": "node",
        "name": "Csilla vegyeskereskedés"
      }
    },
    {
      "type": "Feature",
      "geometry": {
        "type": "Point",
        "coordinates": [
          18.034523,
          46.204688
        ]
      },
      "properties": {
        "id": 3465769324,
        "osm_type": "node",
        "name": "Vegyesbolt"
      }
    },
    {
      "type": "Feature",
      "geometry": {
        "type": "Point",
        "coordinates": [
          18.0614722,
          46.2240506
        ]
      },
      "properties": {
        "id": 3465769325,
        "osm_type": "node",
        "name": "Vegyesbolt"
      }
    },
    {
      "type": "Feature",
      "geometry": {
        "type": "Point",
        "coordinates": [
          18.515636,
          46.045163
        ]
      },
      "properties": {
        "id": 3471841263,
        "osm_type": "node"
      }
    },
    {
      "type": "Feature",
      "geometry": {
        "type": "Point",
        "coordinates": [
          18.46221,
          46.026513
        ]
      },
      "properties": {
        "id": 3471869618,
        "osm_type": "node",
        "name": "COOP"
      }
    },
    {
      "type": "Feature",
      "geometry": {
        "type": "Point",
        "coordinates": [
          18.455776,
          45.997228
        ]
      },
      "properties": {
        "id": 3471869651,
        "osm_type": "node",
        "name": "Reál Élelmiszer"
      }
    },
    {
      "type": "Feature",
      "geometry": {
        "type": "Point",
        "coordinates": [
          18.55004,
          46.00601
        ]
      },
      "properties": {
        "id": 3471869661,
        "osm_type": "node",
        "name": "Vegyesbolt"
      }
    },
    {
      "type": "Feature",
      "geometry": {
        "type": "Point",
        "coordinates": [
          18.532034,
          45.990353
        ]
      },
      "properties": {
        "id": 3471869687,
        "osm_type": "node",
        "name": "Vegyesbolt, Szajk"
      }
    },
    {
      "type": "Feature",
      "geometry": {
        "type": "Point",
        "coordinates": [
          18.45227,
          45.996945
        ]
      },
      "properties": {
        "id": 3471869692,
        "osm_type": "node"
      }
    },
    {
      "type": "Feature",
      "geometry": {
        "type": "Point",
        "coordinates": [
          17.821983,
          45.824634
        ]
      },
      "properties": {
        "id": 3484805301,
        "osm_type": "node",
        "name": "COOP (6-14)"
      }
    },
    {
      "type": "Feature",
      "geometry": {
        "type": "Point",
        "coordinates": [
          17.821867,
          45.824903
        ]
      },
      "properties": {
        "id": 3484805349,
        "osm_type": "node",
        "name": "Zöldséges mini ABC"
      }
    },
    {
      "type": "Feature",
      "geometry": {
        "type": "Point",
        "coordinates": [
          17.96805,
          45.810585
        ]
      },
      "properties": {
        "id": 3484805366,
        "osm_type": "node"
      }
    },
    {
      "type": "Feature",
      "geometry": {
        "type": "Point",
        "coordinates": [
          17.7891669,
          46.0530851
        ]
      },
      "properties": {
        "id": 3542564529,
        "osm_type": "node",
        "name": "Tom Market"
      }
    },
    {
      "type": "Feature",
      "geometry": {
        "type": "Point",
        "coordinates": [
          17.7887324,
          46.053074
        ]
      },
      "properties": {
        "id": 3542564530,
        "osm_type": "node",
        "name": "Élelmiszerbolt és Húsbolt"
      }
    },
    {
      "type": "Feature",
      "geometry": {
        "type": "Point",
        "coordinates": [
          18.2262143,
          46.0515733
        ]
      },
      "properties": {
        "id": 3583339722,
        "osm_type": "node",
        "name": "Táncsics Market"
      }
    },
    {
      "type": "Feature",
      "geometry": {
        "type": "Point",
        "coordinates": [
          18.1901892,
          46.0637826
        ]
      },
      "properties": {
        "id": 3626894525,
        "osm_type": "node",
        "name": "Tom Market",
        "opening_hours": "Mo-Su,PH 06:00-21:00"
      }
    },
    {
      "type": "Feature",
      "geometry": {
        "type": "Point",
        "coordinates": [
          18.2230836,
          46.0467984
        ]
      },
      "properties": {
        "id": 3633142414,
        "osm_type": "node",
        "name": "Tom Market",
        "brand": "Tom Market"
      }
    },
    {
      "type": "Feature",
      "geometry": {
        "type": "Point",
        "coordinates": [
          18.2185267,
          46.0691173
        ]
      },
      "properties": {
        "id": 3691239795,
        "osm_type": "node",
        "name": "Mi Boltunk"
      }
    },
    {
      "type": "Feature",
      "geometry": {
        "type": "Point",
        "coordinates": [
          18.2157864,
          46.073368
        ]
      },
      "properties": {
        "id": 3902239488,
        "osm_type": "node",
        "name": "Tom Market"
      }
    },
    {
      "type": "Feature",
      "geometry": {
        "type": "Point",
        "coordinates": [
          18.4810935,
          46.1865565
        ]
      },
      "properties": {
        "id": 4104037897,
        "osm_type": "node"
      }
    },
    {
      "type": "Feature",
      "geometry": {
        "type": "Point",
        "coordinates": [
          18.2101151,
          46.0803457
        ]
      },
      "properties": {
        "id": 4163942110,
        "osm_type": "node",
        "name": "Tom Market",
        "opening_hours": "Mo-Fr 06:00-22:00; Sa,Su 07:00-22:00"
      }
    },
    {
      "type": "Feature",
      "geometry": {
        "type": "Point",
        "coordinates": [
          18.066628,
          45.8124393
        ]
      },
      "properties": {
        "id": 4211479156,
        "osm_type": "node",
        "name": "Vegyesüzlet"
      }
    },
    {
      "type": "Feature",
      "geometry": {
        "type": "Point",
        "coordinates": [
          18.2029289,
          46.0650787
        ]
      },
      "properties": {
        "id": 4327692802,
        "osm_type": "node",
        "name": "Majdnem Mindig"
      }
    },
    {
      "type": "Feature",
      "geometry": {
        "type": "Point",
        "coordinates": [
          18.6885534,
          45.9912459
        ]
      },
      "properties": {
        "id": 4348721300,
        "osm_type": "node",
        "name": "Reál",
        "brand": "Reál",
        "opening_hours": "Mo-Sa 06:00-20:00; Su,PH 07:00-15:00"
      }
    },
    {
      "type": "Feature",
      "geometry": {
        "type": "Point",
        "coordinates": [
          18.6829241,
          45.9910055
        ]
      },
      "properties": {
        "id": 4350130193,
        "osm_type": "node",
        "name": "Biocentrum Gyógynövényi és Biobolt"
      }
    },
    {
      "type": "Feature",
      "geometry": {
        "type": "Point",
        "coordinates": [
          18.2570142,
          46.093362
        ]
      },
      "properties": {
        "id": 4369544906,
        "osm_type": "node",
        "name": "Tom Market",
        "opening_hours": "Mo-Su 06:00-21:00"
      }
    },
    {
      "type": "Feature",
      "geometry": {
        "type": "Point",
        "coordinates": [
          18.2227228,
          46.0547356
        ]
      },
      "properties": {
        "id": 4463932146,
        "osm_type": "node",
        "name": "Tom Market",
        "brand": "Tom Market"
      }
    },
    {
      "type": "Feature",
      "geometry": {
        "type": "Point",
        "coordinates": [
          18.6159033,
          46.1567602
        ]
      },
      "properties": {
        "id": 4550723694,
        "osm_type": "node",
        "name": "Takács Élelmiszerbolt",
        "opening_hours": "Mo-Fr 05:00-18:00; Sa 05:00-12:00; Su 06:00-10:00"
      }
    },
    {
      "type": "Feature",
      "geometry": {
        "type": "Point",
        "coordinates": [
          18.6165794,
          46.1572247
        ]
      },
      "properties": {
        "id": 4550826491,
        "osm_type": "node",
        "name": "Édenkert Zöldség és Gyümölcs"
      }
    },
    {
      "type": "Feature",
      "geometry": {
        "type": "Point",
        "coordinates": [
          18.612518,
          46.1567983
        ]
      },
      "properties": {
        "id": 4550826493,
        "osm_type": "node",
        "name": "Mini ABC"
      }
    },
    {
      "type": "Feature",
      "geometry": {
        "type": "Point",
        "coordinates": [
          18.434698,
          45.784414
        ]
      },
      "properties": {
        "id": 4933397794,
        "osm_type": "node",
        "name": "Tom Market"
      }
    },
    {
      "type": "Feature",
      "geometry": {
        "type": "Point",
        "coordinates": [
          18.430914,
          45.792135
        ]
      },
      "properties": {
        "id": 4933403218,
        "osm_type": "node",
        "name": "16 sz Coop Abc"
      }
    },
    {
      "type": "Feature",
      "geometry": {
        "type": "Point",
        "coordinates": [
          18.2105497,
          45.8067186
        ]
      },
      "properties": {
        "id": 4933405523,
        "osm_type": "node",
        "name": "Zsinkó Élelmiszer"
      }
    },
    {
      "type": "Feature",
      "geometry": {
        "type": "Point",
        "coordinates": [
          18.3012578,
          45.8516239
        ]
      },
      "properties": {
        "id": 4933445606,
        "osm_type": "node",
        "name": "Tom Market",
        "opening_hours": "Mo-Sa 05:00-22:00; Su 06:00-22:00"
      }
    },
    {
      "type": "Feature",
      "geometry": {
        "type": "Point",
        "coordinates": [
          18.2635818,
          46.0769165
        ]
      },
      "properties": {
        "id": 4933468870,
        "osm_type": "node",
        "name": "Durakú"
      }
    },
    {
      "type": "Feature",
      "geometry": {
        "type": "Point",
        "coordinates": [
          18.2862885,
          46.0858685
        ]
      },
      "properties": {
        "id": 4933468876,
        "osm_type": "node",
        "name": "Reál Sarki Csemege",
        "opening_hours": "Mo-Fr 06:00-18:00; Sa-Su 07:00-12:00"
      }
    },
    {
      "type": "Feature",
      "geometry": {
        "type": "Point",
        "coordinates": [
          18.3633024,
          45.9340533
        ]
      },
      "properties": {
        "id": 4933469225,
        "osm_type": "node",
        "name": "165 Coop Abc"
      }
    },
    {
      "type": "Feature",
      "geometry": {
        "type": "Point",
        "coordinates": [
          18.5234312,
          45.9623154
        ]
      },
      "properties": {
        "id": 4933469237,
        "osm_type": "node",
        "name": "CBA Malom Élelmiszer"
      }
    },
    {
      "type": "Feature",
      "geometry": {
        "type": "Point",
        "coordinates": [
          18.5139686,
          45.9700141
        ]
      },
      "properties": {
        "id": 4933469243,
        "osm_type": "node",
        "name": "Tom Market"
      }
    },
    {
      "type": "Feature",
      "geometry": {
        "type": "Point",
        "coordinates": [
          18.513328,
          45.9701428
        ]
      },
      "properties": {
        "id": 4933469245,
        "osm_type": "node",
        "name": "Fresh Market"
      }
    },
    {
      "type": "Feature",
      "geometry": {
        "type": "Point",
        "coordinates": [
          18.6940791,
          45.9854137
        ]
      },
      "properties": {
        "id": 4933469248,
        "osm_type": "node",
        "name": "152 Coop Abc"
      }
    },
    {
      "type": "Feature",
      "geometry": {
        "type": "Point",
        "coordinates": [
          18.6769092,
          45.9913041
        ]
      },
      "properties": {
        "id": 4933469251,
        "osm_type": "node",
        "name": "Forza Mini Élelmiszer"
      }
    },
    {
      "type": "Feature",
      "geometry": {
        "type": "Point",
        "coordinates": [
          17.7784795,
          46.0449608
        ]
      },
      "properties": {
        "id": 4933469259,
        "osm_type": "node",
        "name": "135 sz Coop Üzlet"
      }
    },
    {
      "type": "Feature",
      "geometry": {
        "type": "Point",
        "coordinates": [
          18.3552235,
          46.150718
        ]
      },
      "properties": {
        "id": 4933469296,
        "osm_type": "node",
        "name": "Tom Market"
      }
    },
    {
      "type": "Feature",
      "geometry": {
        "type": "Point",
        "coordinates": [
          18.2447563,
          46.1614362
        ]
      },
      "properties": {
        "id": 4933469298,
        "osm_type": "node",
        "name": "Dobos Lászlóné"
      }
    },
    {
      "type": "Feature",
      "geometry": {
        "type": "Point",
        "coordinates": [
          18.2736698,
          46.1977282
        ]
      },
      "properties": {
        "id": 4933469320,
        "osm_type": "node",
        "name": "Jolly Joker"
      }
    },
    {
      "type": "Feature",
      "geometry": {
        "type": "Point",
        "coordinates": [
          17.9848262,
          46.0368242
        ]
      },
      "properties": {
        "id": 4933469359,
        "osm_type": "node",
        "name": "Zsuzsi Csemege"
      }
    },
    {
      "type": "Feature",
      "geometry": {
        "type": "Point",
        "coordinates": [
          17.9859579,
          46.0423671
        ]
      },
      "properties": {
        "id": 4933469370,
        "osm_type": "node",
        "name": "Tom Market"
      }
    },
    {
      "type": "Feature",
      "geometry": {
        "type": "Point",
        "coordinates": [
          18.2689287,
          46.1074203
        ]
      },
      "properties": {
        "id": 4933469376,
        "osm_type": "node",
        "name": "Élelmiszer"
      }
    },
    {
      "type": "Feature",
      "geometry": {
        "type": "Point",
        "coordinates": [
          18.5193494,
          46.1092786
        ]
      },
      "properties": {
        "id": 4933469379,
        "osm_type": "node",
        "name": "168 Coop Mini Abc"
      }
    },
    {
      "type": "Feature",
      "geometry": {
        "type": "Point",
        "coordinates": [
          18.2727212,
          46.1127995
        ]
      },
      "properties": {
        "id": 4933469383,
        "osm_type": "node",
        "name": "Csemege"
      }
    },
    {
      "type": "Feature",
      "geometry": {
        "type": "Point",
        "coordinates": [
          18.3410151,
          46.1166231
        ]
      },
      "properties": {
        "id": 4933469386,
        "osm_type": "node",
        "name": "Turuni Abc"
      }
    },
    {
      "type": "Feature",
      "geometry": {
        "type": "Point",
        "coordinates": [
          18.3103087,
          46.1224519
        ]
      },
      "properties": {
        "id": 4933469393,
        "osm_type": "node",
        "name": "Tom Market 10"
      }
    },
    {
      "type": "Feature",
      "geometry": {
        "type": "Point",
        "coordinates": [
          18.312681,
          46.1274976
        ]
      },
      "properties": {
        "id": 4933469398,
        "osm_type": "node",
        "name": "Csemege bolt"
      }
    },
    {
      "type": "Feature",
      "geometry": {
        "type": "Point",
        "coordinates": [
          18.2958853,
          46.1891357
        ]
      },
      "properties": {
        "id": 4933469404,
        "osm_type": "node",
        "name": "Fenyő Élelmiszer"
      }
    },
    {
      "type": "Feature",
      "geometry": {
        "type": "Point",
        "coordinates": [
          18.2345324,
          46.3523984
        ]
      },
      "properties": {
        "id": 4933469798,
        "osm_type": "node",
        "name": "Mini Abc"
      }
    },
    {
      "type": "Feature",
      "geometry": {
        "type": "Point",
        "coordinates": [
          18.1871484,
          46.0766719
        ]
      },
      "properties": {
        "id": 4939173884,
        "osm_type": "node",
        "name": "Tom Market"
      }
    },
    {
      "type": "Feature",
      "geometry": {
        "type": "Point",
        "coordinates": [
          18.6934826,
          45.9932643
        ]
      },
      "properties": {
        "id": 4939173907,
        "osm_type": "node",
        "name": "Büfé Mini Abc"
      }
    },
    {
      "type": "Feature",
      "geometry": {
        "type": "Point",
        "coordinates": [
          18.2978638,
          45.8540835
        ]
      },
      "properties": {
        "id": 4939174009,
        "osm_type": "node",
        "name": "Tom Market",
        "opening_hours": "Mo-Sa 05:00-21:00; Su 06:30-21:00"
      }
    },
    {
      "type": "Feature",
      "geometry": {
        "type": "Point",
        "coordinates": [
          18.2394636,
          46.0774367
        ]
      },
      "properties": {
        "id": 4939175526,
        "osm_type": "node",
        "name": "Tom Market",
        "brand": "Tom Market"
      }
    },
    {
      "type": "Feature",
      "geometry": {
        "type": "Point",
        "coordinates": [
          18.1050807,
          46.254545
        ]
      },
      "properties": {
        "id": 4939176984,
        "osm_type": "node",
        "name": "Gellner Abc"
      }
    },
    {
      "type": "Feature",
      "geometry": {
        "type": "Point",
        "coordinates": [
          18.3928575,
          45.8483714
        ]
      },
      "properties": {
        "id": 4939177636,
        "osm_type": "node",
        "name": "Tom Market"
      }
    },
    {
      "type": "Feature",
      "geometry": {
        "type": "Point",
        "coordinates": [
          18.7587066,
          46.0857858
        ]
      },
      "properties": {
        "id": 4939177703,
        "osm_type": "node"
      }
    },
    {
      "type": "Feature",
      "geometry": {
        "type": "Point",
        "coordinates": [
          18.3628031,
          45.9367817
        ]
      },
      "properties": {
        "id": 4939178053,
        "osm_type": "node",
        "name": "Tom Market"
      }
    },
    {
      "type": "Feature",
      "geometry": {
        "type": "Point",
        "coordinates": [
          18.263453,
          46.1933462
        ]
      },
      "properties": {
        "id": 4939179044,
        "osm_type": "node",
        "name": "Hangya Diszkont"
      }
    },
    {
      "type": "Feature",
      "geometry": {
        "type": "Point",
        "coordinates": [
          18.2939033,
          45.8569357
        ]
      },
      "properties": {
        "id": 4939179369,
        "osm_type": "node",
        "name": "Tom Market",
        "opening_hours": "Mo-Sa 05:00-21:00; Su 06:00-20:00"
      }
    },
    {
      "type": "Feature",
      "geometry": {
        "type": "Point",
        "coordinates": [
          18.1357342,
          45.9695004
        ]
      },
      "properties": {
        "id": 4939179591,
        "osm_type": "node",
        "name": "Mini Market",
        "opening_hours": "Tu-Fr 07:00-18:00; Sa 07:30-13:30"
      }
    },
    {
      "type": "Feature",
      "geometry": {
        "type": "Point",
        "coordinates": [
          18.3773611,
          46.2729566
        ]
      },
      "properties": {
        "id": 4939278572,
        "osm_type": "node",
        "name": "Csilla Abc"
      }
    },
    {
      "type": "Feature",
      "geometry": {
        "type": "Point",
        "coordinates": [
          18.2316688,
          46.0768026
        ]
      },
      "properties": {
        "id": 4939278601,
        "osm_type": "node",
        "name": "Levendula"
      }
    },
    {
      "type": "Feature",
      "geometry": {
        "type": "Point",
        "coordinates": [
          18.1571244,
          46.033782
        ]
      },
      "properties": {
        "id": 4939278691,
        "osm_type": "node",
        "name": "Tom Market"
      }
    },
    {
      "type": "Feature",
      "geometry": {
        "type": "Point",
        "coordinates": [
          18.3778131,
          46.2730845
        ]
      },
      "properties": {
        "id": 4939279277,
        "osm_type": "node",
        "name": "Tom Market 57"
      }
    },
    {
      "type": "Feature",
      "geometry": {
        "type": "Point",
        "coordinates": [
          18.2673474,
          46.0927346
        ]
      },
      "properties": {
        "id": 4940555175,
        "osm_type": "node",
        "name": "2 Sz Mecsek Coop"
      }
    },
    {
      "type": "Feature",
      "geometry": {
        "type": "Point",
        "coordinates": [
          18.3052358,
          45.9822664
        ]
      },
      "properties": {
        "id": 4940557489,
        "osm_type": "node",
        "name": "166 Coop Abc"
      }
    },
    {
      "type": "Feature",
      "geometry": {
        "type": "Point",
        "coordinates": [
          18.5720695,
          46.0826986
        ]
      },
      "properties": {
        "id": 4940560124,
        "osm_type": "node",
        "name": "Mezei Vegyes- és Takarmánybolt"
      }
    },
    {
      "type": "Feature",
      "geometry": {
        "type": "Point",
        "coordinates": [
          18.2489636,
          45.9857154
        ]
      },
      "properties": {
        "id": 4940563892,
        "osm_type": "node",
        "name": "Napsugár Abc"
      }
    },
    {
      "type": "Feature",
      "geometry": {
        "type": "Point",
        "coordinates": [
          18.4230145,
          46.158125
        ]
      },
      "properties": {
        "id": 5041787484,
        "osm_type": "node",
        "name": "Tom Market"
      }
    },
    {
      "type": "Feature",
      "geometry": {
        "type": "Point",
        "coordinates": [
          18.1987906,
          46.0651606
        ]
      },
      "properties": {
        "id": 5130418749,
        "osm_type": "node",
        "name": "Delicatesse"
      }
    },
    {
      "type": "Feature",
      "geometry": {
        "type": "Point",
        "coordinates": [
          17.8385469,
          46.1826445
        ]
      },
      "properties": {
        "id": 5229753121,
        "osm_type": "node"
      }
    },
    {
      "type": "Feature",
      "geometry": {
        "type": "Point",
        "coordinates": [
          18.1958987,
          46.0618205
        ]
      },
      "properties": {
        "id": 5302901310,
        "osm_type": "node",
        "name": "Mini Csemege"
      }
    },
    {
      "type": "Feature",
      "geometry": {
        "type": "Point",
        "coordinates": [
          17.7141715,
          46.1117869
        ]
      },
      "properties": {
        "id": 5639430153,
        "osm_type": "node"
      }
    },
    {
      "type": "Feature",
      "geometry": {
        "type": "Point",
        "coordinates": [
          18.4443873,
          45.9359415
        ]
      },
      "properties": {
        "id": 5993791206,
        "osm_type": "node"
      }
    },
    {
      "type": "Feature",
      "geometry": {
        "type": "Point",
        "coordinates": [
          18.6399281,
          46.1295799
        ]
      },
      "properties": {
        "id": 6037626884,
        "osm_type": "node",
        "name": "Ez+Az vegyeskereskedés"
      }
    },
    {
      "type": "Feature",
      "geometry": {
        "type": "Point",
        "coordinates": [
          18.2193835,
          46.0749594
        ]
      },
      "properties": {
        "id": 6321657541,
        "osm_type": "node",
        "name": "Hungária NonStop gyorsnyomda és vegyesbolt",
        "opening_hours": "24/7"
      }
    },
    {
      "type": "Feature",
      "geometry": {
        "type": "Point",
        "coordinates": [
          18.21486,
          46.0766599
        ]
      },
      "properties": {
        "id": 6478220972,
        "osm_type": "node",
        "name": "DUBAI MARKET"
      }
    },
    {
      "type": "Feature",
      "geometry": {
        "type": "Point",
        "coordinates": [
          18.2026452,
          46.0716397
        ]
      },
      "properties": {
        "id": 6483909333,
        "osm_type": "node",
        "name": "Tom Market",
        "opening_hours": "Mo-Sa 06:00-22:00; Su 08:00-22:00"
      }
    },
    {
      "type": "Feature",
      "geometry": {
        "type": "Point",
        "coordinates": [
          18.2152918,
          46.0750402
        ]
      },
      "properties": {
        "id": 6502487343,
        "osm_type": "node",
        "name": "Diszkont"
      }
    },
    {
      "type": "Feature",
      "geometry": {
        "type": "Point",
        "coordinates": [
          18.2201748,
          46.0731236
        ]
      },
      "properties": {
        "id": 6506272976,
        "osm_type": "node",
        "name": "BÜFÉ"
      }
    },
    {
      "type": "Feature",
      "geometry": {
        "type": "Point",
        "coordinates": [
          18.2240747,
          46.0724835
        ]
      },
      "properties": {
        "id": 6509063558,
        "osm_type": "node",
        "name": "Iparos ABC"
      }
    },
    {
      "type": "Feature",
      "geometry": {
        "type": "Point",
        "coordinates": [
          18.2177318,
          46.0406512
        ]
      },
      "properties": {
        "id": 6511716270,
        "osm_type": "node",
        "name": "Euroshop Center",
        "opening_hours": "Mo-Su 05:00-19:00"
      }
    },
    {
      "type": "Feature",
      "geometry": {
        "type": "Point",
        "coordinates": [
          18.2414474,
          46.0715522
        ]
      },
      "properties": {
        "id": 6511918852,
        "osm_type": "node",
        "name": "Élelmiszertudományi Kft."
      }
    },
    {
      "type": "Feature",
      "geometry": {
        "type": "Point",
        "coordinates": [
          18.2372966,
          46.0777325
        ]
      },
      "properties": {
        "id": 6527766849,
        "osm_type": "node",
        "name": "Enger"
      }
    },
    {
      "type": "Feature",
      "geometry": {
        "type": "Point",
        "coordinates": [
          18.2134706,
          46.049974
        ]
      },
      "properties": {
        "id": 6828738700,
        "osm_type": "node",
        "name": "Megyeri élelmiszer",
        "opening_hours": "Mo-Su 06:00-21:00"
      }
    },
    {
      "type": "Feature",
      "geometry": {
        "type": "Point",
        "coordinates": [
          18.389844,
          45.8968449
        ]
      },
      "properties": {
        "id": 6986764708,
        "osm_type": "node",
        "name": "Abc"
      }
    },
    {
      "type": "Feature",
      "geometry": {
        "type": "Point",
        "coordinates": [
          17.7894166,
          46.0475822
        ]
      },
      "properties": {
        "id": 7149056010,
        "osm_type": "node",
        "name": "Tom Market"
      }
    },
    {
      "type": "Feature",
      "geometry": {
        "type": "Point",
        "coordinates": [
          18.2014251,
          46.0637521
        ]
      },
      "properties": {
        "id": 7577421940,
        "osm_type": "node",
        "name": "Csillag élelmiszerbolt",
        "opening_hours": "Mo-Fr 06:00-14:00; Sa 06:00-13:00"
      }
    },
    {
      "type": "Feature",
      "geometry": {
        "type": "Point",
        "coordinates": [
          18.2347035,
          46.07436
        ]
      },
      "properties": {
        "id": 7914010722,
        "osm_type": "node",
        "name": "Tom Market",
        "opening_hours": "24/7"
      }
    },
    {
      "type": "Feature",
      "geometry": {
        "type": "Point",
        "coordinates": [
          18.2285586,
          46.0731762
        ]
      },
      "properties": {
        "id": 8149906647,
        "osm_type": "node",
        "name": "Niki méri - Zöldülők boltja",
        "opening_hours": "Mo-Fr 09:00-17:00"
      }
    },
    {
      "type": "Feature",
      "geometry": {
        "type": "Point",
        "coordinates": [
          18.6692057,
          45.9909107
        ]
      },
      "properties": {
        "id": 8561316332,
        "osm_type": "node",
        "name": "Spar",
        "brand": "Spar",
        "opening_hours": "Mo-Fr 06:00-19:00; Sa 06:30-17:00; Su 07:00-13:00"
      }
    },
    {
      "type": "Feature",
      "geometry": {
        "type": "Point",
        "coordinates": [
          18.0729571,
          45.9913522
        ]
      },
      "properties": {
        "id": 8660234746,
        "osm_type": "node",
        "name": "Vegyesbolt"
      }
    },
    {
      "type": "Feature",
      "geometry": {
        "type": "Point",
        "coordinates": [
          18.0375015,
          45.8544089
        ]
      },
      "properties": {
        "id": 8662138447,
        "osm_type": "node",
        "name": "Vegyesüzlet"
      }
    },
    {
      "type": "Feature",
      "geometry": {
        "type": "Point",
        "coordinates": [
          17.781301,
          46.0452522
        ]
      },
      "properties": {
        "id": 8702460005,
        "osm_type": "node",
        "name": "Tom Market"
      }
    },
    {
      "type": "Feature",
      "geometry": {
        "type": "Point",
        "coordinates": [
          18.4864665,
          46.2626838
        ]
      },
      "properties": {
        "id": 8872909678,
        "osm_type": "node",
        "name": "Vegyeskereskedés",
        "opening_hours": "Mo-Sa 06:00-20:00; Su 07:00-12:00"
      }
    },
    {
      "type": "Feature",
      "geometry": {
        "type": "Point",
        "coordinates": [
          18.4962747,
          46.251167
        ]
      },
      "properties": {
        "id": 8873830264,
        "osm_type": "node",
        "name": "Szivárvány ABC",
        "opening_hours": "Mo-Fr 04:30-10:00, 11:45-15:15; Sa 04:30-10:00; Su 05:30-10:00"
      }
    },
    {
      "type": "Feature",
      "geometry": {
        "type": "Point",
        "coordinates": [
          17.802996,
          46.0476693
        ]
      },
      "properties": {
        "id": 9061294924,
        "osm_type": "node",
        "name": "Tom Market"
      }
    },
    {
      "type": "Feature",
      "geometry": {
        "type": "Point",
        "coordinates": [
          18.7895514,
          45.9831532
        ]
      },
      "properties": {
        "id": 9062385093,
        "osm_type": "node"
      }
    },
    {
      "type": "Feature",
      "geometry": {
        "type": "Point",
        "coordinates": [
          18.2301721,
          46.0757688
        ]
      },
      "properties": {
        "id": 9404351008,
        "osm_type": "node",
        "name": "Nyuszi Delikát",
        "opening_hours": "Mo-Sa 06:00-22:00"
      }
    },
    {
      "type": "Feature",
      "geometry": {
        "type": "Point",
        "coordinates": [
          18.2867534,
          45.8595101
        ]
      },
      "properties": {
        "id": 9439718453,
        "osm_type": "node",
        "name": "City Market"
      }
    },
    {
      "type": "Feature",
      "geometry": {
        "type": "Point",
        "coordinates": [
          18.5421592,
          45.9163805
        ]
      },
      "properties": {
        "id": 9723697324,
        "osm_type": "node",
        "name": "Urbanik ABC"
      }
    },
    {
      "type": "Feature",
      "geometry": {
        "type": "Point",
        "coordinates": [
          17.9956003,
          46.1146721
        ]
      },
      "properties": {
        "id": 9817301624,
        "osm_type": "node",
        "name": "Kerek Perec Csemege",
        "opening_hours": "Mo-Su 06:00-18:00"
      }
    },
    {
      "type": "Feature",
      "geometry": {
        "type": "Point",
        "coordinates": [
          18.2781658,
          45.8571756
        ]
      },
      "properties": {
        "id": 9839534684,
        "osm_type": "node",
        "name": "Vecsési savanyúság"
      }
    },
    {
      "type": "Feature",
      "geometry": {
        "type": "Point",
        "coordinates": [
          18.5779747,
          45.9439238
        ]
      },
      "properties": {
        "id": 9922088692,
        "osm_type": "node",
        "name": "Enger",
        "opening_hours": "Mo-Fr 05:30-19:00; Sa 06:00-14:00; Su 08:00-12:00; PH off"
      }
    },
    {
      "type": "Feature",
      "geometry": {
        "type": "Point",
        "coordinates": [
          18.2935076,
          45.8385711
        ]
      },
      "properties": {
        "id": 9959458272,
        "osm_type": "node",
        "name": "Pici-Paci büfé"
      }
    },
    {
      "type": "Feature",
      "geometry": {
        "type": "Point",
        "coordinates": [
          18.3968438,
          46.2668508
        ]
      },
      "properties": {
        "id": 9983822039,
        "osm_type": "node",
        "opening_hours": "Mo-Fr 05:30-11:00, 13:00-15:00; Sa 05:00-11:00; Su 07:00-10:00; PH off"
      }
    },
    {
      "type": "Feature",
      "geometry": {
        "type": "Point",
        "coordinates": [
          18.401193,
          46.2654796
        ]
      },
      "properties": {
        "id": 9983822050,
        "osm_type": "node",
        "opening_hours": "Mo-Fr 06:00-11:00, 14:00-16:00; Sa 06:00-11:00; PH off"
      }
    },
    {
      "type": "Feature",
      "geometry": {
        "type": "Point",
        "coordinates": [
          17.8440395,
          46.1108543
        ]
      },
      "properties": {
        "id": 10577873215,
        "osm_type": "node",
        "name": "Tom Market"
      }
    },
    {
      "type": "Feature",
      "geometry": {
        "type": "Point",
        "coordinates": [
          17.8491126,
          46.1126728
        ]
      },
      "properties": {
        "id": 10577873217,
        "osm_type": "node",
        "name": "Tom Market"
      }
    },
    {
      "type": "Feature",
      "geometry": {
        "type": "Point",
        "coordinates": [
          18.4764376,
          46.0105373
        ]
      },
      "properties": {
        "id": 10723097000,
        "osm_type": "node"
      }
    },
    {
      "type": "Feature",
      "geometry": {
        "type": "Point",
        "coordinates": [
          18.316883,
          46.3311896
        ]
      },
      "properties": {
        "id": 10919433580,
        "osm_type": "node",
        "name": "Coop"
      }
    },
    {
      "type": "Feature",
      "geometry": {
        "type": "Point",
        "coordinates": [
          18.2144228,
          46.07098
        ]
      },
      "properties": {
        "id": 11060477676,
        "osm_type": "node",
        "name": "Via Markt"
      }
    },
    {
      "type": "Feature",
      "geometry": {
        "type": "Point",
        "coordinates": [
          18.2310431,
          46.0435502
        ]
      },
      "properties": {
        "id": 11089165534,
        "osm_type": "node",
        "name": "Kiskuckó Csemegebolt"
      }
    },
    {
      "type": "Feature",
      "geometry": {
        "type": "Point",
        "coordinates": [
          18.3056334,
          45.79085
        ]
      },
      "properties": {
        "id": 11096438922,
        "osm_type": "node",
        "name": "Élelmiszer"
      }
    },
    {
      "type": "Feature",
      "geometry": {
        "type": "Point",
        "coordinates": [
          17.9693674,
          45.9975618
        ]
      },
      "properties": {
        "id": 11164960025,
        "osm_type": "node",
        "name": "Tom Market"
      }
    },
    {
      "type": "Feature",
      "geometry": {
        "type": "Point",
        "coordinates": [
          17.9672494,
          45.9971739
        ]
      },
      "properties": {
        "id": 11164960064,
        "osm_type": "node",
        "name": "Coop mini"
      }
    },
    {
      "type": "Feature",
      "geometry": {
        "type": "Point",
        "coordinates": [
          18.1060234,
          46.2537632
        ]
      },
      "properties": {
        "id": 11329553442,
        "osm_type": "node",
        "name": "Tom Market Sásd"
      }
    },
    {
      "type": "Feature",
      "geometry": {
        "type": "Point",
        "coordinates": [
          18.106391,
          46.2543394
        ]
      },
      "properties": {
        "id": 11329553449,
        "osm_type": "node"
      }
    },
    {
      "type": "Feature",
      "geometry": {
        "type": "Point",
        "coordinates": [
          17.786,
          46.054
        ]
      },
      "properties": {
        "id": 11350894403,
        "osm_type": "node",
        "name": "Coop ABC"
      }
    },
    {
      "type": "Feature",
      "geometry": {
        "type": "Point",
        "coordinates": [
          18.4563,
          45.874
        ]
      },
      "properties": {
        "id": 11350894410,
        "osm_type": "node",
        "name": "Coop ABC"
      }
    },
    {
      "type": "Feature",
      "geometry": {
        "type": "Point",
        "coordinates": [
          18.2885,
          46.0397
        ]
      },
      "properties": {
        "id": 11350894411,
        "osm_type": "node",
        "name": "Coop ABC"
      }
    },
    {
      "type": "Feature",
      "geometry": {
        "type": "Point",
        "coordinates": [
          17.9914,
          46.1051
        ]
      },
      "properties": {
        "id": 11350894423,
        "osm_type": "node",
        "name": "Erika ABC"
      }
    },
    {
      "type": "Feature",
      "geometry": {
        "type": "Point",
        "coordinates": [
          18.269,
          46.1073
        ]
      },
      "properties": {
        "id": 11350894442,
        "osm_type": "node",
        "name": "Élelmiszerbolt"
      }
    },
    {
      "type": "Feature",
      "geometry": {
        "type": "Point",
        "coordinates": [
          18.2177,
          46.0764
        ]
      },
      "properties": {
        "id": 11350894450,
        "osm_type": "node",
        "name": "Tom Market"
      }
    },
    {
      "type": "Feature",
      "geometry": {
        "type": "Point",
        "coordinates": [
          18.2615076,
          46.1914642
        ]
      },
      "properties": {
        "id": 11810394982,
        "osm_type": "node",
        "name": "Zizi Csemege",
        "brand": "Reál"
      }
    },
    {
      "type": "Feature",
      "geometry": {
        "type": "Point",
        "coordinates": [
          18.2355965,
          46.0880773
        ]
      },
      "properties": {
        "id": 12196730761,
        "osm_type": "node",
        "name": "Tettye Élelmiszer",
        "opening_hours": "06:00-20:30"
      }
    },
    {
      "type": "Feature",
      "geometry": {
        "type": "Point",
        "coordinates": [
          18.2653291,
          46.1893101
        ]
      },
      "properties": {
        "id": 12604218919,
        "osm_type": "node",
        "name": "Élelmiszer és Vegyeskereskedés",
        "opening_hours": "Mo-Fr 04:30-19:00; Sa 07:00-16:00"
      }
    },
    {
      "type": "Feature",
      "geometry": {
        "type": "Point",
        "coordinates": [
          18.2568459,
          46.1861239
        ]
      },
      "properties": {
        "id": 12604289365,
        "osm_type": "node",
        "name": "Nívó Csemege",
        "opening_hours": "Mo-Sa 05:00-21:00; Sa 06:00-17:00"
      }
    },
    {
      "type": "Feature",
      "geometry": {
        "type": "Point",
        "coordinates": [
          18.2649381,
          46.1902973
        ]
      },
      "properties": {
        "id": 12607172540,
        "osm_type": "node",
        "name": "Komló Market",
        "opening_hours": "Mo-Fr 05:00-20:00; Sa-Su 06:00-20:00"
      }
    },
    {
      "type": "Feature",
      "geometry": {
        "type": "Point",
        "coordinates": [
          18.2284024,
          46.0777416
        ]
      },
      "properties": {
        "id": 13163242518,
        "osm_type": "node",
        "name": "Dom market",
        "opening_hours": "Mo-Fr 06:00-22:00; Sa,Su 08:00-22:00"
      }
    },
    {
      "type": "Feature",
      "geometry": {
        "type": "Point",
        "coordinates": [
          18.2326175,
          46.044764
        ]
      },
      "properties": {
        "id": 13227927179,
        "osm_type": "node",
        "name": "Spar Express",
        "brand": "Spar",
        "opening_hours": "24/7"
      }
    },
    {
      "type": "Feature",
      "geometry": {
        "type": "Point",
        "coordinates": [
          18.2211097,
          46.0389984
        ]
      },
      "properties": {
        "id": 13423549442,
        "osm_type": "node",
        "name": "B-Bolt"
      }
    },
    {
      "type": "Feature",
      "geometry": {
        "type": "Point",
        "coordinates": [
          18.1418571,
          46.2482288
        ]
      },
      "properties": {
        "id": 13725266112,
        "osm_type": "node",
        "name": "Varga Vegyesbolt"
      }
    },
    {
      "type": "Feature",
      "geometry": {
        "type": "Point",
        "coordinates": [
          18.259969,
          46.1940121
        ]
      },
      "properties": {
        "id": 234158617,
        "osm_type": "way"
      }
    },
    {
      "type": "Feature",
      "geometry": {
        "type": "Point",
        "coordinates": [
          18.2651003,
          46.103049
        ]
      },
      "properties": {
        "id": 278963606,
        "osm_type": "way",
        "name": "Reál Pont"
      }
    },
    {
      "type": "Feature",
      "geometry": {
        "type": "Point",
        "coordinates": [
          18.3395798,
          46.1198994
        ]
      },
      "properties": {
        "id": 285726267,
        "osm_type": "way",
        "name": "Coop ABC 172"
      }
    },
    {
      "type": "Feature",
      "geometry": {
        "type": "Point",
        "coordinates": [
          18.1571314,
          46.0337862
        ]
      },
      "properties": {
        "id": 330099668,
        "osm_type": "way",
        "name": "Tom Market"
      }
    },
    {
      "type": "Feature",
      "geometry": {
        "type": "Point",
        "coordinates": [
          18.2169774,
          46.0473326
        ]
      },
      "properties": {
        "id": 337138590,
        "osm_type": "way",
        "name": "Pinky Market"
      }
    },
    {
      "type": "Feature",
      "geometry": {
        "type": "Point",
        "coordinates": [
          18.2495927,
          45.9512536
        ]
      },
      "properties": {
        "id": 366919651,
        "osm_type": "way"
      }
    },
    {
      "type": "Feature",
      "geometry": {
        "type": "Point",
        "coordinates": [
          17.8075032,
          46.0463368
        ]
      },
      "properties": {
        "id": 370009304,
        "osm_type": "way",
        "name": "Radován téri ABC Coop"
      }
    },
    {
      "type": "Feature",
      "geometry": {
        "type": "Point",
        "coordinates": [
          18.2236475,
          46.0399367
        ]
      },
      "properties": {
        "id": 384944804,
        "osm_type": "way"
      }
    },
    {
      "type": "Feature",
      "geometry": {
        "type": "Point",
        "coordinates": [
          18.223562,
          46.0397526
        ]
      },
      "properties": {
        "id": 384944816,
        "osm_type": "way"
      }
    },
    {
      "type": "Feature",
      "geometry": {
        "type": "Point",
        "coordinates": [
          18.2530001,
          45.9859051
        ]
      },
      "properties": {
        "id": 457721604,
        "osm_type": "way",
        "name": "Nyárfás Delikátesz",
        "opening_hours": "Mo-Fr 05:30-20:00; Sa-Su 06:00-20:00"
      }
    },
    {
      "type": "Feature",
      "geometry": {
        "type": "Point",
        "coordinates": [
          18.2858129,
          46.3322014
        ]
      },
      "properties": {
        "id": 486989047,
        "osm_type": "way",
        "name": "Vegyesbolt",
        "opening_hours": "Mo-Fr 04:30-18:30; Sa 04:30-17:00; Su 06:30-11:00"
      }
    },
    {
      "type": "Feature",
      "geometry": {
        "type": "Point",
        "coordinates": [
          17.9849671,
          45.8605817
        ]
      },
      "properties": {
        "id": 489471203,
        "osm_type": "way",
        "brand": "Coop"
      }
    },
    {
      "type": "Feature",
      "geometry": {
        "type": "Point",
        "coordinates": [
          18.092991,
          45.9590557
        ]
      },
      "properties": {
        "id": 513304129,
        "osm_type": "way"
      }
    },
    {
      "type": "Feature",
      "geometry": {
        "type": "Point",
        "coordinates": [
          18.4192823,
          46.1581923
        ]
      },
      "properties": {
        "id": 513344116,
        "osm_type": "way",
        "name": "Coop ABC 161"
      }
    },
    {
      "type": "Feature",
      "geometry": {
        "type": "Point",
        "coordinates": [
          18.2553921,
          46.0422642
        ]
      },
      "properties": {
        "id": 604294553,
        "osm_type": "way"
      }
    },
    {
      "type": "Feature",
      "geometry": {
        "type": "Point",
        "coordinates": [
          18.3076252,
          46.2492637
        ]
      },
      "properties": {
        "id": 619211385,
        "osm_type": "way",
        "name": "Tom Market",
        "opening_hours": "Mo-Fr 04:30-16:30; Sa 04:30-12:30; PH off"
      }
    },
    {
      "type": "Feature",
      "geometry": {
        "type": "Point",
        "coordinates": [
          18.3115482,
          46.2525672
        ]
      },
      "properties": {
        "id": 619218265,
        "osm_type": "way",
        "name": "Hangya-bolt"
      }
    },
    {
      "type": "Feature",
      "geometry": {
        "type": "Point",
        "coordinates": [
          18.4326697,
          46.1708531
        ]
      },
      "properties": {
        "id": 659745903,
        "osm_type": "way",
        "name": "Roll-Land Boltja",
        "brand": "Reál"
      }
    },
    {
      "type": "Feature",
      "geometry": {
        "type": "Point",
        "coordinates": [
          17.9968151,
          46.1108471
        ]
      },
      "properties": {
        "id": 668752789,
        "osm_type": "way"
      }
    },
    {
      "type": "Feature",
      "geometry": {
        "type": "Point",
        "coordinates": [
          18.0620032,
          46.2239736
        ]
      },
      "properties": {
        "id": 705992221,
        "osm_type": "way",
        "name": "Kapos-Coop Mindszentgodisa"
      }
    },
    {
      "type": "Feature",
      "geometry": {
        "type": "Point",
        "coordinates": [
          18.1319871,
          46.3060734
        ]
      },
      "properties": {
        "id": 723367539,
        "osm_type": "way",
        "name": "Minimarket"
      }
    },
    {
      "type": "Feature",
      "geometry": {
        "type": "Point",
        "coordinates": [
          18.1314923,
          46.3055878
        ]
      },
      "properties": {
        "id": 723375713,
        "osm_type": "way"
      }
    },
    {
      "type": "Feature",
      "geometry": {
        "type": "Point",
        "coordinates": [
          18.2091729,
          46.2765647
        ]
      },
      "properties": {
        "id": 875839037,
        "osm_type": "way",
        "name": "Vegyesbolt",
        "opening_hours": "Mo-Fr 06:00-12:00; Sa 06:00-10:00"
      }
    },
    {
      "type": "Feature",
      "geometry": {
        "type": "Point",
        "coordinates": [
          18.2286529,
          46.3501458
        ]
      },
      "properties": {
        "id": 894244286,
        "osm_type": "way",
        "name": "CBA élelmiszer"
      }
    },
    {
      "type": "Feature",
      "geometry": {
        "type": "Point",
        "coordinates": [
          18.4578413,
          46.100262
        ]
      },
      "properties": {
        "id": 1079835691,
        "osm_type": "way"
      }
    },
    {
      "type": "Feature",
      "geometry": {
        "type": "Point",
        "coordinates": [
          18.3710668,
          46.0921704
        ]
      },
      "properties": {
        "id": 1138989713,
        "osm_type": "way"
      }
    },
    {
      "type": "Feature",
      "geometry": {
        "type": "Point",
        "coordinates": [
          18.3780561,
          46.2739657
        ]
      },
      "properties": {
        "id": 1153245047,
        "osm_type": "way"
      }
    },
    {
      "type": "Feature",
      "geometry": {
        "type": "Point",
        "coordinates": [
          18.6253885,
          46.0054853
        ]
      },
      "properties": {
        "id": 1415147726,
        "osm_type": "way",
        "name": "Coop Abc"
      }
    },
    {
      "type": "Feature",
      "geometry": {
        "type": "Point",
        "coordinates": [
          18.3693608,
          46.210211
        ]
      },
      "properties": {
        "id": 1416336181,
        "osm_type": "way",
        "name": "Terike Boltja (Nimród vegyesbolt)",
        "opening_hours": "Mo-Tu 10:00-18:00, We-Th off, Fr-Su 10:00-18:00"
      }
    },
    {
      "type": "Feature",
      "geometry": {
        "type": "Point",
        "coordinates": [
          18.286446,
          46.0424462
        ]
      },
      "properties": {
        "id": 1442255398,
        "osm_type": "way"
      }
    }
  ]
}