{
  "type": "FeatureCollection",
  "features": [
    {
      "type": "Feature",
      "geometry": {
        "type": "Point",
        "coordinates": [
          16.3065439,
          46.3210281
        ]
      },
      "properties": {
        "id": 482698426,
        "osm_type": "node",
        "name": "Tifon",
        "brand": "MOL",
        "opening_hours": "24/7"
      }
    },
    {
      "type": "Feature",
      "geometry": {
        "type": "Point",
        "coordinates": [
          16.3630584,
          46.264198
        ]
      },
      "properties": {
        "id": 1814879079,
        "osm_type": "node",
        "name": "Kero-Benz"
      }
    },
    {
      "type": "Feature",
      "geometry": {
        "type": "Point",
        "coordinates": [
          16.1362679,
          46.2297251
        ]
      },
      "properties": {
        "id": 2139867884,
        "osm_type": "node",
        "name": "Adria Oil"
      }
    },
    {
      "type": "Feature",
      "geometry": {
        "type": "Point",
        "coordinates": [
          16.2810514,
          46.1029629
        ]
      },
      "properties": {
        "id": 2146378222,
        "osm_type": "node",
        "name": "Auto Ivec",
        "brand": "Ivec",
        "opening_hours": "24/7"
      }
    },
    {
      "type": "Feature",
      "geometry": {
        "type": "Point",
        "coordinates": [
          16.1450041,
          46.233197
        ]
      },
      "properties": {
        "id": 2621904541,
        "osm_type": "node",
        "name": "KTC"
      }
    },
    {
      "type": "Feature",
      "geometry": {
        "type": "Point",
        "coordinates": [
          16.3568034,
          46.2823911
        ]
      },
      "properties": {
        "id": 2701101518,
        "osm_type": "node",
        "name": "Šilec",
        "opening_hours": "24/7"
      }
    },
    {
      "type": "Feature",
      "geometry": {
        "type": "Point",
        "coordinates": [
          16.1381266,
          46.2298907
        ]
      },
      "properties": {
        "id": 5010063392,
        "osm_type": "node",
        "name": "INA Ivanec",
        "brand": "INA",
        "opening_hours": "Mo-Su 06:00-22:00"
      }
    },
    {
      "type": "Feature",
      "geometry": {
        "type": "Point",
        "coordinates": [
          16.3374515,
          46.2984659
        ]
      },
      "properties": {
        "id": 238936903,
        "osm_type": "way",
        "name": "INA Varaždin-Krležina",
        "brand": "INA",
        "opening_hours": "24/7"
      }
    },
    {
      "type": "Feature",
      "geometry": {
        "type": "Point",
        "coordinates": [
          16.3383559,
          46.316213
        ]
      },
      "properties": {
        "id": 277798351,
        "osm_type": "way",
        "name": "Petrol",
        "brand": "Petrol",
        "opening_hours": "24/7"
      }
    },
    {
      "type": "Feature",
      "geometry": {
        "type": "Point",
        "coordinates": [
          16.3122587,
          46.2960008
        ]
      },
      "properties": {
        "id": 297857564,
        "osm_type": "way",
        "name": "Petrol",
        "brand": "Petrol",
        "opening_hours": "Mo-Su 05:00-23:00"
      }
    },
    {
      "type": "Feature",
      "geometry": {
        "type": "Point",
        "coordinates": [
          16.2509168,
          46.3383531
        ]
      },
      "properties": {
        "id": 316547185,
        "osm_type": "way",
        "name": "OMV",
        "brand": "Crodux",
        "opening_hours": "Mo-Sa 06:00-22:00, Su 07:00-22:00"
      }
    },
    {
      "type": "Feature",
      "geometry": {
        "type": "Point",
        "coordinates": [
          16.3519229,
          46.2928985
        ]
      },
      "properties": {
        "id": 316975852,
        "osm_type": "way",
        "name": "Petrol",
        "brand": "Petrol",
        "opening_hours": "24/7"
      }
    },
    {
      "type": "Feature",
      "geometry": {
        "type": "Point",
        "coordinates": [
          16.369531,
          46.3059686
        ]
      },
      "properties": {
        "id": 316976584,
        "osm_type": "way",
        "name": "Crodux",
        "brand": "Crodux",
        "opening_hours": "24/7"
      }
    },
    {
      "type": "Feature",
      "geometry": {
        "type": "Point",
        "coordinates": [
          16.3573537,
          46.307951
        ]
      },
      "properties": {
        "id": 321306948,
        "osm_type": "way",
        "name": "Crodux",
        "brand": "Crodux",
        "opening_hours": "24/7"
      }
    },
    {
      "type": "Feature",
      "geometry": {
        "type": "Point",
        "coordinates": [
          16.3756203,
          46.1686347
        ]
      },
      "properties": {
        "id": 333892455,
        "osm_type": "way",
        "name": "INA Novi Marof-istok",
        "brand": "INA",
        "opening_hours": "24/7"
      }
    },
    {
      "type": "Feature",
      "geometry": {
        "type": "Point",
        "coordinates": [
          16.3742964,
          46.1702139
        ]
      },
      "properties": {
        "id": 333892456,
        "osm_type": "way",
        "name": "INA Novi Marof-zapad",
        "brand": "INA",
        "opening_hours": "24/7"
      }
    },
    {
      "type": "Feature",
      "geometry": {
        "type": "Point",
        "coordinates": [
          16.0310605,
          46.2068592
        ]
      },
      "properties": {
        "id": 339345211,
        "osm_type": "way",
        "name": "INA Lepoglava",
        "brand": "INA",
        "opening_hours": "Mo-Su 06:00-22:00"
      }
    },
    {
      "type": "Feature",
      "geometry": {
        "type": "Point",
        "coordinates": [
          16.333614,
          46.1541515
        ]
      },
      "properties": {
        "id": 339830299,
        "osm_type": "way",
        "name": "INA Novi Marof",
        "brand": "INA",
        "opening_hours": "Mo-Su 06:00-22:00"
      }
    },
    {
      "type": "Feature",
      "geometry": {
        "type": "Point",
        "coordinates": [
          16.3565323,
          46.2479602
        ]
      },
      "properties": {
        "id": 342345234,
        "osm_type": "way",
        "name": "INA Varaždin Breg",
        "brand": "INA",
        "opening_hours": "Mo-Sa 06:00-20:00; Su 06:00-13:00"
      }
    },
    {
      "type": "Feature",
      "geometry": {
        "type": "Point",
        "coordinates": [
          16.3536912,
          46.3160746
        ]
      },
      "properties": {
        "id": 342345237,
        "osm_type": "way",
        "name": "INA Varaždin-Međimurska",
        "brand": "INA",
        "opening_hours": "Mo-Su 06:00-22:00"
      }
    },
    {
      "type": "Feature",
      "geometry": {
        "type": "Point",
        "coordinates": [
          16.4291177,
          46.211392
        ]
      },
      "properties": {
        "id": 342345238,
        "osm_type": "way",
        "name": "INA Varaždinske toplice",
        "brand": "INA",
        "opening_hours": "Mo-Sa 06:00-20:00; Su 06:00-13:00"
      }
    },
    {
      "type": "Feature",
      "geometry": {
        "type": "Point",
        "coordinates": [
          16.2532378,
          46.2869842
        ]
      },
      "properties": {
        "id": 342357500,
        "osm_type": "way",
        "name": "INA Vidovec",
        "brand": "INA",
        "opening_hours": "Mo-Sa 06:00-22:00; Su 06:00-14:00"
      }
    },
    {
      "type": "Feature",
      "geometry": {
        "type": "Point",
        "coordinates": [
          16.1696266,
          46.3569148
        ]
      },
      "properties": {
        "id": 342480529,
        "osm_type": "way",
        "name": "INA Vratno",
        "brand": "INA",
        "opening_hours": "24/7"
      }
    },
    {
      "type": "Feature",
      "geometry": {
        "type": "Point",
        "coordinates": [
          16.3028124,
          46.3221491
        ]
      },
      "properties": {
        "id": 392050403,
        "osm_type": "way",
        "name": "Crodux",
        "brand": "Crodux",
        "opening_hours": "24/7"
      }
    },
    {
      "type": "Feature",
      "geometry": {
        "type": "Point",
        "coordinates": [
          16.1331356,
          46.229516
        ]
      },
      "properties": {
        "id": 512274484,
        "osm_type": "way",
        "name": "Petrol",
        "brand": "Petrol"
      }
    },
    {
      "type": "Feature",
      "geometry": {
        "type": "Point",
        "coordinates": [
          16.6239802,
          46.2445498
        ]
      },
      "properties": {
        "id": 598639510,
        "osm_type": "way",
        "name": "INA",
        "brand": "INA",
        "opening_hours": "06:00-22:00"
      }
    },
    {
      "type": "Feature",
      "geometry": {
        "type": "Point",
        "coordinates": [
          16.3708269,
          46.2651408
        ]
      },
      "properties": {
        "id": 759703074,
        "osm_type": "way",
        "name": "Shell",
        "brand": "Shell",
        "opening_hours": "Mo-Su 05:00-24:00"
      }
    },
    {
      "type": "Feature",
      "geometry": {
        "type": "Point",
        "coordinates": [
          16.3122627,
          46.2959766
        ]
      },
      "properties": {
        "id": 980076855,
        "osm_type": "way",
        "name": "Petrol",
        "brand": "Petrol",
        "opening_hours": "Mo-Su 05:00-23:00"
      }
    },
    {
      "type": "Feature",
      "geometry": {
        "type": "Point",
        "coordinates": [
          16.3414338,
          46.1802193
        ]
      },
      "properties": {
        "id": 1086221288,
        "osm_type": "way",
        "name": "Auto Ivec"
      }
    },
    {
      "type": "Feature",
      "geometry": {
        "type": "Point",
        "coordinates": [
          16.627935,
          46.2419681
        ]
      },
      "properties": {
        "id": 1121852603,
        "osm_type": "way",
        "name": "Adria Oil",
        "opening_hours": "Mo-Su 06:00-22:00"
      }
    },
    {
      "type": "Feature",
      "geometry": {
        "type": "Point",
        "coordinates": [
          16.606339,
          46.2588423
        ]
      },
      "properties": {
        "id": 1121992722,
        "osm_type": "way",
        "name": "Benzinska pumpa Šilec"
      }
    },
    {
      "type": "Feature",
      "geometry": {
        "type": "Point",
        "coordinates": [
          16.4787578,
          46.2606283
        ]
      },
      "properties": {
        "id": 1193750851,
        "osm_type": "way",
        "name": "KTC",
        "brand": "KTC",
        "opening_hours": "06:00-22:00"
      }
    },
    {
      "type": "Feature",
      "geometry": {
        "type": "Point",
        "coordinates": [
          16.4333665,
          46.2973071
        ]
      },
      "properties": {
        "id": 1460228611,
        "osm_type": "way",
        "name": "Petrol",
        "brand": "Petrol"
      }
    }
  ]
}