{
  "type": "FeatureCollection",
  "features": [
    {
      "type": "Feature",
      "geometry": {
        "type": "Point",
        "coordinates": [
          16.606007,
          46.2806524
        ]
      },
      "properties": {
        "id": 871717579,
        "osm_type": "node",
        "name": "METSS",
        "opening_hours": "Mo-Sa 07:00-19:00; Su, PH 07:00-11:00"
      }
    },
    {
      "type": "Feature",
      "geometry": {
        "type": "Point",
        "coordinates": [
          16.3278207,
          46.2981074
        ]
      },
      "properties": {
        "id": 1054324382,
        "osm_type": "node",
        "name": "KITRO"
      }
    },
    {
      "type": "Feature",
      "geometry": {
        "type": "Point",
        "coordinates": [
          16.2397435,
          46.254667
        ]
      },
      "properties": {
        "id": 1119760833,
        "osm_type": "node",
        "name": "Trgovina Krk"
      }
    },
    {
      "type": "Feature",
      "geometry": {
        "type": "Point",
        "coordinates": [
          16.1100395,
          46.2981781
        ]
      },
      "properties": {
        "id": 1152045030,
        "osm_type": "node"
      }
    },
    {
      "type": "Feature",
      "geometry": {
        "type": "Point",
        "coordinates": [
          16.3344698,
          46.320846
        ]
      },
      "properties": {
        "id": 1558017820,
        "osm_type": "node",
        "name": "INTERLAND ribički dućan"
      }
    },
    {
      "type": "Feature",
      "geometry": {
        "type": "Point",
        "coordinates": [
          16.3173037,
          46.3115092
        ]
      },
      "properties": {
        "id": 1558018612,
        "osm_type": "node",
        "name": "KMS ribički dućan"
      }
    },
    {
      "type": "Feature",
      "geometry": {
        "type": "Point",
        "coordinates": [
          16.3073722,
          46.3197276
        ]
      },
      "properties": {
        "id": 2162623568,
        "osm_type": "node",
        "name": "Spar",
        "brand": "Spar",
        "opening_hours": "Mo-Sa 07:00-21:00; Su 08:00-14:00"
      }
    },
    {
      "type": "Feature",
      "geometry": {
        "type": "Point",
        "coordinates": [
          16.319894,
          46.2782366
        ]
      },
      "properties": {
        "id": 2701157370,
        "osm_type": "node",
        "name": "Konzum",
        "brand": "Konzum"
      }
    },
    {
      "type": "Feature",
      "geometry": {
        "type": "Point",
        "coordinates": [
          16.3466506,
          46.3060885
        ]
      },
      "properties": {
        "id": 2701194012,
        "osm_type": "node",
        "name": "NTL",
        "brand": "NTL",
        "opening_hours": "Mo-Sa 06:00-22:00; Su 07:00-20:00; PH 07:00-20:00"
      }
    },
    {
      "type": "Feature",
      "geometry": {
        "type": "Point",
        "coordinates": [
          16.3350422,
          46.3029139
        ]
      },
      "properties": {
        "id": 2701208483,
        "osm_type": "node",
        "name": "Branka"
      }
    },
    {
      "type": "Feature",
      "geometry": {
        "type": "Point",
        "coordinates": [
          16.3225722,
          46.3143388
        ]
      },
      "properties": {
        "id": 2701208497,
        "osm_type": "node"
      }
    },
    {
      "type": "Feature",
      "geometry": {
        "type": "Point",
        "coordinates": [
          16.3524271,
          46.2988264
        ]
      },
      "properties": {
        "id": 2971765309,
        "osm_type": "node",
        "name": "Narodne novine"
      }
    },
    {
      "type": "Feature",
      "geometry": {
        "type": "Point",
        "coordinates": [
          16.3720688,
          46.293892
        ]
      },
      "properties": {
        "id": 2971765323,
        "osm_type": "node",
        "name": "Konzum",
        "brand": "Konzum"
      }
    },
    {
      "type": "Feature",
      "geometry": {
        "type": "Point",
        "coordinates": [
          16.3285075,
          46.2983542
        ]
      },
      "properties": {
        "id": 2983118886,
        "osm_type": "node",
        "name": "Vindija - Trgovina"
      }
    },
    {
      "type": "Feature",
      "geometry": {
        "type": "Point",
        "coordinates": [
          16.6509675,
          46.2957297
        ]
      },
      "properties": {
        "id": 3205136087,
        "osm_type": "node",
        "name": "Dućan Štef",
        "opening_hours": "Mo-Sa 08:00-20:00;Su,PH off"
      }
    },
    {
      "type": "Feature",
      "geometry": {
        "type": "Point",
        "coordinates": [
          16.3506244,
          46.2973783
        ]
      },
      "properties": {
        "id": 3476214964,
        "osm_type": "node",
        "name": "Jamnica dd - PC Varaždin"
      }
    },
    {
      "type": "Feature",
      "geometry": {
        "type": "Point",
        "coordinates": [
          16.0421215,
          46.2085548
        ]
      },
      "properties": {
        "id": 4605401129,
        "osm_type": "node"
      }
    },
    {
      "type": "Feature",
      "geometry": {
        "type": "Point",
        "coordinates": [
          16.1267111,
          46.2259222
        ]
      },
      "properties": {
        "id": 4789038149,
        "osm_type": "node",
        "name": "Offertissima",
        "opening_hours": "Mo-Fr 07:00-20:00; Su 08:00-20:00"
      }
    },
    {
      "type": "Feature",
      "geometry": {
        "type": "Point",
        "coordinates": [
          16.1290633,
          46.2266898
        ]
      },
      "properties": {
        "id": 4789038176,
        "osm_type": "node",
        "name": "Marica"
      }
    },
    {
      "type": "Feature",
      "geometry": {
        "type": "Point",
        "coordinates": [
          16.1251209,
          46.2241756
        ]
      },
      "properties": {
        "id": 4789038177,
        "osm_type": "node",
        "name": "Tisak",
        "brand": "Tisak"
      }
    },
    {
      "type": "Feature",
      "geometry": {
        "type": "Point",
        "coordinates": [
          16.1189158,
          46.2243948
        ]
      },
      "properties": {
        "id": 4795641043,
        "osm_type": "node",
        "name": "Marica"
      }
    },
    {
      "type": "Feature",
      "geometry": {
        "type": "Point",
        "coordinates": [
          16.1209918,
          46.223996
        ]
      },
      "properties": {
        "id": 4795641044,
        "osm_type": "node",
        "name": "Fenix"
      }
    },
    {
      "type": "Feature",
      "geometry": {
        "type": "Point",
        "coordinates": [
          16.1241718,
          46.2246177
        ]
      },
      "properties": {
        "id": 4799164883,
        "osm_type": "node",
        "name": "iNovine"
      }
    },
    {
      "type": "Feature",
      "geometry": {
        "type": "Point",
        "coordinates": [
          16.1241324,
          46.2246169
        ]
      },
      "properties": {
        "id": 4799164884,
        "osm_type": "node",
        "name": "Tisak"
      }
    },
    {
      "type": "Feature",
      "geometry": {
        "type": "Point",
        "coordinates": [
          16.1239647,
          46.2250614
        ]
      },
      "properties": {
        "id": 4799164892,
        "osm_type": "node",
        "name": "Magro"
      }
    },
    {
      "type": "Feature",
      "geometry": {
        "type": "Point",
        "coordinates": [
          16.339067,
          46.3089132
        ]
      },
      "properties": {
        "id": 4987777037,
        "osm_type": "node",
        "name": "Konzum",
        "brand": "Konzum",
        "opening_hours": "Mo-Sa 07:00-20:00; Su off"
      }
    },
    {
      "type": "Feature",
      "geometry": {
        "type": "Point",
        "coordinates": [
          15.9837686,
          46.2300433
        ]
      },
      "properties": {
        "id": 5034748171,
        "osm_type": "node",
        "name": "Plus market",
        "opening_hours": "Mo-Sa 06:30-20:00; Su 07:00-12:00"
      }
    },
    {
      "type": "Feature",
      "geometry": {
        "type": "Point",
        "coordinates": [
          15.9833485,
          46.2299657
        ]
      },
      "properties": {
        "id": 5034749624,
        "osm_type": "node",
        "name": "Ultra",
        "opening_hours": "Mo-Fr 06:30-19:00; Sa 06:30-15:00; Su 06:30-11:00"
      }
    },
    {
      "type": "Feature",
      "geometry": {
        "type": "Point",
        "coordinates": [
          15.9831413,
          46.2287154
        ]
      },
      "properties": {
        "id": 5034751659,
        "osm_type": "node",
        "name": "Bednja",
        "opening_hours": "Mo-Sa 06:00-20:00; Su 06:00-12:00"
      }
    },
    {
      "type": "Feature",
      "geometry": {
        "type": "Point",
        "coordinates": [
          15.9588191,
          46.2495891
        ]
      },
      "properties": {
        "id": 5042036109,
        "osm_type": "node"
      }
    },
    {
      "type": "Feature",
      "geometry": {
        "type": "Point",
        "coordinates": [
          16.4277789,
          46.2097467
        ]
      },
      "properties": {
        "id": 5048899122,
        "osm_type": "node",
        "name": "Kitro"
      }
    },
    {
      "type": "Feature",
      "geometry": {
        "type": "Point",
        "coordinates": [
          16.4195346,
          46.2086813
        ]
      },
      "properties": {
        "id": 5048899322,
        "osm_type": "node",
        "name": "Trgonom"
      }
    },
    {
      "type": "Feature",
      "geometry": {
        "type": "Point",
        "coordinates": [
          16.3063015,
          46.2491613
        ]
      },
      "properties": {
        "id": 5303871735,
        "osm_type": "node",
        "name": "Konzum"
      }
    },
    {
      "type": "Feature",
      "geometry": {
        "type": "Point",
        "coordinates": [
          16.7089206,
          46.2886631
        ]
      },
      "properties": {
        "id": 5325704097,
        "osm_type": "node",
        "name": "METSS",
        "opening_hours": "Mo-Sa 07:00-19:00; Su 07:00-11:00"
      }
    },
    {
      "type": "Feature",
      "geometry": {
        "type": "Point",
        "coordinates": [
          16.3461432,
          46.3054511
        ]
      },
      "properties": {
        "id": 5815416785,
        "osm_type": "node",
        "name": "Tisak",
        "brand": "Tisak"
      }
    },
    {
      "type": "Feature",
      "geometry": {
        "type": "Point",
        "coordinates": [
          16.6179753,
          46.2499451
        ]
      },
      "properties": {
        "id": 5961602871,
        "osm_type": "node",
        "name": "Kitro",
        "opening_hours": "Mo-Sa 07:00-20:00; Su,PH 07:00-12:00"
      }
    },
    {
      "type": "Feature",
      "geometry": {
        "type": "Point",
        "coordinates": [
          16.691958,
          46.2479911
        ]
      },
      "properties": {
        "id": 5961602881,
        "osm_type": "node",
        "name": "Kitro"
      }
    },
    {
      "type": "Feature",
      "geometry": {
        "type": "Point",
        "coordinates": [
          16.6924595,
          46.2485871
        ]
      },
      "properties": {
        "id": 5961602883,
        "osm_type": "node"
      }
    },
    {
      "type": "Feature",
      "geometry": {
        "type": "Point",
        "coordinates": [
          16.5782676,
          46.2978845
        ]
      },
      "properties": {
        "id": 6653405441,
        "osm_type": "node",
        "name": "market Plus"
      }
    },
    {
      "type": "Feature",
      "geometry": {
        "type": "Point",
        "coordinates": [
          16.5870885,
          46.2823756
        ]
      },
      "properties": {
        "id": 6653433158,
        "osm_type": "node",
        "name": "CBA trgonom",
        "opening_hours": "Mo-Fr 07:30-14:30; Sa 07:30-12:30"
      }
    },
    {
      "type": "Feature",
      "geometry": {
        "type": "Point",
        "coordinates": [
          16.0995786,
          46.3751031
        ]
      },
      "properties": {
        "id": 9267193444,
        "osm_type": "node"
      }
    },
    {
      "type": "Feature",
      "geometry": {
        "type": "Point",
        "coordinates": [
          16.6169406,
          46.2514916
        ]
      },
      "properties": {
        "id": 9532214903,
        "osm_type": "node",
        "name": "METSS",
        "opening_hours": "Mo-Sa 07:00-19:00;Su,PH 07:00-11:00"
      }
    },
    {
      "type": "Feature",
      "geometry": {
        "type": "Point",
        "coordinates": [
          16.6163913,
          46.2533525
        ]
      },
      "properties": {
        "id": 9532215121,
        "osm_type": "node",
        "name": "METSS",
        "opening_hours": "Mo-Sa 07:00-19:00;Su,PH off"
      }
    },
    {
      "type": "Feature",
      "geometry": {
        "type": "Point",
        "coordinates": [
          16.3626342,
          46.1059909
        ]
      },
      "properties": {
        "id": 9915359420,
        "osm_type": "node",
        "name": "Robin"
      }
    },
    {
      "type": "Feature",
      "geometry": {
        "type": "Point",
        "coordinates": [
          16.6291204,
          46.2875543
        ]
      },
      "properties": {
        "id": 10119083116,
        "osm_type": "node",
        "name": "METSS",
        "opening_hours": "Mo-Sa 07:00-19:00; Su,PH 07:00-11:00"
      }
    },
    {
      "type": "Feature",
      "geometry": {
        "type": "Point",
        "coordinates": [
          16.6047221,
          46.2816692
        ]
      },
      "properties": {
        "id": 10201299654,
        "osm_type": "node",
        "name": "Kitro",
        "opening_hours": "Mo-Sa 07:00-21:00; Su, PH 07:00-13:00"
      }
    },
    {
      "type": "Feature",
      "geometry": {
        "type": "Point",
        "coordinates": [
          16.6211193,
          46.2483088
        ]
      },
      "properties": {
        "id": 10264825895,
        "osm_type": "node",
        "name": "Konzum",
        "brand": "Konzum",
        "opening_hours": "Mo-Sa 07:00-20:00; Su 07:00-13:00"
      }
    },
    {
      "type": "Feature",
      "geometry": {
        "type": "Point",
        "coordinates": [
          16.062929,
          46.2375097
        ]
      },
      "properties": {
        "id": 10578221793,
        "osm_type": "node",
        "name": "Centar Škudar"
      }
    },
    {
      "type": "Feature",
      "geometry": {
        "type": "Point",
        "coordinates": [
          16.0353516,
          46.2450983
        ]
      },
      "properties": {
        "id": 10832047936,
        "osm_type": "node",
        "name": "Trgovina Klasje",
        "opening_hours": "Mo-Sa 06:30-20:00; Su 07:00-12:00; PH unknown"
      }
    },
    {
      "type": "Feature",
      "geometry": {
        "type": "Point",
        "coordinates": [
          16.2813412,
          46.1045525
        ]
      },
      "properties": {
        "id": 10833465470,
        "osm_type": "node",
        "name": "Trgostil",
        "brand": "Trgostil"
      }
    },
    {
      "type": "Feature",
      "geometry": {
        "type": "Point",
        "coordinates": [
          16.3336775,
          46.1539569
        ]
      },
      "properties": {
        "id": 10833557130,
        "osm_type": "node",
        "name": "Mlin i pekara"
      }
    },
    {
      "type": "Feature",
      "geometry": {
        "type": "Point",
        "coordinates": [
          16.3377609,
          46.3078323
        ]
      },
      "properties": {
        "id": 11013062997,
        "osm_type": "node"
      }
    },
    {
      "type": "Feature",
      "geometry": {
        "type": "Point",
        "coordinates": [
          16.3436907,
          46.3149872
        ]
      },
      "properties": {
        "id": 11026553582,
        "osm_type": "node",
        "name": "Tisak",
        "brand": "Tisak"
      }
    },
    {
      "type": "Feature",
      "geometry": {
        "type": "Point",
        "coordinates": [
          16.3376266,
          46.3083687
        ]
      },
      "properties": {
        "id": 12507380063,
        "osm_type": "node",
        "name": "Tisak",
        "brand": "Tisak",
        "opening_hours": "Mo-Sa 06:00-21:00"
      }
    },
    {
      "type": "Feature",
      "geometry": {
        "type": "Point",
        "coordinates": [
          16.3784645,
          46.2641149
        ]
      },
      "properties": {
        "id": 12565836039,
        "osm_type": "node",
        "name": "Studenac",
        "brand": "Studenac"
      }
    },
    {
      "type": "Feature",
      "geometry": {
        "type": "Point",
        "coordinates": [
          16.3385109,
          46.308651
        ]
      },
      "properties": {
        "id": 13233284770,
        "osm_type": "node",
        "name": "Biotrgovina",
        "check_date": "2025-10-14"
      }
    },
    {
      "type": "Feature",
      "geometry": {
        "type": "Point",
        "coordinates": [
          16.1431609,
          46.231472
        ]
      },
      "properties": {
        "id": 13656962395,
        "osm_type": "node",
        "name": "Action",
        "opening_hours": "Mo-Su 09:00-21:00"
      }
    },
    {
      "type": "Feature",
      "geometry": {
        "type": "Point",
        "coordinates": [
          16.3406396,
          46.3098709
        ]
      },
      "properties": {
        "id": 13714539700,
        "osm_type": "node",
        "name": "Vindija trgovina",
        "opening_hours": "Mo-Fr 06:30-19:00; Sa 07:00-13:00; Su 07:00-12:00 \"days on schedule (see website)\""
      }
    },
    {
      "type": "Feature",
      "geometry": {
        "type": "Point",
        "coordinates": [
          16.1558226,
          46.3518103
        ]
      },
      "properties": {
        "id": 13730009366,
        "osm_type": "node",
        "brand": "NTL",
        "check_date": "2025-08-29"
      }
    },
    {
      "type": "Feature",
      "geometry": {
        "type": "Point",
        "coordinates": [
          16.347109,
          46.3006343
        ]
      },
      "properties": {
        "id": 285196370,
        "osm_type": "way",
        "name": "Konzum",
        "brand": "Konzum",
        "opening_hours": "Mo-Sa 07:00-20:00"
      }
    },
    {
      "type": "Feature",
      "geometry": {
        "type": "Point",
        "coordinates": [
          16.3845824,
          46.276798
        ]
      },
      "properties": {
        "id": 294755152,
        "osm_type": "way",
        "name": "Konzum",
        "brand": "Konzum",
        "opening_hours": "Mo-Sa 07:00-20:00; Su,PH off"
      }
    },
    {
      "type": "Feature",
      "geometry": {
        "type": "Point",
        "coordinates": [
          16.2509168,
          46.3383531
        ]
      },
      "properties": {
        "id": 316547185,
        "osm_type": "way",
        "name": "OMV",
        "brand": "Crodux",
        "opening_hours": "Mo-Sa 06:00-22:00, Su 07:00-22:00"
      }
    },
    {
      "type": "Feature",
      "geometry": {
        "type": "Point",
        "coordinates": [
          16.1291449,
          46.3686379
        ]
      },
      "properties": {
        "id": 410352862,
        "osm_type": "way",
        "name": "METSS",
        "opening_hours": "Mo-Sa 07:00-19:00, Su 07:00-12:00"
      }
    },
    {
      "type": "Feature",
      "geometry": {
        "type": "Point",
        "coordinates": [
          16.4181482,
          46.2083311
        ]
      },
      "properties": {
        "id": 481594598,
        "osm_type": "way",
        "name": "Kišićek"
      }
    },
    {
      "type": "Feature",
      "geometry": {
        "type": "Point",
        "coordinates": [
          16.1296346,
          46.2271913
        ]
      },
      "properties": {
        "id": 486660127,
        "osm_type": "way",
        "name": "Chibo"
      }
    },
    {
      "type": "Feature",
      "geometry": {
        "type": "Point",
        "coordinates": [
          16.3367671,
          46.3059919
        ]
      },
      "properties": {
        "id": 697557861,
        "osm_type": "way",
        "name": "Tisak",
        "brand": "Tisak"
      }
    },
    {
      "type": "Feature",
      "geometry": {
        "type": "Point",
        "coordinates": [
          16.3307568,
          46.3057105
        ]
      },
      "properties": {
        "id": 924116254,
        "osm_type": "way",
        "name": "Konzum",
        "brand": "Konzum"
      }
    },
    {
      "type": "Feature",
      "geometry": {
        "type": "Point",
        "coordinates": [
          16.1520785,
          46.3380209
        ]
      },
      "properties": {
        "id": 974438294,
        "osm_type": "way",
        "name": "Poljodom"
      }
    },
    {
      "type": "Feature",
      "geometry": {
        "type": "Point",
        "coordinates": [
          16.6921198,
          46.2785639
        ]
      },
      "properties": {
        "id": 979402969,
        "osm_type": "way",
        "name": "Kitro",
        "opening_hours": "Mo-Sa 07:00-20:00; Su 07:00-12:00"
      }
    },
    {
      "type": "Feature",
      "geometry": {
        "type": "Point",
        "coordinates": [
          16.3968143,
          46.2942338
        ]
      },
      "properties": {
        "id": 999445487,
        "osm_type": "way",
        "name": "Kitro",
        "opening_hours": "Mo-Sa 07:00-21:00; 07:00-13:00"
      }
    },
    {
      "type": "Feature",
      "geometry": {
        "type": "Point",
        "coordinates": [
          16.3997164,
          46.2948906
        ]
      },
      "properties": {
        "id": 999596083,
        "osm_type": "way",
        "name": "METSS",
        "opening_hours": "Mo-Sa 07:00-19:00; Su 07:00-19:00"
      }
    },
    {
      "type": "Feature",
      "geometry": {
        "type": "Point",
        "coordinates": [
          16.3958968,
          46.2911887
        ]
      },
      "properties": {
        "id": 999596085,
        "osm_type": "way",
        "name": "METSS",
        "opening_hours": "Mo-Sa 07:00-19:00; Su 07:00-11:00"
      }
    },
    {
      "type": "Feature",
      "geometry": {
        "type": "Point",
        "coordinates": [
          16.4504329,
          46.3029984
        ]
      },
      "properties": {
        "id": 1000448060,
        "osm_type": "way",
        "name": "METSS",
        "opening_hours": "Mo-Sa 07:00-19:00; Su 07:00-11:00"
      }
    },
    {
      "type": "Feature",
      "geometry": {
        "type": "Point",
        "coordinates": [
          16.5339246,
          46.2852729
        ]
      },
      "properties": {
        "id": 1009333516,
        "osm_type": "way",
        "name": "Kitro",
        "opening_hours": "Mo-Sa 07:00-21:00; Su 07:00-12:00"
      }
    },
    {
      "type": "Feature",
      "geometry": {
        "type": "Point",
        "coordinates": [
          16.3370029,
          46.3173289
        ]
      },
      "properties": {
        "id": 1044709060,
        "osm_type": "way",
        "name": "METSS",
        "opening_hours": "Mo-Sa 07:00-19:00; Su,PH off"
      }
    },
    {
      "type": "Feature",
      "geometry": {
        "type": "Point",
        "coordinates": [
          16.2943942,
          46.3241664
        ]
      },
      "properties": {
        "id": 1061673040,
        "osm_type": "way",
        "name": "Konzum",
        "brand": "Konzum"
      }
    },
    {
      "type": "Feature",
      "geometry": {
        "type": "Point",
        "coordinates": [
          16.3345909,
          46.1640048
        ]
      },
      "properties": {
        "id": 1087313900,
        "osm_type": "way",
        "name": "Tisak",
        "brand": "Tisak"
      }
    },
    {
      "type": "Feature",
      "geometry": {
        "type": "Point",
        "coordinates": [
          16.6490272,
          46.286143
        ]
      },
      "properties": {
        "id": 1112299597,
        "osm_type": "way",
        "name": "Kitro",
        "opening_hours": "Mo-Sa 07:00-20:30; Su,PH 07:00-13:00"
      }
    },
    {
      "type": "Feature",
      "geometry": {
        "type": "Point",
        "coordinates": [
          16.3379443,
          46.3110381
        ]
      },
      "properties": {
        "id": 1158747088,
        "osm_type": "way",
        "name": "Tisak",
        "brand": "Tisak"
      }
    },
    {
      "type": "Feature",
      "geometry": {
        "type": "Point",
        "coordinates": [
          16.3269467,
          46.3091959
        ]
      },
      "properties": {
        "id": 1158753416,
        "osm_type": "way",
        "name": "Tisak",
        "brand": "Tisak"
      }
    },
    {
      "type": "Feature",
      "geometry": {
        "type": "Point",
        "coordinates": [
          16.3344429,
          46.3043393
        ]
      },
      "properties": {
        "id": 1187432269,
        "osm_type": "way",
        "name": "Tisak",
        "brand": "Tisak"
      }
    },
    {
      "type": "Feature",
      "geometry": {
        "type": "Point",
        "coordinates": [
          16.4504971,
          46.208862
        ]
      },
      "properties": {
        "id": 1210373488,
        "osm_type": "way",
        "name": "Kitro",
        "opening_hours": "Mo-Sa 07:00-20:00; Su,PH off"
      }
    },
    {
      "type": "Feature",
      "geometry": {
        "type": "Point",
        "coordinates": [
          16.5471782,
          46.2347257
        ]
      },
      "properties": {
        "id": 1218558392,
        "osm_type": "way",
        "name": "Kitro",
        "opening_hours": "Mo-Sa 06:30-20:00; Su,PH off"
      }
    },
    {
      "type": "Feature",
      "geometry": {
        "type": "Point",
        "coordinates": [
          16.1503389,
          46.3564081
        ]
      },
      "properties": {
        "id": 1259713921,
        "osm_type": "way",
        "name": "Plus market"
      }
    },
    {
      "type": "Feature",
      "geometry": {
        "type": "Point",
        "coordinates": [
          16.3260619,
          46.310336
        ]
      },
      "properties": {
        "id": 1500666270,
        "osm_type": "way"
      }
    }
  ]
}