{
  "type": "FeatureCollection",
  "features": [
    {
      "type": "Feature",
      "geometry": {
        "type": "Point",
        "coordinates": [
          22.7677542,
          46.8869797
        ]
      },
      "properties": {
        "id": 5061750054,
        "osm_type": "node",
        "shelter_type": "weather_shelter"
      }
    },
    {
      "type": "Feature",
      "geometry": {
        "type": "Point",
        "coordinates": [
          22.77212,
          46.580195
        ]
      },
      "properties": {
        "id": 11313837625,
        "osm_type": "node",
        "shelter_type": "weather_shelter"
      }
    },
    {
      "type": "Feature",
      "geometry": {
        "type": "Point",
        "coordinates": [
          22.7303774,
          46.7242409
        ]
      },
      "properties": {
        "id": 380162854,
        "osm_type": "way"
      }
    },
    {
      "type": "Feature",
      "geometry": {
        "type": "Point",
        "coordinates": [
          22.6354052,
          46.8070514
        ]
      },
      "properties": {
        "id": 381447805,
        "osm_type": "way",
        "name": "Staul Vacii"
      }
    },
    {
      "type": "Feature",
      "geometry": {
        "type": "Point",
        "coordinates": [
          22.6039042,
          46.7399135
        ]
      },
      "properties": {
        "id": 381456211,
        "osm_type": "way",
        "name": "stana"
      }
    }
  ]
}