{
  "type": "FeatureCollection",
  "features": [
    {
      "type": "Feature",
      "geometry": {
        "type": "Point",
        "coordinates": [
          14.8574162,
          50.8531001
        ]
      },
      "properties": {
        "id": 339194814,
        "osm_type": "node",
        "name": "Albert",
        "brand": "Albert",
        "opening_hours": "Mo-Su 07:00-20:00"
      }
    },
    {
      "type": "Feature",
      "geometry": {
        "type": "Point",
        "coordinates": [
          15.3064887,
          50.7360473
        ]
      },
      "properties": {
        "id": 349331778,
        "osm_type": "node",
        "name": "Lidl",
        "brand": "Lidl",
        "opening_hours": "Mo-Sa 07:00-21:00; Su 08:00-21:00"
      }
    },
    {
      "type": "Feature",
      "geometry": {
        "type": "Point",
        "coordinates": [
          15.3062492,
          50.7366097
        ]
      },
      "properties": {
        "id": 349331779,
        "osm_type": "node",
        "name": "Penny",
        "brand": "Penny",
        "opening_hours": "7:00-20:00"
      }
    },
    {
      "type": "Feature",
      "geometry": {
        "type": "Point",
        "coordinates": [
          15.2502873,
          50.6407678
        ]
      },
      "properties": {
        "id": 354614642,
        "osm_type": "node",
        "name": "PENNY",
        "brand": "PENNY",
        "opening_hours": "07:00-20:00"
      }
    },
    {
      "type": "Feature",
      "geometry": {
        "type": "Point",
        "coordinates": [
          15.138493,
          50.5884651
        ]
      },
      "properties": {
        "id": 366598161,
        "osm_type": "node",
        "name": "Billa",
        "brand": "Billa",
        "opening_hours": "Mo-Sa 07:00-21:00; Su 8:00-21:00"
      }
    },
    {
      "type": "Feature",
      "geometry": {
        "type": "Point",
        "coordinates": [
          15.156781,
          50.7445117
        ]
      },
      "properties": {
        "id": 561520255,
        "osm_type": "node",
        "name": "Penny",
        "brand": "Penny",
        "opening_hours": "07:00-20:00"
      }
    },
    {
      "type": "Feature",
      "geometry": {
        "type": "Point",
        "coordinates": [
          14.6552333,
          50.5682552
        ]
      },
      "properties": {
        "id": 564109000,
        "osm_type": "node",
        "name": "Penny",
        "brand": "Penny",
        "opening_hours": "Mo-Su 07:00-20:00; PH off"
      }
    },
    {
      "type": "Feature",
      "geometry": {
        "type": "Point",
        "coordinates": [
          15.4508138,
          50.7287701
        ]
      },
      "properties": {
        "id": 565571677,
        "osm_type": "node",
        "name": "Tesco",
        "brand": "Tesco"
      }
    },
    {
      "type": "Feature",
      "geometry": {
        "type": "Point",
        "coordinates": [
          15.5094031,
          50.605942
        ]
      },
      "properties": {
        "id": 640389742,
        "osm_type": "node",
        "name": "JIP",
        "brand": "JIP",
        "opening_hours": "Mo-Su 07:00-20:00"
      }
    },
    {
      "type": "Feature",
      "geometry": {
        "type": "Point",
        "coordinates": [
          15.1798875,
          50.8794663
        ]
      },
      "properties": {
        "id": 659815040,
        "osm_type": "node",
        "name": "Měděnka"
      }
    },
    {
      "type": "Feature",
      "geometry": {
        "type": "Point",
        "coordinates": [
          14.9639875,
          50.814325
        ]
      },
      "properties": {
        "id": 659841999,
        "osm_type": "node",
        "name": "Penny",
        "brand": "Penny"
      }
    },
    {
      "type": "Feature",
      "geometry": {
        "type": "Point",
        "coordinates": [
          15.2652543,
          50.7571703
        ]
      },
      "properties": {
        "id": 664119133,
        "osm_type": "node",
        "name": "Potraviny Jiřetín pod Bukovou",
        "opening_hours": "Mo-Fr 07:00-17:00; Sa,Su 07:00-14:00"
      }
    },
    {
      "type": "Feature",
      "geometry": {
        "type": "Point",
        "coordinates": [
          15.3088761,
          50.7362978
        ]
      },
      "properties": {
        "id": 664121542,
        "osm_type": "node",
        "name": "Billa",
        "brand": "Billa",
        "opening_hours": "Mo-Sa 7:00-21:00, Su 8:00-21:00"
      }
    },
    {
      "type": "Feature",
      "geometry": {
        "type": "Point",
        "coordinates": [
          14.8021429,
          50.7021868
        ]
      },
      "properties": {
        "id": 747076960,
        "osm_type": "node",
        "name": "Penny Market",
        "brand": "Penny",
        "opening_hours": "7:00-20:00"
      }
    },
    {
      "type": "Feature",
      "geometry": {
        "type": "Point",
        "coordinates": [
          15.0525585,
          50.7372053
        ]
      },
      "properties": {
        "id": 942549042,
        "osm_type": "node",
        "name": "Potraviny TUTU",
        "opening_hours": "Mo-Fr 7:00-19:30, Sa-Su 8:00-19:30"
      }
    },
    {
      "type": "Feature",
      "geometry": {
        "type": "Point",
        "coordinates": [
          15.029464,
          50.777596
        ]
      },
      "properties": {
        "id": 951747516,
        "osm_type": "node",
        "name": "Globus",
        "brand": "Globus",
        "opening_hours": "08:00-21:00; PH off"
      }
    },
    {
      "type": "Feature",
      "geometry": {
        "type": "Point",
        "coordinates": [
          15.1821512,
          50.7337692
        ]
      },
      "properties": {
        "id": 978982947,
        "osm_type": "node",
        "name": "Tesco",
        "brand": "Tesco",
        "opening_hours": "Mo-Su 07:00-21:00"
      }
    },
    {
      "type": "Feature",
      "geometry": {
        "type": "Point",
        "coordinates": [
          15.1608565,
          50.7355726
        ]
      },
      "properties": {
        "id": 978986729,
        "osm_type": "node",
        "name": "Albert",
        "brand": "Albert",
        "opening_hours": "07:00-22:00"
      }
    },
    {
      "type": "Feature",
      "geometry": {
        "type": "Point",
        "coordinates": [
          14.5550176,
          50.7574956
        ]
      },
      "properties": {
        "id": 1069026667,
        "osm_type": "node",
        "name": "Tesco expres",
        "opening_hours": "Mo-Su 06:30-20:00"
      }
    },
    {
      "type": "Feature",
      "geometry": {
        "type": "Point",
        "coordinates": [
          14.6497055,
          50.5648839
        ]
      },
      "properties": {
        "id": 1257070422,
        "osm_type": "node",
        "name": "Lidl",
        "brand": "Lidl",
        "opening_hours": "Mo-Sa 7:00-21:00; Su 08:00-21:00"
      }
    },
    {
      "type": "Feature",
      "geometry": {
        "type": "Point",
        "coordinates": [
          15.4227207,
          50.780951
        ]
      },
      "properties": {
        "id": 1418991680,
        "osm_type": "node",
        "name": "Norma",
        "brand": "Norma",
        "opening_hours": "Mo-Su 07:00-21:00"
      }
    },
    {
      "type": "Feature",
      "geometry": {
        "type": "Point",
        "coordinates": [
          15.1686476,
          50.7388502
        ]
      },
      "properties": {
        "id": 1419619855,
        "osm_type": "node",
        "name": "Kaufland",
        "brand": "Kaufland",
        "opening_hours": "07:00-22:00",
        "check_date": "2024-08-29"
      }
    },
    {
      "type": "Feature",
      "geometry": {
        "type": "Point",
        "coordinates": [
          15.0738758,
          50.7811423
        ]
      },
      "properties": {
        "id": 1489738582,
        "osm_type": "node",
        "name": "Bala market",
        "opening_hours": "Mo-Fr 07:00-19:00; Sa 07:00-12:00"
      }
    },
    {
      "type": "Feature",
      "geometry": {
        "type": "Point",
        "coordinates": [
          15.069879,
          50.7596521
        ]
      },
      "properties": {
        "id": 1500534231,
        "osm_type": "node",
        "name": "pramen.cz"
      }
    },
    {
      "type": "Feature",
      "geometry": {
        "type": "Point",
        "coordinates": [
          15.3271786,
          50.5987646
        ]
      },
      "properties": {
        "id": 1768632578,
        "osm_type": "node",
        "name": "Tesco",
        "brand": "Tesco",
        "opening_hours": "Mo-Su 07:00-20:00"
      }
    },
    {
      "type": "Feature",
      "geometry": {
        "type": "Point",
        "coordinates": [
          14.41421,
          50.5868288
        ]
      },
      "properties": {
        "id": 1769576825,
        "osm_type": "node"
      }
    },
    {
      "type": "Feature",
      "geometry": {
        "type": "Point",
        "coordinates": [
          15.3325288,
          50.6015588
        ]
      },
      "properties": {
        "id": 1884590771,
        "osm_type": "node",
        "name": "Penny Market",
        "brand": "Penny",
        "opening_hours": "Mo-Su 07:00-20:00"
      }
    },
    {
      "type": "Feature",
      "geometry": {
        "type": "Point",
        "coordinates": [
          15.3293499,
          50.6026638
        ]
      },
      "properties": {
        "id": 1884774191,
        "osm_type": "node",
        "name": "Penny Market",
        "brand": "Penny",
        "opening_hours": "Mo-Su 07:00-20:00"
      }
    },
    {
      "type": "Feature",
      "geometry": {
        "type": "Point",
        "coordinates": [
          15.0589999,
          50.7652141
        ]
      },
      "properties": {
        "id": 1989864693,
        "osm_type": "node",
        "name": "Lidl",
        "brand": "Lidl",
        "opening_hours": "Mo-Sa 07:00-20:00; Su 08:00-20:00"
      }
    },
    {
      "type": "Feature",
      "geometry": {
        "type": "Point",
        "coordinates": [
          15.2465475,
          50.9608714
        ]
      },
      "properties": {
        "id": 2193330867,
        "osm_type": "node",
        "opening_hours": "Mo-Su 08:00-17:00"
      }
    },
    {
      "type": "Feature",
      "geometry": {
        "type": "Point",
        "coordinates": [
          15.4290463,
          50.7024739
        ]
      },
      "properties": {
        "id": 2301617838,
        "osm_type": "node",
        "name": "Partner market Stop"
      }
    },
    {
      "type": "Feature",
      "geometry": {
        "type": "Point",
        "coordinates": [
          15.0782967,
          50.9216605
        ]
      },
      "properties": {
        "id": 2304976656,
        "osm_type": "node",
        "name": "obchod ENAPO"
      }
    },
    {
      "type": "Feature",
      "geometry": {
        "type": "Point",
        "coordinates": [
          15.0791846,
          50.9229677
        ]
      },
      "properties": {
        "id": 2316167582,
        "osm_type": "node",
        "name": "Obchod se smíšeným zboží"
      }
    },
    {
      "type": "Feature",
      "geometry": {
        "type": "Point",
        "coordinates": [
          14.5193323,
          50.6884523
        ]
      },
      "properties": {
        "id": 2388815576,
        "osm_type": "node",
        "name": "Billa",
        "brand": "Billa",
        "opening_hours": "Mo-Sa 07:00-20:00; Su 08:00-20:00"
      }
    },
    {
      "type": "Feature",
      "geometry": {
        "type": "Point",
        "coordinates": [
          15.0558382,
          50.7657608
        ]
      },
      "properties": {
        "id": 2866021068,
        "osm_type": "node",
        "name": "Tesco",
        "brand": "Tesco",
        "opening_hours": "Mo-Sa 6:00-21:30; Su 7:00-21:30"
      }
    },
    {
      "type": "Feature",
      "geometry": {
        "type": "Point",
        "coordinates": [
          15.0593946,
          50.7690041
        ]
      },
      "properties": {
        "id": 3204840592,
        "osm_type": "node",
        "name": "Billa",
        "brand": "Billa",
        "opening_hours": "Mo-Sa 07:00-21:00; Su 08:00-21:00; PH off"
      }
    },
    {
      "type": "Feature",
      "geometry": {
        "type": "Point",
        "coordinates": [
          15.3813398,
          50.7687697
        ]
      },
      "properties": {
        "id": 3521129528,
        "osm_type": "node",
        "name": "Coop",
        "brand": "Coop",
        "opening_hours": "07:00-16:00"
      }
    },
    {
      "type": "Feature",
      "geometry": {
        "type": "Point",
        "coordinates": [
          14.6357826,
          50.7755927
        ]
      },
      "properties": {
        "id": 3630764572,
        "osm_type": "node",
        "name": "Penny",
        "brand": "Penny"
      }
    },
    {
      "type": "Feature",
      "geometry": {
        "type": "Point",
        "coordinates": [
          15.1814964,
          50.8785908
        ]
      },
      "properties": {
        "id": 3848791471,
        "osm_type": "node"
      }
    },
    {
      "type": "Feature",
      "geometry": {
        "type": "Point",
        "coordinates": [
          15.0605134,
          50.7843605
        ]
      },
      "properties": {
        "id": 4231735051,
        "osm_type": "node",
        "name": "Tesco",
        "brand": "Tesco",
        "opening_hours": "Mo-Su 07:00-21:00"
      }
    },
    {
      "type": "Feature",
      "geometry": {
        "type": "Point",
        "coordinates": [
          14.7325675,
          50.6556091
        ]
      },
      "properties": {
        "id": 4402168069,
        "osm_type": "node",
        "name": "COOP TIP",
        "brand": "COOP Dvůr Králové n. L., družstvo",
        "opening_hours": "Mo-Fr 07:00-18:00; Sa,Su 07:00-11:00"
      }
    },
    {
      "type": "Feature",
      "geometry": {
        "type": "Point",
        "coordinates": [
          14.9553362,
          50.8141576
        ]
      },
      "properties": {
        "id": 4425626496,
        "osm_type": "node",
        "name": "Majba"
      }
    },
    {
      "type": "Feature",
      "geometry": {
        "type": "Point",
        "coordinates": [
          15.3131878,
          50.7549392
        ]
      },
      "properties": {
        "id": 4551111393,
        "osm_type": "node",
        "name": "Potraviny Samoobsluha enapo",
        "opening_hours": "Mo-Fr 07:00-18:00; Sa 07:00-12:00"
      }
    },
    {
      "type": "Feature",
      "geometry": {
        "type": "Point",
        "coordinates": [
          15.1682088,
          50.7247305
        ]
      },
      "properties": {
        "id": 4783333198,
        "osm_type": "node",
        "name": "Albert",
        "brand": "Albert",
        "opening_hours": "Mo-Sa 07:00-20:00; Su 08:00-20:00"
      }
    },
    {
      "type": "Feature",
      "geometry": {
        "type": "Point",
        "coordinates": [
          15.1595479,
          50.7255255
        ]
      },
      "properties": {
        "id": 4796130221,
        "osm_type": "node",
        "name": "Albert",
        "brand": "Albert",
        "opening_hours": "Mo-Su 07:00-20:00"
      }
    },
    {
      "type": "Feature",
      "geometry": {
        "type": "Point",
        "coordinates": [
          15.3706243,
          50.5328364
        ]
      },
      "properties": {
        "id": 4835478521,
        "osm_type": "node",
        "name": "PENNY",
        "brand": "PENNY",
        "opening_hours": "Mo-Su 07:00-20:00"
      }
    },
    {
      "type": "Feature",
      "geometry": {
        "type": "Point",
        "coordinates": [
          15.1628424,
          50.7359373
        ]
      },
      "properties": {
        "id": 4858269130,
        "osm_type": "node",
        "name": "Penny",
        "brand": "Penny",
        "opening_hours": "07:00-20:00"
      }
    },
    {
      "type": "Feature",
      "geometry": {
        "type": "Point",
        "coordinates": [
          14.5964206,
          50.7924182
        ]
      },
      "properties": {
        "id": 5759352471,
        "osm_type": "node",
        "opening_hours": "Mo-Su 07:00-20:00"
      }
    },
    {
      "type": "Feature",
      "geometry": {
        "type": "Point",
        "coordinates": [
          15.0507132,
          50.7417982
        ]
      },
      "properties": {
        "id": 6174709796,
        "osm_type": "node",
        "name": "Albert",
        "brand": "Albert",
        "opening_hours": "08:00-22:00"
      }
    },
    {
      "type": "Feature",
      "geometry": {
        "type": "Point",
        "coordinates": [
          15.062508,
          50.7750633
        ]
      },
      "properties": {
        "id": 6174709797,
        "osm_type": "node",
        "name": "Albert",
        "brand": "Albert",
        "opening_hours": "07:00-22:00"
      }
    },
    {
      "type": "Feature",
      "geometry": {
        "type": "Point",
        "coordinates": [
          15.1665456,
          50.7239592
        ]
      },
      "properties": {
        "id": 7090420989,
        "osm_type": "node",
        "name": "Billa",
        "brand": "Billa"
      }
    },
    {
      "type": "Feature",
      "geometry": {
        "type": "Point",
        "coordinates": [
          15.0806448,
          50.9203246
        ]
      },
      "properties": {
        "id": 8315602596,
        "osm_type": "node",
        "name": "Tesco",
        "brand": "Tesco",
        "opening_hours": "Mo-Su 06:00-20:00"
      }
    },
    {
      "type": "Feature",
      "geometry": {
        "type": "Point",
        "coordinates": [
          15.2461813,
          50.7395288
        ]
      },
      "properties": {
        "id": 9642987132,
        "osm_type": "node",
        "name": "Mujobchod",
        "check_date": "2024-10-01"
      }
    },
    {
      "type": "Feature",
      "geometry": {
        "type": "Point",
        "coordinates": [
          15.3337813,
          50.6021862
        ]
      },
      "properties": {
        "id": 10169897538,
        "osm_type": "node",
        "name": "Norma",
        "brand": "Norma",
        "opening_hours": "Mo-Su 07:00-21:00"
      }
    },
    {
      "type": "Feature",
      "geometry": {
        "type": "Point",
        "coordinates": [
          15.4205342,
          50.7808099
        ]
      },
      "properties": {
        "id": 11472578395,
        "osm_type": "node",
        "name": "JIP potraviny",
        "opening_hours": "Mo-Sa 7:30-18:00, Su 8:00-18:00"
      }
    },
    {
      "type": "Feature",
      "geometry": {
        "type": "Point",
        "coordinates": [
          15.1827204,
          50.8777287
        ]
      },
      "properties": {
        "id": 12020163545,
        "osm_type": "node",
        "name": "Zdravý obchůdek",
        "opening_hours": "Mo-Fr 08:00-12:00,13:00-17:00; Sa 09:00-11:00"
      }
    },
    {
      "type": "Feature",
      "geometry": {
        "type": "Point",
        "coordinates": [
          15.0525499,
          50.8319358
        ]
      },
      "properties": {
        "id": 12153910620,
        "osm_type": "node",
        "name": "Potraviny Tu Tu Van",
        "opening_hours": "Mo-Fr 07:00-17:00, Sa 07:30-11:00"
      }
    },
    {
      "type": "Feature",
      "geometry": {
        "type": "Point",
        "coordinates": [
          15.2482563,
          50.7367351
        ]
      },
      "properties": {
        "id": 12318809288,
        "osm_type": "node",
        "name": "CBA",
        "opening_hours": "Mo-Sa 07:00-19:00; Su 07:00-18:00",
        "check_date": "2024-11-06"
      }
    },
    {
      "type": "Feature",
      "geometry": {
        "type": "Point",
        "coordinates": [
          14.768904,
          50.7715861
        ]
      },
      "properties": {
        "id": 13619195401,
        "osm_type": "node",
        "name": "PENNY",
        "brand": "PENNY"
      }
    },
    {
      "type": "Feature",
      "geometry": {
        "type": "Point",
        "coordinates": [
          15.0393619,
          50.7815396
        ]
      },
      "properties": {
        "id": 13619195415,
        "osm_type": "node",
        "name": "Penny",
        "brand": "Penny",
        "opening_hours": "Mo-Su 07:00-20:00"
      }
    },
    {
      "type": "Feature",
      "geometry": {
        "type": "Point",
        "coordinates": [
          14.5415211,
          50.7000646
        ]
      },
      "properties": {
        "id": 25435119,
        "osm_type": "way",
        "name": "Albert",
        "brand": "Albert"
      }
    },
    {
      "type": "Feature",
      "geometry": {
        "type": "Point",
        "coordinates": [
          14.5409467,
          50.6807234
        ]
      },
      "properties": {
        "id": 31022846,
        "osm_type": "way",
        "name": "Kaufland",
        "brand": "Kaufland",
        "opening_hours": "Mo-Su 07:00-22:00"
      }
    },
    {
      "type": "Feature",
      "geometry": {
        "type": "Point",
        "coordinates": [
          14.5434711,
          50.6931421
        ]
      },
      "properties": {
        "id": 32056796,
        "osm_type": "way",
        "name": "Lidl",
        "brand": "Lidl"
      }
    },
    {
      "type": "Feature",
      "geometry": {
        "type": "Point",
        "coordinates": [
          15.1520314,
          50.581406
        ]
      },
      "properties": {
        "id": 37407209,
        "osm_type": "way",
        "name": "PENNY",
        "brand": "PENNY"
      }
    },
    {
      "type": "Feature",
      "geometry": {
        "type": "Point",
        "coordinates": [
          14.5433899,
          50.6987972
        ]
      },
      "properties": {
        "id": 38575133,
        "osm_type": "way",
        "name": "Albert",
        "brand": "Albert",
        "opening_hours": "PH,Mo-Su 07:00-22:00"
      }
    },
    {
      "type": "Feature",
      "geometry": {
        "type": "Point",
        "coordinates": [
          15.0716831,
          50.7488734
        ]
      },
      "properties": {
        "id": 43482782,
        "osm_type": "way"
      }
    },
    {
      "type": "Feature",
      "geometry": {
        "type": "Point",
        "coordinates": [
          15.0708029,
          50.7524519
        ]
      },
      "properties": {
        "id": 43483978,
        "osm_type": "way",
        "name": "Albert",
        "brand": "Albert",
        "opening_hours": "Mo-Su 07:00-20:00"
      }
    },
    {
      "type": "Feature",
      "geometry": {
        "type": "Point",
        "coordinates": [
          15.5065821,
          50.6053361
        ]
      },
      "properties": {
        "id": 44600847,
        "osm_type": "way",
        "name": "Tesco",
        "brand": "Tesco",
        "opening_hours": "Mo-Su 07:00-21:00"
      }
    },
    {
      "type": "Feature",
      "geometry": {
        "type": "Point",
        "coordinates": [
          15.0620318,
          50.7513275
        ]
      },
      "properties": {
        "id": 47597027,
        "osm_type": "way",
        "name": "Penny",
        "brand": "Penny",
        "opening_hours": "Mo-Sa 08:00-20:00",
        "check_date": "2026-01-16"
      }
    },
    {
      "type": "Feature",
      "geometry": {
        "type": "Point",
        "coordinates": [
          15.0555641,
          50.7518259
        ]
      },
      "properties": {
        "id": 47625380,
        "osm_type": "way",
        "name": "Kaufland",
        "brand": "Kaufland",
        "opening_hours": "Mo-Su 07:00-22:00"
      }
    },
    {
      "type": "Feature",
      "geometry": {
        "type": "Point",
        "coordinates": [
          15.0510257,
          50.7657653
        ]
      },
      "properties": {
        "id": 48179814,
        "osm_type": "way",
        "name": "Billa",
        "brand": "Billa",
        "opening_hours": "Mo-Sa 07:00-21:00; Su 08:00-21:00"
      }
    },
    {
      "type": "Feature",
      "geometry": {
        "type": "Point",
        "coordinates": [
          15.0266405,
          50.7737914
        ]
      },
      "properties": {
        "id": 48967642,
        "osm_type": "way"
      }
    },
    {
      "type": "Feature",
      "geometry": {
        "type": "Point",
        "coordinates": [
          15.0246994,
          50.774124
        ]
      },
      "properties": {
        "id": 49009949,
        "osm_type": "way"
      }
    },
    {
      "type": "Feature",
      "geometry": {
        "type": "Point",
        "coordinates": [
          15.0905158,
          50.7609271
        ]
      },
      "properties": {
        "id": 51997520,
        "osm_type": "way",
        "name": "Tesco",
        "brand": "Tesco",
        "opening_hours": "Mo-Su 7:00-21:00"
      }
    },
    {
      "type": "Feature",
      "geometry": {
        "type": "Point",
        "coordinates": [
          14.5187216,
          50.6896677
        ]
      },
      "properties": {
        "id": 59473421,
        "osm_type": "way",
        "name": "Lidl",
        "brand": "Lidl",
        "opening_hours": "Mo-Sa 07:00-21:00; Su 08:00-21:00; PH off"
      }
    },
    {
      "type": "Feature",
      "geometry": {
        "type": "Point",
        "coordinates": [
          14.5476757,
          50.6882224
        ]
      },
      "properties": {
        "id": 59481501,
        "osm_type": "way",
        "name": "Albert",
        "brand": "Albert"
      }
    },
    {
      "type": "Feature",
      "geometry": {
        "type": "Point",
        "coordinates": [
          14.729872,
          50.653548
        ]
      },
      "properties": {
        "id": 59555808,
        "osm_type": "way",
        "name": "PENNY",
        "brand": "PENNY",
        "opening_hours": "Mo-Su 07:00-20:00"
      }
    },
    {
      "type": "Feature",
      "geometry": {
        "type": "Point",
        "coordinates": [
          14.7288075,
          50.653731
        ]
      },
      "properties": {
        "id": 59555984,
        "osm_type": "way",
        "name": "Tesco",
        "brand": "Tesco",
        "opening_hours": "Mo-Su 07:00-20:00"
      }
    },
    {
      "type": "Feature",
      "geometry": {
        "type": "Point",
        "coordinates": [
          15.0823014,
          50.9195211
        ]
      },
      "properties": {
        "id": 77991234,
        "osm_type": "way",
        "name": "Penny",
        "brand": "Penny",
        "opening_hours": "Mo-Fr 7:00-20:00, Sa 7:00-20:00, Su 7:00-20:00"
      }
    },
    {
      "type": "Feature",
      "geometry": {
        "type": "Point",
        "coordinates": [
          15.1641769,
          50.7314512
        ]
      },
      "properties": {
        "id": 79518035,
        "osm_type": "way",
        "name": "Lidl",
        "brand": "Lidl",
        "opening_hours": "Mo-Sa 07:00-21:00; Su 08:00-20:00"
      }
    },
    {
      "type": "Feature",
      "geometry": {
        "type": "Point",
        "coordinates": [
          14.5470961,
          50.7642845
        ]
      },
      "properties": {
        "id": 85526688,
        "osm_type": "way",
        "name": "Billa",
        "brand": "Billa",
        "opening_hours": "Mo-Sa 07:00-20:00; Su 08:00-20:00"
      }
    },
    {
      "type": "Feature",
      "geometry": {
        "type": "Point",
        "coordinates": [
          14.5550638,
          50.7610744
        ]
      },
      "properties": {
        "id": 92024443,
        "osm_type": "way",
        "name": "Železářství Abdul Kassas"
      }
    },
    {
      "type": "Feature",
      "geometry": {
        "type": "Point",
        "coordinates": [
          14.5407359,
          50.7659916
        ]
      },
      "properties": {
        "id": 92024445,
        "osm_type": "way",
        "name": "Lidl",
        "brand": "Lidl"
      }
    },
    {
      "type": "Feature",
      "geometry": {
        "type": "Point",
        "coordinates": [
          14.5459279,
          50.7651039
        ]
      },
      "properties": {
        "id": 92024462,
        "osm_type": "way",
        "name": "Penny market, Nový Bor",
        "opening_hours": "7:00-20:00"
      }
    },
    {
      "type": "Feature",
      "geometry": {
        "type": "Point",
        "coordinates": [
          15.1557208,
          50.5804026
        ]
      },
      "properties": {
        "id": 95157240,
        "osm_type": "way",
        "name": "Lidl",
        "brand": "Lidl",
        "opening_hours": "Mo-Sa 07:00-21:00; Su 08:00-21:00"
      }
    },
    {
      "type": "Feature",
      "geometry": {
        "type": "Point",
        "coordinates": [
          15.0707208,
          50.7478212
        ]
      },
      "properties": {
        "id": 100922589,
        "osm_type": "way",
        "name": "Lidl",
        "brand": "Lidl",
        "opening_hours": "Mo-Sa 7:00-20:00; Su 8:00-20:00"
      }
    },
    {
      "type": "Feature",
      "geometry": {
        "type": "Point",
        "coordinates": [
          15.0348274,
          50.7610263
        ]
      },
      "properties": {
        "id": 102649896,
        "osm_type": "way",
        "name": "Billa",
        "brand": "Billa",
        "opening_hours": "Mo-Sa 7:00-20:00; Su 8:00-20:00"
      }
    },
    {
      "type": "Feature",
      "geometry": {
        "type": "Point",
        "coordinates": [
          15.0382203,
          50.782921
        ]
      },
      "properties": {
        "id": 154159421,
        "osm_type": "way",
        "name": "Kaufland",
        "brand": "Kaufland",
        "opening_hours": "Mo-Su 07:00-22:00"
      }
    },
    {
      "type": "Feature",
      "geometry": {
        "type": "Point",
        "coordinates": [
          15.0411823,
          50.7811596
        ]
      },
      "properties": {
        "id": 154161139,
        "osm_type": "way",
        "name": "Lidl",
        "brand": "Lidl",
        "opening_hours": "Mo-Sa 7:00-20:00; Su 8:00-20:00",
        "check_date": "2025-12-23"
      }
    },
    {
      "type": "Feature",
      "geometry": {
        "type": "Point",
        "coordinates": [
          14.8483719,
          50.8529542
        ]
      },
      "properties": {
        "id": 171760585,
        "osm_type": "way",
        "name": "PENNY",
        "brand": "Penny"
      }
    },
    {
      "type": "Feature",
      "geometry": {
        "type": "Point",
        "coordinates": [
          15.3305532,
          50.6014098
        ]
      },
      "properties": {
        "id": 178089128,
        "osm_type": "way",
        "name": "Lidl",
        "brand": "Lidl"
      }
    },
    {
      "type": "Feature",
      "geometry": {
        "type": "Point",
        "coordinates": [
          15.0826288,
          50.9205104
        ]
      },
      "properties": {
        "id": 181395641,
        "osm_type": "way",
        "name": "Lidl",
        "brand": "Lidl",
        "check_date": "2024-03-30"
      }
    },
    {
      "type": "Feature",
      "geometry": {
        "type": "Point",
        "coordinates": [
          15.2489278,
          50.6401041
        ]
      },
      "properties": {
        "id": 181395643,
        "osm_type": "way",
        "name": "Lidl",
        "brand": "Lidl",
        "opening_hours": "Mo-Sa 07:00-21:00; Su 08:00-21:00"
      }
    },
    {
      "type": "Feature",
      "geometry": {
        "type": "Point",
        "coordinates": [
          15.157768,
          50.7157815
        ]
      },
      "properties": {
        "id": 187241656,
        "osm_type": "way",
        "name": "Kaufland",
        "brand": "Kaufland",
        "opening_hours": "Mo-Su 07:00-22:00"
      }
    },
    {
      "type": "Feature",
      "geometry": {
        "type": "Point",
        "coordinates": [
          14.5449085,
          50.7665294
        ]
      },
      "properties": {
        "id": 206075607,
        "osm_type": "way",
        "name": "Kaufland",
        "brand": "Kaufland",
        "opening_hours": "Mo-Su 07:00-22:00"
      }
    },
    {
      "type": "Feature",
      "geometry": {
        "type": "Point",
        "coordinates": [
          15.5179528,
          50.6001948
        ]
      },
      "properties": {
        "id": 267075776,
        "osm_type": "way",
        "name": "Norma",
        "brand": "Norma",
        "opening_hours": "07:00-20:00"
      }
    },
    {
      "type": "Feature",
      "geometry": {
        "type": "Point",
        "coordinates": [
          15.5193672,
          50.6005158
        ]
      },
      "properties": {
        "id": 524770016,
        "osm_type": "way",
        "name": "Penny",
        "brand": "Penny"
      }
    },
    {
      "type": "Feature",
      "geometry": {
        "type": "Point",
        "coordinates": [
          14.5469938,
          50.6793517
        ]
      },
      "properties": {
        "id": 549688365,
        "osm_type": "way",
        "name": "TOP",
        "opening_hours": "Mo-Fr 06:00-19:00; PH,Sa,Su 08:00-19:00"
      }
    },
    {
      "type": "Feature",
      "geometry": {
        "type": "Point",
        "coordinates": [
          15.1536099,
          50.5805257
        ]
      },
      "properties": {
        "id": 1149282085,
        "osm_type": "way",
        "name": "Kaufland",
        "brand": "Kaufland",
        "opening_hours": "07:00-22:00"
      }
    },
    {
      "type": "Feature",
      "geometry": {
        "type": "Point",
        "coordinates": [
          15.1317523,
          50.5953533
        ]
      },
      "properties": {
        "id": 1203943065,
        "osm_type": "way",
        "name": "Billa",
        "brand": "Billa"
      }
    },
    {
      "type": "Feature",
      "geometry": {
        "type": "Point",
        "coordinates": [
          14.7600745,
          50.7705373
        ]
      },
      "properties": {
        "id": 1295616990,
        "osm_type": "way",
        "name": "NORMA",
        "brand": "NORMA",
        "opening_hours": "Mo-Su 07:00-21:00"
      }
    },
    {
      "type": "Feature",
      "geometry": {
        "type": "Point",
        "coordinates": [
          14.4828621,
          50.7722446
        ]
      },
      "properties": {
        "id": 1300418736,
        "osm_type": "way",
        "name": "NORMA",
        "brand": "NORMA"
      }
    }
  ]
}