{
  "type": "FeatureCollection",
  "features": [
    {
      "type": "Feature",
      "geometry": {
        "type": "Point",
        "coordinates": [
          -2.5848356,
          42.1081009
        ]
      },
      "properties": {
        "id": 5173679661,
        "osm_type": "node",
        "name": "Chozo del perrón",
        "shelter_type": "weather_shelter"
      }
    },
    {
      "type": "Feature",
      "geometry": {
        "type": "Point",
        "coordinates": [
          -2.6266957,
          42.4120396
        ]
      },
      "properties": {
        "id": 6938864026,
        "osm_type": "node",
        "shelter_type": "lean_to"
      }
    },
    {
      "type": "Feature",
      "geometry": {
        "type": "Point",
        "coordinates": [
          -2.627154,
          42.4119947
        ]
      },
      "properties": {
        "id": 6938864027,
        "osm_type": "node",
        "shelter_type": "lean_to"
      }
    },
    {
      "type": "Feature",
      "geometry": {
        "type": "Point",
        "coordinates": [
          -2.7000152,
          42.415902
        ]
      },
      "properties": {
        "id": 6938864158,
        "osm_type": "node",
        "shelter_type": "lean_to"
      }
    },
    {
      "type": "Feature",
      "geometry": {
        "type": "Point",
        "coordinates": [
          -2.6998688,
          42.4156596
        ]
      },
      "properties": {
        "id": 6938864159,
        "osm_type": "node",
        "shelter_type": "lean_to"
      }
    },
    {
      "type": "Feature",
      "geometry": {
        "type": "Point",
        "coordinates": [
          -2.511326,
          42.4457378
        ]
      },
      "properties": {
        "id": 7740636616,
        "osm_type": "node",
        "shelter_type": "lean_to",
        "description": "Varios bancos sin mesa."
      }
    },
    {
      "type": "Feature",
      "geometry": {
        "type": "Point",
        "coordinates": [
          -3.0834264,
          42.3292756
        ]
      },
      "properties": {
        "id": 12127187698,
        "osm_type": "node",
        "name": "Refugio Los Eriales",
        "access": "yes",
        "fee": "no"
      }
    },
    {
      "type": "Feature",
      "geometry": {
        "type": "Point",
        "coordinates": [
          -2.3830312,
          42.2042974
        ]
      },
      "properties": {
        "id": 12150573301,
        "osm_type": "node",
        "name": "Refugio"
      }
    },
    {
      "type": "Feature",
      "geometry": {
        "type": "Point",
        "coordinates": [
          -2.8294197,
          42.4340482
        ]
      },
      "properties": {
        "id": 13270698316,
        "osm_type": "node",
        "shelter_type": "weather_shelter"
      }
    },
    {
      "type": "Feature",
      "geometry": {
        "type": "Point",
        "coordinates": [
          -3.0752635,
          42.2061164
        ]
      },
      "properties": {
        "id": 100463688,
        "osm_type": "way",
        "name": "Refugio Llano De La Casa",
        "shelter_type": "basic_hut"
      }
    },
    {
      "type": "Feature",
      "geometry": {
        "type": "Point",
        "coordinates": [
          -2.9800972,
          42.2571839
        ]
      },
      "properties": {
        "id": 234142534,
        "osm_type": "way",
        "shelter_type": "basic_hut"
      }
    },
    {
      "type": "Feature",
      "geometry": {
        "type": "Point",
        "coordinates": [
          -3.0984071,
          42.2929565
        ]
      },
      "properties": {
        "id": 331318674,
        "osm_type": "way",
        "name": "Refugio de Iguareña",
        "shelter_type": "basic_hut"
      }
    },
    {
      "type": "Feature",
      "geometry": {
        "type": "Point",
        "coordinates": [
          -2.7371197,
          42.0232257
        ]
      },
      "properties": {
        "id": 365302967,
        "osm_type": "way",
        "name": "Refugio de Marrodán (CERRADO - SOLO CAZADORES)",
        "shelter_type": "basic_hut"
      }
    },
    {
      "type": "Feature",
      "geometry": {
        "type": "Point",
        "coordinates": [
          -2.8694211,
          42.0807204
        ]
      },
      "properties": {
        "id": 365302971,
        "osm_type": "way",
        "name": "Refugio de Tacudía",
        "access": "yes",
        "capacity": "4",
        "fee": "no"
      }
    },
    {
      "type": "Feature",
      "geometry": {
        "type": "Point",
        "coordinates": [
          -2.6854124,
          42.0677319
        ]
      },
      "properties": {
        "id": 529792914,
        "osm_type": "way",
        "name": "Refugio El Achichuelo",
        "shelter_type": "basic_hut",
        "fee": "no",
        "operator": "Refugio Libre"
      }
    },
    {
      "type": "Feature",
      "geometry": {
        "type": "Point",
        "coordinates": [
          -2.7353019,
          42.1632244
        ]
      },
      "properties": {
        "id": 653997393,
        "osm_type": "way",
        "name": "Refugio El Robledillo",
        "shelter_type": "basic_hut"
      }
    },
    {
      "type": "Feature",
      "geometry": {
        "type": "Point",
        "coordinates": [
          -2.8991756,
          42.0371798
        ]
      },
      "properties": {
        "id": 672151414,
        "osm_type": "way",
        "name": "Refugio del Portilla II"
      }
    },
    {
      "type": "Feature",
      "geometry": {
        "type": "Point",
        "coordinates": [
          -2.8623326,
          42.0473553
        ]
      },
      "properties": {
        "id": 672265938,
        "osm_type": "way",
        "name": "Refugio de Hoyo Bellido",
        "access": "yes",
        "capacity": "5",
        "fee": "no",
        "description": "Hay espacio para dormir en una tarima y una chimenea"
      }
    },
    {
      "type": "Feature",
      "geometry": {
        "type": "Point",
        "coordinates": [
          -2.4853561,
          42.1196544
        ]
      },
      "properties": {
        "id": 673731545,
        "osm_type": "way",
        "name": "Refugio de Pradito Gil",
        "shelter_type": "basic_hut"
      }
    },
    {
      "type": "Feature",
      "geometry": {
        "type": "Point",
        "coordinates": [
          -2.4423145,
          42.1437386
        ]
      },
      "properties": {
        "id": 673731547,
        "osm_type": "way",
        "name": "Refugio Monte Real"
      }
    },
    {
      "type": "Feature",
      "geometry": {
        "type": "Point",
        "coordinates": [
          -2.6323124,
          42.2927014
        ]
      },
      "properties": {
        "id": 673731550,
        "osm_type": "way",
        "name": "Refugio crestería",
        "shelter_type": "basic_hut"
      }
    },
    {
      "type": "Feature",
      "geometry": {
        "type": "Point",
        "coordinates": [
          -2.4365686,
          42.4734117
        ]
      },
      "properties": {
        "id": 843563420,
        "osm_type": "way",
        "shelter_type": "lean_to"
      }
    },
    {
      "type": "Feature",
      "geometry": {
        "type": "Point",
        "coordinates": [
          -2.872632,
          42.0321912
        ]
      },
      "properties": {
        "id": 861023865,
        "osm_type": "way",
        "name": "Refugio de Campolengo",
        "access": "yes",
        "capacity": "5",
        "fee": "no"
      }
    },
    {
      "type": "Feature",
      "geometry": {
        "type": "Point",
        "coordinates": [
          -2.8638528,
          42.0518176
        ]
      },
      "properties": {
        "id": 861023866,
        "osm_type": "way",
        "name": "Refugio de Rosabaila",
        "capacity": "4",
        "fee": "no"
      }
    },
    {
      "type": "Feature",
      "geometry": {
        "type": "Point",
        "coordinates": [
          -2.8682286,
          42.0669834
        ]
      },
      "properties": {
        "id": 861023867,
        "osm_type": "way",
        "name": "Refugio de El Pino",
        "access": "yes",
        "capacity": "4",
        "fee": "no"
      }
    },
    {
      "type": "Feature",
      "geometry": {
        "type": "Point",
        "coordinates": [
          -3.0725125,
          42.2887367
        ]
      },
      "properties": {
        "id": 891048943,
        "osm_type": "way",
        "name": "Refugio Ibaya"
      }
    },
    {
      "type": "Feature",
      "geometry": {
        "type": "Point",
        "coordinates": [
          -2.7845479,
          42.1234298
        ]
      },
      "properties": {
        "id": 929890937,
        "osm_type": "way",
        "name": "Refugio de La Lastrilla"
      }
    },
    {
      "type": "Feature",
      "geometry": {
        "type": "Point",
        "coordinates": [
          -2.4157922,
          42.4191182
        ]
      },
      "properties": {
        "id": 1271016592,
        "osm_type": "way",
        "shelter_type": "lean_to"
      }
    },
    {
      "type": "Feature",
      "geometry": {
        "type": "Point",
        "coordinates": [
          -2.8683764,
          42.3068128
        ]
      },
      "properties": {
        "id": 1279198158,
        "osm_type": "way",
        "name": "Refugio Peña el Collao",
        "shelter_type": "basic_hut"
      }
    },
    {
      "type": "Feature",
      "geometry": {
        "type": "Point",
        "coordinates": [
          -2.4435516,
          42.4653998
        ]
      },
      "properties": {
        "id": 1316242577,
        "osm_type": "way",
        "shelter_type": "lean_to"
      }
    },
    {
      "type": "Feature",
      "geometry": {
        "type": "Point",
        "coordinates": [
          -2.4709499,
          42.392593
        ]
      },
      "properties": {
        "id": 1324867807,
        "osm_type": "way",
        "shelter_type": "lean_to"
      }
    },
    {
      "type": "Feature",
      "geometry": {
        "type": "Point",
        "coordinates": [
          -2.4757341,
          42.3860169
        ]
      },
      "properties": {
        "id": 1325495814,
        "osm_type": "way",
        "shelter_type": "lean_to"
      }
    },
    {
      "type": "Feature",
      "geometry": {
        "type": "Point",
        "coordinates": [
          -2.4170928,
          42.4359555
        ]
      },
      "properties": {
        "id": 1329360055,
        "osm_type": "way",
        "shelter_type": "lean_to"
      }
    },
    {
      "type": "Feature",
      "geometry": {
        "type": "Point",
        "coordinates": [
          -2.4170232,
          42.4360714
        ]
      },
      "properties": {
        "id": 1329360056,
        "osm_type": "way",
        "shelter_type": "lean_to"
      }
    },
    {
      "type": "Feature",
      "geometry": {
        "type": "Point",
        "coordinates": [
          -2.4177374,
          42.4381264
        ]
      },
      "properties": {
        "id": 1329488705,
        "osm_type": "way",
        "shelter_type": "lean_to"
      }
    },
    {
      "type": "Feature",
      "geometry": {
        "type": "Point",
        "coordinates": [
          -2.9032509,
          42.0456498
        ]
      },
      "properties": {
        "id": 1330134177,
        "osm_type": "way",
        "name": "Refugio del Portilla",
        "access": "yes",
        "capacity": "4",
        "fee": "no"
      }
    },
    {
      "type": "Feature",
      "geometry": {
        "type": "Point",
        "coordinates": [
          -2.4173392,
          42.4328608
        ]
      },
      "properties": {
        "id": 1360379437,
        "osm_type": "way",
        "shelter_type": "lean_to"
      }
    },
    {
      "type": "Feature",
      "geometry": {
        "type": "Point",
        "coordinates": [
          -2.4172879,
          42.4341542
        ]
      },
      "properties": {
        "id": 1360379438,
        "osm_type": "way",
        "shelter_type": "lean_to"
      }
    },
    {
      "type": "Feature",
      "geometry": {
        "type": "Point",
        "coordinates": [
          -2.4601042,
          42.4636838
        ]
      },
      "properties": {
        "id": 1391023469,
        "osm_type": "way",
        "shelter_type": "lean_to"
      }
    },
    {
      "type": "Feature",
      "geometry": {
        "type": "Point",
        "coordinates": [
          -2.4250732,
          42.4325029
        ]
      },
      "properties": {
        "id": 1427396492,
        "osm_type": "way",
        "shelter_type": "lean_to"
      }
    },
    {
      "type": "Feature",
      "geometry": {
        "type": "Point",
        "coordinates": [
          -2.0707299,
          42.0532101
        ]
      },
      "properties": {
        "id": 1482734660,
        "osm_type": "way",
        "name": "Refugio de Santa Ana",
        "shelter_type": "basic_hut"
      }
    }
  ]
}