{
  "type": "FeatureCollection",
  "features": [
    {
      "type": "Feature",
      "geometry": {
        "type": "Point",
        "coordinates": [
          6.817484,
          47.1095292
        ]
      },
      "properties": {
        "id": 1468429345,
        "osm_type": "node",
        "name": "Canapé forestier",
        "shelter_type": "basic_hut",
        "url": "http://www.aquabranches.ch/Aquabranches/Quest_ce_quun_canape_forestier.html"
      }
    },
    {
      "type": "Feature",
      "geometry": {
        "type": "Point",
        "coordinates": [
          6.7347033,
          46.958652
        ]
      },
      "properties": {
        "id": 3151513388,
        "osm_type": "node",
        "shelter_type": "weather_shelter"
      }
    },
    {
      "type": "Feature",
      "geometry": {
        "type": "Point",
        "coordinates": [
          6.8131583,
          47.1056395
        ]
      },
      "properties": {
        "id": 8090569777,
        "osm_type": "node",
        "name": "Canapé forestier",
        "shelter_type": "basic_hut"
      }
    },
    {
      "type": "Feature",
      "geometry": {
        "type": "Point",
        "coordinates": [
          6.8062529,
          47.130198
        ]
      },
      "properties": {
        "id": 11077590916,
        "osm_type": "node",
        "capacity": "1"
      }
    },
    {
      "type": "Feature",
      "geometry": {
        "type": "Point",
        "coordinates": [
          7.0467123,
          47.0496166
        ]
      },
      "properties": {
        "id": 370838399,
        "osm_type": "way",
        "shelter_type": "weather_shelter"
      }
    },
    {
      "type": "Feature",
      "geometry": {
        "type": "Point",
        "coordinates": [
          6.7844094,
          47.0788664
        ]
      },
      "properties": {
        "id": 1149903608,
        "osm_type": "way",
        "name": "Fumoir",
        "shelter_type": "weather_shelter",
        "bench": "yes",
        "operator": "Stryker"
      }
    },
    {
      "type": "Feature",
      "geometry": {
        "type": "Point",
        "coordinates": [
          6.4719159,
          46.9217623
        ]
      },
      "properties": {
        "id": 1191167904,
        "osm_type": "way",
        "name": "Cabane du Menhir",
        "access": "yes",
        "shelter_type": "weather_shelter"
      }
    },
    {
      "type": "Feature",
      "geometry": {
        "type": "Point",
        "coordinates": [
          7.0464022,
          47.055025
        ]
      },
      "properties": {
        "id": 1221790198,
        "osm_type": "way",
        "shelter_type": "lean_to"
      }
    }
  ]
}