{
  "type": "FeatureCollection",
  "features": [
    {
      "type": "Feature",
      "geometry": {
        "type": "Point",
        "coordinates": [
          17.1224284,
          60.6744752
        ]
      },
      "properties": {
        "id": 253091379,
        "osm_type": "node",
        "access": "yes"
      }
    },
    {
      "type": "Feature",
      "geometry": {
        "type": "Point",
        "coordinates": [
          17.1259544,
          60.6753989
        ]
      },
      "properties": {
        "id": 253094196,
        "osm_type": "node"
      }
    },
    {
      "type": "Feature",
      "geometry": {
        "type": "Point",
        "coordinates": [
          17.161114,
          60.6638673
        ]
      },
      "properties": {
        "id": 277842665,
        "osm_type": "node",
        "access": "unknown"
      }
    },
    {
      "type": "Feature",
      "geometry": {
        "type": "Point",
        "coordinates": [
          17.1649239,
          60.6640684
        ]
      },
      "properties": {
        "id": 279125733,
        "osm_type": "node",
        "access": "unknown"
      }
    },
    {
      "type": "Feature",
      "geometry": {
        "type": "Point",
        "coordinates": [
          17.3011235,
          60.666137
        ]
      },
      "properties": {
        "id": 279283184,
        "osm_type": "node"
      }
    },
    {
      "type": "Feature",
      "geometry": {
        "type": "Point",
        "coordinates": [
          17.2391936,
          60.7046283
        ]
      },
      "properties": {
        "id": 281035442,
        "osm_type": "node"
      }
    },
    {
      "type": "Feature",
      "geometry": {
        "type": "Point",
        "coordinates": [
          16.9644615,
          60.6357558
        ]
      },
      "properties": {
        "id": 281583594,
        "osm_type": "node"
      }
    },
    {
      "type": "Feature",
      "geometry": {
        "type": "Point",
        "coordinates": [
          17.1179849,
          60.6722479
        ]
      },
      "properties": {
        "id": 281764750,
        "osm_type": "node",
        "access": "yes"
      }
    },
    {
      "type": "Feature",
      "geometry": {
        "type": "Point",
        "coordinates": [
          16.7744208,
          60.6215869
        ]
      },
      "properties": {
        "id": 282118847,
        "osm_type": "node"
      }
    },
    {
      "type": "Feature",
      "geometry": {
        "type": "Point",
        "coordinates": [
          16.7679925,
          60.6204429
        ]
      },
      "properties": {
        "id": 283664533,
        "osm_type": "node"
      }
    },
    {
      "type": "Feature",
      "geometry": {
        "type": "Point",
        "coordinates": [
          17.0209109,
          61.295565
        ]
      },
      "properties": {
        "id": 297805405,
        "osm_type": "node"
      }
    },
    {
      "type": "Feature",
      "geometry": {
        "type": "Point",
        "coordinates": [
          16.6231785,
          60.900276
        ]
      },
      "properties": {
        "id": 308903271,
        "osm_type": "node"
      }
    },
    {
      "type": "Feature",
      "geometry": {
        "type": "Point",
        "coordinates": [
          17.1458172,
          60.6743109
        ]
      },
      "properties": {
        "id": 469875406,
        "osm_type": "node",
        "access": "yes"
      }
    },
    {
      "type": "Feature",
      "geometry": {
        "type": "Point",
        "coordinates": [
          17.1481702,
          60.6700739
        ]
      },
      "properties": {
        "id": 550395196,
        "osm_type": "node"
      }
    },
    {
      "type": "Feature",
      "geometry": {
        "type": "Point",
        "coordinates": [
          14.7653479,
          61.6483094
        ]
      },
      "properties": {
        "id": 565447820,
        "osm_type": "node"
      }
    },
    {
      "type": "Feature",
      "geometry": {
        "type": "Point",
        "coordinates": [
          16.5392092,
          60.5801698
        ]
      },
      "properties": {
        "id": 566147882,
        "osm_type": "node"
      }
    },
    {
      "type": "Feature",
      "geometry": {
        "type": "Point",
        "coordinates": [
          16.538214,
          60.5820159
        ]
      },
      "properties": {
        "id": 582557908,
        "osm_type": "node"
      }
    },
    {
      "type": "Feature",
      "geometry": {
        "type": "Point",
        "coordinates": [
          16.9843142,
          61.0069208
        ]
      },
      "properties": {
        "id": 877499834,
        "osm_type": "node"
      }
    },
    {
      "type": "Feature",
      "geometry": {
        "type": "Point",
        "coordinates": [
          16.8262936,
          61.8265057
        ]
      },
      "properties": {
        "id": 1375840576,
        "osm_type": "node",
        "access": "customers"
      }
    },
    {
      "type": "Feature",
      "geometry": {
        "type": "Point",
        "coordinates": [
          17.2683419,
          61.0045314
        ]
      },
      "properties": {
        "id": 1806324782,
        "osm_type": "node"
      }
    },
    {
      "type": "Feature",
      "geometry": {
        "type": "Point",
        "coordinates": [
          17.2508661,
          61.0106718
        ]
      },
      "properties": {
        "id": 1806513373,
        "osm_type": "node"
      }
    },
    {
      "type": "Feature",
      "geometry": {
        "type": "Point",
        "coordinates": [
          16.9762569,
          61.5179951
        ]
      },
      "properties": {
        "id": 1844504648,
        "osm_type": "node"
      }
    },
    {
      "type": "Feature",
      "geometry": {
        "type": "Point",
        "coordinates": [
          15.4358745,
          61.4693179
        ]
      },
      "properties": {
        "id": 1855187197,
        "osm_type": "node"
      }
    },
    {
      "type": "Feature",
      "geometry": {
        "type": "Point",
        "coordinates": [
          17.1798177,
          60.6784473
        ]
      },
      "properties": {
        "id": 1865351040,
        "osm_type": "node"
      }
    },
    {
      "type": "Feature",
      "geometry": {
        "type": "Point",
        "coordinates": [
          17.179174,
          60.6778222
        ]
      },
      "properties": {
        "id": 1865351045,
        "osm_type": "node"
      }
    },
    {
      "type": "Feature",
      "geometry": {
        "type": "Point",
        "coordinates": [
          17.171775,
          60.644004
        ]
      },
      "properties": {
        "id": 1866314647,
        "osm_type": "node",
        "name": "Dass",
        "access": "yes"
      }
    },
    {
      "type": "Feature",
      "geometry": {
        "type": "Point",
        "coordinates": [
          17.175638,
          60.639508
        ]
      },
      "properties": {
        "id": 1866327617,
        "osm_type": "node"
      }
    },
    {
      "type": "Feature",
      "geometry": {
        "type": "Point",
        "coordinates": [
          16.1233124,
          61.7026729
        ]
      },
      "properties": {
        "id": 2399028999,
        "osm_type": "node"
      }
    },
    {
      "type": "Feature",
      "geometry": {
        "type": "Point",
        "coordinates": [
          14.7399093,
          61.5909925
        ]
      },
      "properties": {
        "id": 2973179836,
        "osm_type": "node",
        "access": "yes"
      }
    },
    {
      "type": "Feature",
      "geometry": {
        "type": "Point",
        "coordinates": [
          15.5532357,
          61.5254843
        ]
      },
      "properties": {
        "id": 2974620845,
        "osm_type": "node",
        "access": "yes"
      }
    },
    {
      "type": "Feature",
      "geometry": {
        "type": "Point",
        "coordinates": [
          14.7412768,
          61.6956211
        ]
      },
      "properties": {
        "id": 2975341812,
        "osm_type": "node"
      }
    },
    {
      "type": "Feature",
      "geometry": {
        "type": "Point",
        "coordinates": [
          17.1422799,
          61.0034247
        ]
      },
      "properties": {
        "id": 2998903380,
        "osm_type": "node"
      }
    },
    {
      "type": "Feature",
      "geometry": {
        "type": "Point",
        "coordinates": [
          17.3013315,
          61.8856711
        ]
      },
      "properties": {
        "id": 2998903400,
        "osm_type": "node"
      }
    },
    {
      "type": "Feature",
      "geometry": {
        "type": "Point",
        "coordinates": [
          14.6389712,
          61.6153948
        ]
      },
      "properties": {
        "id": 3089141070,
        "osm_type": "node"
      }
    },
    {
      "type": "Feature",
      "geometry": {
        "type": "Point",
        "coordinates": [
          16.8176377,
          60.6709714
        ]
      },
      "properties": {
        "id": 3235811662,
        "osm_type": "node"
      }
    },
    {
      "type": "Feature",
      "geometry": {
        "type": "Point",
        "coordinates": [
          17.341062,
          60.6559827
        ]
      },
      "properties": {
        "id": 3579152965,
        "osm_type": "node"
      }
    },
    {
      "type": "Feature",
      "geometry": {
        "type": "Point",
        "coordinates": [
          16.7266079,
          60.7079973
        ]
      },
      "properties": {
        "id": 3662618951,
        "osm_type": "node",
        "access": "yes"
      }
    },
    {
      "type": "Feature",
      "geometry": {
        "type": "Point",
        "coordinates": [
          16.9083765,
          60.2702409
        ]
      },
      "properties": {
        "id": 4167709290,
        "osm_type": "node",
        "access": "yes"
      }
    },
    {
      "type": "Feature",
      "geometry": {
        "type": "Point",
        "coordinates": [
          16.6957282,
          61.0934925
        ]
      },
      "properties": {
        "id": 4343008520,
        "osm_type": "node"
      }
    },
    {
      "type": "Feature",
      "geometry": {
        "type": "Point",
        "coordinates": [
          16.2319189,
          61.4536752
        ]
      },
      "properties": {
        "id": 4882336508,
        "osm_type": "node",
        "access": "permissive"
      }
    },
    {
      "type": "Feature",
      "geometry": {
        "type": "Point",
        "coordinates": [
          16.2506327,
          61.4841914
        ]
      },
      "properties": {
        "id": 4882337199,
        "osm_type": "node",
        "access": "yes"
      }
    },
    {
      "type": "Feature",
      "geometry": {
        "type": "Point",
        "coordinates": [
          16.2506193,
          61.4842068
        ]
      },
      "properties": {
        "id": 4882337200,
        "osm_type": "node",
        "access": "yes"
      }
    },
    {
      "type": "Feature",
      "geometry": {
        "type": "Point",
        "coordinates": [
          16.8125946,
          60.6704535
        ]
      },
      "properties": {
        "id": 4929590615,
        "osm_type": "node",
        "access": "yes"
      }
    },
    {
      "type": "Feature",
      "geometry": {
        "type": "Point",
        "coordinates": [
          15.4715015,
          61.4347466
        ]
      },
      "properties": {
        "id": 5003430131,
        "osm_type": "node"
      }
    },
    {
      "type": "Feature",
      "geometry": {
        "type": "Point",
        "coordinates": [
          15.555379,
          61.928555
        ]
      },
      "properties": {
        "id": 5055451025,
        "osm_type": "node"
      }
    },
    {
      "type": "Feature",
      "geometry": {
        "type": "Point",
        "coordinates": [
          17.2168284,
          61.9300703
        ]
      },
      "properties": {
        "id": 5056462487,
        "osm_type": "node",
        "access": "yes"
      }
    },
    {
      "type": "Feature",
      "geometry": {
        "type": "Point",
        "coordinates": [
          14.6205428,
          61.7974678
        ]
      },
      "properties": {
        "id": 5838548643,
        "osm_type": "node"
      }
    },
    {
      "type": "Feature",
      "geometry": {
        "type": "Point",
        "coordinates": [
          14.9256911,
          61.7411431
        ]
      },
      "properties": {
        "id": 5856225388,
        "osm_type": "node",
        "access": "yes"
      }
    },
    {
      "type": "Feature",
      "geometry": {
        "type": "Point",
        "coordinates": [
          17.0761442,
          61.9533511
        ]
      },
      "properties": {
        "id": 5919352162,
        "osm_type": "node",
        "access": "yes"
      }
    },
    {
      "type": "Feature",
      "geometry": {
        "type": "Point",
        "coordinates": [
          16.1066019,
          61.1786726
        ]
      },
      "properties": {
        "id": 6435446502,
        "osm_type": "node"
      }
    },
    {
      "type": "Feature",
      "geometry": {
        "type": "Point",
        "coordinates": [
          14.8233449,
          61.6003334
        ]
      },
      "properties": {
        "id": 6594168653,
        "osm_type": "node"
      }
    },
    {
      "type": "Feature",
      "geometry": {
        "type": "Point",
        "coordinates": [
          16.1876877,
          61.7160722
        ]
      },
      "properties": {
        "id": 6597395882,
        "osm_type": "node",
        "access": "yes"
      }
    },
    {
      "type": "Feature",
      "geometry": {
        "type": "Point",
        "coordinates": [
          16.8722888,
          61.7612877
        ]
      },
      "properties": {
        "id": 6597400987,
        "osm_type": "node"
      }
    },
    {
      "type": "Feature",
      "geometry": {
        "type": "Point",
        "coordinates": [
          16.3290037,
          61.616213
        ]
      },
      "properties": {
        "id": 6689547293,
        "osm_type": "node",
        "access": "yes"
      }
    },
    {
      "type": "Feature",
      "geometry": {
        "type": "Point",
        "coordinates": [
          17.1630801,
          60.6775309
        ]
      },
      "properties": {
        "id": 6700936908,
        "osm_type": "node",
        "name": "RWC"
      }
    },
    {
      "type": "Feature",
      "geometry": {
        "type": "Point",
        "coordinates": [
          17.1631471,
          60.6775467
        ]
      },
      "properties": {
        "id": 6700936910,
        "osm_type": "node",
        "name": "WC/Tvättstuga"
      }
    },
    {
      "type": "Feature",
      "geometry": {
        "type": "Point",
        "coordinates": [
          16.2926495,
          60.5423533
        ]
      },
      "properties": {
        "id": 6704300318,
        "osm_type": "node"
      }
    },
    {
      "type": "Feature",
      "geometry": {
        "type": "Point",
        "coordinates": [
          14.7530869,
          61.6855869
        ]
      },
      "properties": {
        "id": 6742139772,
        "osm_type": "node"
      }
    },
    {
      "type": "Feature",
      "geometry": {
        "type": "Point",
        "coordinates": [
          17.2147065,
          62.0105551
        ]
      },
      "properties": {
        "id": 6762201809,
        "osm_type": "node"
      }
    },
    {
      "type": "Feature",
      "geometry": {
        "type": "Point",
        "coordinates": [
          17.1066905,
          60.6748926
        ]
      },
      "properties": {
        "id": 7016581983,
        "osm_type": "node",
        "access": "yes"
      }
    },
    {
      "type": "Feature",
      "geometry": {
        "type": "Point",
        "coordinates": [
          17.03457,
          60.7298682
        ]
      },
      "properties": {
        "id": 7476966420,
        "osm_type": "node",
        "access": "yes"
      }
    },
    {
      "type": "Feature",
      "geometry": {
        "type": "Point",
        "coordinates": [
          17.0550835,
          60.738205
        ]
      },
      "properties": {
        "id": 7476966443,
        "osm_type": "node",
        "access": "yes"
      }
    },
    {
      "type": "Feature",
      "geometry": {
        "type": "Point",
        "coordinates": [
          16.7770457,
          60.7228019
        ]
      },
      "properties": {
        "id": 7563395655,
        "osm_type": "node",
        "access": "yes"
      }
    },
    {
      "type": "Feature",
      "geometry": {
        "type": "Point",
        "coordinates": [
          17.3358867,
          60.7108137
        ]
      },
      "properties": {
        "id": 7563595338,
        "osm_type": "node",
        "access": "yes"
      }
    },
    {
      "type": "Feature",
      "geometry": {
        "type": "Point",
        "coordinates": [
          17.3430535,
          60.7098486
        ]
      },
      "properties": {
        "id": 7563595339,
        "osm_type": "node",
        "access": "yes"
      }
    },
    {
      "type": "Feature",
      "geometry": {
        "type": "Point",
        "coordinates": [
          17.0855274,
          61.3019525
        ]
      },
      "properties": {
        "id": 7716879167,
        "osm_type": "node"
      }
    },
    {
      "type": "Feature",
      "geometry": {
        "type": "Point",
        "coordinates": [
          17.4690852,
          62.0873142
        ]
      },
      "properties": {
        "id": 7734759851,
        "osm_type": "node"
      }
    },
    {
      "type": "Feature",
      "geometry": {
        "type": "Point",
        "coordinates": [
          17.4338061,
          62.0605586
        ]
      },
      "properties": {
        "id": 7734880192,
        "osm_type": "node"
      }
    },
    {
      "type": "Feature",
      "geometry": {
        "type": "Point",
        "coordinates": [
          17.4300288,
          62.0656761
        ]
      },
      "properties": {
        "id": 7734880252,
        "osm_type": "node"
      }
    },
    {
      "type": "Feature",
      "geometry": {
        "type": "Point",
        "coordinates": [
          17.4183713,
          62.0244011
        ]
      },
      "properties": {
        "id": 7735023132,
        "osm_type": "node"
      }
    },
    {
      "type": "Feature",
      "geometry": {
        "type": "Point",
        "coordinates": [
          17.4134105,
          62.0178826
        ]
      },
      "properties": {
        "id": 7735155002,
        "osm_type": "node"
      }
    },
    {
      "type": "Feature",
      "geometry": {
        "type": "Point",
        "coordinates": [
          17.3407303,
          60.6554093
        ]
      },
      "properties": {
        "id": 7783527070,
        "osm_type": "node"
      }
    },
    {
      "type": "Feature",
      "geometry": {
        "type": "Point",
        "coordinates": [
          15.4159277,
          61.5162035
        ]
      },
      "properties": {
        "id": 7806871702,
        "osm_type": "node",
        "access": "yes"
      }
    },
    {
      "type": "Feature",
      "geometry": {
        "type": "Point",
        "coordinates": [
          15.4631622,
          61.4686934
        ]
      },
      "properties": {
        "id": 7810012340,
        "osm_type": "node"
      }
    },
    {
      "type": "Feature",
      "geometry": {
        "type": "Point",
        "coordinates": [
          16.9932919,
          61.7860194
        ]
      },
      "properties": {
        "id": 7811598398,
        "osm_type": "node",
        "access": "yes"
      }
    },
    {
      "type": "Feature",
      "geometry": {
        "type": "Point",
        "coordinates": [
          16.5095005,
          60.3625845
        ]
      },
      "properties": {
        "id": 7930511527,
        "osm_type": "node"
      }
    },
    {
      "type": "Feature",
      "geometry": {
        "type": "Point",
        "coordinates": [
          16.7363888,
          60.5245728
        ]
      },
      "properties": {
        "id": 8043145439,
        "osm_type": "node",
        "access": "yes"
      }
    },
    {
      "type": "Feature",
      "geometry": {
        "type": "Point",
        "coordinates": [
          16.7171676,
          61.9212666
        ]
      },
      "properties": {
        "id": 8909026934,
        "osm_type": "node",
        "access": "yes"
      }
    },
    {
      "type": "Feature",
      "geometry": {
        "type": "Point",
        "coordinates": [
          16.1515787,
          61.709975
        ]
      },
      "properties": {
        "id": 8960469331,
        "osm_type": "node"
      }
    },
    {
      "type": "Feature",
      "geometry": {
        "type": "Point",
        "coordinates": [
          16.1358127,
          61.7117896
        ]
      },
      "properties": {
        "id": 8960469364,
        "osm_type": "node",
        "access": "customers"
      }
    },
    {
      "type": "Feature",
      "geometry": {
        "type": "Point",
        "coordinates": [
          17.2135809,
          61.3090419
        ]
      },
      "properties": {
        "id": 8989519717,
        "osm_type": "node"
      }
    },
    {
      "type": "Feature",
      "geometry": {
        "type": "Point",
        "coordinates": [
          16.8145546,
          60.6674853
        ]
      },
      "properties": {
        "id": 9214001050,
        "osm_type": "node"
      }
    },
    {
      "type": "Feature",
      "geometry": {
        "type": "Point",
        "coordinates": [
          17.1075853,
          61.7278699
        ]
      },
      "properties": {
        "id": 9882924615,
        "osm_type": "node",
        "access": "customers"
      }
    },
    {
      "type": "Feature",
      "geometry": {
        "type": "Point",
        "coordinates": [
          16.1868546,
          61.7093352
        ]
      },
      "properties": {
        "id": 9885127818,
        "osm_type": "node",
        "opening_hours": "Mo-Su,PH 11:00-16:00",
        "access": "yes"
      }
    },
    {
      "type": "Feature",
      "geometry": {
        "type": "Point",
        "coordinates": [
          16.1875037,
          61.7093884
        ]
      },
      "properties": {
        "id": 9885127825,
        "osm_type": "node",
        "access": "yes"
      }
    },
    {
      "type": "Feature",
      "geometry": {
        "type": "Point",
        "coordinates": [
          16.7899352,
          60.2093705
        ]
      },
      "properties": {
        "id": 9914024858,
        "osm_type": "node",
        "access": "yes"
      }
    },
    {
      "type": "Feature",
      "geometry": {
        "type": "Point",
        "coordinates": [
          16.8087055,
          60.2627095
        ]
      },
      "properties": {
        "id": 9914024861,
        "osm_type": "node",
        "access": "yes"
      }
    },
    {
      "type": "Feature",
      "geometry": {
        "type": "Point",
        "coordinates": [
          16.8155198,
          60.2381509
        ]
      },
      "properties": {
        "id": 9914024867,
        "osm_type": "node",
        "access": "yes"
      }
    },
    {
      "type": "Feature",
      "geometry": {
        "type": "Point",
        "coordinates": [
          17.1045522,
          61.7275127
        ]
      },
      "properties": {
        "id": 9921037582,
        "osm_type": "node",
        "access": "yes"
      }
    },
    {
      "type": "Feature",
      "geometry": {
        "type": "Point",
        "coordinates": [
          17.3504788,
          60.6538096
        ]
      },
      "properties": {
        "id": 10017748070,
        "osm_type": "node",
        "access": "customers"
      }
    },
    {
      "type": "Feature",
      "geometry": {
        "type": "Point",
        "coordinates": [
          17.3436533,
          61.957451
        ]
      },
      "properties": {
        "id": 10021515280,
        "osm_type": "node"
      }
    },
    {
      "type": "Feature",
      "geometry": {
        "type": "Point",
        "coordinates": [
          17.4347676,
          61.6306672
        ]
      },
      "properties": {
        "id": 10025317282,
        "osm_type": "node",
        "access": "yes"
      }
    },
    {
      "type": "Feature",
      "geometry": {
        "type": "Point",
        "coordinates": [
          17.4007384,
          61.6611334
        ]
      },
      "properties": {
        "id": 10025317289,
        "osm_type": "node",
        "access": "yes"
      }
    },
    {
      "type": "Feature",
      "geometry": {
        "type": "Point",
        "coordinates": [
          17.3117011,
          61.9579664
        ]
      },
      "properties": {
        "id": 10025318590,
        "osm_type": "node",
        "access": "yes"
      }
    },
    {
      "type": "Feature",
      "geometry": {
        "type": "Point",
        "coordinates": [
          16.5697432,
          60.765668
        ]
      },
      "properties": {
        "id": 10702509476,
        "osm_type": "node"
      }
    },
    {
      "type": "Feature",
      "geometry": {
        "type": "Point",
        "coordinates": [
          16.1544527,
          61.7238287
        ]
      },
      "properties": {
        "id": 10704748367,
        "osm_type": "node"
      }
    },
    {
      "type": "Feature",
      "geometry": {
        "type": "Point",
        "coordinates": [
          17.2716331,
          60.8319526
        ]
      },
      "properties": {
        "id": 11016771605,
        "osm_type": "node"
      }
    },
    {
      "type": "Feature",
      "geometry": {
        "type": "Point",
        "coordinates": [
          17.2829342,
          61.0566966
        ]
      },
      "properties": {
        "id": 11040070955,
        "osm_type": "node"
      }
    },
    {
      "type": "Feature",
      "geometry": {
        "type": "Point",
        "coordinates": [
          17.237697,
          61.0442696
        ]
      },
      "properties": {
        "id": 11040070958,
        "osm_type": "node"
      }
    },
    {
      "type": "Feature",
      "geometry": {
        "type": "Point",
        "coordinates": [
          17.1583907,
          61.0484378
        ]
      },
      "properties": {
        "id": 11040070960,
        "osm_type": "node"
      }
    },
    {
      "type": "Feature",
      "geometry": {
        "type": "Point",
        "coordinates": [
          16.4489926,
          61.9474451
        ]
      },
      "properties": {
        "id": 11057538983,
        "osm_type": "node"
      }
    },
    {
      "type": "Feature",
      "geometry": {
        "type": "Point",
        "coordinates": [
          15.6405436,
          61.9147226
        ]
      },
      "properties": {
        "id": 11078186547,
        "osm_type": "node",
        "access": "yes"
      }
    },
    {
      "type": "Feature",
      "geometry": {
        "type": "Point",
        "coordinates": [
          15.6404909,
          61.9147435
        ]
      },
      "properties": {
        "id": 11078186548,
        "osm_type": "node",
        "access": "yes"
      }
    },
    {
      "type": "Feature",
      "geometry": {
        "type": "Point",
        "coordinates": [
          16.1410335,
          61.7129623
        ]
      },
      "properties": {
        "id": 11096521458,
        "osm_type": "node"
      }
    },
    {
      "type": "Feature",
      "geometry": {
        "type": "Point",
        "coordinates": [
          17.1615978,
          60.6730005
        ]
      },
      "properties": {
        "id": 11097819083,
        "osm_type": "node",
        "access": "yes"
      }
    },
    {
      "type": "Feature",
      "geometry": {
        "type": "Point",
        "coordinates": [
          17.142145,
          60.6747592
        ]
      },
      "properties": {
        "id": 11097819084,
        "osm_type": "node",
        "access": "yes"
      }
    },
    {
      "type": "Feature",
      "geometry": {
        "type": "Point",
        "coordinates": [
          17.1479008,
          60.670001
        ]
      },
      "properties": {
        "id": 11097819085,
        "osm_type": "node",
        "access": "yes"
      }
    },
    {
      "type": "Feature",
      "geometry": {
        "type": "Point",
        "coordinates": [
          15.1776136,
          61.7326658
        ]
      },
      "properties": {
        "id": 11555187140,
        "osm_type": "node",
        "access": "yes"
      }
    },
    {
      "type": "Feature",
      "geometry": {
        "type": "Point",
        "coordinates": [
          17.1688246,
          60.6493471
        ]
      },
      "properties": {
        "id": 11703400577,
        "osm_type": "node",
        "access": "yes"
      }
    },
    {
      "type": "Feature",
      "geometry": {
        "type": "Point",
        "coordinates": [
          15.1515237,
          61.7499445
        ]
      },
      "properties": {
        "id": 12015971050,
        "osm_type": "node"
      }
    },
    {
      "type": "Feature",
      "geometry": {
        "type": "Point",
        "coordinates": [
          16.6710199,
          61.6541141
        ]
      },
      "properties": {
        "id": 12037997177,
        "osm_type": "node"
      }
    },
    {
      "type": "Feature",
      "geometry": {
        "type": "Point",
        "coordinates": [
          16.7730852,
          61.8050962
        ]
      },
      "properties": {
        "id": 12057690969,
        "osm_type": "node"
      }
    },
    {
      "type": "Feature",
      "geometry": {
        "type": "Point",
        "coordinates": [
          15.6712247,
          61.7739295
        ]
      },
      "properties": {
        "id": 12079065826,
        "osm_type": "node",
        "access": "yes"
      }
    },
    {
      "type": "Feature",
      "geometry": {
        "type": "Point",
        "coordinates": [
          16.042165,
          61.8391722
        ]
      },
      "properties": {
        "id": 12094690723,
        "osm_type": "node",
        "access": "customers"
      }
    },
    {
      "type": "Feature",
      "geometry": {
        "type": "Point",
        "coordinates": [
          16.0421284,
          61.8392219
        ]
      },
      "properties": {
        "id": 12094708989,
        "osm_type": "node",
        "access": "customers"
      }
    },
    {
      "type": "Feature",
      "geometry": {
        "type": "Point",
        "coordinates": [
          16.9312563,
          61.3341105
        ]
      },
      "properties": {
        "id": 12106063959,
        "osm_type": "node"
      }
    },
    {
      "type": "Feature",
      "geometry": {
        "type": "Point",
        "coordinates": [
          17.1583315,
          60.9265398
        ]
      },
      "properties": {
        "id": 12106121271,
        "osm_type": "node"
      }
    },
    {
      "type": "Feature",
      "geometry": {
        "type": "Point",
        "coordinates": [
          14.538519,
          61.6255581
        ]
      },
      "properties": {
        "id": 12139817391,
        "osm_type": "node"
      }
    },
    {
      "type": "Feature",
      "geometry": {
        "type": "Point",
        "coordinates": [
          14.7960943,
          61.5376727
        ]
      },
      "properties": {
        "id": 12140080784,
        "osm_type": "node"
      }
    },
    {
      "type": "Feature",
      "geometry": {
        "type": "Point",
        "coordinates": [
          15.8634284,
          61.2674418
        ]
      },
      "properties": {
        "id": 12148275680,
        "osm_type": "node",
        "access": "yes"
      }
    },
    {
      "type": "Feature",
      "geometry": {
        "type": "Point",
        "coordinates": [
          16.2278664,
          61.2522608
        ]
      },
      "properties": {
        "id": 12153959109,
        "osm_type": "node",
        "access": "yes"
      }
    },
    {
      "type": "Feature",
      "geometry": {
        "type": "Point",
        "coordinates": [
          16.7653084,
          61.9026487
        ]
      },
      "properties": {
        "id": 12206834537,
        "osm_type": "node",
        "access": "yes"
      }
    },
    {
      "type": "Feature",
      "geometry": {
        "type": "Point",
        "coordinates": [
          16.6871206,
          61.9713644
        ]
      },
      "properties": {
        "id": 12206885960,
        "osm_type": "node",
        "access": "yes"
      }
    },
    {
      "type": "Feature",
      "geometry": {
        "type": "Point",
        "coordinates": [
          16.2435221,
          61.9655706
        ]
      },
      "properties": {
        "id": 12245125898,
        "osm_type": "node"
      }
    },
    {
      "type": "Feature",
      "geometry": {
        "type": "Point",
        "coordinates": [
          17.3463093,
          61.897251
        ]
      },
      "properties": {
        "id": 12249140502,
        "osm_type": "node",
        "access": "customers"
      }
    },
    {
      "type": "Feature",
      "geometry": {
        "type": "Point",
        "coordinates": [
          15.2133345,
          61.7391892
        ]
      },
      "properties": {
        "id": 12402611096,
        "osm_type": "node",
        "access": "yes"
      }
    },
    {
      "type": "Feature",
      "geometry": {
        "type": "Point",
        "coordinates": [
          15.2135587,
          61.7405955
        ]
      },
      "properties": {
        "id": 12402677104,
        "osm_type": "node",
        "access": "yes"
      }
    },
    {
      "type": "Feature",
      "geometry": {
        "type": "Point",
        "coordinates": [
          15.1226498,
          61.7251279
        ]
      },
      "properties": {
        "id": 12609349787,
        "osm_type": "node",
        "access": "yes"
      }
    },
    {
      "type": "Feature",
      "geometry": {
        "type": "Point",
        "coordinates": [
          15.2080193,
          61.7715351
        ]
      },
      "properties": {
        "id": 12629101065,
        "osm_type": "node"
      }
    },
    {
      "type": "Feature",
      "geometry": {
        "type": "Point",
        "coordinates": [
          15.054359,
          61.6743851
        ]
      },
      "properties": {
        "id": 12660495407,
        "osm_type": "node"
      }
    },
    {
      "type": "Feature",
      "geometry": {
        "type": "Point",
        "coordinates": [
          15.0909515,
          61.7889308
        ]
      },
      "properties": {
        "id": 12673282049,
        "osm_type": "node"
      }
    },
    {
      "type": "Feature",
      "geometry": {
        "type": "Point",
        "coordinates": [
          15.0379391,
          61.7438899
        ]
      },
      "properties": {
        "id": 12789353796,
        "osm_type": "node"
      }
    },
    {
      "type": "Feature",
      "geometry": {
        "type": "Point",
        "coordinates": [
          16.8356162,
          60.694547
        ]
      },
      "properties": {
        "id": 12806471069,
        "osm_type": "node"
      }
    },
    {
      "type": "Feature",
      "geometry": {
        "type": "Point",
        "coordinates": [
          16.0941703,
          61.8250086
        ]
      },
      "properties": {
        "id": 12813369670,
        "osm_type": "node"
      }
    },
    {
      "type": "Feature",
      "geometry": {
        "type": "Point",
        "coordinates": [
          16.0968164,
          61.8269975
        ]
      },
      "properties": {
        "id": 12813392357,
        "osm_type": "node",
        "opening_hours": "Mo-Fr 05:00-23:00, Sa-Su 06:00-23:00",
        "access": "yes"
      }
    },
    {
      "type": "Feature",
      "geometry": {
        "type": "Point",
        "coordinates": [
          14.595901,
          61.7440304
        ]
      },
      "properties": {
        "id": 12836985006,
        "osm_type": "node",
        "access": "yes"
      }
    },
    {
      "type": "Feature",
      "geometry": {
        "type": "Point",
        "coordinates": [
          17.4175056,
          62.0332003
        ]
      },
      "properties": {
        "id": 12943795181,
        "osm_type": "node",
        "access": "customers"
      }
    },
    {
      "type": "Feature",
      "geometry": {
        "type": "Point",
        "coordinates": [
          16.9673839,
          61.0727336
        ]
      },
      "properties": {
        "id": 12974218512,
        "osm_type": "node"
      }
    },
    {
      "type": "Feature",
      "geometry": {
        "type": "Point",
        "coordinates": [
          16.0468199,
          61.3434576
        ]
      },
      "properties": {
        "id": 13008746073,
        "osm_type": "node",
        "access": "customers"
      }
    },
    {
      "type": "Feature",
      "geometry": {
        "type": "Point",
        "coordinates": [
          16.0468438,
          61.3434821
        ]
      },
      "properties": {
        "id": 13008746074,
        "osm_type": "node",
        "access": "customers"
      }
    },
    {
      "type": "Feature",
      "geometry": {
        "type": "Point",
        "coordinates": [
          16.046866,
          61.3435049
        ]
      },
      "properties": {
        "id": 13008746075,
        "osm_type": "node",
        "access": "customers"
      }
    },
    {
      "type": "Feature",
      "geometry": {
        "type": "Point",
        "coordinates": [
          16.3942075,
          61.477111
        ]
      },
      "properties": {
        "id": 13045564654,
        "osm_type": "node"
      }
    },
    {
      "type": "Feature",
      "geometry": {
        "type": "Point",
        "coordinates": [
          16.7187638,
          61.9586962
        ]
      },
      "properties": {
        "id": 13045580373,
        "osm_type": "node"
      }
    },
    {
      "type": "Feature",
      "geometry": {
        "type": "Point",
        "coordinates": [
          16.3015705,
          61.705624
        ]
      },
      "properties": {
        "id": 13045580985,
        "osm_type": "node"
      }
    },
    {
      "type": "Feature",
      "geometry": {
        "type": "Point",
        "coordinates": [
          16.4376383,
          61.7571443
        ]
      },
      "properties": {
        "id": 13045604757,
        "osm_type": "node"
      }
    },
    {
      "type": "Feature",
      "geometry": {
        "type": "Point",
        "coordinates": [
          16.7146269,
          61.9593155
        ]
      },
      "properties": {
        "id": 13045608300,
        "osm_type": "node"
      }
    },
    {
      "type": "Feature",
      "geometry": {
        "type": "Point",
        "coordinates": [
          16.3173509,
          61.66542
        ]
      },
      "properties": {
        "id": 13045614156,
        "osm_type": "node"
      }
    },
    {
      "type": "Feature",
      "geometry": {
        "type": "Point",
        "coordinates": [
          16.71301,
          61.9597831
        ]
      },
      "properties": {
        "id": 13045621137,
        "osm_type": "node"
      }
    },
    {
      "type": "Feature",
      "geometry": {
        "type": "Point",
        "coordinates": [
          16.6571035,
          61.932185
        ]
      },
      "properties": {
        "id": 13045622039,
        "osm_type": "node"
      }
    },
    {
      "type": "Feature",
      "geometry": {
        "type": "Point",
        "coordinates": [
          16.557681,
          61.860868
        ]
      },
      "properties": {
        "id": 13045624101,
        "osm_type": "node"
      }
    },
    {
      "type": "Feature",
      "geometry": {
        "type": "Point",
        "coordinates": [
          16.3750869,
          61.0217595
        ]
      },
      "properties": {
        "id": 13048294207,
        "osm_type": "node"
      }
    },
    {
      "type": "Feature",
      "geometry": {
        "type": "Point",
        "coordinates": [
          16.1501576,
          61.2351882
        ]
      },
      "properties": {
        "id": 13048309564,
        "osm_type": "node"
      }
    },
    {
      "type": "Feature",
      "geometry": {
        "type": "Point",
        "coordinates": [
          16.1880861,
          61.707534
        ]
      },
      "properties": {
        "id": 13052664571,
        "osm_type": "node"
      }
    },
    {
      "type": "Feature",
      "geometry": {
        "type": "Point",
        "coordinates": [
          17.1388833,
          60.6740061
        ]
      },
      "properties": {
        "id": 13073951931,
        "osm_type": "node"
      }
    },
    {
      "type": "Feature",
      "geometry": {
        "type": "Point",
        "coordinates": [
          16.8851228,
          60.2881753
        ]
      },
      "properties": {
        "id": 13074109313,
        "osm_type": "node"
      }
    },
    {
      "type": "Feature",
      "geometry": {
        "type": "Point",
        "coordinates": [
          16.6055047,
          60.3464468
        ]
      },
      "properties": {
        "id": 13176584218,
        "osm_type": "node"
      }
    },
    {
      "type": "Feature",
      "geometry": {
        "type": "Point",
        "coordinates": [
          16.8697187,
          61.7067511
        ]
      },
      "properties": {
        "id": 13414478237,
        "osm_type": "node",
        "access": "yes"
      }
    },
    {
      "type": "Feature",
      "geometry": {
        "type": "Point",
        "coordinates": [
          16.8787055,
          61.7019184
        ]
      },
      "properties": {
        "id": 13414478254,
        "osm_type": "node",
        "access": "permissive"
      }
    },
    {
      "type": "Feature",
      "geometry": {
        "type": "Point",
        "coordinates": [
          15.5491304,
          61.5748369
        ]
      },
      "properties": {
        "id": 13414622207,
        "osm_type": "node",
        "access": "yes"
      }
    },
    {
      "type": "Feature",
      "geometry": {
        "type": "Point",
        "coordinates": [
          15.22163,
          61.7309102
        ]
      },
      "properties": {
        "id": 13415527388,
        "osm_type": "node",
        "access": "yes"
      }
    },
    {
      "type": "Feature",
      "geometry": {
        "type": "Point",
        "coordinates": [
          15.3128493,
          61.7289722
        ]
      },
      "properties": {
        "id": 13415531881,
        "osm_type": "node",
        "access": "yes"
      }
    },
    {
      "type": "Feature",
      "geometry": {
        "type": "Point",
        "coordinates": [
          15.1565516,
          61.7422394
        ]
      },
      "properties": {
        "id": 13415545398,
        "osm_type": "node",
        "access": "customers"
      }
    },
    {
      "type": "Feature",
      "geometry": {
        "type": "Point",
        "coordinates": [
          16.8140152,
          60.6667362
        ]
      },
      "properties": {
        "id": 13456555844,
        "osm_type": "node"
      }
    },
    {
      "type": "Feature",
      "geometry": {
        "type": "Point",
        "coordinates": [
          16.9367065,
          62.0165405
        ]
      },
      "properties": {
        "id": 13653565844,
        "osm_type": "node"
      }
    },
    {
      "type": "Feature",
      "geometry": {
        "type": "Point",
        "coordinates": [
          17.1247322,
          61.4599539
        ]
      },
      "properties": {
        "id": 133081078,
        "osm_type": "way"
      }
    },
    {
      "type": "Feature",
      "geometry": {
        "type": "Point",
        "coordinates": [
          14.7639637,
          61.7674544
        ]
      },
      "properties": {
        "id": 175847391,
        "osm_type": "way",
        "access": "yes"
      }
    },
    {
      "type": "Feature",
      "geometry": {
        "type": "Point",
        "coordinates": [
          14.8306533,
          61.74467
        ]
      },
      "properties": {
        "id": 175847392,
        "osm_type": "way"
      }
    },
    {
      "type": "Feature",
      "geometry": {
        "type": "Point",
        "coordinates": [
          16.4989326,
          60.759993
        ]
      },
      "properties": {
        "id": 298903079,
        "osm_type": "way",
        "name": "Värmestuga"
      }
    },
    {
      "type": "Feature",
      "geometry": {
        "type": "Point",
        "coordinates": [
          16.4987205,
          60.7596516
        ]
      },
      "properties": {
        "id": 298903404,
        "osm_type": "way"
      }
    },
    {
      "type": "Feature",
      "geometry": {
        "type": "Point",
        "coordinates": [
          17.2580936,
          62.0502724
        ]
      },
      "properties": {
        "id": 325490416,
        "osm_type": "way"
      }
    },
    {
      "type": "Feature",
      "geometry": {
        "type": "Point",
        "coordinates": [
          16.5599079,
          61.8195413
        ]
      },
      "properties": {
        "id": 504094342,
        "osm_type": "way"
      }
    },
    {
      "type": "Feature",
      "geometry": {
        "type": "Point",
        "coordinates": [
          17.0605659,
          61.3044838
        ]
      },
      "properties": {
        "id": 531038969,
        "osm_type": "way"
      }
    },
    {
      "type": "Feature",
      "geometry": {
        "type": "Point",
        "coordinates": [
          16.7180237,
          62.0834216
        ]
      },
      "properties": {
        "id": 660251873,
        "osm_type": "way"
      }
    },
    {
      "type": "Feature",
      "geometry": {
        "type": "Point",
        "coordinates": [
          17.3396118,
          60.6536947
        ]
      },
      "properties": {
        "id": 709814890,
        "osm_type": "way"
      }
    },
    {
      "type": "Feature",
      "geometry": {
        "type": "Point",
        "coordinates": [
          17.1137697,
          60.6742704
        ]
      },
      "properties": {
        "id": 771924033,
        "osm_type": "way",
        "access": "yes"
      }
    },
    {
      "type": "Feature",
      "geometry": {
        "type": "Point",
        "coordinates": [
          17.1273926,
          60.6749272
        ]
      },
      "properties": {
        "id": 779614616,
        "osm_type": "way",
        "access": "yes"
      }
    },
    {
      "type": "Feature",
      "geometry": {
        "type": "Point",
        "coordinates": [
          16.8851109,
          60.2882063
        ]
      },
      "properties": {
        "id": 783181882,
        "osm_type": "way",
        "access": "yes"
      }
    },
    {
      "type": "Feature",
      "geometry": {
        "type": "Point",
        "coordinates": [
          16.1863374,
          61.7083411
        ]
      },
      "properties": {
        "id": 828691678,
        "osm_type": "way"
      }
    },
    {
      "type": "Feature",
      "geometry": {
        "type": "Point",
        "coordinates": [
          16.8135395,
          60.6676609
        ]
      },
      "properties": {
        "id": 997903503,
        "osm_type": "way"
      }
    },
    {
      "type": "Feature",
      "geometry": {
        "type": "Point",
        "coordinates": [
          16.1875796,
          61.9736171
        ]
      },
      "properties": {
        "id": 1074135643,
        "osm_type": "way"
      }
    },
    {
      "type": "Feature",
      "geometry": {
        "type": "Point",
        "coordinates": [
          17.1664209,
          61.4209655
        ]
      },
      "properties": {
        "id": 1077715013,
        "osm_type": "way",
        "access": "yes"
      }
    },
    {
      "type": "Feature",
      "geometry": {
        "type": "Point",
        "coordinates": [
          16.4988735,
          60.7593174
        ]
      },
      "properties": {
        "id": 1127820113,
        "osm_type": "way"
      }
    },
    {
      "type": "Feature",
      "geometry": {
        "type": "Point",
        "coordinates": [
          16.5081531,
          60.7458346
        ]
      },
      "properties": {
        "id": 1127867392,
        "osm_type": "way",
        "access": "yes"
      }
    },
    {
      "type": "Feature",
      "geometry": {
        "type": "Point",
        "coordinates": [
          16.4939446,
          60.7504661
        ]
      },
      "properties": {
        "id": 1279981969,
        "osm_type": "way"
      }
    },
    {
      "type": "Feature",
      "geometry": {
        "type": "Point",
        "coordinates": [
          17.0946743,
          60.9140267
        ]
      },
      "properties": {
        "id": 1307432863,
        "osm_type": "way"
      }
    },
    {
      "type": "Feature",
      "geometry": {
        "type": "Point",
        "coordinates": [
          17.201908,
          61.765016
        ]
      },
      "properties": {
        "id": 1307453004,
        "osm_type": "way"
      }
    },
    {
      "type": "Feature",
      "geometry": {
        "type": "Point",
        "coordinates": [
          16.8178331,
          60.6696989
        ]
      },
      "properties": {
        "id": 1358893611,
        "osm_type": "way"
      }
    },
    {
      "type": "Feature",
      "geometry": {
        "type": "Point",
        "coordinates": [
          17.1179182,
          61.7311001
        ]
      },
      "properties": {
        "id": 1378922870,
        "osm_type": "way",
        "opening_hours": "closed",
        "access": "no"
      }
    },
    {
      "type": "Feature",
      "geometry": {
        "type": "Point",
        "coordinates": [
          15.0008657,
          61.7100243
        ]
      },
      "properties": {
        "id": 1385851798,
        "osm_type": "way"
      }
    },
    {
      "type": "Feature",
      "geometry": {
        "type": "Point",
        "coordinates": [
          14.6361723,
          61.7964451
        ]
      },
      "properties": {
        "id": 1413459716,
        "osm_type": "way",
        "access": "yes"
      }
    }
  ]
}