{
  "type": "FeatureCollection",
  "features": [
    {
      "type": "Feature",
      "geometry": {
        "type": "Point",
        "coordinates": [
          26.0771257,
          44.5716438
        ]
      },
      "properties": {
        "id": 4836899634,
        "osm_type": "node",
        "vending": "drinks",
        "check_date": "2023-10-11"
      }
    },
    {
      "type": "Feature",
      "geometry": {
        "type": "Point",
        "coordinates": [
          26.0769819,
          44.5720856
        ]
      },
      "properties": {
        "id": 4836899636,
        "osm_type": "node",
        "vending": "drinks",
        "check_date": "2023-10-11"
      }
    },
    {
      "type": "Feature",
      "geometry": {
        "type": "Point",
        "coordinates": [
          26.0777131,
          44.5719283
        ]
      },
      "properties": {
        "id": 4836902825,
        "osm_type": "node",
        "vending": "drinks",
        "check_date": "2023-10-11"
      }
    },
    {
      "type": "Feature",
      "geometry": {
        "type": "Point",
        "coordinates": [
          26.077295,
          44.5714034
        ]
      },
      "properties": {
        "id": 4836902829,
        "osm_type": "node",
        "vending": "drinks",
        "check_date": "2023-10-11"
      }
    },
    {
      "type": "Feature",
      "geometry": {
        "type": "Point",
        "coordinates": [
          26.081339,
          44.57061
        ]
      },
      "properties": {
        "id": 4836902844,
        "osm_type": "node",
        "vending": "drinks",
        "check_date": "2023-10-11"
      }
    },
    {
      "type": "Feature",
      "geometry": {
        "type": "Point",
        "coordinates": [
          26.0773041,
          44.5709571
        ]
      },
      "properties": {
        "id": 4836903123,
        "osm_type": "node",
        "vending": "drinks;sweets;food",
        "check_date": "2023-09-13"
      }
    },
    {
      "type": "Feature",
      "geometry": {
        "type": "Point",
        "coordinates": [
          26.0781041,
          44.5710784
        ]
      },
      "properties": {
        "id": 4836903124,
        "osm_type": "node",
        "vending": "drinks;food",
        "check_date": "2023-10-11"
      }
    },
    {
      "type": "Feature",
      "geometry": {
        "type": "Point",
        "coordinates": [
          26.0816941,
          44.5705997
        ]
      },
      "properties": {
        "id": 5014722825,
        "osm_type": "node",
        "vending": "drinks",
        "check_date": "2022-05-22"
      }
    },
    {
      "type": "Feature",
      "geometry": {
        "type": "Point",
        "coordinates": [
          26.0775521,
          44.5694191
        ]
      },
      "properties": {
        "id": 11257054225,
        "osm_type": "node",
        "vending": "food;water;sweets"
      }
    },
    {
      "type": "Feature",
      "geometry": {
        "type": "Point",
        "coordinates": [
          26.0773931,
          44.5693603
        ]
      },
      "properties": {
        "id": 11257068773,
        "osm_type": "node",
        "vending": "food;water;sweets"
      }
    },
    {
      "type": "Feature",
      "geometry": {
        "type": "Point",
        "coordinates": [
          26.0792354,
          44.5705175
        ]
      },
      "properties": {
        "id": 12593108580,
        "osm_type": "node",
        "vending": "water;drinks",
        "check_date": "2025-02-16"
      }
    },
    {
      "type": "Feature",
      "geometry": {
        "type": "Point",
        "coordinates": [
          26.0808694,
          44.5707618
        ]
      },
      "properties": {
        "id": 12593191711,
        "osm_type": "node",
        "vending": "water;drinks"
      }
    },
    {
      "type": "Feature",
      "geometry": {
        "type": "Point",
        "coordinates": [
          26.0779305,
          44.5721704
        ]
      },
      "properties": {
        "id": 12593422567,
        "osm_type": "node",
        "vending": "drinks;water"
      }
    },
    {
      "type": "Feature",
      "geometry": {
        "type": "Point",
        "coordinates": [
          26.0797607,
          44.5706181
        ]
      },
      "properties": {
        "id": 12593422568,
        "osm_type": "node",
        "vending": "drinks;water"
      }
    },
    {
      "type": "Feature",
      "geometry": {
        "type": "Point",
        "coordinates": [
          26.0797284,
          44.570567
        ]
      },
      "properties": {
        "id": 12593422577,
        "osm_type": "node",
        "vending": "drinks;water"
      }
    },
    {
      "type": "Feature",
      "geometry": {
        "type": "Point",
        "coordinates": [
          26.0797564,
          44.5706553
        ]
      },
      "properties": {
        "id": 12593422581,
        "osm_type": "node",
        "vending": "drinks;water"
      }
    },
    {
      "type": "Feature",
      "geometry": {
        "type": "Point",
        "coordinates": [
          26.0804992,
          44.5706122
        ]
      },
      "properties": {
        "id": 12593422589,
        "osm_type": "node",
        "vending": "drinks;water"
      }
    }
  ]
}