{
  "type": "FeatureCollection",
  "features": [
    {
      "type": "Feature",
      "geometry": {
        "type": "Point",
        "coordinates": [
          20.7316142,
          48.0636878
        ]
      },
      "properties": {
        "id": 7825597712,
        "osm_type": "node",
        "vending": "drinks"
      }
    },
    {
      "type": "Feature",
      "geometry": {
        "type": "Point",
        "coordinates": [
          21.6389043,
          48.4127577
        ]
      },
      "properties": {
        "id": 11482848596,
        "osm_type": "node",
        "vending": "drinks"
      }
    },
    {
      "type": "Feature",
      "geometry": {
        "type": "Point",
        "coordinates": [
          21.638372,
          48.4126747
        ]
      },
      "properties": {
        "id": 11482848616,
        "osm_type": "node",
        "vending": "coffee"
      }
    },
    {
      "type": "Feature",
      "geometry": {
        "type": "Point",
        "coordinates": [
          21.6383685,
          48.4126785
        ]
      },
      "properties": {
        "id": 11482848617,
        "osm_type": "node",
        "vending": "drinks"
      }
    },
    {
      "type": "Feature",
      "geometry": {
        "type": "Point",
        "coordinates": [
          21.4114632,
          48.1226344
        ]
      },
      "properties": {
        "id": 12125424055,
        "osm_type": "node",
        "vending": "milk"
      }
    },
    {
      "type": "Feature",
      "geometry": {
        "type": "Point",
        "coordinates": [
          21.6576509,
          48.3860601
        ]
      },
      "properties": {
        "id": 13516268475,
        "osm_type": "node",
        "vending": "coffee;drinks;food",
        "check_date": "2026-02-01"
      }
    },
    {
      "type": "Feature",
      "geometry": {
        "type": "Point",
        "coordinates": [
          21.2147159,
          48.1560191
        ]
      },
      "properties": {
        "id": 13516790623,
        "osm_type": "node",
        "vending": "coffee",
        "check_date": "2026-02-01"
      }
    },
    {
      "type": "Feature",
      "geometry": {
        "type": "Point",
        "coordinates": [
          20.5674931,
          47.7974712
        ]
      },
      "properties": {
        "id": 13623606346,
        "osm_type": "node",
        "vending": "coffee",
        "check_date": "2026-03-06"
      }
    },
    {
      "type": "Feature",
      "geometry": {
        "type": "Point",
        "coordinates": [
          20.809823,
          48.0988725
        ]
      },
      "properties": {
        "id": 13698231249,
        "osm_type": "node",
        "vending": "coffee",
        "check_date": "2026-04-01"
      }
    },
    {
      "type": "Feature",
      "geometry": {
        "type": "Point",
        "coordinates": [
          20.7912859,
          48.1055439
        ]
      },
      "properties": {
        "id": 13698780199,
        "osm_type": "node",
        "vending": "coffee",
        "check_date": "2026-04-01"
      }
    },
    {
      "type": "Feature",
      "geometry": {
        "type": "Point",
        "coordinates": [
          20.7912904,
          48.1055476
        ]
      },
      "properties": {
        "id": 13698780200,
        "osm_type": "node",
        "vending": "drinks;sweets",
        "check_date": "2026-04-01"
      }
    }
  ]
}