{
  "type": "FeatureCollection",
  "features": [
    {
      "type": "Feature",
      "geometry": {
        "type": "Point",
        "coordinates": [
          27.5610587,
          44.61227
        ]
      },
      "properties": {
        "id": 2355949729,
        "osm_type": "node"
      }
    },
    {
      "type": "Feature",
      "geometry": {
        "type": "Point",
        "coordinates": [
          27.5782071,
          44.6174312
        ]
      },
      "properties": {
        "id": 2355949732,
        "osm_type": "node"
      }
    },
    {
      "type": "Feature",
      "geometry": {
        "type": "Point",
        "coordinates": [
          26.3768309,
          44.5521935
        ]
      },
      "properties": {
        "id": 4781997021,
        "osm_type": "node",
        "name": "Apă de băut"
      }
    },
    {
      "type": "Feature",
      "geometry": {
        "type": "Point",
        "coordinates": [
          27.1747431,
          44.617453
        ]
      },
      "properties": {
        "id": 9965348338,
        "osm_type": "node",
        "name": "Fântână"
      }
    }
  ]
}