{
  "type": "FeatureCollection",
  "features": [
    {
      "type": "Feature",
      "geometry": {
        "type": "Point",
        "coordinates": [
          9.1833703,
          46.9177537
        ]
      },
      "properties": {
        "id": 612585780,
        "osm_type": "node"
      }
    },
    {
      "type": "Feature",
      "geometry": {
        "type": "Point",
        "coordinates": [
          9.1732597,
          46.9225544
        ]
      },
      "properties": {
        "id": 811285395,
        "osm_type": "node"
      }
    },
    {
      "type": "Feature",
      "geometry": {
        "type": "Point",
        "coordinates": [
          9.0586956,
          47.0677459
        ]
      },
      "properties": {
        "id": 1361427565,
        "osm_type": "node",
        "check_date": "2023-12-29"
      }
    },
    {
      "type": "Feature",
      "geometry": {
        "type": "Point",
        "coordinates": [
          9.1560188,
          46.922342
        ]
      },
      "properties": {
        "id": 1634543262,
        "osm_type": "node"
      }
    },
    {
      "type": "Feature",
      "geometry": {
        "type": "Point",
        "coordinates": [
          9.1140136,
          47.1276336
        ]
      },
      "properties": {
        "id": 2427815261,
        "osm_type": "node"
      }
    },
    {
      "type": "Feature",
      "geometry": {
        "type": "Point",
        "coordinates": [
          9.0049539,
          47.1072531
        ]
      },
      "properties": {
        "id": 2502953110,
        "osm_type": "node",
        "access": "yes"
      }
    },
    {
      "type": "Feature",
      "geometry": {
        "type": "Point",
        "coordinates": [
          9.0604876,
          46.9877301
        ]
      },
      "properties": {
        "id": 3033571147,
        "osm_type": "node"
      }
    },
    {
      "type": "Feature",
      "geometry": {
        "type": "Point",
        "coordinates": [
          8.9982642,
          46.9387592
        ]
      },
      "properties": {
        "id": 3112507929,
        "osm_type": "node",
        "name": "Bergstation Braunwaldbahn"
      }
    },
    {
      "type": "Feature",
      "geometry": {
        "type": "Point",
        "coordinates": [
          8.9498489,
          46.8213507
        ]
      },
      "properties": {
        "id": 4377566540,
        "osm_type": "node"
      }
    },
    {
      "type": "Feature",
      "geometry": {
        "type": "Point",
        "coordinates": [
          8.8802858,
          46.819982
        ]
      },
      "properties": {
        "id": 4377586558,
        "osm_type": "node"
      }
    },
    {
      "type": "Feature",
      "geometry": {
        "type": "Point",
        "coordinates": [
          9.1040349,
          46.8562809
        ]
      },
      "properties": {
        "id": 4412810992,
        "osm_type": "node",
        "access": "yes"
      }
    },
    {
      "type": "Feature",
      "geometry": {
        "type": "Point",
        "coordinates": [
          9.0775756,
          46.9970361
        ]
      },
      "properties": {
        "id": 4609603894,
        "osm_type": "node",
        "opening_hours": "24/7",
        "check_date": "2025-11-08"
      }
    },
    {
      "type": "Feature",
      "geometry": {
        "type": "Point",
        "coordinates": [
          9.0674925,
          47.0426105
        ]
      },
      "properties": {
        "id": 4609613990,
        "osm_type": "node",
        "opening_hours": "24/7",
        "access": "yes"
      }
    },
    {
      "type": "Feature",
      "geometry": {
        "type": "Point",
        "coordinates": [
          9.0636502,
          47.0988751
        ]
      },
      "properties": {
        "id": 4934336688,
        "osm_type": "node"
      }
    },
    {
      "type": "Feature",
      "geometry": {
        "type": "Point",
        "coordinates": [
          9.0813145,
          47.0103481
        ]
      },
      "properties": {
        "id": 5071952647,
        "osm_type": "node"
      }
    },
    {
      "type": "Feature",
      "geometry": {
        "type": "Point",
        "coordinates": [
          9.059364,
          47.0643324
        ]
      },
      "properties": {
        "id": 5248289552,
        "osm_type": "node",
        "access": "yes"
      }
    },
    {
      "type": "Feature",
      "geometry": {
        "type": "Point",
        "coordinates": [
          9.0772518,
          47.032991
        ]
      },
      "properties": {
        "id": 5296412133,
        "osm_type": "node",
        "access": "yes"
      }
    },
    {
      "type": "Feature",
      "geometry": {
        "type": "Point",
        "coordinates": [
          9.0697098,
          47.0378387
        ]
      },
      "properties": {
        "id": 5306608311,
        "osm_type": "node"
      }
    },
    {
      "type": "Feature",
      "geometry": {
        "type": "Point",
        "coordinates": [
          9.0644576,
          47.0390562
        ]
      },
      "properties": {
        "id": 5308683435,
        "osm_type": "node"
      }
    },
    {
      "type": "Feature",
      "geometry": {
        "type": "Point",
        "coordinates": [
          9.0391191,
          46.9652585
        ]
      },
      "properties": {
        "id": 5474288884,
        "osm_type": "node"
      }
    },
    {
      "type": "Feature",
      "geometry": {
        "type": "Point",
        "coordinates": [
          9.0121781,
          47.0887668
        ]
      },
      "properties": {
        "id": 5747390023,
        "osm_type": "node"
      }
    },
    {
      "type": "Feature",
      "geometry": {
        "type": "Point",
        "coordinates": [
          8.9445802,
          47.0252467
        ]
      },
      "properties": {
        "id": 5777426961,
        "osm_type": "node"
      }
    },
    {
      "type": "Feature",
      "geometry": {
        "type": "Point",
        "coordinates": [
          8.9438746,
          47.0246532
        ]
      },
      "properties": {
        "id": 5777448553,
        "osm_type": "node"
      }
    },
    {
      "type": "Feature",
      "geometry": {
        "type": "Point",
        "coordinates": [
          9.0106515,
          46.8474257
        ]
      },
      "properties": {
        "id": 5825570649,
        "osm_type": "node",
        "access": "yes"
      }
    },
    {
      "type": "Feature",
      "geometry": {
        "type": "Point",
        "coordinates": [
          9.1003334,
          47.1319712
        ]
      },
      "properties": {
        "id": 5909862503,
        "osm_type": "node"
      }
    },
    {
      "type": "Feature",
      "geometry": {
        "type": "Point",
        "coordinates": [
          9.172948,
          47.1173648
        ]
      },
      "properties": {
        "id": 5909909620,
        "osm_type": "node"
      }
    },
    {
      "type": "Feature",
      "geometry": {
        "type": "Point",
        "coordinates": [
          9.0508997,
          47.0615513
        ]
      },
      "properties": {
        "id": 6025866681,
        "osm_type": "node"
      }
    },
    {
      "type": "Feature",
      "geometry": {
        "type": "Point",
        "coordinates": [
          9.1624509,
          46.9135321
        ]
      },
      "properties": {
        "id": 6909099797,
        "osm_type": "node",
        "access": "yes"
      }
    },
    {
      "type": "Feature",
      "geometry": {
        "type": "Point",
        "coordinates": [
          8.9924515,
          47.0267208
        ]
      },
      "properties": {
        "id": 7881171036,
        "osm_type": "node",
        "access": "yes"
      }
    },
    {
      "type": "Feature",
      "geometry": {
        "type": "Point",
        "coordinates": [
          8.9894546,
          47.0264186
        ]
      },
      "properties": {
        "id": 7881171039,
        "osm_type": "node",
        "access": "yes"
      }
    },
    {
      "type": "Feature",
      "geometry": {
        "type": "Point",
        "coordinates": [
          9.000477,
          47.0293019
        ]
      },
      "properties": {
        "id": 7881171041,
        "osm_type": "node",
        "access": "yes"
      }
    },
    {
      "type": "Feature",
      "geometry": {
        "type": "Point",
        "coordinates": [
          9.004447,
          47.0312683
        ]
      },
      "properties": {
        "id": 7881171043,
        "osm_type": "node",
        "access": "yes"
      }
    },
    {
      "type": "Feature",
      "geometry": {
        "type": "Point",
        "coordinates": [
          9.18533,
          46.9174976
        ]
      },
      "properties": {
        "id": 8206610346,
        "osm_type": "node"
      }
    },
    {
      "type": "Feature",
      "geometry": {
        "type": "Point",
        "coordinates": [
          8.9989912,
          47.0846215
        ]
      },
      "properties": {
        "id": 8261850680,
        "osm_type": "node",
        "access": "yes"
      }
    },
    {
      "type": "Feature",
      "geometry": {
        "type": "Point",
        "coordinates": [
          8.9941792,
          46.9490447
        ]
      },
      "properties": {
        "id": 8381530246,
        "osm_type": "node",
        "access": "yes"
      }
    },
    {
      "type": "Feature",
      "geometry": {
        "type": "Point",
        "coordinates": [
          8.9867534,
          46.9385358
        ]
      },
      "properties": {
        "id": 8386342648,
        "osm_type": "node"
      }
    },
    {
      "type": "Feature",
      "geometry": {
        "type": "Point",
        "coordinates": [
          9.0133355,
          47.0343478
        ]
      },
      "properties": {
        "id": 8504122966,
        "osm_type": "node"
      }
    },
    {
      "type": "Feature",
      "geometry": {
        "type": "Point",
        "coordinates": [
          9.0680349,
          47.0395483
        ]
      },
      "properties": {
        "id": 8557856854,
        "osm_type": "node",
        "access": "yes"
      }
    },
    {
      "type": "Feature",
      "geometry": {
        "type": "Point",
        "coordinates": [
          9.0629754,
          47.1143668
        ]
      },
      "properties": {
        "id": 8734528295,
        "osm_type": "node"
      }
    },
    {
      "type": "Feature",
      "geometry": {
        "type": "Point",
        "coordinates": [
          9.058164,
          47.1151645
        ]
      },
      "properties": {
        "id": 9003197454,
        "osm_type": "node",
        "access": "yes"
      }
    },
    {
      "type": "Feature",
      "geometry": {
        "type": "Point",
        "coordinates": [
          9.0642359,
          47.1006741
        ]
      },
      "properties": {
        "id": 9032059066,
        "osm_type": "node",
        "access": "yes"
      }
    },
    {
      "type": "Feature",
      "geometry": {
        "type": "Point",
        "coordinates": [
          9.174545,
          47.1178544
        ]
      },
      "properties": {
        "id": 9299887259,
        "osm_type": "node"
      }
    },
    {
      "type": "Feature",
      "geometry": {
        "type": "Point",
        "coordinates": [
          9.0507988,
          47.1379689
        ]
      },
      "properties": {
        "id": 9806997103,
        "osm_type": "node",
        "opening_hours": "24/7",
        "access": "yes"
      }
    },
    {
      "type": "Feature",
      "geometry": {
        "type": "Point",
        "coordinates": [
          8.9439132,
          47.0246344
        ]
      },
      "properties": {
        "id": 9908224708,
        "osm_type": "node"
      }
    },
    {
      "type": "Feature",
      "geometry": {
        "type": "Point",
        "coordinates": [
          9.0012087,
          47.0298046
        ]
      },
      "properties": {
        "id": 9912789870,
        "osm_type": "node",
        "access": "customers"
      }
    },
    {
      "type": "Feature",
      "geometry": {
        "type": "Point",
        "coordinates": [
          9.0024596,
          46.9284238
        ]
      },
      "properties": {
        "id": 9920482035,
        "osm_type": "node"
      }
    },
    {
      "type": "Feature",
      "geometry": {
        "type": "Point",
        "coordinates": [
          9.0293125,
          46.8402026
        ]
      },
      "properties": {
        "id": 11076038000,
        "osm_type": "node",
        "access": "customers"
      }
    },
    {
      "type": "Feature",
      "geometry": {
        "type": "Point",
        "coordinates": [
          9.0987182,
          46.9578446
        ]
      },
      "properties": {
        "id": 11086101307,
        "osm_type": "node",
        "access": "yes"
      }
    },
    {
      "type": "Feature",
      "geometry": {
        "type": "Point",
        "coordinates": [
          8.9845982,
          46.9560761
        ]
      },
      "properties": {
        "id": 11486599417,
        "osm_type": "node",
        "access": "yes"
      }
    },
    {
      "type": "Feature",
      "geometry": {
        "type": "Point",
        "coordinates": [
          9.1723337,
          46.9188565
        ]
      },
      "properties": {
        "id": 12086812069,
        "osm_type": "node",
        "opening_hours": "Mo-Su 09:00-18:00"
      }
    },
    {
      "type": "Feature",
      "geometry": {
        "type": "Point",
        "coordinates": [
          9.0200371,
          47.1255487
        ]
      },
      "properties": {
        "id": 12290330131,
        "osm_type": "node",
        "access": "customers"
      }
    },
    {
      "type": "Feature",
      "geometry": {
        "type": "Point",
        "coordinates": [
          9.0468004,
          47.1249928
        ]
      },
      "properties": {
        "id": 12290330132,
        "osm_type": "node",
        "access": "customers"
      }
    },
    {
      "type": "Feature",
      "geometry": {
        "type": "Point",
        "coordinates": [
          9.0699737,
          47.0988347
        ]
      },
      "properties": {
        "id": 12876906171,
        "osm_type": "node",
        "access": "yes"
      }
    },
    {
      "type": "Feature",
      "geometry": {
        "type": "Point",
        "coordinates": [
          8.9791056,
          46.9095792
        ]
      },
      "properties": {
        "id": 13120189889,
        "osm_type": "node",
        "access": "yes"
      }
    },
    {
      "type": "Feature",
      "geometry": {
        "type": "Point",
        "coordinates": [
          9.1697055,
          46.918208
        ]
      },
      "properties": {
        "id": 13121982667,
        "osm_type": "node",
        "access": "customers"
      }
    },
    {
      "type": "Feature",
      "geometry": {
        "type": "Point",
        "coordinates": [
          8.9981547,
          46.9256617
        ]
      },
      "properties": {
        "id": 444203683,
        "osm_type": "way",
        "access": "yes",
        "check_date": "2022-10-08"
      }
    },
    {
      "type": "Feature",
      "geometry": {
        "type": "Point",
        "coordinates": [
          9.0717856,
          47.0394844
        ]
      },
      "properties": {
        "id": 915134730,
        "osm_type": "way"
      }
    },
    {
      "type": "Feature",
      "geometry": {
        "type": "Point",
        "coordinates": [
          9.0186864,
          46.8576563
        ]
      },
      "properties": {
        "id": 1193220441,
        "osm_type": "way",
        "access": "customers"
      }
    },
    {
      "type": "Feature",
      "geometry": {
        "type": "Point",
        "coordinates": [
          9.1735926,
          46.919855
        ]
      },
      "properties": {
        "id": 1293007597,
        "osm_type": "way",
        "access": "yes"
      }
    }
  ]
}