{
  "type": "FeatureCollection",
  "features": [
    {
      "type": "Feature",
      "geometry": {
        "type": "Point",
        "coordinates": [
          21.6296811,
          44.6533028
        ]
      },
      "properties": {
        "id": 4848124821,
        "osm_type": "node",
        "name": "Zlatna ribica",
        "phone": "+381691056407",
        "cuisine": "pizza;sandwich;Pljeskavica;kafa_za_poneti;brza_hrana;sendvič",
        "chain": "unknown"
      }
    },
    {
      "type": "Feature",
      "geometry": {
        "type": "Point",
        "coordinates": [
          21.6249968,
          44.6540989
        ]
      },
      "properties": {
        "id": 4968404610,
        "osm_type": "node",
        "name": "Bumerang",
        "chain": "unknown"
      }
    },
    {
      "type": "Feature",
      "geometry": {
        "type": "Point",
        "coordinates": [
          21.1861,
          44.622337
        ]
      },
      "properties": {
        "id": 6801687666,
        "osm_type": "node",
        "name": "Sokače",
        "chain": "unknown"
      }
    },
    {
      "type": "Feature",
      "geometry": {
        "type": "Point",
        "coordinates": [
          21.1869334,
          44.6244544
        ]
      },
      "properties": {
        "id": 6801687669,
        "osm_type": "node",
        "name": "Bucko",
        "chain": "unknown"
      }
    },
    {
      "type": "Feature",
      "geometry": {
        "type": "Point",
        "coordinates": [
          21.1833178,
          44.6160007
        ]
      },
      "properties": {
        "id": 6801713210,
        "osm_type": "node",
        "name": "Kod Trička",
        "opening_hours": "Mo-Fr 08:00-23:00; Sa 08:00-22:00; Su 08:00-16:00",
        "phone": "+381 62 9780781",
        "chain": "unknown"
      }
    },
    {
      "type": "Feature",
      "geometry": {
        "type": "Point",
        "coordinates": [
          21.331906,
          44.81182
        ]
      },
      "properties": {
        "id": 9060827093,
        "osm_type": "node",
        "chain": "unknown"
      }
    },
    {
      "type": "Feature",
      "geometry": {
        "type": "Point",
        "coordinates": [
          21.4895087,
          44.6454776
        ]
      },
      "properties": {
        "id": 9858260610,
        "osm_type": "node",
        "cuisine": "pizza;sandwich",
        "chain": "unknown"
      }
    },
    {
      "type": "Feature",
      "geometry": {
        "type": "Point",
        "coordinates": [
          21.5136379,
          44.7618643
        ]
      },
      "properties": {
        "id": 11396835354,
        "osm_type": "node",
        "name": "Casper",
        "cuisine": "burger",
        "chain": "unknown"
      }
    },
    {
      "type": "Feature",
      "geometry": {
        "type": "Point",
        "coordinates": [
          21.5388938,
          44.6990397
        ]
      },
      "properties": {
        "id": 11407510176,
        "osm_type": "node",
        "name": "Пиленце",
        "phone": "063356409",
        "chain": "unknown"
      }
    },
    {
      "type": "Feature",
      "geometry": {
        "type": "Point",
        "coordinates": [
          21.6429645,
          44.5912946
        ]
      },
      "properties": {
        "id": 11777842429,
        "osm_type": "node",
        "name": "Богдановић",
        "chain": "unknown"
      }
    },
    {
      "type": "Feature",
      "geometry": {
        "type": "Point",
        "coordinates": [
          21.1863323,
          44.6211945
        ]
      },
      "properties": {
        "id": 12025211290,
        "osm_type": "node",
        "name": "Буцко",
        "opening_hours": "Mo-Su 08:00-00:00",
        "chain": "unknown"
      }
    },
    {
      "type": "Feature",
      "geometry": {
        "type": "Point",
        "coordinates": [
          21.1742063,
          44.6112477
        ]
      },
      "properties": {
        "id": 13664517776,
        "osm_type": "node",
        "name": "Moj merak",
        "opening_hours": "Mo-Sa 07:00-22:00",
        "phone": "+381 12 403790",
        "chain": "unknown"
      }
    },
    {
      "type": "Feature",
      "geometry": {
        "type": "Point",
        "coordinates": [
          21.1746609,
          44.611501
        ]
      },
      "properties": {
        "id": 13664517777,
        "osm_type": "node",
        "name": "Stari mlin - Grk",
        "opening_hours": "Mo-Sa 06:00-23:00",
        "chain": "unknown"
      }
    },
    {
      "type": "Feature",
      "geometry": {
        "type": "Point",
        "coordinates": [
          21.1752178,
          44.611422
        ]
      },
      "properties": {
        "id": 13664517778,
        "osm_type": "node",
        "name": "Kod Trička",
        "opening_hours": "Mo-Sa 08:00-22:00; Su 08:00-15:00",
        "phone": "+381 65 9780781",
        "chain": "unknown"
      }
    }
  ]
}