{
  "type": "FeatureCollection",
  "features": [
    {
      "type": "Feature",
      "geometry": {
        "type": "Point",
        "coordinates": [
          21.1835836,
          44.6193924
        ]
      },
      "properties": {
        "id": 5031640511,
        "osm_type": "node",
        "name": "Новитет"
      }
    },
    {
      "type": "Feature",
      "geometry": {
        "type": "Point",
        "coordinates": [
          21.4891094,
          44.6454887
        ]
      },
      "properties": {
        "id": 5739311730,
        "osm_type": "node",
        "name": "Lilić",
        "opening_hours": "Mo-Fr 07:00-21:00"
      }
    },
    {
      "type": "Feature",
      "geometry": {
        "type": "Point",
        "coordinates": [
          21.7799636,
          44.4867797
        ]
      },
      "properties": {
        "id": 8066074252,
        "osm_type": "node",
        "name": "Styline Voluja"
      }
    },
    {
      "type": "Feature",
      "geometry": {
        "type": "Point",
        "coordinates": [
          21.7829325,
          44.1987209
        ]
      },
      "properties": {
        "id": 9494888700,
        "osm_type": "node",
        "name": "Самопослуга „Забрањено воће”"
      }
    },
    {
      "type": "Feature",
      "geometry": {
        "type": "Point",
        "coordinates": [
          21.7827378,
          44.1976602
        ]
      },
      "properties": {
        "id": 9494888702,
        "osm_type": "node",
        "name": "Самопослуга „Кића”"
      }
    },
    {
      "type": "Feature",
      "geometry": {
        "type": "Point",
        "coordinates": [
          21.1733012,
          44.7160558
        ]
      },
      "properties": {
        "id": 9831464118,
        "osm_type": "node",
        "name": "Union MZ",
        "opening_hours": "Mo-Su 09:00-21:00"
      }
    },
    {
      "type": "Feature",
      "geometry": {
        "type": "Point",
        "coordinates": [
          21.1760601,
          44.7180943
        ]
      },
      "properties": {
        "id": 9928102531,
        "osm_type": "node",
        "name": "Dendić delikates"
      }
    },
    {
      "type": "Feature",
      "geometry": {
        "type": "Point",
        "coordinates": [
          21.4132292,
          44.3823176
        ]
      },
      "properties": {
        "id": 11221841726,
        "osm_type": "node",
        "name": "Green Market"
      }
    },
    {
      "type": "Feature",
      "geometry": {
        "type": "Point",
        "coordinates": [
          21.415821,
          44.3854027
        ]
      },
      "properties": {
        "id": 11221841727,
        "osm_type": "node",
        "name": "Svetofor"
      }
    },
    {
      "type": "Feature",
      "geometry": {
        "type": "Point",
        "coordinates": [
          21.5367879,
          44.7005115
        ]
      },
      "properties": {
        "id": 11407472980,
        "osm_type": "node"
      }
    },
    {
      "type": "Feature",
      "geometry": {
        "type": "Point",
        "coordinates": [
          21.1752153,
          44.6089558
        ]
      },
      "properties": {
        "id": 12713986617,
        "osm_type": "node",
        "name": "Roda",
        "brand": "Roda",
        "opening_hours": "Mo-Su 07:00-22:00"
      }
    },
    {
      "type": "Feature",
      "geometry": {
        "type": "Point",
        "coordinates": [
          21.6667069,
          44.4748121
        ]
      },
      "properties": {
        "id": 12803874787,
        "osm_type": "node",
        "name": "DTL Viva"
      }
    },
    {
      "type": "Feature",
      "geometry": {
        "type": "Point",
        "coordinates": [
          21.1998103,
          44.6235394
        ]
      },
      "properties": {
        "id": 13060000578,
        "osm_type": "node",
        "name": "Србија Маркет",
        "opening_hours": "Mo-Su 06:30-21:00"
      }
    },
    {
      "type": "Feature",
      "geometry": {
        "type": "Point",
        "coordinates": [
          21.1802063,
          44.6194223
        ]
      },
      "properties": {
        "id": 13658693790,
        "osm_type": "node",
        "name": "Idea"
      }
    },
    {
      "type": "Feature",
      "geometry": {
        "type": "Point",
        "coordinates": [
          21.1743057,
          44.611514
        ]
      },
      "properties": {
        "id": 13664517773,
        "osm_type": "node",
        "name": "Maxi",
        "brand": "Maxi",
        "opening_hours": "Mo-Sa 07:30-21:00; Su 08:00-21:00"
      }
    },
    {
      "type": "Feature",
      "geometry": {
        "type": "Point",
        "coordinates": [
          21.1750567,
          44.6094281
        ]
      },
      "properties": {
        "id": 13664517793,
        "osm_type": "node",
        "name": "Youmart",
        "opening_hours": "Mo-Sa 07:00-22:00; Su 09:00-21:00"
      }
    },
    {
      "type": "Feature",
      "geometry": {
        "type": "Point",
        "coordinates": [
          21.1831627,
          44.6154456
        ]
      },
      "properties": {
        "id": 13664546009,
        "osm_type": "node",
        "name": "IDEA",
        "brand": "IDEA",
        "opening_hours": "Mo-Sa 07:00-21:00; Su 07:00-15:00"
      }
    },
    {
      "type": "Feature",
      "geometry": {
        "type": "Point",
        "coordinates": [
          21.4170821,
          44.3697086
        ]
      },
      "properties": {
        "id": 222185318,
        "osm_type": "way",
        "name": "Viva Kastrum"
      }
    },
    {
      "type": "Feature",
      "geometry": {
        "type": "Point",
        "coordinates": [
          21.4190292,
          44.3770933
        ]
      },
      "properties": {
        "id": 222527638,
        "osm_type": "way",
        "name": "Roda",
        "brand": "Roda"
      }
    },
    {
      "type": "Feature",
      "geometry": {
        "type": "Point",
        "coordinates": [
          21.176963,
          44.6106758
        ]
      },
      "properties": {
        "id": 435266272,
        "osm_type": "way",
        "name": "ДИС",
        "brand": "ДИС",
        "opening_hours": "Mo-Su 07:00-22:00"
      }
    },
    {
      "type": "Feature",
      "geometry": {
        "type": "Point",
        "coordinates": [
          21.1931883,
          44.6193218
        ]
      },
      "properties": {
        "id": 1308877480,
        "osm_type": "way",
        "name": "Stilline",
        "opening_hours": "Mo-Fr 06:30-21:00, St-Su 6:30-14:00"
      }
    },
    {
      "type": "Feature",
      "geometry": {
        "type": "Point",
        "coordinates": [
          21.1750924,
          44.6106817
        ]
      },
      "properties": {
        "id": 1368139086,
        "osm_type": "way",
        "name": "Lidl",
        "brand": "Lidl",
        "opening_hours": "Mo-Sa 07:30-22:00; Su 08:00-22:00"
      }
    }
  ]
}