{
  "type": "FeatureCollection",
  "features": [
    {
      "type": "Feature",
      "geometry": {
        "type": "Point",
        "coordinates": [
          10.8784964,
          53.8145659
        ]
      },
      "properties": {
        "id": 2640197980,
        "osm_type": "node",
        "name": "McDonald's",
        "brand": "McDonald's",
        "brand:wikidata": "Q38076",
        "chain": "mcdonalds"
      }
    },
    {
      "type": "Feature",
      "geometry": {
        "type": "Point",
        "coordinates": [
          10.8782439,
          53.8159798
        ]
      },
      "properties": {
        "id": 2640197981,
        "osm_type": "node",
        "name": "McDonald's",
        "brand": "McDonald's",
        "opening_hours": "Su-We 08:00-22:00; Fr,Sa 08:00-23:00",
        "brand:wikidata": "Q38076",
        "chain": "mcdonalds"
      }
    },
    {
      "type": "Feature",
      "geometry": {
        "type": "Point",
        "coordinates": [
          11.5341948,
          53.2974897
        ]
      },
      "properties": {
        "id": 11830547391,
        "osm_type": "node",
        "name": "Burger King",
        "brand": "Burger King",
        "brand:wikidata": "Q177054",
        "chain": "burger_king"
      }
    },
    {
      "type": "Feature",
      "geometry": {
        "type": "Point",
        "coordinates": [
          11.4332875,
          53.5983267
        ]
      },
      "properties": {
        "id": 360661434,
        "osm_type": "node",
        "name": "Burger King",
        "brand": "Burger King",
        "opening_hours": "Su-Fr,PH 10:00-23:00, Sa 10:00-24:00",
        "phone": "+49 385 3968092",
        "website": "https://www.burgerking.de/kingfinder/13674?id=518",
        "operator": "burger king",
        "brand:wikidata": "Q177054",
        "chain": "burger_king"
      }
    },
    {
      "type": "Feature",
      "geometry": {
        "type": "Point",
        "coordinates": [
          11.4091935,
          53.6282429
        ]
      },
      "properties": {
        "id": 572087042,
        "osm_type": "node",
        "name": "McDonald's",
        "brand": "McDonald's",
        "opening_hours": "Mo-Sa 09:30-20:00",
        "brand:wikidata": "Q38076",
        "chain": "mcdonalds"
      }
    },
    {
      "type": "Feature",
      "geometry": {
        "type": "Point",
        "coordinates": [
          11.4486773,
          53.8743842
        ]
      },
      "properties": {
        "id": 296133708,
        "osm_type": "node",
        "name": "McDonald's",
        "brand": "McDonald's",
        "brand:wikidata": "Q38076",
        "chain": "mcdonalds"
      }
    },
    {
      "type": "Feature",
      "geometry": {
        "type": "Point",
        "coordinates": [
          11.4461942,
          53.8933534
        ]
      },
      "properties": {
        "id": 370831557,
        "osm_type": "node",
        "name": "Burger King",
        "brand": "Burger King",
        "opening_hours": "Mo-Th 06:00-23:00; Fr 06:00-24:00; Sa 10:00-24:00; Su 10:00-23:00",
        "brand:wikidata": "Q177054",
        "chain": "burger_king"
      }
    },
    {
      "type": "Feature",
      "geometry": {
        "type": "Point",
        "coordinates": [
          13.2929258,
          53.5558005
        ]
      },
      "properties": {
        "id": 1143420413,
        "osm_type": "node",
        "name": "Burger King",
        "brand": "Burger King",
        "opening_hours": "10:00-22:00",
        "brand:wikidata": "Q177054",
        "chain": "burger_king"
      }
    },
    {
      "type": "Feature",
      "geometry": {
        "type": "Point",
        "coordinates": [
          12.0577328,
          54.1388428
        ]
      },
      "properties": {
        "id": 1697675203,
        "osm_type": "node",
        "name": "Burger King",
        "brand": "Burger King",
        "opening_hours": "Mo-Sa 10:00-19:30",
        "website": "https://www.burgerking.de/king-finder",
        "brand:wikidata": "Q177054",
        "chain": "burger_king"
      }
    },
    {
      "type": "Feature",
      "geometry": {
        "type": "Point",
        "coordinates": [
          13.0493069,
          54.3202363
        ]
      },
      "properties": {
        "id": 322861728,
        "osm_type": "node",
        "name": "McDonald's",
        "brand": "McDonald's",
        "opening_hours": "Su-Th 07:00-01:00, Fr,Sa 07:00-07:00; PH off",
        "operator": "McDonald's",
        "brand:wikidata": "Q38076",
        "chain": "mcdonalds"
      }
    },
    {
      "type": "Feature",
      "geometry": {
        "type": "Point",
        "coordinates": [
          13.0952353,
          54.3012015
        ]
      },
      "properties": {
        "id": 7245193457,
        "osm_type": "node",
        "name": "McDonald's",
        "brand": "McDonald's",
        "opening_hours": "PH,Su-Th 08:00-24:00, Fr,Sa 08:00-01:00",
        "brand:wikidata": "Q38076",
        "chain": "mcdonalds"
      }
    },
    {
      "type": "Feature",
      "geometry": {
        "type": "Point",
        "coordinates": [
          13.0942517,
          54.3000909
        ]
      },
      "properties": {
        "id": 7245193458,
        "osm_type": "node",
        "name": "Burger King",
        "brand": "Burger King",
        "opening_hours": "Su-Th 10:00-22:00; Fr,Sa 10:00-23:00",
        "brand:wikidata": "Q177054",
        "chain": "burger_king"
      }
    },
    {
      "type": "Feature",
      "geometry": {
        "type": "Point",
        "coordinates": [
          13.0776875,
          54.3087263
        ]
      },
      "properties": {
        "id": 1459107870,
        "osm_type": "node",
        "name": "McDonald's",
        "brand": "McDonald's",
        "opening_hours": "Mo-Su 09:00-21:00",
        "brand:wikidata": "Q38076",
        "chain": "mcdonalds"
      }
    },
    {
      "type": "Feature",
      "geometry": {
        "type": "Point",
        "coordinates": [
          13.42888,
          54.0812316
        ]
      },
      "properties": {
        "id": 11332538293,
        "osm_type": "node",
        "name": "Burger King",
        "brand": "Burger King",
        "brand:wikidata": "Q177054",
        "chain": "burger_king"
      }
    },
    {
      "type": "Feature",
      "geometry": {
        "type": "Point",
        "coordinates": [
          13.7510708,
          54.0472169
        ]
      },
      "properties": {
        "id": 281732885,
        "osm_type": "node",
        "name": "McDonald's",
        "brand": "McDonald's",
        "brand:wikidata": "Q38076",
        "chain": "mcdonalds"
      }
    },
    {
      "type": "Feature",
      "geometry": {
        "type": "Point",
        "coordinates": [
          11.0964397,
          53.4994872
        ]
      },
      "properties": {
        "id": 42140523,
        "osm_type": "way",
        "name": "McDonald's",
        "brand": "McDonald's",
        "opening_hours": "Mo-Th 07:00-24:00; Fr,Sa 07:00-02:00",
        "brand:wikidata": "Q38076",
        "chain": "mcdonalds"
      }
    },
    {
      "type": "Feature",
      "geometry": {
        "type": "Point",
        "coordinates": [
          11.3900321,
          53.6016563
        ]
      },
      "properties": {
        "id": 43941472,
        "osm_type": "way",
        "name": "McDonald's",
        "brand": "McDonald's",
        "opening_hours": "Fr,Sa 07:00-02:00, Su 08:00-24:00, Mo-Th 07:00-24:00",
        "phone": "+49 385 612323",
        "website": "https://www.mcdonalds.com/de/de-de/restaurant-suche.html/l/schwerin/grabenstrasse-6/653/",
        "brand:wikidata": "Q38076",
        "chain": "mcdonalds"
      }
    },
    {
      "type": "Feature",
      "geometry": {
        "type": "Point",
        "coordinates": [
          11.4050462,
          53.6514582
        ]
      },
      "properties": {
        "id": 94690370,
        "osm_type": "way",
        "name": "McDonald's",
        "brand": "McDonald's",
        "opening_hours": "PH,Mo-Su 08:00-24:00",
        "operator": "McDonald's",
        "brand:wikidata": "Q38076",
        "chain": "mcdonalds"
      }
    },
    {
      "type": "Feature",
      "geometry": {
        "type": "Point",
        "coordinates": [
          11.8291771,
          53.4181871
        ]
      },
      "properties": {
        "id": 114251833,
        "osm_type": "way",
        "name": "McDonald's",
        "brand": "McDonald's",
        "opening_hours": "Su,PH 09:00-24:00, Mo-Sa 08:00-24:00",
        "brand:wikidata": "Q38076",
        "chain": "mcdonalds"
      }
    },
    {
      "type": "Feature",
      "geometry": {
        "type": "Point",
        "coordinates": [
          12.0359811,
          54.1082998
        ]
      },
      "properties": {
        "id": 19803985,
        "osm_type": "way",
        "name": "McDonald's",
        "brand": "McDonald's",
        "opening_hours": "Mo-Su 07:00-01:00",
        "brand:wikidata": "Q38076",
        "chain": "mcdonalds"
      }
    },
    {
      "type": "Feature",
      "geometry": {
        "type": "Point",
        "coordinates": [
          12.1903156,
          53.810256
        ]
      },
      "properties": {
        "id": 167033473,
        "osm_type": "way",
        "name": "Burger King",
        "brand": "Burger King",
        "opening_hours": "Mo-Th 09:30-23:00; Fr,Sa 09:30-24:00; Su 10:00-23:00",
        "brand:wikidata": "Q177054",
        "chain": "burger_king"
      }
    },
    {
      "type": "Feature",
      "geometry": {
        "type": "Point",
        "coordinates": [
          12.1933339,
          53.8148899
        ]
      },
      "properties": {
        "id": 166454806,
        "osm_type": "way",
        "name": "McDonald's",
        "brand": "McDonald's",
        "opening_hours": "Su-Th 08:00-24:00; Fr-Sa 08:00-02:00, PH 08:00-02:00",
        "website": "https://www.mcdonalds.com/de/de-de/restaurant-suche.html/l/gustrow/lindbruch-4/830/",
        "brand:wikidata": "Q38076",
        "chain": "mcdonalds"
      }
    },
    {
      "type": "Feature",
      "geometry": {
        "type": "Point",
        "coordinates": [
          12.2321365,
          54.0225191
        ]
      },
      "properties": {
        "id": 757842947,
        "osm_type": "way",
        "name": "McDonald's",
        "brand": "McDonald's",
        "opening_hours": "Mo-Su, PH 08:00-24:00",
        "brand:wikidata": "Q38076",
        "chain": "mcdonalds"
      }
    },
    {
      "type": "Feature",
      "geometry": {
        "type": "Point",
        "coordinates": [
          12.1926858,
          54.0813571
        ]
      },
      "properties": {
        "id": 37874010,
        "osm_type": "way",
        "name": "Burger King",
        "brand": "Burger King",
        "opening_hours": "Mo,We,Th 08:30-23:30; Tu,Su 09:30-23:30; Fr,Sa 08:30-01:00",
        "brand:wikidata": "Q177054",
        "chain": "burger_king"
      }
    },
    {
      "type": "Feature",
      "geometry": {
        "type": "Point",
        "coordinates": [
          12.1939197,
          54.1141382
        ]
      },
      "properties": {
        "id": 96449953,
        "osm_type": "way",
        "name": "McDonald's",
        "brand": "McDonald's",
        "opening_hours": "Mo 07:00-24:00; Tu 07:00-20:00",
        "website": "https://www.mcdonalds.com/de/de-de/restaurant-suche.html/l/bentwisch/hansestrasse-49/727",
        "operator": "Joachim Fietz, Fietz Restaurantbetriebe Bentwisch GmbH",
        "brand:wikidata": "Q38076",
        "chain": "mcdonalds"
      }
    },
    {
      "type": "Feature",
      "geometry": {
        "type": "Point",
        "coordinates": [
          12.7130824,
          53.5193735
        ]
      },
      "properties": {
        "id": 100464171,
        "osm_type": "way",
        "name": "McDonald's",
        "brand": "McDonald's",
        "opening_hours": "Mo-Su 07:00-24:00",
        "brand:wikidata": "Q38076",
        "chain": "mcdonalds"
      }
    },
    {
      "type": "Feature",
      "geometry": {
        "type": "Point",
        "coordinates": [
          13.2606838,
          53.5187665
        ]
      },
      "properties": {
        "id": 102247467,
        "osm_type": "way",
        "name": "McDonald's",
        "brand": "McDonald's",
        "opening_hours": "08:00-24:00",
        "operator": "McDonald's",
        "brand:wikidata": "Q38076",
        "chain": "mcdonalds"
      }
    },
    {
      "type": "Feature",
      "geometry": {
        "type": "Point",
        "coordinates": [
          13.2708112,
          53.5846935
        ]
      },
      "properties": {
        "id": 102154414,
        "osm_type": "way",
        "name": "McDonald's",
        "brand": "McDonald's",
        "opening_hours": "08:00-24:00",
        "operator": "McDonald's",
        "brand:wikidata": "Q38076",
        "chain": "mcdonalds"
      }
    },
    {
      "type": "Feature",
      "geometry": {
        "type": "Point",
        "coordinates": [
          13.0847582,
          54.0927925
        ]
      },
      "properties": {
        "id": 51849880,
        "osm_type": "way",
        "name": "McDonald's",
        "brand": "McDonald's",
        "opening_hours": "Mo-Su 06:30-02:00; Fr-Sa 06:30-01:00",
        "brand:wikidata": "Q38076",
        "chain": "mcdonalds"
      }
    },
    {
      "type": "Feature",
      "geometry": {
        "type": "Point",
        "coordinates": [
          13.3941913,
          54.072577
        ]
      },
      "properties": {
        "id": 29428206,
        "osm_type": "way",
        "name": "McDonald's",
        "brand": "McDonald's",
        "opening_hours": "Mo-Su 07:00-00:00",
        "phone": "+49 3834 500320",
        "website": "https://www.mcdonalds.com/de/de-de/restaurant-suche.html/l/greifswald/an-der-thronpost-1/780",
        "operator": "Franchise-Nehmer Ingo Lupp",
        "brand:wikidata": "Q38076",
        "chain": "mcdonalds"
      }
    },
    {
      "type": "Feature",
      "geometry": {
        "type": "Point",
        "coordinates": [
          12.0637114,
          54.1333928
        ]
      },
      "properties": {
        "id": 34173854,
        "osm_type": "way",
        "name": "McDonald's",
        "brand": "McDonald's",
        "opening_hours": "Su-Th 08:00-01:00, Fr-Sa 08:00-03:00",
        "website": "https://www.mcdonalds.com/de/de-de.html",
        "operator": "Wellmann Lütten-Klein GmbH",
        "brand:wikidata": "Q38076",
        "chain": "mcdonalds"
      }
    },
    {
      "type": "Feature",
      "geometry": {
        "type": "Point",
        "coordinates": [
          12.0623555,
          54.1329729
        ]
      },
      "properties": {
        "id": 34173860,
        "osm_type": "way",
        "name": "Burger King",
        "brand": "Burger King",
        "opening_hours": "Su-Th 10:00-23:00, Fr,Sa 10:00-24:00",
        "phone": "+49 381 207 4817",
        "website": "https://www.burgerking.de/",
        "operator": "NiCam Fast Food GmbH",
        "brand:wikidata": "Q177054",
        "chain": "burger_king"
      }
    },
    {
      "type": "Feature",
      "geometry": {
        "type": "Point",
        "coordinates": [
          12.7152646,
          54.3580264
        ]
      },
      "properties": {
        "id": 1347767284,
        "osm_type": "way",
        "name": "McDonald's",
        "brand": "McDonald's",
        "opening_hours": "Mo-Su 07:00-24:00",
        "phone": "+49 89 78594413",
        "website": "https://www.mcdonalds.com/de/de-de/restaurant-suche.html#!/l/barth/blaue-wiese-20a/1866",
        "operator": "Franchise-Nehmer Sascha Brunow",
        "brand:wikidata": "Q38076",
        "chain": "mcdonalds"
      }
    },
    {
      "type": "Feature",
      "geometry": {
        "type": "Point",
        "coordinates": [
          13.4183753,
          54.4227729
        ]
      },
      "properties": {
        "id": 701949926,
        "osm_type": "way",
        "name": "Burger King",
        "brand": "Burger King",
        "opening_hours": "Mo-Sa 09:00-22:00; Su 10:00-22:00",
        "brand:wikidata": "Q177054",
        "chain": "burger_king"
      }
    },
    {
      "type": "Feature",
      "geometry": {
        "type": "Point",
        "coordinates": [
          13.6628444,
          53.853153
        ]
      },
      "properties": {
        "id": 1138497569,
        "osm_type": "way",
        "name": "McDonald's",
        "brand": "McDonald's",
        "opening_hours": "Mo-Sa 07:00-24:00; Su,PH 09:00-24:00",
        "operator": "APT Systemgastronomie Vorpommern GmbH",
        "brand:wikidata": "Q38076",
        "chain": "mcdonalds"
      }
    }
  ]
}