{
  "type": "FeatureCollection",
  "features": [
    {
      "type": "Feature",
      "geometry": {
        "type": "Point",
        "coordinates": [
          19.5157616,
          42.0669368
        ]
      },
      "properties": {
        "id": 2106003222,
        "osm_type": "node",
        "name": "CRAI"
      }
    },
    {
      "type": "Feature",
      "geometry": {
        "type": "Point",
        "coordinates": [
          19.484493,
          41.310452
        ]
      },
      "properties": {
        "id": 2620169713,
        "osm_type": "node"
      }
    },
    {
      "type": "Feature",
      "geometry": {
        "type": "Point",
        "coordinates": [
          19.4778711,
          41.3135629
        ]
      },
      "properties": {
        "id": 2620169714,
        "osm_type": "node"
      }
    },
    {
      "type": "Feature",
      "geometry": {
        "type": "Point",
        "coordinates": [
          19.4834061,
          41.3110278
        ]
      },
      "properties": {
        "id": 2620169904,
        "osm_type": "node",
        "name": "Tanushi Market"
      }
    },
    {
      "type": "Feature",
      "geometry": {
        "type": "Point",
        "coordinates": [
          19.4261415,
          41.864823
        ]
      },
      "properties": {
        "id": 3360290186,
        "osm_type": "node"
      }
    },
    {
      "type": "Feature",
      "geometry": {
        "type": "Point",
        "coordinates": [
          19.4545774,
          42.0593643
        ]
      },
      "properties": {
        "id": 3362508851,
        "osm_type": "node",
        "name": "Tani Mini-Market",
        "opening_hours": "Mo-Su 08:00-20:00"
      }
    },
    {
      "type": "Feature",
      "geometry": {
        "type": "Point",
        "coordinates": [
          19.5188685,
          42.0655429
        ]
      },
      "properties": {
        "id": 3367268036,
        "osm_type": "node",
        "name": "Acqua & Sapone",
        "opening_hours": "Mo-Su 08:00-22:00"
      }
    },
    {
      "type": "Feature",
      "geometry": {
        "type": "Point",
        "coordinates": [
          19.5138509,
          42.0695245
        ]
      },
      "properties": {
        "id": 3820715671,
        "osm_type": "node",
        "opening_hours": "Mo-Su 07:00-21:00"
      }
    },
    {
      "type": "Feature",
      "geometry": {
        "type": "Point",
        "coordinates": [
          19.5141515,
          42.0685053
        ]
      },
      "properties": {
        "id": 3877861156,
        "osm_type": "node",
        "name": "Roveto"
      }
    },
    {
      "type": "Feature",
      "geometry": {
        "type": "Point",
        "coordinates": [
          19.5147105,
          42.0664041
        ]
      },
      "properties": {
        "id": 3923474979,
        "osm_type": "node",
        "opening_hours": "Mo-Su 08:00-21:00"
      }
    },
    {
      "type": "Feature",
      "geometry": {
        "type": "Point",
        "coordinates": [
          19.5032588,
          42.0579019
        ]
      },
      "properties": {
        "id": 3923566949,
        "osm_type": "node",
        "name": "Piaca Market",
        "opening_hours": "Mo-Su 07:00-20:00"
      }
    },
    {
      "type": "Feature",
      "geometry": {
        "type": "Point",
        "coordinates": [
          19.5203543,
          42.0618248
        ]
      },
      "properties": {
        "id": 3932079198,
        "osm_type": "node",
        "name": "Big Market",
        "opening_hours": "Mo-Su 08:00-22:00"
      }
    },
    {
      "type": "Feature",
      "geometry": {
        "type": "Point",
        "coordinates": [
          19.5118317,
          42.0620477
        ]
      },
      "properties": {
        "id": 3932956419,
        "osm_type": "node",
        "name": "Conad",
        "brand": "Conad",
        "opening_hours": "Mo-Su 07:30-23:00"
      }
    },
    {
      "type": "Feature",
      "geometry": {
        "type": "Point",
        "coordinates": [
          19.5104313,
          42.0677793
        ]
      },
      "properties": {
        "id": 3951692724,
        "osm_type": "node",
        "name": "Euro"
      }
    },
    {
      "type": "Feature",
      "geometry": {
        "type": "Point",
        "coordinates": [
          19.5186298,
          42.0707845
        ]
      },
      "properties": {
        "id": 3973990770,
        "osm_type": "node",
        "name": "Piaca Market",
        "opening_hours": "Mo-Su 08:00-20:00"
      }
    },
    {
      "type": "Feature",
      "geometry": {
        "type": "Point",
        "coordinates": [
          19.5139381,
          42.0594109
        ]
      },
      "properties": {
        "id": 3988565888,
        "osm_type": "node",
        "name": "PIACA MARKET",
        "opening_hours": "Mo-Su 07:00-20:00"
      }
    },
    {
      "type": "Feature",
      "geometry": {
        "type": "Point",
        "coordinates": [
          19.5234085,
          42.07503
        ]
      },
      "properties": {
        "id": 4272388836,
        "osm_type": "node",
        "name": "PIACA MARKET",
        "opening_hours": "Mo-Su 08:00-16:00"
      }
    },
    {
      "type": "Feature",
      "geometry": {
        "type": "Point",
        "coordinates": [
          19.5510212,
          42.1021474
        ]
      },
      "properties": {
        "id": 4272388837,
        "osm_type": "node",
        "name": "PIACA MARKET",
        "opening_hours": "Mo-Su 08:00-18:00"
      }
    },
    {
      "type": "Feature",
      "geometry": {
        "type": "Point",
        "coordinates": [
          19.4383241,
          41.3116722
        ]
      },
      "properties": {
        "id": 4320879893,
        "osm_type": "node",
        "name": "Carrefour",
        "brand": "Carrefour"
      }
    },
    {
      "type": "Feature",
      "geometry": {
        "type": "Point",
        "coordinates": [
          19.5988963,
          42.0622548
        ]
      },
      "properties": {
        "id": 4334583392,
        "osm_type": "node",
        "name": "Haxhari"
      }
    },
    {
      "type": "Feature",
      "geometry": {
        "type": "Point",
        "coordinates": [
          20.4179458,
          42.0782613
        ]
      },
      "properties": {
        "id": 4380609374,
        "osm_type": "node",
        "name": "Big Market"
      }
    },
    {
      "type": "Feature",
      "geometry": {
        "type": "Point",
        "coordinates": [
          19.5777308,
          41.4394682
        ]
      },
      "properties": {
        "id": 4416514830,
        "osm_type": "node",
        "name": "Mercato One"
      }
    },
    {
      "type": "Feature",
      "geometry": {
        "type": "Point",
        "coordinates": [
          19.7083778,
          41.6217863
        ]
      },
      "properties": {
        "id": 4416583608,
        "osm_type": "node",
        "name": "G&N"
      }
    },
    {
      "type": "Feature",
      "geometry": {
        "type": "Point",
        "coordinates": [
          19.4327951,
          42.2801651
        ]
      },
      "properties": {
        "id": 4437631619,
        "osm_type": "node"
      }
    },
    {
      "type": "Feature",
      "geometry": {
        "type": "Point",
        "coordinates": [
          19.4651371,
          41.3180681
        ]
      },
      "properties": {
        "id": 4477251707,
        "osm_type": "node",
        "name": "Galaktik"
      }
    },
    {
      "type": "Feature",
      "geometry": {
        "type": "Point",
        "coordinates": [
          19.4502662,
          41.3168205
        ]
      },
      "properties": {
        "id": 4478336462,
        "osm_type": "node",
        "name": "Extra Market",
        "opening_hours": "08:00-22:00"
      }
    },
    {
      "type": "Feature",
      "geometry": {
        "type": "Point",
        "coordinates": [
          19.5085346,
          42.065097
        ]
      },
      "properties": {
        "id": 4520851865,
        "osm_type": "node",
        "name": "Broci"
      }
    },
    {
      "type": "Feature",
      "geometry": {
        "type": "Point",
        "coordinates": [
          19.5012342,
          42.0576672
        ]
      },
      "properties": {
        "id": 4523100174,
        "osm_type": "node",
        "name": "BIG Market"
      }
    },
    {
      "type": "Feature",
      "geometry": {
        "type": "Point",
        "coordinates": [
          19.5067686,
          42.0713003
        ]
      },
      "properties": {
        "id": 4523108726,
        "osm_type": "node",
        "name": "Spar",
        "brand": "Spar",
        "opening_hours": "Mo-Su 07:00-22:00"
      }
    },
    {
      "type": "Feature",
      "geometry": {
        "type": "Point",
        "coordinates": [
          19.5197225,
          42.0661875
        ]
      },
      "properties": {
        "id": 4537643122,
        "osm_type": "node",
        "name": "XHE-DIS"
      }
    },
    {
      "type": "Feature",
      "geometry": {
        "type": "Point",
        "coordinates": [
          19.5159191,
          42.0735256
        ]
      },
      "properties": {
        "id": 4539610321,
        "osm_type": "node",
        "name": "CRAI"
      }
    },
    {
      "type": "Feature",
      "geometry": {
        "type": "Point",
        "coordinates": [
          19.645408,
          41.7783644
        ]
      },
      "properties": {
        "id": 4776501221,
        "osm_type": "node",
        "name": "Big Market",
        "brand": "Big Market"
      }
    },
    {
      "type": "Feature",
      "geometry": {
        "type": "Point",
        "coordinates": [
          19.5202794,
          42.0733982
        ]
      },
      "properties": {
        "id": 4809239723,
        "osm_type": "node",
        "name": "Conad"
      }
    },
    {
      "type": "Feature",
      "geometry": {
        "type": "Point",
        "coordinates": [
          19.4269927,
          42.2522804
        ]
      },
      "properties": {
        "id": 5046954921,
        "osm_type": "node",
        "name": "Bajza market",
        "opening_hours": "Mo-Su 08:00-22:00"
      }
    },
    {
      "type": "Feature",
      "geometry": {
        "type": "Point",
        "coordinates": [
          19.4899037,
          41.3074352
        ]
      },
      "properties": {
        "id": 5206980222,
        "osm_type": "node",
        "name": "Market ARVI"
      }
    },
    {
      "type": "Feature",
      "geometry": {
        "type": "Point",
        "coordinates": [
          19.8613016,
          41.7751351
        ]
      },
      "properties": {
        "id": 5582361348,
        "osm_type": "node",
        "opening_hours": "Mo-Su 08:00-16:00"
      }
    },
    {
      "type": "Feature",
      "geometry": {
        "type": "Point",
        "coordinates": [
          19.7159233,
          41.4786732
        ]
      },
      "properties": {
        "id": 5583911931,
        "osm_type": "node",
        "name": "Big Market",
        "brand": "Big Market"
      }
    },
    {
      "type": "Feature",
      "geometry": {
        "type": "Point",
        "coordinates": [
          19.6648022,
          41.712443
        ]
      },
      "properties": {
        "id": 5611381272,
        "osm_type": "node",
        "name": "Market Euromati"
      }
    },
    {
      "type": "Feature",
      "geometry": {
        "type": "Point",
        "coordinates": [
          19.4478882,
          41.3247371
        ]
      },
      "properties": {
        "id": 5650176624,
        "osm_type": "node",
        "name": "EXTRAMARKET 10"
      }
    },
    {
      "type": "Feature",
      "geometry": {
        "type": "Point",
        "coordinates": [
          19.5266243,
          42.0747344
        ]
      },
      "properties": {
        "id": 5802450655,
        "osm_type": "node",
        "name": "Xhedis",
        "opening_hours": "Mo-Su 07:00-23:00"
      }
    },
    {
      "type": "Feature",
      "geometry": {
        "type": "Point",
        "coordinates": [
          19.6415361,
          41.7806518
        ]
      },
      "properties": {
        "id": 5884002683,
        "osm_type": "node",
        "name": "Big market"
      }
    },
    {
      "type": "Feature",
      "geometry": {
        "type": "Point",
        "coordinates": [
          19.5241647,
          42.0573384
        ]
      },
      "properties": {
        "id": 6048560291,
        "osm_type": "node",
        "name": "Piaca Market"
      }
    },
    {
      "type": "Feature",
      "geometry": {
        "type": "Point",
        "coordinates": [
          19.4603217,
          41.3187452
        ]
      },
      "properties": {
        "id": 6177338762,
        "osm_type": "node",
        "name": "Food 4 Less",
        "brand": "Food 4 Less"
      }
    },
    {
      "type": "Feature",
      "geometry": {
        "type": "Point",
        "coordinates": [
          19.4597745,
          41.3188923
        ]
      },
      "properties": {
        "id": 6177338763,
        "osm_type": "node",
        "name": "Food 4 Less",
        "brand": "Food 4 Less"
      }
    },
    {
      "type": "Feature",
      "geometry": {
        "type": "Point",
        "coordinates": [
          19.5465342,
          41.3990303
        ]
      },
      "properties": {
        "id": 6445499702,
        "osm_type": "node"
      }
    },
    {
      "type": "Feature",
      "geometry": {
        "type": "Point",
        "coordinates": [
          19.5483214,
          41.4263118
        ]
      },
      "properties": {
        "id": 6445570486,
        "osm_type": "node"
      }
    },
    {
      "type": "Feature",
      "geometry": {
        "type": "Point",
        "coordinates": [
          19.6491705,
          41.7753355
        ]
      },
      "properties": {
        "id": 6459386786,
        "osm_type": "node"
      }
    },
    {
      "type": "Feature",
      "geometry": {
        "type": "Point",
        "coordinates": [
          19.5181591,
          42.0651181
        ]
      },
      "properties": {
        "id": 6646378385,
        "osm_type": "node",
        "name": "Spar",
        "brand": "Spar",
        "opening_hours": "Mo-Su 07:00-22:00"
      }
    },
    {
      "type": "Feature",
      "geometry": {
        "type": "Point",
        "coordinates": [
          20.0770018,
          42.3599298
        ]
      },
      "properties": {
        "id": 6723252786,
        "osm_type": "node",
        "name": "Sylbica"
      }
    },
    {
      "type": "Feature",
      "geometry": {
        "type": "Point",
        "coordinates": [
          19.4390275,
          41.3114995
        ]
      },
      "properties": {
        "id": 6775595886,
        "osm_type": "node",
        "name": "Extra Market"
      }
    },
    {
      "type": "Feature",
      "geometry": {
        "type": "Point",
        "coordinates": [
          19.4652414,
          41.3187231
        ]
      },
      "properties": {
        "id": 6828679450,
        "osm_type": "node",
        "name": "Q. Zeneli"
      }
    },
    {
      "type": "Feature",
      "geometry": {
        "type": "Point",
        "coordinates": [
          19.5199263,
          41.2920647
        ]
      },
      "properties": {
        "id": 6838324946,
        "osm_type": "node",
        "name": "Leonard"
      }
    },
    {
      "type": "Feature",
      "geometry": {
        "type": "Point",
        "coordinates": [
          19.4560595,
          41.3300907
        ]
      },
      "properties": {
        "id": 6838378958,
        "osm_type": "node",
        "name": "Market Feku"
      }
    },
    {
      "type": "Feature",
      "geometry": {
        "type": "Point",
        "coordinates": [
          19.4924095,
          41.3290202
        ]
      },
      "properties": {
        "id": 6839027702,
        "osm_type": "node",
        "name": "Bigmarket"
      }
    },
    {
      "type": "Feature",
      "geometry": {
        "type": "Point",
        "coordinates": [
          19.7891165,
          41.5141185
        ]
      },
      "properties": {
        "id": 6844688679,
        "osm_type": "node"
      }
    },
    {
      "type": "Feature",
      "geometry": {
        "type": "Point",
        "coordinates": [
          19.4551479,
          41.3245215
        ]
      },
      "properties": {
        "id": 6844791131,
        "osm_type": "node",
        "name": "Big Market",
        "brand": "Big Market"
      }
    },
    {
      "type": "Feature",
      "geometry": {
        "type": "Point",
        "coordinates": [
          19.7253542,
          41.4787861
        ]
      },
      "properties": {
        "id": 6844883485,
        "osm_type": "node",
        "name": "Spar",
        "brand": "Spar"
      }
    },
    {
      "type": "Feature",
      "geometry": {
        "type": "Point",
        "coordinates": [
          19.4451731,
          41.3163328
        ]
      },
      "properties": {
        "id": 6845168364,
        "osm_type": "node",
        "name": "Supermarket Durrësi"
      }
    },
    {
      "type": "Feature",
      "geometry": {
        "type": "Point",
        "coordinates": [
          19.473917,
          41.3193758
        ]
      },
      "properties": {
        "id": 6845426201,
        "osm_type": "node",
        "name": "Bigmarket"
      }
    },
    {
      "type": "Feature",
      "geometry": {
        "type": "Point",
        "coordinates": [
          19.6348045,
          42.0054255
        ]
      },
      "properties": {
        "id": 6847667465,
        "osm_type": "node",
        "name": "Spar",
        "brand": "Spar",
        "opening_hours": "Mo-Su 08:00-21:00"
      }
    },
    {
      "type": "Feature",
      "geometry": {
        "type": "Point",
        "coordinates": [
          19.4490585,
          41.317993
        ]
      },
      "properties": {
        "id": 6851510722,
        "osm_type": "node",
        "name": "Big Market",
        "brand": "Big Market"
      }
    },
    {
      "type": "Feature",
      "geometry": {
        "type": "Point",
        "coordinates": [
          19.4489083,
          41.3112883
        ]
      },
      "properties": {
        "id": 6851519706,
        "osm_type": "node",
        "name": "Extra market"
      }
    },
    {
      "type": "Feature",
      "geometry": {
        "type": "Point",
        "coordinates": [
          19.4453883,
          41.3181557
        ]
      },
      "properties": {
        "id": 6851519708,
        "osm_type": "node",
        "name": "Extra market",
        "opening_hours": "Mo-Su 08:00-22:00"
      }
    },
    {
      "type": "Feature",
      "geometry": {
        "type": "Point",
        "coordinates": [
          19.4490289,
          41.3166252
        ]
      },
      "properties": {
        "id": 6851519998,
        "osm_type": "node",
        "name": "Rossmann & Lala"
      }
    },
    {
      "type": "Feature",
      "geometry": {
        "type": "Point",
        "coordinates": [
          19.4453198,
          41.3163506
        ]
      },
      "properties": {
        "id": 6851520000,
        "osm_type": "node",
        "name": "Duresi"
      }
    },
    {
      "type": "Feature",
      "geometry": {
        "type": "Point",
        "coordinates": [
          19.4555379,
          41.3207821
        ]
      },
      "properties": {
        "id": 6853143482,
        "osm_type": "node"
      }
    },
    {
      "type": "Feature",
      "geometry": {
        "type": "Point",
        "coordinates": [
          19.4550946,
          41.3190241
        ]
      },
      "properties": {
        "id": 6853143638,
        "osm_type": "node"
      }
    },
    {
      "type": "Feature",
      "geometry": {
        "type": "Point",
        "coordinates": [
          19.4524259,
          41.3174232
        ]
      },
      "properties": {
        "id": 6853928449,
        "osm_type": "node",
        "name": "Market"
      }
    },
    {
      "type": "Feature",
      "geometry": {
        "type": "Point",
        "coordinates": [
          19.4515133,
          41.3166909
        ]
      },
      "properties": {
        "id": 6853942040,
        "osm_type": "node"
      }
    },
    {
      "type": "Feature",
      "geometry": {
        "type": "Point",
        "coordinates": [
          19.4435049,
          41.3112968
        ]
      },
      "properties": {
        "id": 6853944302,
        "osm_type": "node",
        "name": "Eco market"
      }
    },
    {
      "type": "Feature",
      "geometry": {
        "type": "Point",
        "coordinates": [
          19.4389707,
          41.3115765
        ]
      },
      "properties": {
        "id": 6853945008,
        "osm_type": "node",
        "name": "Extra market"
      }
    },
    {
      "type": "Feature",
      "geometry": {
        "type": "Point",
        "coordinates": [
          19.4369686,
          41.312158
        ]
      },
      "properties": {
        "id": 6853945010,
        "osm_type": "node",
        "name": "Spar",
        "brand": "Spar",
        "opening_hours": "Mo-Su 07:00-00:00"
      }
    },
    {
      "type": "Feature",
      "geometry": {
        "type": "Point",
        "coordinates": [
          19.4497924,
          41.3170964
        ]
      },
      "properties": {
        "id": 6853945012,
        "osm_type": "node",
        "name": "Conad",
        "brand": "Conad"
      }
    },
    {
      "type": "Feature",
      "geometry": {
        "type": "Point",
        "coordinates": [
          19.4615729,
          41.3187261
        ]
      },
      "properties": {
        "id": 6854807989,
        "osm_type": "node",
        "name": "Spar",
        "brand": "Spar"
      }
    },
    {
      "type": "Feature",
      "geometry": {
        "type": "Point",
        "coordinates": [
          19.4751266,
          41.3143401
        ]
      },
      "properties": {
        "id": 6855093994,
        "osm_type": "node",
        "name": "Big market",
        "opening_hours": "07:30-22:00"
      }
    },
    {
      "type": "Feature",
      "geometry": {
        "type": "Point",
        "coordinates": [
          19.4803596,
          41.3119792
        ]
      },
      "properties": {
        "id": 6855093997,
        "osm_type": "node",
        "name": "Happy Market"
      }
    },
    {
      "type": "Feature",
      "geometry": {
        "type": "Point",
        "coordinates": [
          19.4708881,
          41.3158869
        ]
      },
      "properties": {
        "id": 6855094006,
        "osm_type": "node"
      }
    },
    {
      "type": "Feature",
      "geometry": {
        "type": "Point",
        "coordinates": [
          19.4523937,
          41.3187416
        ]
      },
      "properties": {
        "id": 6855094008,
        "osm_type": "node",
        "name": "Diambe"
      }
    },
    {
      "type": "Feature",
      "geometry": {
        "type": "Point",
        "coordinates": [
          19.4789593,
          41.3131515
        ]
      },
      "properties": {
        "id": 6855110688,
        "osm_type": "node",
        "name": "Kacani"
      }
    },
    {
      "type": "Feature",
      "geometry": {
        "type": "Point",
        "coordinates": [
          19.4419969,
          41.3123199
        ]
      },
      "properties": {
        "id": 6855588088,
        "osm_type": "node"
      }
    },
    {
      "type": "Feature",
      "geometry": {
        "type": "Point",
        "coordinates": [
          19.4447431,
          41.3137019
        ]
      },
      "properties": {
        "id": 6855588091,
        "osm_type": "node"
      }
    },
    {
      "type": "Feature",
      "geometry": {
        "type": "Point",
        "coordinates": [
          19.4529614,
          41.3200539
        ]
      },
      "properties": {
        "id": 6855602885,
        "osm_type": "node",
        "name": "Shahini"
      }
    },
    {
      "type": "Feature",
      "geometry": {
        "type": "Point",
        "coordinates": [
          19.443637,
          41.3120817
        ]
      },
      "properties": {
        "id": 6855603886,
        "osm_type": "node",
        "name": "Joni",
        "opening_hours": "Mo-Su 08:00-22:00"
      }
    },
    {
      "type": "Feature",
      "geometry": {
        "type": "Point",
        "coordinates": [
          19.4496161,
          41.3144585
        ]
      },
      "properties": {
        "id": 6855603889,
        "osm_type": "node"
      }
    },
    {
      "type": "Feature",
      "geometry": {
        "type": "Point",
        "coordinates": [
          19.450717,
          41.3157023
        ]
      },
      "properties": {
        "id": 6855603890,
        "osm_type": "node",
        "name": "KMY"
      }
    },
    {
      "type": "Feature",
      "geometry": {
        "type": "Point",
        "coordinates": [
          19.5082361,
          41.2927692
        ]
      },
      "properties": {
        "id": 6857509189,
        "osm_type": "node",
        "name": "Rotondo mall"
      }
    },
    {
      "type": "Feature",
      "geometry": {
        "type": "Point",
        "coordinates": [
          19.4989018,
          41.3014777
        ]
      },
      "properties": {
        "id": 6857509194,
        "osm_type": "node"
      }
    },
    {
      "type": "Feature",
      "geometry": {
        "type": "Point",
        "coordinates": [
          19.4954961,
          41.3042587
        ]
      },
      "properties": {
        "id": 6857509196,
        "osm_type": "node",
        "name": "Eco Market"
      }
    },
    {
      "type": "Feature",
      "geometry": {
        "type": "Point",
        "coordinates": [
          19.4939838,
          41.3049167
        ]
      },
      "properties": {
        "id": 6857509197,
        "osm_type": "node",
        "name": "Market"
      }
    },
    {
      "type": "Feature",
      "geometry": {
        "type": "Point",
        "coordinates": [
          19.4926086,
          41.3073563
        ]
      },
      "properties": {
        "id": 6857509200,
        "osm_type": "node"
      }
    },
    {
      "type": "Feature",
      "geometry": {
        "type": "Point",
        "coordinates": [
          19.482162,
          41.3115216
        ]
      },
      "properties": {
        "id": 6857509204,
        "osm_type": "node",
        "name": "Supermarket ALDI"
      }
    },
    {
      "type": "Feature",
      "geometry": {
        "type": "Point",
        "coordinates": [
          19.5087348,
          41.2926439
        ]
      },
      "properties": {
        "id": 6857509289,
        "osm_type": "node",
        "name": "Marin"
      }
    },
    {
      "type": "Feature",
      "geometry": {
        "type": "Point",
        "coordinates": [
          19.4853055,
          41.3100891
        ]
      },
      "properties": {
        "id": 6857509705,
        "osm_type": "node"
      }
    },
    {
      "type": "Feature",
      "geometry": {
        "type": "Point",
        "coordinates": [
          19.4918108,
          41.3070193
        ]
      },
      "properties": {
        "id": 6857509790,
        "osm_type": "node"
      }
    },
    {
      "type": "Feature",
      "geometry": {
        "type": "Point",
        "coordinates": [
          19.4884946,
          41.3080501
        ]
      },
      "properties": {
        "id": 6857509792,
        "osm_type": "node",
        "name": "I&O"
      }
    },
    {
      "type": "Feature",
      "geometry": {
        "type": "Point",
        "coordinates": [
          19.4999626,
          41.3007255
        ]
      },
      "properties": {
        "id": 6857510986,
        "osm_type": "node",
        "name": "Top market"
      }
    },
    {
      "type": "Feature",
      "geometry": {
        "type": "Point",
        "coordinates": [
          19.4999075,
          41.3007737
        ]
      },
      "properties": {
        "id": 6857511085,
        "osm_type": "node",
        "name": "Gazi"
      }
    },
    {
      "type": "Feature",
      "geometry": {
        "type": "Point",
        "coordinates": [
          19.4923793,
          41.3074985
        ]
      },
      "properties": {
        "id": 6857511091,
        "osm_type": "node",
        "name": "Tobi"
      }
    },
    {
      "type": "Feature",
      "geometry": {
        "type": "Point",
        "coordinates": [
          19.4871131,
          41.3091217
        ]
      },
      "properties": {
        "id": 6857511687,
        "osm_type": "node",
        "name": "Italian Market"
      }
    },
    {
      "type": "Feature",
      "geometry": {
        "type": "Point",
        "coordinates": [
          19.4531379,
          41.3195613
        ]
      },
      "properties": {
        "id": 6858171585,
        "osm_type": "node",
        "name": "Nik's"
      }
    },
    {
      "type": "Feature",
      "geometry": {
        "type": "Point",
        "coordinates": [
          19.4498497,
          41.3180408
        ]
      },
      "properties": {
        "id": 6858171689,
        "osm_type": "node",
        "name": "1Maji"
      }
    },
    {
      "type": "Feature",
      "geometry": {
        "type": "Point",
        "coordinates": [
          19.4453126,
          41.3275005
        ]
      },
      "properties": {
        "id": 6861489478,
        "osm_type": "node",
        "name": "Diambe Market"
      }
    },
    {
      "type": "Feature",
      "geometry": {
        "type": "Point",
        "coordinates": [
          19.4456459,
          41.328425
        ]
      },
      "properties": {
        "id": 6861489483,
        "osm_type": "node",
        "name": "Euro Market Canaj"
      }
    },
    {
      "type": "Feature",
      "geometry": {
        "type": "Point",
        "coordinates": [
          19.4982655,
          42.0546999
        ]
      },
      "properties": {
        "id": 7036885513,
        "osm_type": "node",
        "name": "Spar",
        "brand": "Spar"
      }
    },
    {
      "type": "Feature",
      "geometry": {
        "type": "Point",
        "coordinates": [
          19.5118918,
          42.0689131
        ]
      },
      "properties": {
        "id": 7090757434,
        "osm_type": "node",
        "name": "Big Market"
      }
    },
    {
      "type": "Feature",
      "geometry": {
        "type": "Point",
        "coordinates": [
          19.5030231,
          42.0573805
        ]
      },
      "properties": {
        "id": 7096030224,
        "osm_type": "node",
        "name": "Eco Market",
        "opening_hours": "Mo-Su 07:00-21:00"
      }
    },
    {
      "type": "Feature",
      "geometry": {
        "type": "Point",
        "coordinates": [
          19.5083395,
          42.0701279
        ]
      },
      "properties": {
        "id": 7106723572,
        "osm_type": "node",
        "name": "G Market"
      }
    },
    {
      "type": "Feature",
      "geometry": {
        "type": "Point",
        "coordinates": [
          19.4400467,
          42.2085137
        ]
      },
      "properties": {
        "id": 7868804685,
        "osm_type": "node",
        "name": "Spar",
        "brand": "Spar",
        "opening_hours": "Mo-Su 07:00-22:00"
      }
    },
    {
      "type": "Feature",
      "geometry": {
        "type": "Point",
        "coordinates": [
          20.4236569,
          41.5156826
        ]
      },
      "properties": {
        "id": 7968393759,
        "osm_type": "node",
        "name": "Mini Market"
      }
    },
    {
      "type": "Feature",
      "geometry": {
        "type": "Point",
        "coordinates": [
          20.4259474,
          42.0746038
        ]
      },
      "properties": {
        "id": 7968397250,
        "osm_type": "node"
      }
    },
    {
      "type": "Feature",
      "geometry": {
        "type": "Point",
        "coordinates": [
          20.0341081,
          42.0702036
        ]
      },
      "properties": {
        "id": 7968410805,
        "osm_type": "node",
        "name": "Ushqimor"
      }
    },
    {
      "type": "Feature",
      "geometry": {
        "type": "Point",
        "coordinates": [
          20.4133151,
          41.9959345
        ]
      },
      "properties": {
        "id": 7968413730,
        "osm_type": "node"
      }
    },
    {
      "type": "Feature",
      "geometry": {
        "type": "Point",
        "coordinates": [
          20.4223062,
          41.8678637
        ]
      },
      "properties": {
        "id": 7968415035,
        "osm_type": "node"
      }
    },
    {
      "type": "Feature",
      "geometry": {
        "type": "Point",
        "coordinates": [
          20.4140534,
          41.9967452
        ]
      },
      "properties": {
        "id": 7968416611,
        "osm_type": "node"
      }
    },
    {
      "type": "Feature",
      "geometry": {
        "type": "Point",
        "coordinates": [
          20.2328236,
          42.1011466
        ]
      },
      "properties": {
        "id": 7968417005,
        "osm_type": "node"
      }
    },
    {
      "type": "Feature",
      "geometry": {
        "type": "Point",
        "coordinates": [
          20.4036978,
          41.9725504
        ]
      },
      "properties": {
        "id": 7968418193,
        "osm_type": "node"
      }
    },
    {
      "type": "Feature",
      "geometry": {
        "type": "Point",
        "coordinates": [
          20.4224165,
          42.0756065
        ]
      },
      "properties": {
        "id": 7968419703,
        "osm_type": "node",
        "name": "Lindi-al"
      }
    },
    {
      "type": "Feature",
      "geometry": {
        "type": "Point",
        "coordinates": [
          20.4247198,
          42.0756665
        ]
      },
      "properties": {
        "id": 7968420712,
        "osm_type": "node",
        "name": "Kovaci"
      }
    },
    {
      "type": "Feature",
      "geometry": {
        "type": "Point",
        "coordinates": [
          20.412949,
          41.9919632
        ]
      },
      "properties": {
        "id": 7968426486,
        "osm_type": "node"
      }
    },
    {
      "type": "Feature",
      "geometry": {
        "type": "Point",
        "coordinates": [
          19.5099813,
          42.0693606
        ]
      },
      "properties": {
        "id": 8736750019,
        "osm_type": "node",
        "name": "Market Rrashketa"
      }
    },
    {
      "type": "Feature",
      "geometry": {
        "type": "Point",
        "coordinates": [
          19.5101034,
          42.0692675
        ]
      },
      "properties": {
        "id": 8736750022,
        "osm_type": "node",
        "name": "Market Rroji"
      }
    },
    {
      "type": "Feature",
      "geometry": {
        "type": "Point",
        "coordinates": [
          19.5101966,
          42.0691993
        ]
      },
      "properties": {
        "id": 8736750023,
        "osm_type": "node",
        "name": "Gastronomia"
      }
    },
    {
      "type": "Feature",
      "geometry": {
        "type": "Point",
        "coordinates": [
          19.4466209,
          42.2006864
        ]
      },
      "properties": {
        "id": 9048087219,
        "osm_type": "node",
        "name": "Ashel Market",
        "opening_hours": "Mo-Su 08:30-21:00"
      }
    },
    {
      "type": "Feature",
      "geometry": {
        "type": "Point",
        "coordinates": [
          19.5735748,
          41.4463572
        ]
      },
      "properties": {
        "id": 9049227003,
        "osm_type": "node",
        "name": "Spar"
      }
    },
    {
      "type": "Feature",
      "geometry": {
        "type": "Point",
        "coordinates": [
          19.5042253,
          42.0635729
        ]
      },
      "properties": {
        "id": 9128749336,
        "osm_type": "node"
      }
    },
    {
      "type": "Feature",
      "geometry": {
        "type": "Point",
        "coordinates": [
          19.7916601,
          41.5116089
        ]
      },
      "properties": {
        "id": 9128749483,
        "osm_type": "node"
      }
    },
    {
      "type": "Feature",
      "geometry": {
        "type": "Point",
        "coordinates": [
          19.5248292,
          42.0751501
        ]
      },
      "properties": {
        "id": 9128749502,
        "osm_type": "node"
      }
    },
    {
      "type": "Feature",
      "geometry": {
        "type": "Point",
        "coordinates": [
          19.5204807,
          42.0663176
        ]
      },
      "properties": {
        "id": 9128749901,
        "osm_type": "node",
        "name": "Xhedis"
      }
    },
    {
      "type": "Feature",
      "geometry": {
        "type": "Point",
        "coordinates": [
          19.5275088,
          42.0717597
        ]
      },
      "properties": {
        "id": 9128749903,
        "osm_type": "node"
      }
    },
    {
      "type": "Feature",
      "geometry": {
        "type": "Point",
        "coordinates": [
          19.5164719,
          42.068987
        ]
      },
      "properties": {
        "id": 9128751957,
        "osm_type": "node",
        "name": "Rossmann Lala"
      }
    },
    {
      "type": "Feature",
      "geometry": {
        "type": "Point",
        "coordinates": [
          19.5036122,
          42.0587933
        ]
      },
      "properties": {
        "id": 9128752030,
        "osm_type": "node"
      }
    },
    {
      "type": "Feature",
      "geometry": {
        "type": "Point",
        "coordinates": [
          19.4787212,
          41.3132431
        ]
      },
      "properties": {
        "id": 9138114220,
        "osm_type": "node"
      }
    },
    {
      "type": "Feature",
      "geometry": {
        "type": "Point",
        "coordinates": [
          19.447902,
          41.3211065
        ]
      },
      "properties": {
        "id": 9138114225,
        "osm_type": "node",
        "name": "Ola"
      }
    },
    {
      "type": "Feature",
      "geometry": {
        "type": "Point",
        "coordinates": [
          19.445046,
          41.3204326
        ]
      },
      "properties": {
        "id": 9138114243,
        "osm_type": "node",
        "name": "KMY"
      }
    },
    {
      "type": "Feature",
      "geometry": {
        "type": "Point",
        "coordinates": [
          19.4475769,
          41.3248303
        ]
      },
      "properties": {
        "id": 9138114327,
        "osm_type": "node",
        "name": "Extra"
      }
    },
    {
      "type": "Feature",
      "geometry": {
        "type": "Point",
        "coordinates": [
          19.446255,
          41.3244774
        ]
      },
      "properties": {
        "id": 9138114330,
        "osm_type": "node"
      }
    },
    {
      "type": "Feature",
      "geometry": {
        "type": "Point",
        "coordinates": [
          19.4498438,
          41.313828
        ]
      },
      "properties": {
        "id": 9138114345,
        "osm_type": "node"
      }
    },
    {
      "type": "Feature",
      "geometry": {
        "type": "Point",
        "coordinates": [
          19.4503139,
          41.3175439
        ]
      },
      "properties": {
        "id": 9138114347,
        "osm_type": "node",
        "name": "Diambe"
      }
    },
    {
      "type": "Feature",
      "geometry": {
        "type": "Point",
        "coordinates": [
          19.4476428,
          41.3215976
        ]
      },
      "properties": {
        "id": 9138114420,
        "osm_type": "node",
        "name": "Diambe"
      }
    },
    {
      "type": "Feature",
      "geometry": {
        "type": "Point",
        "coordinates": [
          19.4479609,
          41.3239316
        ]
      },
      "properties": {
        "id": 9138114424,
        "osm_type": "node"
      }
    },
    {
      "type": "Feature",
      "geometry": {
        "type": "Point",
        "coordinates": [
          19.4480003,
          41.3247422
        ]
      },
      "properties": {
        "id": 9138114425,
        "osm_type": "node",
        "name": "Spar"
      }
    },
    {
      "type": "Feature",
      "geometry": {
        "type": "Point",
        "coordinates": [
          19.4482421,
          41.3218006
        ]
      },
      "properties": {
        "id": 9138114519,
        "osm_type": "node"
      }
    },
    {
      "type": "Feature",
      "geometry": {
        "type": "Point",
        "coordinates": [
          19.4344712,
          41.3124025
        ]
      },
      "properties": {
        "id": 9138114539,
        "osm_type": "node",
        "name": "Market Keli"
      }
    },
    {
      "type": "Feature",
      "geometry": {
        "type": "Point",
        "coordinates": [
          19.4430666,
          41.3110546
        ]
      },
      "properties": {
        "id": 9138114541,
        "osm_type": "node",
        "name": "Eco"
      }
    },
    {
      "type": "Feature",
      "geometry": {
        "type": "Point",
        "coordinates": [
          19.4455393,
          41.3174028
        ]
      },
      "properties": {
        "id": 9138115217,
        "osm_type": "node"
      }
    },
    {
      "type": "Feature",
      "geometry": {
        "type": "Point",
        "coordinates": [
          20.0120502,
          41.6094082
        ]
      },
      "properties": {
        "id": 9139711562,
        "osm_type": "node"
      }
    },
    {
      "type": "Feature",
      "geometry": {
        "type": "Point",
        "coordinates": [
          20.0116853,
          41.6113369
        ]
      },
      "properties": {
        "id": 9139799071,
        "osm_type": "node",
        "name": "Gjoka Market"
      }
    },
    {
      "type": "Feature",
      "geometry": {
        "type": "Point",
        "coordinates": [
          20.0883642,
          41.5039195
        ]
      },
      "properties": {
        "id": 9148520517,
        "osm_type": "node",
        "name": "Super Market Klosi"
      }
    },
    {
      "type": "Feature",
      "geometry": {
        "type": "Point",
        "coordinates": [
          19.4957334,
          41.3056406
        ]
      },
      "properties": {
        "id": 9153930925,
        "osm_type": "node"
      }
    },
    {
      "type": "Feature",
      "geometry": {
        "type": "Point",
        "coordinates": [
          19.4937315,
          41.3040392
        ]
      },
      "properties": {
        "id": 9153930927,
        "osm_type": "node",
        "name": "Sulejmani"
      }
    },
    {
      "type": "Feature",
      "geometry": {
        "type": "Point",
        "coordinates": [
          19.4643127,
          41.318038
        ]
      },
      "properties": {
        "id": 9153930933,
        "osm_type": "node",
        "name": "Conrad"
      }
    },
    {
      "type": "Feature",
      "geometry": {
        "type": "Point",
        "coordinates": [
          19.4476353,
          41.3174897
        ]
      },
      "properties": {
        "id": 9153930939,
        "osm_type": "node"
      }
    },
    {
      "type": "Feature",
      "geometry": {
        "type": "Point",
        "coordinates": [
          19.4518823,
          41.3196746
        ]
      },
      "properties": {
        "id": 9153931125,
        "osm_type": "node"
      }
    },
    {
      "type": "Feature",
      "geometry": {
        "type": "Point",
        "coordinates": [
          19.4727653,
          41.3156644
        ]
      },
      "properties": {
        "id": 9153931133,
        "osm_type": "node"
      }
    },
    {
      "type": "Feature",
      "geometry": {
        "type": "Point",
        "coordinates": [
          19.4448687,
          41.3160116
        ]
      },
      "properties": {
        "id": 9153931140,
        "osm_type": "node"
      }
    },
    {
      "type": "Feature",
      "geometry": {
        "type": "Point",
        "coordinates": [
          19.4479694,
          41.3122854
        ]
      },
      "properties": {
        "id": 9153931151,
        "osm_type": "node"
      }
    },
    {
      "type": "Feature",
      "geometry": {
        "type": "Point",
        "coordinates": [
          19.4478314,
          41.3135095
        ]
      },
      "properties": {
        "id": 9153931154,
        "osm_type": "node"
      }
    },
    {
      "type": "Feature",
      "geometry": {
        "type": "Point",
        "coordinates": [
          19.4778349,
          41.3148672
        ]
      },
      "properties": {
        "id": 9153938219,
        "osm_type": "node",
        "name": "Mera"
      }
    },
    {
      "type": "Feature",
      "geometry": {
        "type": "Point",
        "coordinates": [
          19.4473195,
          41.3117823
        ]
      },
      "properties": {
        "id": 9153938223,
        "osm_type": "node"
      }
    },
    {
      "type": "Feature",
      "geometry": {
        "type": "Point",
        "coordinates": [
          19.451734,
          41.3189527
        ]
      },
      "properties": {
        "id": 9153938418,
        "osm_type": "node"
      }
    },
    {
      "type": "Feature",
      "geometry": {
        "type": "Point",
        "coordinates": [
          19.4809555,
          41.3138512
        ]
      },
      "properties": {
        "id": 9153938424,
        "osm_type": "node"
      }
    },
    {
      "type": "Feature",
      "geometry": {
        "type": "Point",
        "coordinates": [
          19.44731,
          41.3166886
        ]
      },
      "properties": {
        "id": 9153938426,
        "osm_type": "node"
      }
    },
    {
      "type": "Feature",
      "geometry": {
        "type": "Point",
        "coordinates": [
          19.4451752,
          41.3168157
        ]
      },
      "properties": {
        "id": 9153938427,
        "osm_type": "node"
      }
    },
    {
      "type": "Feature",
      "geometry": {
        "type": "Point",
        "coordinates": [
          19.4481189,
          41.3126315
        ]
      },
      "properties": {
        "id": 9153938430,
        "osm_type": "node"
      }
    },
    {
      "type": "Feature",
      "geometry": {
        "type": "Point",
        "coordinates": [
          19.4489263,
          41.3125398
        ]
      },
      "properties": {
        "id": 9153938432,
        "osm_type": "node"
      }
    },
    {
      "type": "Feature",
      "geometry": {
        "type": "Point",
        "coordinates": [
          19.4475365,
          41.3137844
        ]
      },
      "properties": {
        "id": 9153938435,
        "osm_type": "node"
      }
    },
    {
      "type": "Feature",
      "geometry": {
        "type": "Point",
        "coordinates": [
          19.4710238,
          41.3157829
        ]
      },
      "properties": {
        "id": 9153938436,
        "osm_type": "node",
        "name": "Miraka"
      }
    },
    {
      "type": "Feature",
      "geometry": {
        "type": "Point",
        "coordinates": [
          19.4752806,
          41.314213
        ]
      },
      "properties": {
        "id": 9153938441,
        "osm_type": "node"
      }
    },
    {
      "type": "Feature",
      "geometry": {
        "type": "Point",
        "coordinates": [
          19.4514586,
          41.3178839
        ]
      },
      "properties": {
        "id": 9153939417,
        "osm_type": "node"
      }
    },
    {
      "type": "Feature",
      "geometry": {
        "type": "Point",
        "coordinates": [
          19.4891701,
          41.313892
        ]
      },
      "properties": {
        "id": 9153939427,
        "osm_type": "node"
      }
    },
    {
      "type": "Feature",
      "geometry": {
        "type": "Point",
        "coordinates": [
          19.4716401,
          41.3156242
        ]
      },
      "properties": {
        "id": 9153939428,
        "osm_type": "node",
        "name": "Teuta"
      }
    },
    {
      "type": "Feature",
      "geometry": {
        "type": "Point",
        "coordinates": [
          19.4477047,
          41.3138038
        ]
      },
      "properties": {
        "id": 9153939441,
        "osm_type": "node"
      }
    },
    {
      "type": "Feature",
      "geometry": {
        "type": "Point",
        "coordinates": [
          19.4727988,
          41.3147662
        ]
      },
      "properties": {
        "id": 9153939443,
        "osm_type": "node",
        "name": "Amra's"
      }
    },
    {
      "type": "Feature",
      "geometry": {
        "type": "Point",
        "coordinates": [
          19.4730297,
          41.3150234
        ]
      },
      "properties": {
        "id": 9153939444,
        "osm_type": "node"
      }
    },
    {
      "type": "Feature",
      "geometry": {
        "type": "Point",
        "coordinates": [
          19.4755783,
          41.3139084
        ]
      },
      "properties": {
        "id": 9153939447,
        "osm_type": "node"
      }
    },
    {
      "type": "Feature",
      "geometry": {
        "type": "Point",
        "coordinates": [
          19.4789391,
          41.3149044
        ]
      },
      "properties": {
        "id": 9155651817,
        "osm_type": "node",
        "name": "Roel"
      }
    },
    {
      "type": "Feature",
      "geometry": {
        "type": "Point",
        "coordinates": [
          19.4532418,
          41.3274268
        ]
      },
      "properties": {
        "id": 9225818398,
        "osm_type": "node",
        "name": "Diambe"
      }
    },
    {
      "type": "Feature",
      "geometry": {
        "type": "Point",
        "coordinates": [
          20.481787,
          41.5881739
        ]
      },
      "properties": {
        "id": 9677489781,
        "osm_type": "node",
        "name": "Big market"
      }
    },
    {
      "type": "Feature",
      "geometry": {
        "type": "Point",
        "coordinates": [
          19.4437015,
          41.3102652
        ]
      },
      "properties": {
        "id": 9960836710,
        "osm_type": "node",
        "name": "Conad",
        "brand": "Conad",
        "opening_hours": "Mo-Fr 09:00-23:00; Sa-Su 10:00-22:00"
      }
    },
    {
      "type": "Feature",
      "geometry": {
        "type": "Point",
        "coordinates": [
          19.7145175,
          41.4781545
        ]
      },
      "properties": {
        "id": 9973456269,
        "osm_type": "node"
      }
    },
    {
      "type": "Feature",
      "geometry": {
        "type": "Point",
        "coordinates": [
          19.6417029,
          41.7683886
        ]
      },
      "properties": {
        "id": 9973550759,
        "osm_type": "node"
      }
    },
    {
      "type": "Feature",
      "geometry": {
        "type": "Point",
        "coordinates": [
          19.514315,
          42.0788809
        ]
      },
      "properties": {
        "id": 9978772020,
        "osm_type": "node",
        "name": "Supermarket Xhedis - 4"
      }
    },
    {
      "type": "Feature",
      "geometry": {
        "type": "Point",
        "coordinates": [
          19.5418766,
          41.9826061
        ]
      },
      "properties": {
        "id": 10229416175,
        "osm_type": "node",
        "name": "Kraj Super Diskaunt"
      }
    },
    {
      "type": "Feature",
      "geometry": {
        "type": "Point",
        "coordinates": [
          19.4539107,
          41.3201296
        ]
      },
      "properties": {
        "id": 10613625706,
        "osm_type": "node"
      }
    },
    {
      "type": "Feature",
      "geometry": {
        "type": "Point",
        "coordinates": [
          19.4539593,
          41.3204846
        ]
      },
      "properties": {
        "id": 10613630705,
        "osm_type": "node"
      }
    },
    {
      "type": "Feature",
      "geometry": {
        "type": "Point",
        "coordinates": [
          19.7294848,
          41.4486416
        ]
      },
      "properties": {
        "id": 10856079037,
        "osm_type": "node",
        "name": "Muça Market"
      }
    },
    {
      "type": "Feature",
      "geometry": {
        "type": "Point",
        "coordinates": [
          19.4946921,
          41.3043198
        ]
      },
      "properties": {
        "id": 10857866106,
        "osm_type": "node"
      }
    },
    {
      "type": "Feature",
      "geometry": {
        "type": "Point",
        "coordinates": [
          19.4964855,
          41.3036336
        ]
      },
      "properties": {
        "id": 10857923605,
        "osm_type": "node"
      }
    },
    {
      "type": "Feature",
      "geometry": {
        "type": "Point",
        "coordinates": [
          19.49907,
          41.3005244
        ]
      },
      "properties": {
        "id": 10858191322,
        "osm_type": "node"
      }
    },
    {
      "type": "Feature",
      "geometry": {
        "type": "Point",
        "coordinates": [
          19.5076233,
          41.2928129
        ]
      },
      "properties": {
        "id": 10858222508,
        "osm_type": "node"
      }
    },
    {
      "type": "Feature",
      "geometry": {
        "type": "Point",
        "coordinates": [
          19.4614683,
          41.3188232
        ]
      },
      "properties": {
        "id": 10965411608,
        "osm_type": "node",
        "name": "Diambe Market"
      }
    },
    {
      "type": "Feature",
      "geometry": {
        "type": "Point",
        "coordinates": [
          20.5142237,
          42.1226426
        ]
      },
      "properties": {
        "id": 10965413207,
        "osm_type": "node"
      }
    },
    {
      "type": "Feature",
      "geometry": {
        "type": "Point",
        "coordinates": [
          19.4294589,
          41.8627362
        ]
      },
      "properties": {
        "id": 11034512426,
        "osm_type": "node",
        "name": "Fefa Market"
      }
    },
    {
      "type": "Feature",
      "geometry": {
        "type": "Point",
        "coordinates": [
          19.4874661,
          41.3090446
        ]
      },
      "properties": {
        "id": 11119136907,
        "osm_type": "node"
      }
    },
    {
      "type": "Feature",
      "geometry": {
        "type": "Point",
        "coordinates": [
          19.5745617,
          41.4444285
        ]
      },
      "properties": {
        "id": 11234091719,
        "osm_type": "node",
        "name": "Spar"
      }
    },
    {
      "type": "Feature",
      "geometry": {
        "type": "Point",
        "coordinates": [
          19.5071737,
          42.0885772
        ]
      },
      "properties": {
        "id": 11327627312,
        "osm_type": "node",
        "name": "FeFa supermarket"
      }
    },
    {
      "type": "Feature",
      "geometry": {
        "type": "Point",
        "coordinates": [
          19.4901752,
          41.3092133
        ]
      },
      "properties": {
        "id": 11377068909,
        "osm_type": "node"
      }
    },
    {
      "type": "Feature",
      "geometry": {
        "type": "Point",
        "coordinates": [
          19.4909208,
          41.3099875
        ]
      },
      "properties": {
        "id": 11377068910,
        "osm_type": "node",
        "name": "Xholi"
      }
    },
    {
      "type": "Feature",
      "geometry": {
        "type": "Point",
        "coordinates": [
          19.4892925,
          42.1332707
        ]
      },
      "properties": {
        "id": 11849981469,
        "osm_type": "node"
      }
    },
    {
      "type": "Feature",
      "geometry": {
        "type": "Point",
        "coordinates": [
          19.4373529,
          42.2110976
        ]
      },
      "properties": {
        "id": 11869515469,
        "osm_type": "node",
        "name": "Big Market",
        "brand": "Big Market"
      }
    },
    {
      "type": "Feature",
      "geometry": {
        "type": "Point",
        "coordinates": [
          20.4132227,
          42.1968855
        ]
      },
      "properties": {
        "id": 12010156659,
        "osm_type": "node"
      }
    },
    {
      "type": "Feature",
      "geometry": {
        "type": "Point",
        "coordinates": [
          19.5192666,
          41.5090895
        ]
      },
      "properties": {
        "id": 12047677580,
        "osm_type": "node",
        "name": "Eco Market"
      }
    },
    {
      "type": "Feature",
      "geometry": {
        "type": "Point",
        "coordinates": [
          19.4736824,
          41.3148581
        ]
      },
      "properties": {
        "id": 12049474880,
        "osm_type": "node",
        "name": "Buon Market"
      }
    },
    {
      "type": "Feature",
      "geometry": {
        "type": "Point",
        "coordinates": [
          19.4549199,
          41.3190709
        ]
      },
      "properties": {
        "id": 12113174902,
        "osm_type": "node",
        "name": "Big Market"
      }
    },
    {
      "type": "Feature",
      "geometry": {
        "type": "Point",
        "coordinates": [
          19.4506888,
          41.3139285
        ]
      },
      "properties": {
        "id": 12921942662,
        "osm_type": "node",
        "name": "Conad",
        "opening_hours": "Mo-Su 08:00-23:00"
      }
    },
    {
      "type": "Feature",
      "geometry": {
        "type": "Point",
        "coordinates": [
          20.4285677,
          41.6860243
        ]
      },
      "properties": {
        "id": 12943246060,
        "osm_type": "node",
        "name": "BIG market"
      }
    },
    {
      "type": "Feature",
      "geometry": {
        "type": "Point",
        "coordinates": [
          19.6358609,
          41.7671943
        ]
      },
      "properties": {
        "id": 13181728563,
        "osm_type": "node",
        "name": "Spar",
        "brand": "Spar",
        "opening_hours": "Mo-Su 07:00-22:00"
      }
    },
    {
      "type": "Feature",
      "geometry": {
        "type": "Point",
        "coordinates": [
          19.6483547,
          41.7761386
        ]
      },
      "properties": {
        "id": 13181728564,
        "osm_type": "node",
        "name": "Spar",
        "brand": "Spar"
      }
    },
    {
      "type": "Feature",
      "geometry": {
        "type": "Point",
        "coordinates": [
          19.6424992,
          41.7696166
        ]
      },
      "properties": {
        "id": 13181728579,
        "osm_type": "node",
        "name": "Big Market Hiper",
        "brand": "Big Market"
      }
    },
    {
      "type": "Feature",
      "geometry": {
        "type": "Point",
        "coordinates": [
          19.5425885,
          41.9837832
        ]
      },
      "properties": {
        "id": 13276428406,
        "osm_type": "node",
        "name": "Spar"
      }
    },
    {
      "type": "Feature",
      "geometry": {
        "type": "Point",
        "coordinates": [
          19.4229025,
          41.8641797
        ]
      },
      "properties": {
        "id": 199760524,
        "osm_type": "way",
        "name": "Markgjokaj"
      }
    },
    {
      "type": "Feature",
      "geometry": {
        "type": "Point",
        "coordinates": [
          19.4257243,
          41.8639525
        ]
      },
      "properties": {
        "id": 199760624,
        "osm_type": "way",
        "name": "Market"
      }
    },
    {
      "type": "Feature",
      "geometry": {
        "type": "Point",
        "coordinates": [
          19.4237935,
          41.8641772
        ]
      },
      "properties": {
        "id": 309570026,
        "osm_type": "way",
        "name": "AGO"
      }
    },
    {
      "type": "Feature",
      "geometry": {
        "type": "Point",
        "coordinates": [
          19.4118785,
          41.9940114
        ]
      },
      "properties": {
        "id": 313972477,
        "osm_type": "way"
      }
    },
    {
      "type": "Feature",
      "geometry": {
        "type": "Point",
        "coordinates": [
          19.5151041,
          42.0677725
        ]
      },
      "properties": {
        "id": 323855454,
        "osm_type": "way",
        "name": "PIACA MARKET",
        "opening_hours": "Mo-Su 08:00-22:00"
      }
    },
    {
      "type": "Feature",
      "geometry": {
        "type": "Point",
        "coordinates": [
          19.5152292,
          42.0714944
        ]
      },
      "properties": {
        "id": 324463774,
        "osm_type": "way",
        "opening_hours": "Mo-Su 07:00-21:00"
      }
    },
    {
      "type": "Feature",
      "geometry": {
        "type": "Point",
        "coordinates": [
          19.5140749,
          42.0696129
        ]
      },
      "properties": {
        "id": 324463969,
        "osm_type": "way",
        "name": "Conad",
        "opening_hours": "Mo-Su 07:00-21:00"
      }
    },
    {
      "type": "Feature",
      "geometry": {
        "type": "Point",
        "coordinates": [
          19.5078344,
          42.0595713
        ]
      },
      "properties": {
        "id": 324735198,
        "osm_type": "way"
      }
    },
    {
      "type": "Feature",
      "geometry": {
        "type": "Point",
        "coordinates": [
          19.5285671,
          42.0799496
        ]
      },
      "properties": {
        "id": 327247571,
        "osm_type": "way",
        "name": "PIACA MARKET",
        "opening_hours": "Mo-Su 08:00-21:00"
      }
    },
    {
      "type": "Feature",
      "geometry": {
        "type": "Point",
        "coordinates": [
          19.5106291,
          42.0590246
        ]
      },
      "properties": {
        "id": 332238937,
        "osm_type": "way",
        "name": "Market"
      }
    },
    {
      "type": "Feature",
      "geometry": {
        "type": "Point",
        "coordinates": [
          19.575826,
          42.0236458
        ]
      },
      "properties": {
        "id": 360828271,
        "osm_type": "way"
      }
    },
    {
      "type": "Feature",
      "geometry": {
        "type": "Point",
        "coordinates": [
          19.4255103,
          41.8639581
        ]
      },
      "properties": {
        "id": 431588269,
        "osm_type": "way",
        "name": "Fruta Perime"
      }
    },
    {
      "type": "Feature",
      "geometry": {
        "type": "Point",
        "coordinates": [
          20.0142829,
          41.6103396
        ]
      },
      "properties": {
        "id": 487418260,
        "osm_type": "way",
        "name": "Big Market",
        "brand": "Big Market"
      }
    },
    {
      "type": "Feature",
      "geometry": {
        "type": "Point",
        "coordinates": [
          19.789882,
          41.5127629
        ]
      },
      "properties": {
        "id": 507061879,
        "osm_type": "way",
        "name": "Big Kruja",
        "opening_hours": "Mo-Su 07:45-22:00"
      }
    },
    {
      "type": "Feature",
      "geometry": {
        "type": "Point",
        "coordinates": [
          19.5257748,
          42.075873
        ]
      },
      "properties": {
        "id": 619706780,
        "osm_type": "way",
        "name": "Xhedis"
      }
    },
    {
      "type": "Feature",
      "geometry": {
        "type": "Point",
        "coordinates": [
          20.4364767,
          41.6846459
        ]
      },
      "properties": {
        "id": 672164407,
        "osm_type": "way",
        "name": "Spar"
      }
    },
    {
      "type": "Feature",
      "geometry": {
        "type": "Point",
        "coordinates": [
          19.4778646,
          41.3297209
        ]
      },
      "properties": {
        "id": 728118368,
        "osm_type": "way",
        "name": "Hoda Market"
      }
    },
    {
      "type": "Feature",
      "geometry": {
        "type": "Point",
        "coordinates": [
          19.4679316,
          41.3245676
        ]
      },
      "properties": {
        "id": 729198763,
        "osm_type": "way",
        "name": "Market Arenci"
      }
    },
    {
      "type": "Feature",
      "geometry": {
        "type": "Point",
        "coordinates": [
          19.4522439,
          41.3195887
        ]
      },
      "properties": {
        "id": 730827600,
        "osm_type": "way",
        "name": "Supermarket Luli"
      }
    },
    {
      "type": "Feature",
      "geometry": {
        "type": "Point",
        "coordinates": [
          19.4238777,
          41.8666678
        ]
      },
      "properties": {
        "id": 916799273,
        "osm_type": "way",
        "name": "Big Market"
      }
    },
    {
      "type": "Feature",
      "geometry": {
        "type": "Point",
        "coordinates": [
          20.4270743,
          42.0751234
        ]
      },
      "properties": {
        "id": 947730662,
        "osm_type": "way",
        "name": "Ferati"
      }
    },
    {
      "type": "Feature",
      "geometry": {
        "type": "Point",
        "coordinates": [
          19.5142811,
          41.4935002
        ]
      },
      "properties": {
        "id": 967024547,
        "osm_type": "way",
        "name": "Conad",
        "brand": "Conad",
        "opening_hours": "Mo-Sa 08:00-20:00"
      }
    },
    {
      "type": "Feature",
      "geometry": {
        "type": "Point",
        "coordinates": [
          19.8749976,
          41.7671024
        ]
      },
      "properties": {
        "id": 1053281388,
        "osm_type": "way",
        "name": "Conad",
        "brand": "Conad"
      }
    },
    {
      "type": "Feature",
      "geometry": {
        "type": "Point",
        "coordinates": [
          19.772549,
          42.396907
        ]
      },
      "properties": {
        "id": 1084564427,
        "osm_type": "way",
        "name": "Mini Market Jezerca",
        "opening_hours": "Mo-Su 09:00-21:00"
      }
    },
    {
      "type": "Feature",
      "geometry": {
        "type": "Point",
        "coordinates": [
          19.4732146,
          41.5740139
        ]
      },
      "properties": {
        "id": 1088195130,
        "osm_type": "way",
        "name": "Kepi Rodonit"
      }
    },
    {
      "type": "Feature",
      "geometry": {
        "type": "Point",
        "coordinates": [
          19.709675,
          41.476629
        ]
      },
      "properties": {
        "id": 1167377827,
        "osm_type": "way",
        "name": "Shullazi Cash & Carry",
        "opening_hours": "08:00-22:00"
      }
    },
    {
      "type": "Feature",
      "geometry": {
        "type": "Point",
        "coordinates": [
          19.5168237,
          41.5025313
        ]
      },
      "properties": {
        "id": 1303475276,
        "osm_type": "way",
        "name": "Eco Market"
      }
    },
    {
      "type": "Feature",
      "geometry": {
        "type": "Point",
        "coordinates": [
          19.6060063,
          41.37427
        ]
      },
      "properties": {
        "id": 1303481449,
        "osm_type": "way",
        "name": "Xhangolli"
      }
    },
    {
      "type": "Feature",
      "geometry": {
        "type": "Point",
        "coordinates": [
          20.4255998,
          41.6841786
        ]
      },
      "properties": {
        "id": 1388501417,
        "osm_type": "way",
        "name": "Big Market"
      }
    },
    {
      "type": "Feature",
      "geometry": {
        "type": "Point",
        "coordinates": [
          19.6530558,
          41.7351682
        ]
      },
      "properties": {
        "id": 1459859887,
        "osm_type": "way",
        "name": "Spar"
      }
    }
  ]
}