{
  "type": "FeatureCollection",
  "features": [
    {
      "type": "Feature",
      "geometry": {
        "type": "Point",
        "coordinates": [
          -8.2062301,
          41.8437654
        ]
      },
      "properties": {
        "id": 5876784265,
        "osm_type": "node",
        "name": "Cabana do Aradoiro",
        "shelter_type": "weather_shelter"
      }
    },
    {
      "type": "Feature",
      "geometry": {
        "type": "Point",
        "coordinates": [
          -8.2698458,
          41.7982856
        ]
      },
      "properties": {
        "id": 11411732048,
        "osm_type": "node",
        "name": "Abrigo de Eido",
        "shelter_type": "weather_shelter"
      }
    },
    {
      "type": "Feature",
      "geometry": {
        "type": "Point",
        "coordinates": [
          -8.2148498,
          41.8409324
        ]
      },
      "properties": {
        "id": 12882958064,
        "osm_type": "node",
        "name": "Cabana de Sobreiro Quente",
        "shelter_type": "weather_shelter"
      }
    },
    {
      "type": "Feature",
      "geometry": {
        "type": "Point",
        "coordinates": [
          -8.2292332,
          41.8369058
        ]
      },
      "properties": {
        "id": 12882958086,
        "osm_type": "node",
        "name": "Cabana de Gordemela",
        "shelter_type": "weather_shelter"
      }
    },
    {
      "type": "Feature",
      "geometry": {
        "type": "Point",
        "coordinates": [
          -8.3034838,
          41.9146539
        ]
      },
      "properties": {
        "id": 13342285866,
        "osm_type": "node"
      }
    },
    {
      "type": "Feature",
      "geometry": {
        "type": "Point",
        "coordinates": [
          -8.7184406,
          41.8034747
        ]
      },
      "properties": {
        "id": 13734449886,
        "osm_type": "node",
        "shelter_type": "weather_shelter"
      }
    },
    {
      "type": "Feature",
      "geometry": {
        "type": "Point",
        "coordinates": [
          -8.20481,
          41.8333292
        ]
      },
      "properties": {
        "id": 171091078,
        "osm_type": "way",
        "name": "Refúgio do Carqueijal",
        "shelter_type": "weather_shelter"
      }
    },
    {
      "type": "Feature",
      "geometry": {
        "type": "Point",
        "coordinates": [
          -8.8358314,
          41.6920663
        ]
      },
      "properties": {
        "id": 470099157,
        "osm_type": "way",
        "name": "Coreto",
        "shelter_type": "weather_shelter"
      }
    },
    {
      "type": "Feature",
      "geometry": {
        "type": "Point",
        "coordinates": [
          -8.1911346,
          41.8187906
        ]
      },
      "properties": {
        "id": 536879905,
        "osm_type": "way",
        "name": "Cabana do Fial",
        "shelter_type": "weather_shelter"
      }
    },
    {
      "type": "Feature",
      "geometry": {
        "type": "Point",
        "coordinates": [
          -8.219705,
          41.8299792
        ]
      },
      "properties": {
        "id": 622109472,
        "osm_type": "way",
        "name": "Cabana da Escaravilheira",
        "shelter_type": "weather_shelter"
      }
    },
    {
      "type": "Feature",
      "geometry": {
        "type": "Point",
        "coordinates": [
          -8.2225905,
          41.8120474
        ]
      },
      "properties": {
        "id": 639037151,
        "osm_type": "way",
        "name": "Abrigo de Martimguim",
        "shelter_type": "weather_shelter"
      }
    },
    {
      "type": "Feature",
      "geometry": {
        "type": "Point",
        "coordinates": [
          -8.2154216,
          41.8057973
        ]
      },
      "properties": {
        "id": 639038612,
        "osm_type": "way",
        "name": "Abrigo de Bentozelo",
        "shelter_type": "weather_shelter"
      }
    },
    {
      "type": "Feature",
      "geometry": {
        "type": "Point",
        "coordinates": [
          -8.2923262,
          41.905404
        ]
      },
      "properties": {
        "id": 1084466018,
        "osm_type": "way",
        "name": "Cabana da Cova",
        "shelter_type": "basic_hut"
      }
    },
    {
      "type": "Feature",
      "geometry": {
        "type": "Point",
        "coordinates": [
          -8.2930798,
          41.9000441
        ]
      },
      "properties": {
        "id": 1084466022,
        "osm_type": "way",
        "name": "Cabana da Urzeira",
        "shelter_type": "basic_hut"
      }
    },
    {
      "type": "Feature",
      "geometry": {
        "type": "Point",
        "coordinates": [
          -8.2624983,
          41.9013038
        ]
      },
      "properties": {
        "id": 1112671366,
        "osm_type": "way",
        "name": "Casa Abrigo Branda da Murça",
        "shelter_type": "weather_shelter"
      }
    },
    {
      "type": "Feature",
      "geometry": {
        "type": "Point",
        "coordinates": [
          -8.2052794,
          41.8339119
        ]
      },
      "properties": {
        "id": 1391773574,
        "osm_type": "way",
        "name": "Abrigo de Bugalhedo",
        "shelter_type": "weather_shelter"
      }
    },
    {
      "type": "Feature",
      "geometry": {
        "type": "Point",
        "coordinates": [
          -8.2135905,
          41.8323608
        ]
      },
      "properties": {
        "id": 1391773575,
        "osm_type": "way",
        "name": "Cabana de Bem Espero",
        "shelter_type": "weather_shelter"
      }
    },
    {
      "type": "Feature",
      "geometry": {
        "type": "Point",
        "coordinates": [
          -8.2256266,
          41.8323073
        ]
      },
      "properties": {
        "id": 1391773577,
        "osm_type": "way",
        "shelter_type": "weather_shelter"
      }
    },
    {
      "type": "Feature",
      "geometry": {
        "type": "Point",
        "coordinates": [
          -8.7290751,
          41.7906407
        ]
      },
      "properties": {
        "id": 1499861676,
        "osm_type": "way",
        "name": "Coreto de Montaria",
        "shelter_type": "weather_shelter"
      }
    }
  ]
}