{
  "type": "FeatureCollection",
  "features": [
    {
      "type": "Feature",
      "geometry": {
        "type": "Point",
        "coordinates": [
          -7.4835618,
          40.1458967
        ]
      },
      "properties": {
        "id": 434333799,
        "osm_type": "way",
        "shelter_type": "weather_shelter"
      }
    },
    {
      "type": "Feature",
      "geometry": {
        "type": "Point",
        "coordinates": [
          -7.4837862,
          40.144948
        ]
      },
      "properties": {
        "id": 434333802,
        "osm_type": "way",
        "shelter_type": "weather_shelter"
      }
    },
    {
      "type": "Feature",
      "geometry": {
        "type": "Point",
        "coordinates": [
          -7.4835935,
          40.1459263
        ]
      },
      "properties": {
        "id": 434333811,
        "osm_type": "way",
        "shelter_type": "weather_shelter"
      }
    },
    {
      "type": "Feature",
      "geometry": {
        "type": "Point",
        "coordinates": [
          -7.4839427,
          40.1452231
        ]
      },
      "properties": {
        "id": 434333812,
        "osm_type": "way",
        "shelter_type": "weather_shelter"
      }
    },
    {
      "type": "Feature",
      "geometry": {
        "type": "Point",
        "coordinates": [
          -7.5355467,
          40.1313248
        ]
      },
      "properties": {
        "id": 434435011,
        "osm_type": "way",
        "shelter_type": "basic_hut"
      }
    },
    {
      "type": "Feature",
      "geometry": {
        "type": "Point",
        "coordinates": [
          -7.5345441,
          40.1309208
        ]
      },
      "properties": {
        "id": 434435034,
        "osm_type": "way",
        "shelter_type": "basic_hut"
      }
    },
    {
      "type": "Feature",
      "geometry": {
        "type": "Point",
        "coordinates": [
          -7.5355945,
          40.1313105
        ]
      },
      "properties": {
        "id": 434435040,
        "osm_type": "way",
        "shelter_type": "basic_hut"
      }
    },
    {
      "type": "Feature",
      "geometry": {
        "type": "Point",
        "coordinates": [
          -7.535503,
          40.1313364
        ]
      },
      "properties": {
        "id": 434435100,
        "osm_type": "way",
        "shelter_type": "basic_hut"
      }
    },
    {
      "type": "Feature",
      "geometry": {
        "type": "Point",
        "coordinates": [
          -7.5355951,
          40.1313379
        ]
      },
      "properties": {
        "id": 434435124,
        "osm_type": "way",
        "shelter_type": "basic_hut"
      }
    },
    {
      "type": "Feature",
      "geometry": {
        "type": "Point",
        "coordinates": [
          -7.5347565,
          40.1303226
        ]
      },
      "properties": {
        "id": 434435136,
        "osm_type": "way",
        "shelter_type": "basic_hut"
      }
    },
    {
      "type": "Feature",
      "geometry": {
        "type": "Point",
        "coordinates": [
          -7.5790073,
          40.1478495
        ]
      },
      "properties": {
        "id": 783971335,
        "osm_type": "way",
        "shelter_type": "lean_to"
      }
    },
    {
      "type": "Feature",
      "geometry": {
        "type": "Point",
        "coordinates": [
          -7.5486811,
          40.3027951
        ]
      },
      "properties": {
        "id": 980245342,
        "osm_type": "way"
      }
    },
    {
      "type": "Feature",
      "geometry": {
        "type": "Point",
        "coordinates": [
          -7.1711788,
          39.9080538
        ]
      },
      "properties": {
        "id": 1079798910,
        "osm_type": "way",
        "shelter_type": "weather_shelter"
      }
    },
    {
      "type": "Feature",
      "geometry": {
        "type": "Point",
        "coordinates": [
          -7.6864051,
          40.1515917
        ]
      },
      "properties": {
        "id": 1088413717,
        "osm_type": "way"
      }
    }
  ]
}