{
  "type": "FeatureCollection",
  "features": [
    {
      "type": "Feature",
      "geometry": {
        "type": "Point",
        "coordinates": [
          24.8529615,
          44.8709633
        ]
      },
      "properties": {
        "id": 431122433,
        "osm_type": "node",
        "name": "MOL",
        "brand": "MOL"
      }
    },
    {
      "type": "Feature",
      "geometry": {
        "type": "Point",
        "coordinates": [
          24.617781,
          44.9983277
        ]
      },
      "properties": {
        "id": 565406095,
        "osm_type": "node",
        "name": "Lukoil",
        "brand": "Lukoil",
        "opening_hours": "24/7"
      }
    },
    {
      "type": "Feature",
      "geometry": {
        "type": "Point",
        "coordinates": [
          24.8275452,
          44.8850029
        ]
      },
      "properties": {
        "id": 649910699,
        "osm_type": "node",
        "name": "Rompetrol",
        "opening_hours": "24/7"
      }
    },
    {
      "type": "Feature",
      "geometry": {
        "type": "Point",
        "coordinates": [
          24.8225216,
          44.8896683
        ]
      },
      "properties": {
        "id": 885604695,
        "osm_type": "node",
        "name": "Petrom",
        "brand": "Petrom"
      }
    },
    {
      "type": "Feature",
      "geometry": {
        "type": "Point",
        "coordinates": [
          24.8829596,
          44.8392025
        ]
      },
      "properties": {
        "id": 906648690,
        "osm_type": "node",
        "name": "Rompetrol",
        "brand": "Rompetrol",
        "opening_hours": "24/7"
      }
    },
    {
      "type": "Feature",
      "geometry": {
        "type": "Point",
        "coordinates": [
          24.8589061,
          44.7910855
        ]
      },
      "properties": {
        "id": 1321579986,
        "osm_type": "node",
        "name": "OMV",
        "brand": "OMV"
      }
    },
    {
      "type": "Feature",
      "geometry": {
        "type": "Point",
        "coordinates": [
          25.2287748,
          44.7004359
        ]
      },
      "properties": {
        "id": 1335947781,
        "osm_type": "node",
        "name": "MOL",
        "brand": "MOL",
        "opening_hours": "24/7"
      }
    },
    {
      "type": "Feature",
      "geometry": {
        "type": "Point",
        "coordinates": [
          25.2288498,
          44.6998432
        ]
      },
      "properties": {
        "id": 1335947801,
        "osm_type": "node",
        "name": "Petrom",
        "brand": "Petrom",
        "opening_hours": "24/7"
      }
    },
    {
      "type": "Feature",
      "geometry": {
        "type": "Point",
        "coordinates": [
          24.865314,
          44.8550451
        ]
      },
      "properties": {
        "id": 1495075212,
        "osm_type": "node",
        "name": "Chevrolet CC",
        "brand": "Chevrolet CC"
      }
    },
    {
      "type": "Feature",
      "geometry": {
        "type": "Point",
        "coordinates": [
          24.8836518,
          44.831522
        ]
      },
      "properties": {
        "id": 1495075359,
        "osm_type": "node",
        "name": "Petrom",
        "brand": "Petrom",
        "opening_hours": "24/7"
      }
    },
    {
      "type": "Feature",
      "geometry": {
        "type": "Point",
        "coordinates": [
          24.8463313,
          44.8751577
        ]
      },
      "properties": {
        "id": 1495075516,
        "osm_type": "node",
        "name": "Marian"
      }
    },
    {
      "type": "Feature",
      "geometry": {
        "type": "Point",
        "coordinates": [
          24.8787458,
          44.8657344
        ]
      },
      "properties": {
        "id": 1503633687,
        "osm_type": "node",
        "name": "Lukoil",
        "brand": "Lukoil"
      }
    },
    {
      "type": "Feature",
      "geometry": {
        "type": "Point",
        "coordinates": [
          24.8823982,
          44.8372377
        ]
      },
      "properties": {
        "id": 1885686787,
        "osm_type": "node",
        "name": "Lukoil",
        "brand": "Lukoil"
      }
    },
    {
      "type": "Feature",
      "geometry": {
        "type": "Point",
        "coordinates": [
          24.8639095,
          44.8502685
        ]
      },
      "properties": {
        "id": 1885688205,
        "osm_type": "node",
        "name": "GPL"
      }
    },
    {
      "type": "Feature",
      "geometry": {
        "type": "Point",
        "coordinates": [
          24.8881664,
          44.8460404
        ]
      },
      "properties": {
        "id": 1919074178,
        "osm_type": "node",
        "name": "MOL",
        "brand": "MOL"
      }
    },
    {
      "type": "Feature",
      "geometry": {
        "type": "Point",
        "coordinates": [
          24.8971548,
          44.8231265
        ]
      },
      "properties": {
        "id": 2336884721,
        "osm_type": "node",
        "name": "LukOil",
        "brand": "Lukoil"
      }
    },
    {
      "type": "Feature",
      "geometry": {
        "type": "Point",
        "coordinates": [
          24.7512558,
          44.6758805
        ]
      },
      "properties": {
        "id": 2339942591,
        "osm_type": "node",
        "name": "Rompetrol",
        "brand": "Rompetrol",
        "opening_hours": "Mo-Su 06:00-23:00"
      }
    },
    {
      "type": "Feature",
      "geometry": {
        "type": "Point",
        "coordinates": [
          24.5683998,
          45.011487
        ]
      },
      "properties": {
        "id": 2340984913,
        "osm_type": "node",
        "name": "Petrotrans"
      }
    },
    {
      "type": "Feature",
      "geometry": {
        "type": "Point",
        "coordinates": [
          24.8251154,
          44.8859389
        ]
      },
      "properties": {
        "id": 2505746260,
        "osm_type": "node",
        "name": "GPL MOL"
      }
    },
    {
      "type": "Feature",
      "geometry": {
        "type": "Point",
        "coordinates": [
          24.8250473,
          44.8856523
        ]
      },
      "properties": {
        "id": 2505746261,
        "osm_type": "node",
        "name": "MOL",
        "brand": "MOL"
      }
    },
    {
      "type": "Feature",
      "geometry": {
        "type": "Point",
        "coordinates": [
          24.8253581,
          44.8867507
        ]
      },
      "properties": {
        "id": 2505755214,
        "osm_type": "node",
        "name": "MOL",
        "brand": "MOL"
      }
    },
    {
      "type": "Feature",
      "geometry": {
        "type": "Point",
        "coordinates": [
          24.8231917,
          44.8886723
        ]
      },
      "properties": {
        "id": 2505755217,
        "osm_type": "node",
        "name": "GPL Lukoil"
      }
    },
    {
      "type": "Feature",
      "geometry": {
        "type": "Point",
        "coordinates": [
          24.8233186,
          44.8885064
        ]
      },
      "properties": {
        "id": 2505755221,
        "osm_type": "node",
        "name": "Lukoil",
        "brand": "Lukoil"
      }
    },
    {
      "type": "Feature",
      "geometry": {
        "type": "Point",
        "coordinates": [
          24.8222629,
          44.8897566
        ]
      },
      "properties": {
        "id": 2505759813,
        "osm_type": "node",
        "name": "GPL petrom",
        "brand": "Petrom"
      }
    },
    {
      "type": "Feature",
      "geometry": {
        "type": "Point",
        "coordinates": [
          24.9295026,
          44.9522559
        ]
      },
      "properties": {
        "id": 2521970131,
        "osm_type": "node",
        "name": "Stație de carburanți"
      }
    },
    {
      "type": "Feature",
      "geometry": {
        "type": "Point",
        "coordinates": [
          24.9263548,
          44.9505851
        ]
      },
      "properties": {
        "id": 2521970132,
        "osm_type": "node",
        "name": "OMV",
        "brand": "OMV"
      }
    },
    {
      "type": "Feature",
      "geometry": {
        "type": "Point",
        "coordinates": [
          24.6700168,
          45.106346
        ]
      },
      "properties": {
        "id": 3039913699,
        "osm_type": "node",
        "name": "Petrom",
        "brand": "Petrom"
      }
    },
    {
      "type": "Feature",
      "geometry": {
        "type": "Point",
        "coordinates": [
          25.050815,
          45.2793965
        ]
      },
      "properties": {
        "id": 3085710875,
        "osm_type": "node",
        "name": "Microstatie"
      }
    },
    {
      "type": "Feature",
      "geometry": {
        "type": "Point",
        "coordinates": [
          24.6771993,
          45.1494203
        ]
      },
      "properties": {
        "id": 3105995785,
        "osm_type": "node",
        "name": "Petrom",
        "brand": "Petrom"
      }
    },
    {
      "type": "Feature",
      "geometry": {
        "type": "Point",
        "coordinates": [
          24.8307626,
          44.8939884
        ]
      },
      "properties": {
        "id": 3128207033,
        "osm_type": "node",
        "name": "Smart Diesel"
      }
    },
    {
      "type": "Feature",
      "geometry": {
        "type": "Point",
        "coordinates": [
          24.8856585,
          44.8523708
        ]
      },
      "properties": {
        "id": 3334249495,
        "osm_type": "node"
      }
    },
    {
      "type": "Feature",
      "geometry": {
        "type": "Point",
        "coordinates": [
          24.9608777,
          44.4446347
        ]
      },
      "properties": {
        "id": 3334249500,
        "osm_type": "node",
        "name": "Petrom",
        "brand": "Petrom",
        "opening_hours": "Mo-Su 06:00-18:00"
      }
    },
    {
      "type": "Feature",
      "geometry": {
        "type": "Point",
        "coordinates": [
          25.2288522,
          44.7006128
        ]
      },
      "properties": {
        "id": 3334249501,
        "osm_type": "node",
        "name": "MOL",
        "brand": "MOL"
      }
    },
    {
      "type": "Feature",
      "geometry": {
        "type": "Point",
        "coordinates": [
          25.1762706,
          45.3930055
        ]
      },
      "properties": {
        "id": 3334249502,
        "osm_type": "node",
        "name": "Petrom",
        "brand": "Petrom"
      }
    },
    {
      "type": "Feature",
      "geometry": {
        "type": "Point",
        "coordinates": [
          24.675174,
          45.1321536
        ]
      },
      "properties": {
        "id": 3334249593,
        "osm_type": "node",
        "name": "Petrom",
        "brand": "Petrom",
        "opening_hours": "Mo-Su 06:00-22:00"
      }
    },
    {
      "type": "Feature",
      "geometry": {
        "type": "Point",
        "coordinates": [
          25.1374095,
          44.7893421
        ]
      },
      "properties": {
        "id": 3334249610,
        "osm_type": "node",
        "name": "Petrom",
        "brand": "Petrom"
      }
    },
    {
      "type": "Feature",
      "geometry": {
        "type": "Point",
        "coordinates": [
          24.7435262,
          44.988129
        ]
      },
      "properties": {
        "id": 3700001123,
        "osm_type": "node",
        "name": "Lukoil",
        "brand": "Lukoil"
      }
    },
    {
      "type": "Feature",
      "geometry": {
        "type": "Point",
        "coordinates": [
          24.8132137,
          44.9044066
        ]
      },
      "properties": {
        "id": 3700018671,
        "osm_type": "node",
        "name": "GPL"
      }
    },
    {
      "type": "Feature",
      "geometry": {
        "type": "Point",
        "coordinates": [
          24.7475005,
          44.9674714
        ]
      },
      "properties": {
        "id": 3700020981,
        "osm_type": "node",
        "name": "GPL"
      }
    },
    {
      "type": "Feature",
      "geometry": {
        "type": "Point",
        "coordinates": [
          24.8259198,
          44.892469
        ]
      },
      "properties": {
        "id": 3700037525,
        "osm_type": "node",
        "name": "Lukoil",
        "brand": "Lukoil"
      }
    },
    {
      "type": "Feature",
      "geometry": {
        "type": "Point",
        "coordinates": [
          24.7213637,
          44.9194952
        ]
      },
      "properties": {
        "id": 3754095985,
        "osm_type": "node",
        "name": "G.P.L"
      }
    },
    {
      "type": "Feature",
      "geometry": {
        "type": "Point",
        "coordinates": [
          24.873907,
          44.8960338
        ]
      },
      "properties": {
        "id": 4204109228,
        "osm_type": "node",
        "name": "Lukoil",
        "brand": "Lukoil"
      }
    },
    {
      "type": "Feature",
      "geometry": {
        "type": "Point",
        "coordinates": [
          24.9257661,
          44.9701356
        ]
      },
      "properties": {
        "id": 4311855292,
        "osm_type": "node",
        "name": "Lukoil",
        "brand": "Lukoil"
      }
    },
    {
      "type": "Feature",
      "geometry": {
        "type": "Point",
        "coordinates": [
          24.6830321,
          45.0778231
        ]
      },
      "properties": {
        "id": 4364725662,
        "osm_type": "node",
        "name": "GPL Auto"
      }
    },
    {
      "type": "Feature",
      "geometry": {
        "type": "Point",
        "coordinates": [
          24.732932,
          44.7989846
        ]
      },
      "properties": {
        "id": 4674771395,
        "osm_type": "node",
        "name": "FUELONE"
      }
    },
    {
      "type": "Feature",
      "geometry": {
        "type": "Point",
        "coordinates": [
          24.8743477,
          44.819251
        ]
      },
      "properties": {
        "id": 4706391190,
        "osm_type": "node",
        "name": "Petrom",
        "brand": "Petrom",
        "opening_hours": "24/7"
      }
    },
    {
      "type": "Feature",
      "geometry": {
        "type": "Point",
        "coordinates": [
          24.6420773,
          45.3191378
        ]
      },
      "properties": {
        "id": 4807595647,
        "osm_type": "node",
        "name": "Petronor Arefu"
      }
    },
    {
      "type": "Feature",
      "geometry": {
        "type": "Point",
        "coordinates": [
          24.6680899,
          45.2024036
        ]
      },
      "properties": {
        "id": 4807595648,
        "osm_type": "node",
        "name": "GPL Albești"
      }
    },
    {
      "type": "Feature",
      "geometry": {
        "type": "Point",
        "coordinates": [
          24.8293834,
          44.893384
        ]
      },
      "properties": {
        "id": 4841763685,
        "osm_type": "node",
        "name": "Smart Diesel"
      }
    },
    {
      "type": "Feature",
      "geometry": {
        "type": "Point",
        "coordinates": [
          25.0064027,
          45.2124824
        ]
      },
      "properties": {
        "id": 4881664264,
        "osm_type": "node",
        "name": "Mira"
      }
    },
    {
      "type": "Feature",
      "geometry": {
        "type": "Point",
        "coordinates": [
          24.8780335,
          44.6667944
        ]
      },
      "properties": {
        "id": 4900392453,
        "osm_type": "node",
        "name": "Petrom",
        "brand": "Petrom",
        "opening_hours": "24/7"
      }
    },
    {
      "type": "Feature",
      "geometry": {
        "type": "Point",
        "coordinates": [
          24.841776,
          45.1377226
        ]
      },
      "properties": {
        "id": 5215880922,
        "osm_type": "node",
        "name": "Benzinăria Retevoiești"
      }
    },
    {
      "type": "Feature",
      "geometry": {
        "type": "Point",
        "coordinates": [
          24.9306048,
          44.9535019
        ]
      },
      "properties": {
        "id": 5267848421,
        "osm_type": "node",
        "name": "Benzina și Gpl"
      }
    },
    {
      "type": "Feature",
      "geometry": {
        "type": "Point",
        "coordinates": [
          24.7783791,
          45.2014736
        ]
      },
      "properties": {
        "id": 5289489706,
        "osm_type": "node",
        "name": "Rompetrol",
        "brand": "Rompetrol",
        "opening_hours": "24/7"
      }
    },
    {
      "type": "Feature",
      "geometry": {
        "type": "Point",
        "coordinates": [
          24.8665622,
          44.8678811
        ]
      },
      "properties": {
        "id": 5527035394,
        "osm_type": "node",
        "name": "Partener Rompetrol"
      }
    },
    {
      "type": "Feature",
      "geometry": {
        "type": "Point",
        "coordinates": [
          24.8867717,
          44.8460569
        ]
      },
      "properties": {
        "id": 5747600030,
        "osm_type": "node",
        "name": "Rompetrol",
        "brand": "Rompetrol",
        "opening_hours": "24/7"
      }
    },
    {
      "type": "Feature",
      "geometry": {
        "type": "Point",
        "coordinates": [
          25.0620098,
          44.8161952
        ]
      },
      "properties": {
        "id": 5765171652,
        "osm_type": "node",
        "name": "MOL",
        "brand": "MOL"
      }
    },
    {
      "type": "Feature",
      "geometry": {
        "type": "Point",
        "coordinates": [
          25.0830273,
          44.8756183
        ]
      },
      "properties": {
        "id": 8017985985,
        "osm_type": "node",
        "name": "Benzinarie",
        "opening_hours": "Mo-Su 06:00-22:00"
      }
    },
    {
      "type": "Feature",
      "geometry": {
        "type": "Point",
        "coordinates": [
          25.239834,
          44.521364
        ]
      },
      "properties": {
        "id": 9396798532,
        "osm_type": "node",
        "name": "Rompetrol",
        "brand": "Rompetrol",
        "opening_hours": "24/7"
      }
    },
    {
      "type": "Feature",
      "geometry": {
        "type": "Point",
        "coordinates": [
          24.7835617,
          44.4375858
        ]
      },
      "properties": {
        "id": 9396798533,
        "osm_type": "node",
        "name": "Rompetrol",
        "brand": "Rompetrol",
        "opening_hours": "Mo-Su 06:00-23:00"
      }
    },
    {
      "type": "Feature",
      "geometry": {
        "type": "Point",
        "coordinates": [
          24.668026,
          45.202515
        ]
      },
      "properties": {
        "id": 9396798534,
        "osm_type": "node",
        "name": "Rompetrol",
        "brand": "Rompetrol",
        "opening_hours": "24/7"
      }
    },
    {
      "type": "Feature",
      "geometry": {
        "type": "Point",
        "coordinates": [
          25.134474,
          44.789442
        ]
      },
      "properties": {
        "id": 9396798537,
        "osm_type": "node",
        "name": "Rompetrol",
        "brand": "Rompetrol",
        "opening_hours": "Mo-Su 06:00-23:00"
      }
    },
    {
      "type": "Feature",
      "geometry": {
        "type": "Point",
        "coordinates": [
          25.1697468,
          45.3639657
        ]
      },
      "properties": {
        "id": 9396798538,
        "osm_type": "node",
        "name": "Rompetrol",
        "brand": "Rompetrol",
        "opening_hours": "24/7"
      }
    },
    {
      "type": "Feature",
      "geometry": {
        "type": "Point",
        "coordinates": [
          25.081707,
          44.80986
        ]
      },
      "properties": {
        "id": 9396798539,
        "osm_type": "node",
        "name": "Rompetrol",
        "brand": "Rompetrol",
        "opening_hours": "24/7"
      }
    },
    {
      "type": "Feature",
      "geometry": {
        "type": "Point",
        "coordinates": [
          24.9500906,
          44.7104245
        ]
      },
      "properties": {
        "id": 9396798593,
        "osm_type": "node",
        "name": "Rompetrol",
        "brand": "Rompetrol",
        "opening_hours": "24/7"
      }
    },
    {
      "type": "Feature",
      "geometry": {
        "type": "Point",
        "coordinates": [
          24.7213478,
          44.9193196
        ]
      },
      "properties": {
        "id": 9396798594,
        "osm_type": "node",
        "name": "Rompetrol",
        "brand": "Rompetrol",
        "opening_hours": "24/7"
      }
    },
    {
      "type": "Feature",
      "geometry": {
        "type": "Point",
        "coordinates": [
          24.747567,
          44.967485
        ]
      },
      "properties": {
        "id": 9396798595,
        "osm_type": "node",
        "name": "Rompetrol",
        "brand": "Rompetrol",
        "opening_hours": "Mo-Su 06:00-23:00"
      }
    },
    {
      "type": "Feature",
      "geometry": {
        "type": "Point",
        "coordinates": [
          24.6710016,
          45.1629936
        ]
      },
      "properties": {
        "id": 9396798658,
        "osm_type": "node",
        "name": "Rompetrol",
        "brand": "Rompetrol",
        "opening_hours": "24/7"
      }
    },
    {
      "type": "Feature",
      "geometry": {
        "type": "Point",
        "coordinates": [
          24.87575,
          44.910332
        ]
      },
      "properties": {
        "id": 9396798674,
        "osm_type": "node",
        "name": "Rompetrol",
        "brand": "Rompetrol",
        "opening_hours": "24/7"
      }
    },
    {
      "type": "Feature",
      "geometry": {
        "type": "Point",
        "coordinates": [
          24.9326975,
          44.9624199
        ]
      },
      "properties": {
        "id": 9919589146,
        "osm_type": "node"
      }
    },
    {
      "type": "Feature",
      "geometry": {
        "type": "Point",
        "coordinates": [
          24.9609436,
          44.9725318
        ]
      },
      "properties": {
        "id": 9919589322,
        "osm_type": "node"
      }
    },
    {
      "type": "Feature",
      "geometry": {
        "type": "Point",
        "coordinates": [
          24.7005037,
          44.9451475
        ]
      },
      "properties": {
        "id": 9946556884,
        "osm_type": "node",
        "name": "Octano",
        "opening_hours": "24/7"
      }
    },
    {
      "type": "Feature",
      "geometry": {
        "type": "Point",
        "coordinates": [
          24.8392938,
          44.8975453
        ]
      },
      "properties": {
        "id": 10109310283,
        "osm_type": "node",
        "name": "Oscar Drive",
        "brand": "Oscar",
        "opening_hours": "24/7"
      }
    },
    {
      "type": "Feature",
      "geometry": {
        "type": "Point",
        "coordinates": [
          25.0754556,
          44.8123817
        ]
      },
      "properties": {
        "id": 10754094354,
        "osm_type": "node"
      }
    },
    {
      "type": "Feature",
      "geometry": {
        "type": "Point",
        "coordinates": [
          24.9221863,
          44.5968533
        ]
      },
      "properties": {
        "id": 10772727961,
        "osm_type": "node"
      }
    },
    {
      "type": "Feature",
      "geometry": {
        "type": "Point",
        "coordinates": [
          25.1203814,
          44.4333978
        ]
      },
      "properties": {
        "id": 10772744743,
        "osm_type": "node",
        "name": "GPL Auto"
      }
    },
    {
      "type": "Feature",
      "geometry": {
        "type": "Point",
        "coordinates": [
          25.0077341,
          45.1092734
        ]
      },
      "properties": {
        "id": 10915584625,
        "osm_type": "node",
        "name": "GPL auto"
      }
    },
    {
      "type": "Feature",
      "geometry": {
        "type": "Point",
        "coordinates": [
          24.6183661,
          44.9982046
        ]
      },
      "properties": {
        "id": 10929758141,
        "osm_type": "node",
        "name": "Lukoil",
        "brand": "Lukoil"
      }
    },
    {
      "type": "Feature",
      "geometry": {
        "type": "Point",
        "coordinates": [
          24.6699071,
          45.1065614
        ]
      },
      "properties": {
        "id": 11107280638,
        "osm_type": "node",
        "name": "Petrom",
        "brand": "Petrom"
      }
    },
    {
      "type": "Feature",
      "geometry": {
        "type": "Point",
        "coordinates": [
          25.1168168,
          45.2784206
        ]
      },
      "properties": {
        "id": 11200440067,
        "osm_type": "node",
        "name": "Oscar Drive",
        "brand": "Oscar",
        "opening_hours": "24/7"
      }
    },
    {
      "type": "Feature",
      "geometry": {
        "type": "Point",
        "coordinates": [
          25.0486834,
          44.7694741
        ]
      },
      "properties": {
        "id": 11266317767,
        "osm_type": "node",
        "name": "Rompetrol",
        "brand": "Rompetrol",
        "opening_hours": "24/7"
      }
    },
    {
      "type": "Feature",
      "geometry": {
        "type": "Point",
        "coordinates": [
          24.881666,
          44.6910354
        ]
      },
      "properties": {
        "id": 11407680962,
        "osm_type": "node",
        "name": "Rompetrol",
        "brand": "Rompetrol"
      }
    },
    {
      "type": "Feature",
      "geometry": {
        "type": "Point",
        "coordinates": [
          24.925394,
          44.8324527
        ]
      },
      "properties": {
        "id": 11834826336,
        "osm_type": "node",
        "name": "MOL",
        "brand": "MOL",
        "opening_hours": "24/7"
      }
    },
    {
      "type": "Feature",
      "geometry": {
        "type": "Point",
        "coordinates": [
          24.9238248,
          44.832291
        ]
      },
      "properties": {
        "id": 11834826337,
        "osm_type": "node",
        "name": "MOL",
        "brand": "MOL",
        "opening_hours": "24/7"
      }
    },
    {
      "type": "Feature",
      "geometry": {
        "type": "Point",
        "coordinates": [
          24.8413874,
          45.206848
        ]
      },
      "properties": {
        "id": 12075080936,
        "osm_type": "node"
      }
    },
    {
      "type": "Feature",
      "geometry": {
        "type": "Point",
        "coordinates": [
          24.7797261,
          45.2017379
        ]
      },
      "properties": {
        "id": 12075143416,
        "osm_type": "node"
      }
    },
    {
      "type": "Feature",
      "geometry": {
        "type": "Point",
        "coordinates": [
          24.6692018,
          45.1774344
        ]
      },
      "properties": {
        "id": 12118677563,
        "osm_type": "node"
      }
    },
    {
      "type": "Feature",
      "geometry": {
        "type": "Point",
        "coordinates": [
          24.7600295,
          44.8900584
        ]
      },
      "properties": {
        "id": 12189637666,
        "osm_type": "node",
        "name": "Oscar",
        "brand": "Oscar"
      }
    },
    {
      "type": "Feature",
      "geometry": {
        "type": "Point",
        "coordinates": [
          24.8367437,
          44.7559845
        ]
      },
      "properties": {
        "id": 12324591096,
        "osm_type": "node"
      }
    },
    {
      "type": "Feature",
      "geometry": {
        "type": "Point",
        "coordinates": [
          24.8370357,
          44.7644761
        ]
      },
      "properties": {
        "id": 12324591107,
        "osm_type": "node",
        "name": "Forte Gaz",
        "brand": "Forte Gaz"
      }
    },
    {
      "type": "Feature",
      "geometry": {
        "type": "Point",
        "coordinates": [
          24.9046372,
          44.8653982
        ]
      },
      "properties": {
        "id": 12376295999,
        "osm_type": "node",
        "name": "Mol Benzinărie",
        "brand": "MOL"
      }
    },
    {
      "type": "Feature",
      "geometry": {
        "type": "Point",
        "coordinates": [
          24.8824612,
          44.8381812
        ]
      },
      "properties": {
        "id": 13337765540,
        "osm_type": "node",
        "name": "Rompetrol",
        "brand": "Rompetrol"
      }
    },
    {
      "type": "Feature",
      "geometry": {
        "type": "Point",
        "coordinates": [
          24.8758504,
          44.822114
        ]
      },
      "properties": {
        "id": 13410063161,
        "osm_type": "node",
        "name": "Tsv Gas Station"
      }
    },
    {
      "type": "Feature",
      "geometry": {
        "type": "Point",
        "coordinates": [
          24.883601,
          44.8315607
        ]
      },
      "properties": {
        "id": 136270541,
        "osm_type": "way",
        "name": "Petrom",
        "brand": "Petrom"
      }
    },
    {
      "type": "Feature",
      "geometry": {
        "type": "Point",
        "coordinates": [
          24.8833636,
          44.8681322
        ]
      },
      "properties": {
        "id": 137070725,
        "osm_type": "way",
        "name": "Petrom",
        "brand": "Petrom",
        "opening_hours": "24/7"
      }
    },
    {
      "type": "Feature",
      "geometry": {
        "type": "Point",
        "coordinates": [
          24.9154562,
          44.825096
        ]
      },
      "properties": {
        "id": 224835442,
        "osm_type": "way",
        "name": "OMV"
      }
    },
    {
      "type": "Feature",
      "geometry": {
        "type": "Point",
        "coordinates": [
          24.9168083,
          44.8248127
        ]
      },
      "properties": {
        "id": 224835452,
        "osm_type": "way",
        "name": "MOL"
      }
    },
    {
      "type": "Feature",
      "geometry": {
        "type": "Point",
        "coordinates": [
          24.8760311,
          44.8531217
        ]
      },
      "properties": {
        "id": 233860625,
        "osm_type": "way",
        "name": "Celly"
      }
    },
    {
      "type": "Feature",
      "geometry": {
        "type": "Point",
        "coordinates": [
          24.883519,
          44.8673704
        ]
      },
      "properties": {
        "id": 300573764,
        "osm_type": "way",
        "name": "Rompetrol",
        "brand": "Rompetrol",
        "opening_hours": "24/7"
      }
    },
    {
      "type": "Feature",
      "geometry": {
        "type": "Point",
        "coordinates": [
          24.8841594,
          44.8673303
        ]
      },
      "properties": {
        "id": 300573767,
        "osm_type": "way",
        "name": "OMV",
        "brand": "OMV"
      }
    },
    {
      "type": "Feature",
      "geometry": {
        "type": "Point",
        "coordinates": [
          24.6731293,
          45.1561454
        ]
      },
      "properties": {
        "id": 321473292,
        "osm_type": "way",
        "name": "Lukoil",
        "brand": "Lukoil"
      }
    },
    {
      "type": "Feature",
      "geometry": {
        "type": "Point",
        "coordinates": [
          25.0646515,
          45.2900733
        ]
      },
      "properties": {
        "id": 382009202,
        "osm_type": "way",
        "name": "Petrom",
        "brand": "Petrom"
      }
    },
    {
      "type": "Feature",
      "geometry": {
        "type": "Point",
        "coordinates": [
          24.8338795,
          44.8822261
        ]
      },
      "properties": {
        "id": 401489520,
        "osm_type": "way",
        "name": "OMV",
        "brand": "OMV"
      }
    },
    {
      "type": "Feature",
      "geometry": {
        "type": "Point",
        "coordinates": [
          25.0819141,
          44.7549751
        ]
      },
      "properties": {
        "id": 416673113,
        "osm_type": "way",
        "name": "Petrom",
        "brand": "Petrom",
        "opening_hours": "24/7"
      }
    },
    {
      "type": "Feature",
      "geometry": {
        "type": "Point",
        "coordinates": [
          25.0389702,
          45.26541
        ]
      },
      "properties": {
        "id": 927357186,
        "osm_type": "way",
        "name": "Petrom",
        "brand": "Petrom"
      }
    },
    {
      "type": "Feature",
      "geometry": {
        "type": "Point",
        "coordinates": [
          25.0582979,
          45.2803055
        ]
      },
      "properties": {
        "id": 1006862305,
        "osm_type": "way",
        "name": "Mol",
        "brand": "MOL"
      }
    },
    {
      "type": "Feature",
      "geometry": {
        "type": "Point",
        "coordinates": [
          25.0266185,
          45.2462128
        ]
      },
      "properties": {
        "id": 1008152991,
        "osm_type": "way",
        "name": "Petrom",
        "brand": "Petrom"
      }
    },
    {
      "type": "Feature",
      "geometry": {
        "type": "Point",
        "coordinates": [
          25.0315474,
          45.2562516
        ]
      },
      "properties": {
        "id": 1008153315,
        "osm_type": "way",
        "name": "Forte Gaz"
      }
    },
    {
      "type": "Feature",
      "geometry": {
        "type": "Point",
        "coordinates": [
          25.0619041,
          45.2855187
        ]
      },
      "properties": {
        "id": 1008155550,
        "osm_type": "way",
        "name": "Bulrom Gas (GPL)"
      }
    },
    {
      "type": "Feature",
      "geometry": {
        "type": "Point",
        "coordinates": [
          25.0622843,
          45.2876023
        ]
      },
      "properties": {
        "id": 1008155553,
        "osm_type": "way",
        "name": "Rompetrol",
        "brand": "Rompetrol",
        "opening_hours": "24/7"
      }
    },
    {
      "type": "Feature",
      "geometry": {
        "type": "Point",
        "coordinates": [
          25.1639762,
          45.3491703
        ]
      },
      "properties": {
        "id": 1098858149,
        "osm_type": "way",
        "name": "Forte Gaz"
      }
    },
    {
      "type": "Feature",
      "geometry": {
        "type": "Point",
        "coordinates": [
          24.9258023,
          44.9702994
        ]
      },
      "properties": {
        "id": 1214403751,
        "osm_type": "way",
        "name": "Lukoil",
        "brand": "Lukoil"
      }
    },
    {
      "type": "Feature",
      "geometry": {
        "type": "Point",
        "coordinates": [
          24.92673,
          45.150162
        ]
      },
      "properties": {
        "id": 1240465284,
        "osm_type": "way",
        "name": "Benzinarie"
      }
    },
    {
      "type": "Feature",
      "geometry": {
        "type": "Point",
        "coordinates": [
          24.904535,
          44.8653952
        ]
      },
      "properties": {
        "id": 1338214193,
        "osm_type": "way"
      }
    },
    {
      "type": "Feature",
      "geometry": {
        "type": "Point",
        "coordinates": [
          24.9264991,
          44.9506406
        ]
      },
      "properties": {
        "id": 1348722028,
        "osm_type": "way",
        "name": "OMV",
        "brand": "OMV"
      }
    },
    {
      "type": "Feature",
      "geometry": {
        "type": "Point",
        "coordinates": [
          24.6728978,
          45.1407773
        ]
      },
      "properties": {
        "id": 1411173391,
        "osm_type": "way"
      }
    },
    {
      "type": "Feature",
      "geometry": {
        "type": "Point",
        "coordinates": [
          25.0863936,
          45.2908444
        ]
      },
      "properties": {
        "id": 1423532596,
        "osm_type": "way",
        "name": "Lukoil",
        "brand": "Lukoil"
      }
    },
    {
      "type": "Feature",
      "geometry": {
        "type": "Point",
        "coordinates": [
          24.8756093,
          44.6615587
        ]
      },
      "properties": {
        "id": 1442819533,
        "osm_type": "way"
      }
    }
  ]
}