{
  "type": "FeatureCollection",
  "features": [
    {
      "type": "Feature",
      "geometry": {
        "type": "Point",
        "coordinates": [
          38.7920107,
          37.1478032
        ]
      },
      "properties": {
        "id": 2013818148,
        "osm_type": "node",
        "name": "Ciğerci Aziz Usta"
      }
    },
    {
      "type": "Feature",
      "geometry": {
        "type": "Point",
        "coordinates": [
          38.9470544,
          37.5792306
        ]
      },
      "properties": {
        "id": 2334369693,
        "osm_type": "node",
        "name": "Demir Tesisleri"
      }
    },
    {
      "type": "Feature",
      "geometry": {
        "type": "Point",
        "coordinates": [
          38.8169466,
          37.2584467
        ]
      },
      "properties": {
        "id": 2523229695,
        "osm_type": "node"
      }
    },
    {
      "type": "Feature",
      "geometry": {
        "type": "Point",
        "coordinates": [
          39.1037542,
          37.1486068
        ]
      },
      "properties": {
        "id": 2567537646,
        "osm_type": "node"
      }
    },
    {
      "type": "Feature",
      "geometry": {
        "type": "Point",
        "coordinates": [
          38.8049393,
          37.1863149
        ]
      },
      "properties": {
        "id": 4348443389,
        "osm_type": "node",
        "name": "Görkem Resturant"
      }
    },
    {
      "type": "Feature",
      "geometry": {
        "type": "Point",
        "coordinates": [
          38.8039363,
          37.1796721
        ]
      },
      "properties": {
        "id": 4453489491,
        "osm_type": "node",
        "name": "Dedecan Ocakbaşı",
        "opening_hours": "Mo-Su 08:00-00:00",
        "phone": "+90 414 315 2525"
      }
    },
    {
      "type": "Feature",
      "geometry": {
        "type": "Point",
        "coordinates": [
          38.7929553,
          37.162561
        ]
      },
      "properties": {
        "id": 4453533291,
        "osm_type": "node",
        "name": "Gülhan Restoran",
        "opening_hours": "Mo-Su 08:30-22:30",
        "phone": "+90 414 313 3318"
      }
    },
    {
      "type": "Feature",
      "geometry": {
        "type": "Point",
        "coordinates": [
          38.8067735,
          37.1735127
        ]
      },
      "properties": {
        "id": 4453544093,
        "osm_type": "node",
        "name": "Çağdaş Ocakbaşı",
        "opening_hours": "Mo-Su 10:00-00:00",
        "phone": "+90 414 313 3800"
      }
    },
    {
      "type": "Feature",
      "geometry": {
        "type": "Point",
        "coordinates": [
          39.3194286,
          37.7532889
        ]
      },
      "properties": {
        "id": 4523482296,
        "osm_type": "node",
        "name": "Siverek Sofrası"
      }
    },
    {
      "type": "Feature",
      "geometry": {
        "type": "Point",
        "coordinates": [
          38.7914087,
          37.1587026
        ]
      },
      "properties": {
        "id": 4704961790,
        "osm_type": "node",
        "name": "Gulhan Restaurant"
      }
    },
    {
      "type": "Feature",
      "geometry": {
        "type": "Point",
        "coordinates": [
          38.7881738,
          37.1556224
        ]
      },
      "properties": {
        "id": 4706151789,
        "osm_type": "node",
        "name": "Cevahir Konukevi Sira Gecesi"
      }
    },
    {
      "type": "Feature",
      "geometry": {
        "type": "Point",
        "coordinates": [
          38.4984006,
          37.065378
        ]
      },
      "properties": {
        "id": 4772627676,
        "osm_type": "node"
      }
    },
    {
      "type": "Feature",
      "geometry": {
        "type": "Point",
        "coordinates": [
          38.8377437,
          37.3699871
        ]
      },
      "properties": {
        "id": 4884924160,
        "osm_type": "node",
        "name": "Lokanta"
      }
    },
    {
      "type": "Feature",
      "geometry": {
        "type": "Point",
        "coordinates": [
          37.9761841,
          37.0295767
        ]
      },
      "properties": {
        "id": 4889958237,
        "osm_type": "node",
        "name": "Beyaz Saray"
      }
    },
    {
      "type": "Feature",
      "geometry": {
        "type": "Point",
        "coordinates": [
          38.7919908,
          37.1572932
        ]
      },
      "properties": {
        "id": 4889959139,
        "osm_type": "node",
        "name": "Zahter"
      }
    },
    {
      "type": "Feature",
      "geometry": {
        "type": "Point",
        "coordinates": [
          38.7863998,
          37.1460423
        ]
      },
      "properties": {
        "id": 4889959140,
        "osm_type": "node",
        "name": "Çift Magara"
      }
    },
    {
      "type": "Feature",
      "geometry": {
        "type": "Point",
        "coordinates": [
          38.790381,
          37.1490385
        ]
      },
      "properties": {
        "id": 4889959827,
        "osm_type": "node",
        "name": "Ikiler Ciger Salonu"
      }
    },
    {
      "type": "Feature",
      "geometry": {
        "type": "Point",
        "coordinates": [
          39.3258938,
          37.7584759
        ]
      },
      "properties": {
        "id": 4899205778,
        "osm_type": "node",
        "name": "Manolyam Ciğer Salonu"
      }
    },
    {
      "type": "Feature",
      "geometry": {
        "type": "Point",
        "coordinates": [
          39.6011946,
          37.8087046
        ]
      },
      "properties": {
        "id": 5001260521,
        "osm_type": "node",
        "name": "Lokanta"
      }
    },
    {
      "type": "Feature",
      "geometry": {
        "type": "Point",
        "coordinates": [
          39.3057942,
          37.7412333
        ]
      },
      "properties": {
        "id": 5003735232,
        "osm_type": "node",
        "name": "Emmoş Bucak Restaurant"
      }
    },
    {
      "type": "Feature",
      "geometry": {
        "type": "Point",
        "coordinates": [
          38.3120499,
          37.470237
        ]
      },
      "properties": {
        "id": 5018531716,
        "osm_type": "node"
      }
    },
    {
      "type": "Feature",
      "geometry": {
        "type": "Point",
        "coordinates": [
          37.8670111,
          37.2464662
        ]
      },
      "properties": {
        "id": 5076971257,
        "osm_type": "node",
        "name": "Altın Sofra"
      }
    },
    {
      "type": "Feature",
      "geometry": {
        "type": "Point",
        "coordinates": [
          37.8680369,
          37.2442312
        ]
      },
      "properties": {
        "id": 5083026038,
        "osm_type": "node"
      }
    },
    {
      "type": "Feature",
      "geometry": {
        "type": "Point",
        "coordinates": [
          37.8669318,
          37.2452091
        ]
      },
      "properties": {
        "id": 5083026039,
        "osm_type": "node"
      }
    },
    {
      "type": "Feature",
      "geometry": {
        "type": "Point",
        "coordinates": [
          37.866634,
          37.2454925
        ]
      },
      "properties": {
        "id": 5083026040,
        "osm_type": "node"
      }
    },
    {
      "type": "Feature",
      "geometry": {
        "type": "Point",
        "coordinates": [
          37.8669194,
          37.2472641
        ]
      },
      "properties": {
        "id": 5083026041,
        "osm_type": "node"
      }
    },
    {
      "type": "Feature",
      "geometry": {
        "type": "Point",
        "coordinates": [
          38.7938621,
          37.1658248
        ]
      },
      "properties": {
        "id": 5238119721,
        "osm_type": "node",
        "name": "Destan Döner"
      }
    },
    {
      "type": "Feature",
      "geometry": {
        "type": "Point",
        "coordinates": [
          38.8469493,
          37.1697143
        ]
      },
      "properties": {
        "id": 5341366278,
        "osm_type": "node",
        "name": "Cafe Sukay"
      }
    },
    {
      "type": "Feature",
      "geometry": {
        "type": "Point",
        "coordinates": [
          38.2113497,
          37.05034
        ]
      },
      "properties": {
        "id": 5464923024,
        "osm_type": "node",
        "name": "Bülbül Tesisleri"
      }
    },
    {
      "type": "Feature",
      "geometry": {
        "type": "Point",
        "coordinates": [
          39.280246,
          37.7130755
        ]
      },
      "properties": {
        "id": 5582148821,
        "osm_type": "node",
        "name": "Gül-Pet Dinlenme Tesisleri"
      }
    },
    {
      "type": "Feature",
      "geometry": {
        "type": "Point",
        "coordinates": [
          38.7962438,
          37.2729739
        ]
      },
      "properties": {
        "id": 5582249521,
        "osm_type": "node",
        "name": "Çiftçi Lokantası"
      }
    },
    {
      "type": "Feature",
      "geometry": {
        "type": "Point",
        "coordinates": [
          38.797524,
          37.2132145
        ]
      },
      "properties": {
        "id": 5582273722,
        "osm_type": "node",
        "name": "Kilim Et Lokantası"
      }
    },
    {
      "type": "Feature",
      "geometry": {
        "type": "Point",
        "coordinates": [
          38.8581644,
          37.3871152
        ]
      },
      "properties": {
        "id": 5586161926,
        "osm_type": "node",
        "name": "Yeşil Gap Dinlenme Tesisleri"
      }
    },
    {
      "type": "Feature",
      "geometry": {
        "type": "Point",
        "coordinates": [
          38.7973157,
          37.1943339
        ]
      },
      "properties": {
        "id": 5598130427,
        "osm_type": "node",
        "name": "Beyaz Saray Ocakbaşı"
      }
    },
    {
      "type": "Feature",
      "geometry": {
        "type": "Point",
        "coordinates": [
          38.7913822,
          37.1589374
        ]
      },
      "properties": {
        "id": 5598146621,
        "osm_type": "node",
        "name": "Gülhan Restaurant",
        "opening_hours": "Mo-Su 08:30-22:30",
        "phone": "+90 414 313 3318"
      }
    },
    {
      "type": "Feature",
      "geometry": {
        "type": "Point",
        "coordinates": [
          38.813223,
          37.157401
        ]
      },
      "properties": {
        "id": 5598146622,
        "osm_type": "node",
        "name": "Altın Lokantası",
        "phone": "+90 414 315 3443"
      }
    },
    {
      "type": "Feature",
      "geometry": {
        "type": "Point",
        "coordinates": [
          38.8027285,
          37.1789111
        ]
      },
      "properties": {
        "id": 5598146623,
        "osm_type": "node",
        "name": "Sporyum Ocakbaşı",
        "opening_hours": "Mo-Su 08:00-00:00",
        "phone": "+90 414 316 4747"
      }
    },
    {
      "type": "Feature",
      "geometry": {
        "type": "Point",
        "coordinates": [
          38.7986126,
          37.1674509
        ]
      },
      "properties": {
        "id": 5598152321,
        "osm_type": "node",
        "name": "Çolcuoğlu Restaurant"
      }
    },
    {
      "type": "Feature",
      "geometry": {
        "type": "Point",
        "coordinates": [
          38.805383,
          37.2218401
        ]
      },
      "properties": {
        "id": 5598176021,
        "osm_type": "node",
        "name": "Çavuşoğlu Restaurant",
        "opening_hours": "Mo-Su 08:00-00:00",
        "phone": "+90 414 347 0303"
      }
    },
    {
      "type": "Feature",
      "geometry": {
        "type": "Point",
        "coordinates": [
          38.8003799,
          37.166596
        ]
      },
      "properties": {
        "id": 5598180522,
        "osm_type": "node",
        "name": "Urfa Acem Sofrası",
        "phone": "+90 414 313 6060"
      }
    },
    {
      "type": "Feature",
      "geometry": {
        "type": "Point",
        "coordinates": [
          38.8090765,
          37.1714857
        ]
      },
      "properties": {
        "id": 5613868025,
        "osm_type": "node",
        "name": "Hacıbaba Ocakbaşı",
        "phone": "+90 414 315 14 13"
      }
    },
    {
      "type": "Feature",
      "geometry": {
        "type": "Point",
        "coordinates": [
          38.8026962,
          37.1769759
        ]
      },
      "properties": {
        "id": 5736103724,
        "osm_type": "node"
      }
    },
    {
      "type": "Feature",
      "geometry": {
        "type": "Point",
        "coordinates": [
          38.7879994,
          37.1477795
        ]
      },
      "properties": {
        "id": 5782694095,
        "osm_type": "node"
      }
    },
    {
      "type": "Feature",
      "geometry": {
        "type": "Point",
        "coordinates": [
          38.7957463,
          37.2857295
        ]
      },
      "properties": {
        "id": 6076075692,
        "osm_type": "node",
        "name": "Ada"
      }
    },
    {
      "type": "Feature",
      "geometry": {
        "type": "Point",
        "coordinates": [
          38.7881929,
          37.1478266
        ]
      },
      "properties": {
        "id": 6566516102,
        "osm_type": "node",
        "name": "Beyaz Köşk"
      }
    },
    {
      "type": "Feature",
      "geometry": {
        "type": "Point",
        "coordinates": [
          38.8122544,
          37.2242675
        ]
      },
      "properties": {
        "id": 7061110785,
        "osm_type": "node",
        "name": "Pi El Ruha",
        "opening_hours": "Mo-Su 09:00-18:00",
        "cuisine": "pizza;turkish"
      }
    },
    {
      "type": "Feature",
      "geometry": {
        "type": "Point",
        "coordinates": [
          38.8090829,
          37.171154
        ]
      },
      "properties": {
        "id": 8913937315,
        "osm_type": "node",
        "name": "MELEVAN - Özel Soslu Hatay Döneri",
        "opening_hours": "Mo-Su 09:00-21:00",
        "cuisine": "kebab"
      }
    },
    {
      "type": "Feature",
      "geometry": {
        "type": "Point",
        "coordinates": [
          38.7919546,
          37.1571963
        ]
      },
      "properties": {
        "id": 9087473617,
        "osm_type": "node",
        "name": "Faruk Usta Ocakbasi"
      }
    },
    {
      "type": "Feature",
      "geometry": {
        "type": "Point",
        "coordinates": [
          37.9764409,
          37.0268557
        ]
      },
      "properties": {
        "id": 9274814648,
        "osm_type": "node"
      }
    },
    {
      "type": "Feature",
      "geometry": {
        "type": "Point",
        "coordinates": [
          38.7680816,
          37.218877
        ]
      },
      "properties": {
        "id": 9469511514,
        "osm_type": "node",
        "name": "Komagene",
        "cuisine": "turkish"
      }
    },
    {
      "type": "Feature",
      "geometry": {
        "type": "Point",
        "coordinates": [
          38.8264569,
          37.1548072
        ]
      },
      "properties": {
        "id": 9575555223,
        "osm_type": "node",
        "name": "HUBBE Restaurant - Kahvaltı- Cafe"
      }
    },
    {
      "type": "Feature",
      "geometry": {
        "type": "Point",
        "coordinates": [
          38.800337,
          37.1591053
        ]
      },
      "properties": {
        "id": 9961088744,
        "osm_type": "node",
        "name": "Tas Saray Restran"
      }
    },
    {
      "type": "Feature",
      "geometry": {
        "type": "Point",
        "coordinates": [
          38.7904481,
          37.1514905
        ]
      },
      "properties": {
        "id": 10105393317,
        "osm_type": "node",
        "name": "Konak"
      }
    },
    {
      "type": "Feature",
      "geometry": {
        "type": "Point",
        "coordinates": [
          38.7917362,
          37.1573022
        ]
      },
      "properties": {
        "id": 10238945609,
        "osm_type": "node",
        "name": "Gülizar d",
        "phone": "+90 414 215 32 59",
        "cuisine": "kebab"
      }
    },
    {
      "type": "Feature",
      "geometry": {
        "type": "Point",
        "coordinates": [
          38.7918425,
          37.1573001
        ]
      },
      "properties": {
        "id": 10243901109,
        "osm_type": "node",
        "name": "Dilim pastanesi",
        "phone": "+90 414 312 80 22",
        "cuisine": "breakfast;turkish"
      }
    },
    {
      "type": "Feature",
      "geometry": {
        "type": "Point",
        "coordinates": [
          38.7912402,
          37.1546995
        ]
      },
      "properties": {
        "id": 10763374634,
        "osm_type": "node",
        "name": "Sembol Ocakbaşı"
      }
    },
    {
      "type": "Feature",
      "geometry": {
        "type": "Point",
        "coordinates": [
          38.7904576,
          37.1494534
        ]
      },
      "properties": {
        "id": 10983042905,
        "osm_type": "node",
        "cuisine": "regional"
      }
    },
    {
      "type": "Feature",
      "geometry": {
        "type": "Point",
        "coordinates": [
          39.031749,
          36.8613123
        ]
      },
      "properties": {
        "id": 11254874597,
        "osm_type": "node",
        "name": "Harran Gastronomi Merkezi",
        "cuisine": "regional"
      }
    },
    {
      "type": "Feature",
      "geometry": {
        "type": "Point",
        "coordinates": [
          38.386881,
          37.1247103
        ]
      },
      "properties": {
        "id": 11378044569,
        "osm_type": "node",
        "name": "Mirkelam"
      }
    },
    {
      "type": "Feature",
      "geometry": {
        "type": "Point",
        "coordinates": [
          38.3868796,
          37.1262421
        ]
      },
      "properties": {
        "id": 11378044669,
        "osm_type": "node",
        "name": "Mirkelam"
      }
    },
    {
      "type": "Feature",
      "geometry": {
        "type": "Point",
        "coordinates": [
          39.3208569,
          37.7540606
        ]
      },
      "properties": {
        "id": 12290042301,
        "osm_type": "node",
        "name": "Han 1943"
      }
    },
    {
      "type": "Feature",
      "geometry": {
        "type": "Point",
        "coordinates": [
          39.1557064,
          37.6166024
        ]
      },
      "properties": {
        "id": 12368183944,
        "osm_type": "node",
        "name": "Çelebi Aile Et Lokantasi"
      }
    },
    {
      "type": "Feature",
      "geometry": {
        "type": "Point",
        "coordinates": [
          37.8784756,
          37.2377745
        ]
      },
      "properties": {
        "id": 12487714865,
        "osm_type": "node"
      }
    },
    {
      "type": "Feature",
      "geometry": {
        "type": "Point",
        "coordinates": [
          38.808335,
          37.1662255
        ]
      },
      "properties": {
        "id": 12816672201,
        "osm_type": "node",
        "name": "Darıks Steak"
      }
    },
    {
      "type": "Feature",
      "geometry": {
        "type": "Point",
        "coordinates": [
          38.7962514,
          37.1620383
        ]
      },
      "properties": {
        "id": 12833326701,
        "osm_type": "node",
        "name": "Okyanus Balikcisi (Fish)"
      }
    },
    {
      "type": "Feature",
      "geometry": {
        "type": "Point",
        "coordinates": [
          38.4264608,
          36.9748705
        ]
      },
      "properties": {
        "id": 12839650391,
        "osm_type": "node",
        "name": "Sümer kebap salonu"
      }
    },
    {
      "type": "Feature",
      "geometry": {
        "type": "Point",
        "coordinates": [
          39.1822412,
          37.6273958
        ]
      },
      "properties": {
        "id": 13179683484,
        "osm_type": "node"
      }
    },
    {
      "type": "Feature",
      "geometry": {
        "type": "Point",
        "coordinates": [
          38.810687,
          37.1582816
        ]
      },
      "properties": {
        "id": 13719069209,
        "osm_type": "node",
        "name": "Bayram Lokantası Şükrü Usta",
        "cuisine": "turkish"
      }
    },
    {
      "type": "Feature",
      "geometry": {
        "type": "Point",
        "coordinates": [
          38.18868,
          37.0981762
        ]
      },
      "properties": {
        "id": 217134347,
        "osm_type": "way",
        "name": "Mirkelam"
      }
    },
    {
      "type": "Feature",
      "geometry": {
        "type": "Point",
        "coordinates": [
          38.1881496,
          37.1006698
        ]
      },
      "properties": {
        "id": 217134348,
        "osm_type": "way",
        "name": "Mirkelam"
      }
    },
    {
      "type": "Feature",
      "geometry": {
        "type": "Point",
        "coordinates": [
          39.0000527,
          37.1696347
        ]
      },
      "properties": {
        "id": 225248423,
        "osm_type": "way",
        "name": "Fen Edebiyat Yemekhanesi"
      }
    },
    {
      "type": "Feature",
      "geometry": {
        "type": "Point",
        "coordinates": [
          38.9972722,
          37.1694496
        ]
      },
      "properties": {
        "id": 225251414,
        "osm_type": "way",
        "name": "Göl Cafe",
        "cuisine": "coffee_shop"
      }
    },
    {
      "type": "Feature",
      "geometry": {
        "type": "Point",
        "coordinates": [
          38.3931518,
          37.0410124
        ]
      },
      "properties": {
        "id": 270376274,
        "osm_type": "way"
      }
    },
    {
      "type": "Feature",
      "geometry": {
        "type": "Point",
        "coordinates": [
          38.8066298,
          37.1539334
        ]
      },
      "properties": {
        "id": 585882941,
        "osm_type": "way",
        "name": "Ciğerci Yusuf"
      }
    },
    {
      "type": "Feature",
      "geometry": {
        "type": "Point",
        "coordinates": [
          37.9754637,
          37.0252634
        ]
      },
      "properties": {
        "id": 1307469821,
        "osm_type": "way",
        "name": "GülBaba"
      }
    },
    {
      "type": "Feature",
      "geometry": {
        "type": "Point",
        "coordinates": [
          38.9934705,
          37.1677935
        ]
      },
      "properties": {
        "id": 1431682713,
        "osm_type": "way"
      }
    },
    {
      "type": "Feature",
      "geometry": {
        "type": "Point",
        "coordinates": [
          39.7583059,
          37.2249039
        ]
      },
      "properties": {
        "id": 1492352954,
        "osm_type": "way",
        "name": "Dostlar Kebap 2",
        "cuisine": "turkish"
      }
    }
  ]
}