{
  "type": "FeatureCollection",
  "features": [
    {
      "type": "Feature",
      "geometry": {
        "type": "Point",
        "coordinates": [
          10.5284699,
          57.4486213
        ]
      },
      "properties": {
        "id": 242936243,
        "osm_type": "node",
        "name": "OK Plus",
        "opening_hours": "07:00-21:00",
        "check_date": "2025-09-30"
      }
    },
    {
      "type": "Feature",
      "geometry": {
        "type": "Point",
        "coordinates": [
          9.8516028,
          56.9726642
        ]
      },
      "properties": {
        "id": 245470615,
        "osm_type": "node",
        "name": "OK",
        "brand": "OK",
        "opening_hours": "PH,Mo-Su 00:00-24:00",
        "check_date": "2024-04-20"
      }
    },
    {
      "type": "Feature",
      "geometry": {
        "type": "Point",
        "coordinates": [
          9.99603,
          57.44798
        ]
      },
      "properties": {
        "id": 247135607,
        "osm_type": "node",
        "name": "Ingo",
        "brand": "Ingo",
        "opening_hours": "24/7"
      }
    },
    {
      "type": "Feature",
      "geometry": {
        "type": "Point",
        "coordinates": [
          9.8074729,
          56.8789963
        ]
      },
      "properties": {
        "id": 280827415,
        "osm_type": "node",
        "name": "OK",
        "brand": "OK",
        "opening_hours": "24/7"
      }
    },
    {
      "type": "Feature",
      "geometry": {
        "type": "Point",
        "coordinates": [
          9.9265527,
          57.0710222
        ]
      },
      "properties": {
        "id": 291470986,
        "osm_type": "node",
        "name": "Circle K",
        "brand": "Circle K",
        "opening_hours": "24/7"
      }
    },
    {
      "type": "Feature",
      "geometry": {
        "type": "Point",
        "coordinates": [
          11.1261346,
          57.3194989
        ]
      },
      "properties": {
        "id": 325729569,
        "osm_type": "node",
        "name": "Go'on",
        "brand": "Go'on",
        "opening_hours": "24/7"
      }
    },
    {
      "type": "Feature",
      "geometry": {
        "type": "Point",
        "coordinates": [
          8.7357818,
          56.8026596
        ]
      },
      "properties": {
        "id": 327509041,
        "osm_type": "node"
      }
    },
    {
      "type": "Feature",
      "geometry": {
        "type": "Point",
        "coordinates": [
          10.5006897,
          57.4944441
        ]
      },
      "properties": {
        "id": 334516813,
        "osm_type": "node",
        "name": "OK",
        "brand": "OK"
      }
    },
    {
      "type": "Feature",
      "geometry": {
        "type": "Point",
        "coordinates": [
          8.532039,
          56.8457492
        ]
      },
      "properties": {
        "id": 407879208,
        "osm_type": "node",
        "name": "Lavpris Benzin - Merko Koldby"
      }
    },
    {
      "type": "Feature",
      "geometry": {
        "type": "Point",
        "coordinates": [
          8.4074032,
          56.8088015
        ]
      },
      "properties": {
        "id": 411740469,
        "osm_type": "node"
      }
    },
    {
      "type": "Feature",
      "geometry": {
        "type": "Point",
        "coordinates": [
          10.4762231,
          57.4819425
        ]
      },
      "properties": {
        "id": 429538141,
        "osm_type": "node",
        "name": "OK",
        "brand": "OK"
      }
    },
    {
      "type": "Feature",
      "geometry": {
        "type": "Point",
        "coordinates": [
          8.530354,
          56.8925731
        ]
      },
      "properties": {
        "id": 442697448,
        "osm_type": "node"
      }
    },
    {
      "type": "Feature",
      "geometry": {
        "type": "Point",
        "coordinates": [
          9.8967332,
          57.070076
        ]
      },
      "properties": {
        "id": 477274574,
        "osm_type": "node",
        "name": "Uno-X",
        "brand": "Uno-X",
        "opening_hours": "24/7",
        "check_date": "2025-08-12"
      }
    },
    {
      "type": "Feature",
      "geometry": {
        "type": "Point",
        "coordinates": [
          9.8789806,
          57.0043727
        ]
      },
      "properties": {
        "id": 481083976,
        "osm_type": "node",
        "name": "Ingo",
        "brand": "Ingo"
      }
    },
    {
      "type": "Feature",
      "geometry": {
        "type": "Point",
        "coordinates": [
          9.8813185,
          57.004701
        ]
      },
      "properties": {
        "id": 481083978,
        "osm_type": "node",
        "name": "OK",
        "brand": "OK"
      }
    },
    {
      "type": "Feature",
      "geometry": {
        "type": "Point",
        "coordinates": [
          9.8849934,
          57.0085985
        ]
      },
      "properties": {
        "id": 543369008,
        "osm_type": "node",
        "name": "Q8",
        "brand": "Q8"
      }
    },
    {
      "type": "Feature",
      "geometry": {
        "type": "Point",
        "coordinates": [
          8.5334852,
          56.8460209
        ]
      },
      "properties": {
        "id": 611353807,
        "osm_type": "node",
        "name": "1-2-3",
        "brand": "1-2-3"
      }
    },
    {
      "type": "Feature",
      "geometry": {
        "type": "Point",
        "coordinates": [
          8.853459,
          56.7930481
        ]
      },
      "properties": {
        "id": 611353809,
        "osm_type": "node",
        "name": "Circle K",
        "brand": "Circle K",
        "opening_hours": "24/7"
      }
    },
    {
      "type": "Feature",
      "geometry": {
        "type": "Point",
        "coordinates": [
          9.8020674,
          56.6289576
        ]
      },
      "properties": {
        "id": 611353823,
        "osm_type": "node",
        "name": "Ingo",
        "brand": "Ingo"
      }
    },
    {
      "type": "Feature",
      "geometry": {
        "type": "Point",
        "coordinates": [
          9.3402854,
          56.774019
        ]
      },
      "properties": {
        "id": 611353825,
        "osm_type": "node",
        "name": "Ingo",
        "brand": "Ingo"
      }
    },
    {
      "type": "Feature",
      "geometry": {
        "type": "Point",
        "coordinates": [
          9.7423201,
          56.8434868
        ]
      },
      "properties": {
        "id": 611353826,
        "osm_type": "node",
        "name": "Circle K",
        "brand": "Circle K",
        "opening_hours": "24/7"
      }
    },
    {
      "type": "Feature",
      "geometry": {
        "type": "Point",
        "coordinates": [
          9.8372646,
          56.8929482
        ]
      },
      "properties": {
        "id": 611353827,
        "osm_type": "node",
        "name": "STC Støvring"
      }
    },
    {
      "type": "Feature",
      "geometry": {
        "type": "Point",
        "coordinates": [
          9.5605155,
          56.7644636
        ]
      },
      "properties": {
        "id": 611353831,
        "osm_type": "node",
        "name": "Ingo St. Binderup",
        "brand": "Ingo"
      }
    },
    {
      "type": "Feature",
      "geometry": {
        "type": "Point",
        "coordinates": [
          9.5284723,
          57.0974374
        ]
      },
      "properties": {
        "id": 611353834,
        "osm_type": "node",
        "name": "ingo",
        "brand": "Ingo"
      }
    },
    {
      "type": "Feature",
      "geometry": {
        "type": "Point",
        "coordinates": [
          9.6762781,
          57.2212634
        ]
      },
      "properties": {
        "id": 611353836,
        "osm_type": "node",
        "name": "Shell"
      }
    },
    {
      "type": "Feature",
      "geometry": {
        "type": "Point",
        "coordinates": [
          9.63497,
          56.9817
        ]
      },
      "properties": {
        "id": 611353839,
        "osm_type": "node",
        "brand": "Shell"
      }
    },
    {
      "type": "Feature",
      "geometry": {
        "type": "Point",
        "coordinates": [
          9.3424368,
          57.0883536
        ]
      },
      "properties": {
        "id": 611353841,
        "osm_type": "node",
        "name": "Ingo Fjerritslev, Ålegårds Mark",
        "brand": "INGO",
        "opening_hours": "06:30-22:00; Sa-Su 08:00 - 22:00"
      }
    },
    {
      "type": "Feature",
      "geometry": {
        "type": "Point",
        "coordinates": [
          10.0571035,
          56.8102227
        ]
      },
      "properties": {
        "id": 611353863,
        "osm_type": "node",
        "brand": "Shell"
      }
    },
    {
      "type": "Feature",
      "geometry": {
        "type": "Point",
        "coordinates": [
          10.1592173,
          57.1520127
        ]
      },
      "properties": {
        "id": 611353868,
        "osm_type": "node",
        "name": "Shell",
        "brand": "Shell"
      }
    },
    {
      "type": "Feature",
      "geometry": {
        "type": "Point",
        "coordinates": [
          9.85872,
          57.11452
        ]
      },
      "properties": {
        "id": 611353870,
        "osm_type": "node",
        "name": "1-2-3",
        "brand": "1-2-3"
      }
    },
    {
      "type": "Feature",
      "geometry": {
        "type": "Point",
        "coordinates": [
          10.30994,
          56.99784
        ]
      },
      "properties": {
        "id": 611353874,
        "osm_type": "node",
        "name": "Go'on",
        "brand": "Go'on",
        "opening_hours": "24/7"
      }
    },
    {
      "type": "Feature",
      "geometry": {
        "type": "Point",
        "coordinates": [
          9.9410404,
          57.2208068
        ]
      },
      "properties": {
        "id": 611353875,
        "osm_type": "node",
        "name": "Shell Express",
        "brand": "Shell Express"
      }
    },
    {
      "type": "Feature",
      "geometry": {
        "type": "Point",
        "coordinates": [
          9.932,
          57.05994
        ]
      },
      "properties": {
        "id": 611353886,
        "osm_type": "node",
        "name": "Ingo",
        "brand": "Ingo"
      }
    },
    {
      "type": "Feature",
      "geometry": {
        "type": "Point",
        "coordinates": [
          9.9673171,
          57.0203207
        ]
      },
      "properties": {
        "id": 611353887,
        "osm_type": "node",
        "name": "Circle K",
        "brand": "Circle K",
        "opening_hours": "24/7"
      }
    },
    {
      "type": "Feature",
      "geometry": {
        "type": "Point",
        "coordinates": [
          10.5117823,
          57.3894324
        ]
      },
      "properties": {
        "id": 611353890,
        "osm_type": "node",
        "name": "Circle K",
        "brand": "Circle K"
      }
    },
    {
      "type": "Feature",
      "geometry": {
        "type": "Point",
        "coordinates": [
          9.9493,
          57.3591
        ]
      },
      "properties": {
        "id": 611353892,
        "osm_type": "node",
        "name": "STC Jernbanegade"
      }
    },
    {
      "type": "Feature",
      "geometry": {
        "type": "Point",
        "coordinates": [
          9.99608,
          57.44869
        ]
      },
      "properties": {
        "id": 611353896,
        "osm_type": "node",
        "name": "Ingo",
        "brand": "Ingo",
        "opening_hours": "24/7"
      }
    },
    {
      "type": "Feature",
      "geometry": {
        "type": "Point",
        "coordinates": [
          10.18444,
          57.58139
        ]
      },
      "properties": {
        "id": 611353899,
        "osm_type": "node",
        "name": "Shell Express",
        "brand": "Shell Express",
        "opening_hours": "24/7"
      }
    },
    {
      "type": "Feature",
      "geometry": {
        "type": "Point",
        "coordinates": [
          10.451029,
          57.313009
        ]
      },
      "properties": {
        "id": 611353901,
        "osm_type": "node",
        "name": "STC Sæby"
      }
    },
    {
      "type": "Feature",
      "geometry": {
        "type": "Point",
        "coordinates": [
          10.1962731,
          57.4701529
        ]
      },
      "properties": {
        "id": 611353903,
        "osm_type": "node",
        "name": "Ingo",
        "brand": "Ingo"
      }
    },
    {
      "type": "Feature",
      "geometry": {
        "type": "Point",
        "coordinates": [
          9.7277934,
          57.3734058
        ]
      },
      "properties": {
        "id": 668980865,
        "osm_type": "node",
        "name": "Ingo",
        "brand": "Ingo",
        "opening_hours": "PH,Mo-Su 00:00-24:00"
      }
    },
    {
      "type": "Feature",
      "geometry": {
        "type": "Point",
        "coordinates": [
          9.4621287,
          57.1321315
        ]
      },
      "properties": {
        "id": 847107090,
        "osm_type": "node",
        "name": "OK",
        "brand": "OK",
        "opening_hours": "24/7"
      }
    },
    {
      "type": "Feature",
      "geometry": {
        "type": "Point",
        "coordinates": [
          9.949556,
          57.3540599
        ]
      },
      "properties": {
        "id": 881235985,
        "osm_type": "node",
        "opening_hours": "24/7"
      }
    },
    {
      "type": "Feature",
      "geometry": {
        "type": "Point",
        "coordinates": [
          9.966823,
          57.0435151
        ]
      },
      "properties": {
        "id": 908761657,
        "osm_type": "node",
        "name": "Ingo",
        "brand": "Ingo",
        "opening_hours": "24/7"
      }
    },
    {
      "type": "Feature",
      "geometry": {
        "type": "Point",
        "coordinates": [
          10.1971957,
          57.470296
        ]
      },
      "properties": {
        "id": 1079058998,
        "osm_type": "node",
        "name": "Bonus"
      }
    },
    {
      "type": "Feature",
      "geometry": {
        "type": "Point",
        "coordinates": [
          9.9680652,
          57.5815529
        ]
      },
      "properties": {
        "id": 1109407018,
        "osm_type": "node",
        "name": "Ingo",
        "brand": "Ingo",
        "opening_hours": "24/7"
      }
    },
    {
      "type": "Feature",
      "geometry": {
        "type": "Point",
        "coordinates": [
          9.9714302,
          57.0891546
        ]
      },
      "properties": {
        "id": 1124843885,
        "osm_type": "node",
        "name": "Uno-X",
        "brand": "Uno-X"
      }
    },
    {
      "type": "Feature",
      "geometry": {
        "type": "Point",
        "coordinates": [
          8.6264904,
          56.8827677
        ]
      },
      "properties": {
        "id": 1151321463,
        "osm_type": "node",
        "name": "OK Vilsund",
        "brand": "OK"
      }
    },
    {
      "type": "Feature",
      "geometry": {
        "type": "Point",
        "coordinates": [
          9.6683554,
          56.9963369
        ]
      },
      "properties": {
        "id": 1152822621,
        "osm_type": "node",
        "name": "Shell",
        "brand": "Shell"
      }
    },
    {
      "type": "Feature",
      "geometry": {
        "type": "Point",
        "coordinates": [
          9.9450556,
          57.0702787
        ]
      },
      "properties": {
        "id": 1229177402,
        "osm_type": "node",
        "name": "OK",
        "brand": "OK"
      }
    },
    {
      "type": "Feature",
      "geometry": {
        "type": "Point",
        "coordinates": [
          9.4904821,
          56.6944987
        ]
      },
      "properties": {
        "id": 1276826860,
        "osm_type": "node",
        "name": "OK",
        "brand": "OK",
        "opening_hours": "24/7"
      }
    },
    {
      "type": "Feature",
      "geometry": {
        "type": "Point",
        "coordinates": [
          9.4909291,
          56.6978887
        ]
      },
      "properties": {
        "id": 1276826883,
        "osm_type": "node",
        "name": "Uno-X",
        "brand": "Uno-X",
        "opening_hours": "24/7"
      }
    },
    {
      "type": "Feature",
      "geometry": {
        "type": "Point",
        "coordinates": [
          9.9236898,
          57.2748927
        ]
      },
      "properties": {
        "id": 1339219865,
        "osm_type": "node",
        "name": "Uno-X",
        "brand": "Uno-X"
      }
    },
    {
      "type": "Feature",
      "geometry": {
        "type": "Point",
        "coordinates": [
          10.3705427,
          57.0568129
        ]
      },
      "properties": {
        "id": 1358284251,
        "osm_type": "node",
        "name": "OK",
        "brand": "OK",
        "opening_hours": "24/7"
      }
    },
    {
      "type": "Feature",
      "geometry": {
        "type": "Point",
        "coordinates": [
          9.9530578,
          57.3596162
        ]
      },
      "properties": {
        "id": 1361238327,
        "osm_type": "node",
        "opening_hours": "24/7"
      }
    },
    {
      "type": "Feature",
      "geometry": {
        "type": "Point",
        "coordinates": [
          10.145822,
          57.1685411
        ]
      },
      "properties": {
        "id": 1362199293,
        "osm_type": "node",
        "name": "Shell",
        "brand": "Shell"
      }
    },
    {
      "type": "Feature",
      "geometry": {
        "type": "Point",
        "coordinates": [
          9.0154482,
          57.0250076
        ]
      },
      "properties": {
        "id": 1388306273,
        "osm_type": "node",
        "name": "Go'on",
        "brand": "Go'on"
      }
    },
    {
      "type": "Feature",
      "geometry": {
        "type": "Point",
        "coordinates": [
          9.2595344,
          57.08824
        ]
      },
      "properties": {
        "id": 1393715811,
        "osm_type": "node",
        "name": "Uno-X",
        "brand": "Uno-X"
      }
    },
    {
      "type": "Feature",
      "geometry": {
        "type": "Point",
        "coordinates": [
          9.2603546,
          57.0885782
        ]
      },
      "properties": {
        "id": 1393715818,
        "osm_type": "node",
        "name": "F24",
        "brand": "F24",
        "opening_hours": "24/7"
      }
    },
    {
      "type": "Feature",
      "geometry": {
        "type": "Point",
        "coordinates": [
          10.3816831,
          57.1975785
        ]
      },
      "properties": {
        "id": 1446338887,
        "osm_type": "node",
        "name": "OK",
        "brand": "OK"
      }
    },
    {
      "type": "Feature",
      "geometry": {
        "type": "Point",
        "coordinates": [
          9.9935544,
          56.9987878
        ]
      },
      "properties": {
        "id": 1469773077,
        "osm_type": "node",
        "name": "Ingo",
        "brand": "Ingo",
        "opening_hours": "24/7"
      }
    },
    {
      "type": "Feature",
      "geometry": {
        "type": "Point",
        "coordinates": [
          10.2370332,
          57.341037
        ]
      },
      "properties": {
        "id": 1487673437,
        "osm_type": "node",
        "name": "Uno X"
      }
    },
    {
      "type": "Feature",
      "geometry": {
        "type": "Point",
        "coordinates": [
          9.925772,
          57.0100207
        ]
      },
      "properties": {
        "id": 1493358819,
        "osm_type": "node",
        "name": "F24",
        "brand": "F24",
        "opening_hours": "24/7"
      }
    },
    {
      "type": "Feature",
      "geometry": {
        "type": "Point",
        "coordinates": [
          10.0039328,
          57.4559703
        ]
      },
      "properties": {
        "id": 1520147661,
        "osm_type": "node",
        "name": "OK",
        "brand": "OK"
      }
    },
    {
      "type": "Feature",
      "geometry": {
        "type": "Point",
        "coordinates": [
          9.2069461,
          56.7006775
        ]
      },
      "properties": {
        "id": 1576905540,
        "osm_type": "node",
        "name": "OK",
        "brand": "OK"
      }
    },
    {
      "type": "Feature",
      "geometry": {
        "type": "Point",
        "coordinates": [
          8.6880407,
          56.9539582
        ]
      },
      "properties": {
        "id": 1589371926,
        "osm_type": "node",
        "name": "OK",
        "brand": "OK"
      }
    },
    {
      "type": "Feature",
      "geometry": {
        "type": "Point",
        "coordinates": [
          9.7415849,
          56.8407143
        ]
      },
      "properties": {
        "id": 1609821146,
        "osm_type": "node",
        "name": "Q8",
        "brand": "Q8",
        "opening_hours": "24/7"
      }
    },
    {
      "type": "Feature",
      "geometry": {
        "type": "Point",
        "coordinates": [
          8.3637449,
          56.8452735
        ]
      },
      "properties": {
        "id": 1614264401,
        "osm_type": "node"
      }
    },
    {
      "type": "Feature",
      "geometry": {
        "type": "Point",
        "coordinates": [
          8.4220461,
          56.7498535
        ]
      },
      "properties": {
        "id": 1615459060,
        "osm_type": "node",
        "name": "OK",
        "brand": "OK"
      }
    },
    {
      "type": "Feature",
      "geometry": {
        "type": "Point",
        "coordinates": [
          8.4329424,
          56.7451981
        ]
      },
      "properties": {
        "id": 1616481763,
        "osm_type": "node",
        "name": "Lavpris benzin",
        "opening_hours": "24/7"
      }
    },
    {
      "type": "Feature",
      "geometry": {
        "type": "Point",
        "coordinates": [
          8.4292275,
          56.7464475
        ]
      },
      "properties": {
        "id": 1616482006,
        "osm_type": "node",
        "name": "F24",
        "brand": "F24",
        "opening_hours": "PH,Mo-Su 00:00-24:00"
      }
    },
    {
      "type": "Feature",
      "geometry": {
        "type": "Point",
        "coordinates": [
          10.9229448,
          57.2936869
        ]
      },
      "properties": {
        "id": 1621940638,
        "osm_type": "node",
        "name": "OK",
        "brand": "OK"
      }
    },
    {
      "type": "Feature",
      "geometry": {
        "type": "Point",
        "coordinates": [
          8.3791511,
          56.9492884
        ]
      },
      "properties": {
        "id": 1650339687,
        "osm_type": "node",
        "name": "Lav Pristank",
        "opening_hours": "24/7"
      }
    },
    {
      "type": "Feature",
      "geometry": {
        "type": "Point",
        "coordinates": [
          10.0261096,
          57.0953151
        ]
      },
      "properties": {
        "id": 1672419960,
        "osm_type": "node",
        "name": "Uno-X",
        "brand": "Uno-X"
      }
    },
    {
      "type": "Feature",
      "geometry": {
        "type": "Point",
        "coordinates": [
          10.4510346,
          57.3131736
        ]
      },
      "properties": {
        "id": 1693505472,
        "osm_type": "node",
        "name": "Uno-X Diesel Service"
      }
    },
    {
      "type": "Feature",
      "geometry": {
        "type": "Point",
        "coordinates": [
          10.4510399,
          57.3128462
        ]
      },
      "properties": {
        "id": 1693505506,
        "osm_type": "node",
        "name": "OK Truck Diesel Sæby"
      }
    },
    {
      "type": "Feature",
      "geometry": {
        "type": "Point",
        "coordinates": [
          10.4510131,
          57.3134668
        ]
      },
      "properties": {
        "id": 1693510334,
        "osm_type": "node",
        "name": "IDS Sæby",
        "brand": "International Diesel Service"
      }
    },
    {
      "type": "Feature",
      "geometry": {
        "type": "Point",
        "coordinates": [
          10.4510185,
          57.3133185
        ]
      },
      "properties": {
        "id": 1693510357,
        "osm_type": "node",
        "name": "Shell Truck Diesel"
      }
    },
    {
      "type": "Feature",
      "geometry": {
        "type": "Point",
        "coordinates": [
          10.5206974,
          57.4338848
        ]
      },
      "properties": {
        "id": 1782948508,
        "osm_type": "node",
        "name": "F24",
        "brand": "F24",
        "opening_hours": "24/7"
      }
    },
    {
      "type": "Feature",
      "geometry": {
        "type": "Point",
        "coordinates": [
          9.926144,
          57.0317465
        ]
      },
      "properties": {
        "id": 1792976515,
        "osm_type": "node",
        "name": "OK",
        "brand": "OK",
        "opening_hours": "24/7",
        "check_date": "2026-01-06"
      }
    },
    {
      "type": "Feature",
      "geometry": {
        "type": "Point",
        "coordinates": [
          8.6922765,
          56.9523555
        ]
      },
      "properties": {
        "id": 1796245928,
        "osm_type": "node",
        "name": "F24",
        "brand": "F24",
        "opening_hours": "24/7"
      }
    },
    {
      "type": "Feature",
      "geometry": {
        "type": "Point",
        "coordinates": [
          8.7068415,
          56.9569843
        ]
      },
      "properties": {
        "id": 1796245929,
        "osm_type": "node",
        "name": "Shell",
        "brand": "Shell"
      }
    },
    {
      "type": "Feature",
      "geometry": {
        "type": "Point",
        "coordinates": [
          9.9019831,
          57.0452898
        ]
      },
      "properties": {
        "id": 1801641992,
        "osm_type": "node",
        "name": "F24",
        "brand": "F24",
        "opening_hours": "24/7"
      }
    },
    {
      "type": "Feature",
      "geometry": {
        "type": "Point",
        "coordinates": [
          9.9941305,
          57.0183291
        ]
      },
      "properties": {
        "id": 1803894392,
        "osm_type": "node",
        "name": "OIL! tank & go Aalborg Øst",
        "brand": "OIL!",
        "opening_hours": "24/7"
      }
    },
    {
      "type": "Feature",
      "geometry": {
        "type": "Point",
        "coordinates": [
          9.9102371,
          57.0632797
        ]
      },
      "properties": {
        "id": 1826455224,
        "osm_type": "node",
        "name": "OIL!",
        "brand": "OIL!",
        "opening_hours": "24/7"
      }
    },
    {
      "type": "Feature",
      "geometry": {
        "type": "Point",
        "coordinates": [
          9.1251584,
          57.1028567
        ]
      },
      "properties": {
        "id": 1832093698,
        "osm_type": "node",
        "name": "OK",
        "brand": "OK"
      }
    },
    {
      "type": "Feature",
      "geometry": {
        "type": "Point",
        "coordinates": [
          9.9904853,
          57.4824428
        ]
      },
      "properties": {
        "id": 1844417315,
        "osm_type": "node",
        "name": "Uno-X",
        "brand": "Uno-X"
      }
    },
    {
      "type": "Feature",
      "geometry": {
        "type": "Point",
        "coordinates": [
          9.5183251,
          57.100593
        ]
      },
      "properties": {
        "id": 1855920978,
        "osm_type": "node",
        "name": "OK",
        "brand": "OK"
      }
    },
    {
      "type": "Feature",
      "geometry": {
        "type": "Point",
        "coordinates": [
          9.5711057,
          56.886323
        ]
      },
      "properties": {
        "id": 1865918062,
        "osm_type": "node"
      }
    },
    {
      "type": "Feature",
      "geometry": {
        "type": "Point",
        "coordinates": [
          10.2868867,
          57.1593945
        ]
      },
      "properties": {
        "id": 1870458899,
        "osm_type": "node",
        "name": "OK",
        "brand": "OK",
        "opening_hours": "24/7"
      }
    },
    {
      "type": "Feature",
      "geometry": {
        "type": "Point",
        "coordinates": [
          10.112986,
          56.7169071
        ]
      },
      "properties": {
        "id": 1974733187,
        "osm_type": "node",
        "name": "OK",
        "brand": "OK"
      }
    },
    {
      "type": "Feature",
      "geometry": {
        "type": "Point",
        "coordinates": [
          10.0124889,
          56.9419517
        ]
      },
      "properties": {
        "id": 1974737819,
        "osm_type": "node",
        "name": "Shell",
        "brand": "Shell"
      }
    },
    {
      "type": "Feature",
      "geometry": {
        "type": "Point",
        "coordinates": [
          10.2722086,
          56.8036738
        ]
      },
      "properties": {
        "id": 1987373488,
        "osm_type": "node",
        "name": "OK",
        "brand": "OK",
        "opening_hours": "Mo-Su,PH 00:00-00:00"
      }
    },
    {
      "type": "Feature",
      "geometry": {
        "type": "Point",
        "coordinates": [
          9.5290067,
          56.8026662
        ]
      },
      "properties": {
        "id": 1987680873,
        "osm_type": "node",
        "name": "Ingo",
        "brand": "Ingo"
      }
    },
    {
      "type": "Feature",
      "geometry": {
        "type": "Point",
        "coordinates": [
          8.9695726,
          57.0357978
        ]
      },
      "properties": {
        "id": 2191735240,
        "osm_type": "node",
        "name": "OK",
        "brand": "OK"
      }
    },
    {
      "type": "Feature",
      "geometry": {
        "type": "Point",
        "coordinates": [
          9.6336768,
          56.9885735
        ]
      },
      "properties": {
        "id": 2245065195,
        "osm_type": "node",
        "name": "Diesel"
      }
    },
    {
      "type": "Feature",
      "geometry": {
        "type": "Point",
        "coordinates": [
          9.6754836,
          57.2174352
        ]
      },
      "properties": {
        "id": 2290133813,
        "osm_type": "node",
        "name": "OK",
        "brand": "OK"
      }
    },
    {
      "type": "Feature",
      "geometry": {
        "type": "Point",
        "coordinates": [
          9.8762633,
          57.0860115
        ]
      },
      "properties": {
        "id": 2293468775,
        "osm_type": "node",
        "name": "OK",
        "brand": "OK"
      }
    },
    {
      "type": "Feature",
      "geometry": {
        "type": "Point",
        "coordinates": [
          9.8762096,
          57.0007886
        ]
      },
      "properties": {
        "id": 2404076054,
        "osm_type": "node",
        "name": "Uno-X",
        "brand": "Uno-X"
      }
    },
    {
      "type": "Feature",
      "geometry": {
        "type": "Point",
        "coordinates": [
          9.8006399,
          56.6312383
        ]
      },
      "properties": {
        "id": 2408775492,
        "osm_type": "node",
        "name": "OK",
        "brand": "OK"
      }
    },
    {
      "type": "Feature",
      "geometry": {
        "type": "Point",
        "coordinates": [
          9.7140908,
          57.3692485
        ]
      },
      "properties": {
        "id": 2598613796,
        "osm_type": "node",
        "name": "OK",
        "brand": "OK",
        "opening_hours": "24/7"
      }
    },
    {
      "type": "Feature",
      "geometry": {
        "type": "Point",
        "coordinates": [
          9.9254484,
          57.0195759
        ]
      },
      "properties": {
        "id": 2952038260,
        "osm_type": "node",
        "name": "Ingo",
        "brand": "Ingo"
      }
    },
    {
      "type": "Feature",
      "geometry": {
        "type": "Point",
        "coordinates": [
          9.9447258,
          57.068555
        ]
      },
      "properties": {
        "id": 3015003211,
        "osm_type": "node",
        "name": "Ingo",
        "brand": "Ingo"
      }
    },
    {
      "type": "Feature",
      "geometry": {
        "type": "Point",
        "coordinates": [
          8.3217296,
          56.7778597
        ]
      },
      "properties": {
        "id": 3050985661,
        "osm_type": "node"
      }
    },
    {
      "type": "Feature",
      "geometry": {
        "type": "Point",
        "coordinates": [
          10.5181073,
          57.4343195
        ]
      },
      "properties": {
        "id": 3179669974,
        "osm_type": "node",
        "name": "Bonus",
        "opening_hours": "24/7"
      }
    },
    {
      "type": "Feature",
      "geometry": {
        "type": "Point",
        "coordinates": [
          10.5232077,
          57.4178363
        ]
      },
      "properties": {
        "id": 3396112816,
        "osm_type": "node",
        "name": "Q8",
        "brand": "Q8",
        "opening_hours": "5:30-23:00"
      }
    },
    {
      "type": "Feature",
      "geometry": {
        "type": "Point",
        "coordinates": [
          10.522269,
          57.4186524
        ]
      },
      "properties": {
        "id": 3396112817,
        "osm_type": "node",
        "name": "Shell",
        "brand": "Shell"
      }
    },
    {
      "type": "Feature",
      "geometry": {
        "type": "Point",
        "coordinates": [
          10.5393189,
          57.4441182
        ]
      },
      "properties": {
        "id": 3396112818,
        "osm_type": "node",
        "name": "Circle K Danmarksgade, Frederikshavn",
        "brand": "Circle K"
      }
    },
    {
      "type": "Feature",
      "geometry": {
        "type": "Point",
        "coordinates": [
          10.5085618,
          57.4465734
        ]
      },
      "properties": {
        "id": 3400007620,
        "osm_type": "node",
        "name": "OIL! tank & go Frederikshavn Vest",
        "brand": "OIL!",
        "opening_hours": "24/7"
      }
    },
    {
      "type": "Feature",
      "geometry": {
        "type": "Point",
        "coordinates": [
          10.4501099,
          57.3130166
        ]
      },
      "properties": {
        "id": 3400007633,
        "osm_type": "node",
        "name": "OK",
        "brand": "OK",
        "opening_hours": "24/7"
      }
    },
    {
      "type": "Feature",
      "geometry": {
        "type": "Point",
        "coordinates": [
          10.4996531,
          57.3282915
        ]
      },
      "properties": {
        "id": 3400007637,
        "osm_type": "node",
        "name": "Shell",
        "brand": "Shell"
      }
    },
    {
      "type": "Feature",
      "geometry": {
        "type": "Point",
        "coordinates": [
          10.4358259,
          57.3097414
        ]
      },
      "properties": {
        "id": 3400007639,
        "osm_type": "node",
        "name": "Uno-X",
        "brand": "Uno-X"
      }
    },
    {
      "type": "Feature",
      "geometry": {
        "type": "Point",
        "coordinates": [
          9.9885216,
          57.5755512
        ]
      },
      "properties": {
        "id": 3400078304,
        "osm_type": "node",
        "brand": "Circle K",
        "opening_hours": "24/7"
      }
    },
    {
      "type": "Feature",
      "geometry": {
        "type": "Point",
        "coordinates": [
          10.0415562,
          57.45575
        ]
      },
      "properties": {
        "id": 3400078311,
        "osm_type": "node",
        "name": "Uno-X",
        "brand": "Uno-X"
      }
    },
    {
      "type": "Feature",
      "geometry": {
        "type": "Point",
        "coordinates": [
          10.28783,
          57.15925
        ]
      },
      "properties": {
        "id": 3400131676,
        "osm_type": "node",
        "name": "F24",
        "brand": "F24",
        "opening_hours": "24/7"
      }
    },
    {
      "type": "Feature",
      "geometry": {
        "type": "Point",
        "coordinates": [
          10.1521015,
          57.2070924
        ]
      },
      "properties": {
        "id": 3400131680,
        "osm_type": "node",
        "name": "Go'on",
        "brand": "Go'on"
      }
    },
    {
      "type": "Feature",
      "geometry": {
        "type": "Point",
        "coordinates": [
          9.9486121,
          57.2651372
        ]
      },
      "properties": {
        "id": 3400131692,
        "osm_type": "node",
        "name": "OK",
        "brand": "OK",
        "opening_hours": "24/7"
      }
    },
    {
      "type": "Feature",
      "geometry": {
        "type": "Point",
        "coordinates": [
          9.9673081,
          57.2599738
        ]
      },
      "properties": {
        "id": 3400132095,
        "osm_type": "node",
        "name": "Ingo",
        "brand": "Ingo"
      }
    },
    {
      "type": "Feature",
      "geometry": {
        "type": "Point",
        "coordinates": [
          9.9693988,
          57.2682336
        ]
      },
      "properties": {
        "id": 3400132096,
        "osm_type": "node",
        "name": "Circle K",
        "brand": "Circle K",
        "opening_hours": "24/7"
      }
    },
    {
      "type": "Feature",
      "geometry": {
        "type": "Point",
        "coordinates": [
          9.9685181,
          57.2609038
        ]
      },
      "properties": {
        "id": 3400132099,
        "osm_type": "node",
        "name": "Ingo",
        "brand": "Ingo"
      }
    },
    {
      "type": "Feature",
      "geometry": {
        "type": "Point",
        "coordinates": [
          10.1434643,
          57.1670122
        ]
      },
      "properties": {
        "id": 3400132103,
        "osm_type": "node",
        "name": "Uno-X",
        "brand": "Uno-X"
      }
    },
    {
      "type": "Feature",
      "geometry": {
        "type": "Point",
        "coordinates": [
          9.944206,
          57.0673568
        ]
      },
      "properties": {
        "id": 3400358398,
        "osm_type": "node",
        "name": "F24",
        "brand": "F24"
      }
    },
    {
      "type": "Feature",
      "geometry": {
        "type": "Point",
        "coordinates": [
          9.8570789,
          57.110065
        ]
      },
      "properties": {
        "id": 3400358399,
        "osm_type": "node",
        "name": "F24",
        "brand": "F24"
      }
    },
    {
      "type": "Feature",
      "geometry": {
        "type": "Point",
        "coordinates": [
          9.9766269,
          57.0894486
        ]
      },
      "properties": {
        "id": 3400358429,
        "osm_type": "node",
        "name": "OK",
        "brand": "OK"
      }
    },
    {
      "type": "Feature",
      "geometry": {
        "type": "Point",
        "coordinates": [
          10.0236571,
          57.1023175
        ]
      },
      "properties": {
        "id": 3400358437,
        "osm_type": "node",
        "name": "Uno-X",
        "brand": "Uno-X"
      }
    },
    {
      "type": "Feature",
      "geometry": {
        "type": "Point",
        "coordinates": [
          9.9283413,
          57.0588137
        ]
      },
      "properties": {
        "id": 3400358441,
        "osm_type": "node",
        "name": "Uno-X",
        "brand": "Uno-X"
      }
    },
    {
      "type": "Feature",
      "geometry": {
        "type": "Point",
        "coordinates": [
          9.2655543,
          56.8582611
        ]
      },
      "properties": {
        "id": 3400365750,
        "osm_type": "node",
        "name": "OK",
        "brand": "OK"
      }
    },
    {
      "type": "Feature",
      "geometry": {
        "type": "Point",
        "coordinates": [
          9.6946516,
          56.7831281
        ]
      },
      "properties": {
        "id": 3400372086,
        "osm_type": "node",
        "name": "Circle K",
        "brand": "Circle K",
        "opening_hours": "24/7"
      }
    },
    {
      "type": "Feature",
      "geometry": {
        "type": "Point",
        "coordinates": [
          8.6925942,
          56.9527521
        ]
      },
      "properties": {
        "id": 3400391410,
        "osm_type": "node",
        "name": "Shell",
        "brand": "Shell",
        "opening_hours": "24/7"
      }
    },
    {
      "type": "Feature",
      "geometry": {
        "type": "Point",
        "coordinates": [
          8.6687337,
          56.9519613
        ]
      },
      "properties": {
        "id": 3400391416,
        "osm_type": "node",
        "name": "Uno-X",
        "brand": "Uno-X"
      }
    },
    {
      "type": "Feature",
      "geometry": {
        "type": "Point",
        "coordinates": [
          10.2699382,
          56.8081126
        ]
      },
      "properties": {
        "id": 3400753668,
        "osm_type": "node",
        "name": "Go'on",
        "brand": "Go'on"
      }
    },
    {
      "type": "Feature",
      "geometry": {
        "type": "Point",
        "coordinates": [
          9.799575,
          56.6349
        ]
      },
      "properties": {
        "id": 3400754505,
        "osm_type": "node",
        "name": "Q8",
        "brand": "Q8"
      }
    },
    {
      "type": "Feature",
      "geometry": {
        "type": "Point",
        "coordinates": [
          9.2916166,
          56.7286955
        ]
      },
      "properties": {
        "id": 3447333937,
        "osm_type": "node",
        "name": "Uno-X",
        "brand": "Uno-X"
      }
    },
    {
      "type": "Feature",
      "geometry": {
        "type": "Point",
        "coordinates": [
          9.7944317,
          56.6499199
        ]
      },
      "properties": {
        "id": 3474651312,
        "osm_type": "node",
        "name": "Circle K",
        "brand": "Circle K"
      }
    },
    {
      "type": "Feature",
      "geometry": {
        "type": "Point",
        "coordinates": [
          9.794331,
          56.6414712
        ]
      },
      "properties": {
        "id": 3474651313,
        "osm_type": "node",
        "name": "Go'on",
        "brand": "Go'on"
      }
    },
    {
      "type": "Feature",
      "geometry": {
        "type": "Point",
        "coordinates": [
          9.7926024,
          56.644527
        ]
      },
      "properties": {
        "id": 3474651315,
        "osm_type": "node",
        "name": "Uno-X",
        "brand": "Uno-X",
        "check_date": "2025-07-31"
      }
    },
    {
      "type": "Feature",
      "geometry": {
        "type": "Point",
        "coordinates": [
          8.8455391,
          56.7855429
        ]
      },
      "properties": {
        "id": 3679336992,
        "osm_type": "node",
        "name": "F24",
        "brand": "F24",
        "opening_hours": "24/7"
      }
    },
    {
      "type": "Feature",
      "geometry": {
        "type": "Point",
        "coordinates": [
          9.5322744,
          57.097493
        ]
      },
      "properties": {
        "id": 3679336993,
        "osm_type": "node",
        "name": "F24",
        "brand": "F24",
        "opening_hours": "24/7"
      }
    },
    {
      "type": "Feature",
      "geometry": {
        "type": "Point",
        "coordinates": [
          8.6406928,
          57.108339
        ]
      },
      "properties": {
        "id": 3679336994,
        "osm_type": "node",
        "name": "F24",
        "brand": "F24"
      }
    },
    {
      "type": "Feature",
      "geometry": {
        "type": "Point",
        "coordinates": [
          10.5798043,
          57.7171952
        ]
      },
      "properties": {
        "id": 3679336995,
        "osm_type": "node",
        "name": "F24",
        "brand": "F24",
        "opening_hours": "24/7",
        "check_date": "2025-03-28"
      }
    },
    {
      "type": "Feature",
      "geometry": {
        "type": "Point",
        "coordinates": [
          9.8395999,
          56.8844229
        ]
      },
      "properties": {
        "id": 3690024564,
        "osm_type": "node",
        "name": "F24",
        "brand": "F24",
        "opening_hours": "24/7"
      }
    },
    {
      "type": "Feature",
      "geometry": {
        "type": "Point",
        "coordinates": [
          9.9537561,
          57.0355027
        ]
      },
      "properties": {
        "id": 3690024570,
        "osm_type": "node",
        "name": "Q8",
        "brand": "Q8",
        "opening_hours": "Mo-Fr 06:00-24:00; Sa 07:00-23:00; Su 07:00-23:00"
      }
    },
    {
      "type": "Feature",
      "geometry": {
        "type": "Point",
        "coordinates": [
          8.8554024,
          56.7995387
        ]
      },
      "properties": {
        "id": 3742302788,
        "osm_type": "node"
      }
    },
    {
      "type": "Feature",
      "geometry": {
        "type": "Point",
        "coordinates": [
          9.2516835,
          56.9638258
        ]
      },
      "properties": {
        "id": 3867410379,
        "osm_type": "node",
        "name": "Go'on",
        "brand": "Go'on"
      }
    },
    {
      "type": "Feature",
      "geometry": {
        "type": "Point",
        "coordinates": [
          9.2281302,
          56.8967903
        ]
      },
      "properties": {
        "id": 3868584580,
        "osm_type": "node",
        "name": "OK",
        "brand": "OK"
      }
    },
    {
      "type": "Feature",
      "geometry": {
        "type": "Point",
        "coordinates": [
          9.3466931,
          56.9630192
        ]
      },
      "properties": {
        "id": 3881510661,
        "osm_type": "node",
        "name": "Lavpris"
      }
    },
    {
      "type": "Feature",
      "geometry": {
        "type": "Point",
        "coordinates": [
          9.9629719,
          57.088624
        ]
      },
      "properties": {
        "id": 3923003628,
        "osm_type": "node",
        "name": "Uno-X Erhverv",
        "brand": "Uno-X",
        "opening_hours": "24/7"
      }
    },
    {
      "type": "Feature",
      "geometry": {
        "type": "Point",
        "coordinates": [
          9.6262678,
          57.2477797
        ]
      },
      "properties": {
        "id": 4182669689,
        "osm_type": "node",
        "name": "Bonus"
      }
    },
    {
      "type": "Feature",
      "geometry": {
        "type": "Point",
        "coordinates": [
          10.1106854,
          56.7177874
        ]
      },
      "properties": {
        "id": 4301151777,
        "osm_type": "node",
        "name": "Circle K",
        "brand": "Circle K"
      }
    },
    {
      "type": "Feature",
      "geometry": {
        "type": "Point",
        "coordinates": [
          10.1025019,
          57.0004946
        ]
      },
      "properties": {
        "id": 4377038194,
        "osm_type": "node"
      }
    },
    {
      "type": "Feature",
      "geometry": {
        "type": "Point",
        "coordinates": [
          10.5215049,
          57.3296688
        ]
      },
      "properties": {
        "id": 4457912458,
        "osm_type": "node",
        "name": "Uno X"
      }
    },
    {
      "type": "Feature",
      "geometry": {
        "type": "Point",
        "coordinates": [
          9.9704292,
          57.4677143
        ]
      },
      "properties": {
        "id": 4503217789,
        "osm_type": "node",
        "name": "OK",
        "brand": "OK"
      }
    },
    {
      "type": "Feature",
      "geometry": {
        "type": "Point",
        "coordinates": [
          10.0908686,
          57.2882772
        ]
      },
      "properties": {
        "id": 4797044642,
        "osm_type": "node",
        "name": "Go'on",
        "brand": "Go'on"
      }
    },
    {
      "type": "Feature",
      "geometry": {
        "type": "Point",
        "coordinates": [
          9.8441193,
          57.4249277
        ]
      },
      "properties": {
        "id": 4886310079,
        "osm_type": "node",
        "name": "OK",
        "brand": "OK"
      }
    },
    {
      "type": "Feature",
      "geometry": {
        "type": "Point",
        "coordinates": [
          9.7835757,
          57.3942889
        ]
      },
      "properties": {
        "id": 4886428427,
        "osm_type": "node",
        "name": "Go'on",
        "brand": "Go'on"
      }
    },
    {
      "type": "Feature",
      "geometry": {
        "type": "Point",
        "coordinates": [
          9.6990388,
          57.275924
        ]
      },
      "properties": {
        "id": 4886867569,
        "osm_type": "node",
        "name": "SHELL EXPRESS SALTUM",
        "brand": "Shell Express"
      }
    },
    {
      "type": "Feature",
      "geometry": {
        "type": "Point",
        "coordinates": [
          9.1690013,
          57.0957164
        ]
      },
      "properties": {
        "id": 4888634269,
        "osm_type": "node",
        "name": "Go'on",
        "brand": "Go'on"
      }
    },
    {
      "type": "Feature",
      "geometry": {
        "type": "Point",
        "coordinates": [
          8.6589296,
          56.9461786
        ]
      },
      "properties": {
        "id": 4895813514,
        "osm_type": "node",
        "name": "OK",
        "brand": "OK"
      }
    },
    {
      "type": "Feature",
      "geometry": {
        "type": "Point",
        "coordinates": [
          10.548892,
          57.7266124
        ]
      },
      "properties": {
        "id": 4919264305,
        "osm_type": "node",
        "name": "Shell Express",
        "brand": "Shell Express"
      }
    },
    {
      "type": "Feature",
      "geometry": {
        "type": "Point",
        "coordinates": [
          10.0106256,
          57.4494994
        ]
      },
      "properties": {
        "id": 5067562588,
        "osm_type": "node",
        "name": "Circle K",
        "brand": "Circle K"
      }
    },
    {
      "type": "Feature",
      "geometry": {
        "type": "Point",
        "coordinates": [
          9.8381831,
          56.89751
        ]
      },
      "properties": {
        "id": 5104066780,
        "osm_type": "node",
        "name": "Shell",
        "brand": "Shell",
        "opening_hours": "24/7"
      }
    },
    {
      "type": "Feature",
      "geometry": {
        "type": "Point",
        "coordinates": [
          9.7255504,
          57.1650154
        ]
      },
      "properties": {
        "id": 5166705300,
        "osm_type": "node",
        "name": "Uno-X",
        "brand": "Uno-X"
      }
    },
    {
      "type": "Feature",
      "geometry": {
        "type": "Point",
        "coordinates": [
          9.9956113,
          57.4338544
        ]
      },
      "properties": {
        "id": 5173793673,
        "osm_type": "node",
        "name": "Go'on",
        "brand": "Go'on"
      }
    },
    {
      "type": "Feature",
      "geometry": {
        "type": "Point",
        "coordinates": [
          10.2568028,
          57.0812069
        ]
      },
      "properties": {
        "id": 5174572744,
        "osm_type": "node",
        "name": "OK",
        "brand": "OK",
        "opening_hours": "PH,Mo-Su 00:00-24:00"
      }
    },
    {
      "type": "Feature",
      "geometry": {
        "type": "Point",
        "coordinates": [
          9.5112178,
          56.8005736
        ]
      },
      "properties": {
        "id": 5203131931,
        "osm_type": "node",
        "name": "OK",
        "brand": "OK",
        "opening_hours": "PH,Mo-Su 12:00+"
      }
    },
    {
      "type": "Feature",
      "geometry": {
        "type": "Point",
        "coordinates": [
          9.9634116,
          57.1572739
        ]
      },
      "properties": {
        "id": 5234414326,
        "osm_type": "node",
        "name": "OK",
        "brand": "OK",
        "opening_hours": "24/7"
      }
    },
    {
      "type": "Feature",
      "geometry": {
        "type": "Point",
        "coordinates": [
          9.970172,
          57.1246322
        ]
      },
      "properties": {
        "id": 5234455958,
        "osm_type": "node",
        "name": "Bonus"
      }
    },
    {
      "type": "Feature",
      "geometry": {
        "type": "Point",
        "coordinates": [
          9.9377332,
          57.0211658
        ]
      },
      "properties": {
        "id": 5332033941,
        "osm_type": "node",
        "name": "Circle K",
        "brand": "Circle K",
        "opening_hours": "24/7"
      }
    },
    {
      "type": "Feature",
      "geometry": {
        "type": "Point",
        "coordinates": [
          9.4322683,
          56.8437749
        ]
      },
      "properties": {
        "id": 5888759446,
        "osm_type": "node",
        "name": "Uno-X",
        "brand": "Uno-X"
      }
    },
    {
      "type": "Feature",
      "geometry": {
        "type": "Point",
        "coordinates": [
          10.513292,
          57.4274668
        ]
      },
      "properties": {
        "id": 6034171272,
        "osm_type": "node",
        "name": "Bonus"
      }
    },
    {
      "type": "Feature",
      "geometry": {
        "type": "Point",
        "coordinates": [
          9.9275905,
          57.0233572
        ]
      },
      "properties": {
        "id": 6132479523,
        "osm_type": "node",
        "brand": "Go'on",
        "opening_hours": "24/7"
      }
    },
    {
      "type": "Feature",
      "geometry": {
        "type": "Point",
        "coordinates": [
          9.3377647,
          56.7645147
        ]
      },
      "properties": {
        "id": 6486911606,
        "osm_type": "node",
        "name": "Go'on",
        "brand": "Go'on"
      }
    },
    {
      "type": "Feature",
      "geometry": {
        "type": "Point",
        "coordinates": [
          8.5911009,
          56.7463091
        ]
      },
      "properties": {
        "id": 6630139685,
        "osm_type": "node",
        "name": "Q8",
        "brand": "Q8",
        "opening_hours": "24/7"
      }
    },
    {
      "type": "Feature",
      "geometry": {
        "type": "Point",
        "coordinates": [
          9.5044076,
          56.8023366
        ]
      },
      "properties": {
        "id": 6691631110,
        "osm_type": "node",
        "name": "F24",
        "brand": "F24"
      }
    },
    {
      "type": "Feature",
      "geometry": {
        "type": "Point",
        "coordinates": [
          9.507258,
          56.7993929
        ]
      },
      "properties": {
        "id": 7160893717,
        "osm_type": "node",
        "name": "Bonus"
      }
    },
    {
      "type": "Feature",
      "geometry": {
        "type": "Point",
        "coordinates": [
          9.6912798,
          56.7835495
        ]
      },
      "properties": {
        "id": 7304196221,
        "osm_type": "node",
        "name": "OK",
        "brand": "OK",
        "opening_hours": "24/7"
      }
    },
    {
      "type": "Feature",
      "geometry": {
        "type": "Point",
        "coordinates": [
          9.9379281,
          57.2239247
        ]
      },
      "properties": {
        "id": 7418535008,
        "osm_type": "node",
        "name": "F24",
        "brand": "F24",
        "opening_hours": "24/7"
      }
    },
    {
      "type": "Feature",
      "geometry": {
        "type": "Point",
        "coordinates": [
          9.734745,
          57.1580171
        ]
      },
      "properties": {
        "id": 7564141866,
        "osm_type": "node",
        "brand": "Shell",
        "opening_hours": "Mo-Fr 6:00-23:00, Sa-Su 07:00-23:00"
      }
    },
    {
      "type": "Feature",
      "geometry": {
        "type": "Point",
        "coordinates": [
          9.8924504,
          57.0539369
        ]
      },
      "properties": {
        "id": 7770875908,
        "osm_type": "node",
        "name": "Shell",
        "brand": "Shell"
      }
    },
    {
      "type": "Feature",
      "geometry": {
        "type": "Point",
        "coordinates": [
          9.3409082,
          56.7786842
        ]
      },
      "properties": {
        "id": 7795475523,
        "osm_type": "node",
        "name": "OK",
        "brand": "OK"
      }
    },
    {
      "type": "Feature",
      "geometry": {
        "type": "Point",
        "coordinates": [
          9.9581943,
          57.5878608
        ]
      },
      "properties": {
        "id": 8294841271,
        "osm_type": "node",
        "name": "Circle K",
        "brand": "Circle K"
      }
    },
    {
      "type": "Feature",
      "geometry": {
        "type": "Point",
        "coordinates": [
          10.1209962,
          56.8830825
        ]
      },
      "properties": {
        "id": 8425641917,
        "osm_type": "node",
        "name": "Bonus",
        "opening_hours": "24/7"
      }
    },
    {
      "type": "Feature",
      "geometry": {
        "type": "Point",
        "coordinates": [
          9.263955,
          57.0865161
        ]
      },
      "properties": {
        "id": 8690694635,
        "osm_type": "node",
        "name": "OIL! tank & go Fjerritslev",
        "brand": "OIL!",
        "opening_hours": "24/7"
      }
    },
    {
      "type": "Feature",
      "geometry": {
        "type": "Point",
        "coordinates": [
          9.7611596,
          56.5862798
        ]
      },
      "properties": {
        "id": 8815240380,
        "osm_type": "node",
        "name": "OK",
        "brand": "OK"
      }
    },
    {
      "type": "Feature",
      "geometry": {
        "type": "Point",
        "coordinates": [
          8.7346445,
          56.9688748
        ]
      },
      "properties": {
        "id": 9158166279,
        "osm_type": "node",
        "name": "Go'on",
        "brand": "Go'on",
        "opening_hours": "24/7"
      }
    },
    {
      "type": "Feature",
      "geometry": {
        "type": "Point",
        "coordinates": [
          10.0112468,
          57.0259726
        ]
      },
      "properties": {
        "id": 9254288874,
        "osm_type": "node",
        "name": "CNG Aalborg",
        "opening_hours": "24/7"
      }
    },
    {
      "type": "Feature",
      "geometry": {
        "type": "Point",
        "coordinates": [
          10.4940565,
          57.4423054
        ]
      },
      "properties": {
        "id": 9254382466,
        "osm_type": "node",
        "name": "CNG Frederikshavn",
        "opening_hours": "24/7"
      }
    },
    {
      "type": "Feature",
      "geometry": {
        "type": "Point",
        "coordinates": [
          8.8561478,
          57.0315388
        ]
      },
      "properties": {
        "id": 9295608128,
        "osm_type": "node",
        "name": "OK",
        "brand": "OK"
      }
    },
    {
      "type": "Feature",
      "geometry": {
        "type": "Point",
        "coordinates": [
          9.5038604,
          56.8048293
        ]
      },
      "properties": {
        "id": 9418201514,
        "osm_type": "node",
        "name": "OK",
        "brand": "OK",
        "opening_hours": "24/7"
      }
    },
    {
      "type": "Feature",
      "geometry": {
        "type": "Point",
        "coordinates": [
          9.9735099,
          57.251522
        ]
      },
      "properties": {
        "id": 9439660232,
        "osm_type": "node",
        "name": "Uno-X",
        "brand": "Uno-X"
      }
    },
    {
      "type": "Feature",
      "geometry": {
        "type": "Point",
        "coordinates": [
          8.8280176,
          56.7892882
        ]
      },
      "properties": {
        "id": 9761194851,
        "osm_type": "node",
        "name": "OK",
        "brand": "OK"
      }
    },
    {
      "type": "Feature",
      "geometry": {
        "type": "Point",
        "coordinates": [
          9.972345,
          57.2515895
        ]
      },
      "properties": {
        "id": 9981599995,
        "osm_type": "node",
        "name": "OK",
        "brand": "OK"
      }
    },
    {
      "type": "Feature",
      "geometry": {
        "type": "Point",
        "coordinates": [
          10.1821814,
          57.0615251
        ]
      },
      "properties": {
        "id": 10036002037,
        "osm_type": "node",
        "name": "Go'on",
        "brand": "Go'on"
      }
    },
    {
      "type": "Feature",
      "geometry": {
        "type": "Point",
        "coordinates": [
          9.7500443,
          57.1497601
        ]
      },
      "properties": {
        "id": 10685775573,
        "osm_type": "node",
        "name": "Ingo Aabybro",
        "brand": "Ingo"
      }
    },
    {
      "type": "Feature",
      "geometry": {
        "type": "Point",
        "coordinates": [
          9.9778752,
          57.5876307
        ]
      },
      "properties": {
        "id": 10685775577,
        "osm_type": "node",
        "name": "F24",
        "brand": "F24"
      }
    },
    {
      "type": "Feature",
      "geometry": {
        "type": "Point",
        "coordinates": [
          10.0055033,
          57.0408495
        ]
      },
      "properties": {
        "id": 10685775590,
        "osm_type": "node",
        "name": "Uno-X",
        "brand": "Uno-X",
        "opening_hours": "24/7"
      }
    },
    {
      "type": "Feature",
      "geometry": {
        "type": "Point",
        "coordinates": [
          9.9701719,
          57.2667209
        ]
      },
      "properties": {
        "id": 10703086590,
        "osm_type": "node",
        "name": "Q8",
        "brand": "Q8"
      }
    },
    {
      "type": "Feature",
      "geometry": {
        "type": "Point",
        "coordinates": [
          11.0036565,
          57.2538863
        ]
      },
      "properties": {
        "id": 10703132311,
        "osm_type": "node",
        "name": "OK",
        "brand": "OK",
        "opening_hours": "24/7"
      }
    },
    {
      "type": "Feature",
      "geometry": {
        "type": "Point",
        "coordinates": [
          10.5123851,
          57.3903703
        ]
      },
      "properties": {
        "id": 10703132316,
        "osm_type": "node",
        "name": "Circle K Truckanlæg Frederikshavn",
        "brand": "Circle K"
      }
    },
    {
      "type": "Feature",
      "geometry": {
        "type": "Point",
        "coordinates": [
          9.8653344,
          57.3200322
        ]
      },
      "properties": {
        "id": 10736831518,
        "osm_type": "node",
        "name": "Go'on"
      }
    },
    {
      "type": "Feature",
      "geometry": {
        "type": "Point",
        "coordinates": [
          8.6055916,
          57.1138607
        ]
      },
      "properties": {
        "id": 11047903603,
        "osm_type": "node",
        "name": "OK",
        "brand": "OK",
        "opening_hours": "24/7"
      }
    },
    {
      "type": "Feature",
      "geometry": {
        "type": "Point",
        "coordinates": [
          10.5050123,
          57.3320751
        ]
      },
      "properties": {
        "id": 11057301793,
        "osm_type": "node",
        "name": "OIL! tank & go Sæby",
        "brand": "OIL!",
        "opening_hours": "24/7"
      }
    },
    {
      "type": "Feature",
      "geometry": {
        "type": "Point",
        "coordinates": [
          8.8335383,
          56.7902058
        ]
      },
      "properties": {
        "id": 11057342207,
        "osm_type": "node",
        "name": "OIL! tank & go Nykøbing Mors",
        "brand": "OIL!",
        "opening_hours": "24/7"
      }
    },
    {
      "type": "Feature",
      "geometry": {
        "type": "Point",
        "coordinates": [
          10.0170877,
          57.4556221
        ]
      },
      "properties": {
        "id": 11057377108,
        "osm_type": "node",
        "name": "OIL! tank & go Hjørring",
        "brand": "OIL!",
        "opening_hours": "24/7"
      }
    },
    {
      "type": "Feature",
      "geometry": {
        "type": "Point",
        "coordinates": [
          10.0235215,
          57.513125
        ]
      },
      "properties": {
        "id": 11090458405,
        "osm_type": "node",
        "name": "OK Tankstation",
        "brand": "OK",
        "opening_hours": "24/7"
      }
    },
    {
      "type": "Feature",
      "geometry": {
        "type": "Point",
        "coordinates": [
          10.2213225,
          56.9680695
        ]
      },
      "properties": {
        "id": 11375721801,
        "osm_type": "node",
        "name": "OK",
        "brand": "OK"
      }
    },
    {
      "type": "Feature",
      "geometry": {
        "type": "Point",
        "coordinates": [
          9.8646265,
          56.9536998
        ]
      },
      "properties": {
        "id": 11966118533,
        "osm_type": "node",
        "name": "OK",
        "brand": "OK"
      }
    },
    {
      "type": "Feature",
      "geometry": {
        "type": "Point",
        "coordinates": [
          9.8066154,
          56.8797001
        ]
      },
      "properties": {
        "id": 12089918539,
        "osm_type": "node",
        "name": "OK Truck",
        "brand": "OK"
      }
    },
    {
      "type": "Feature",
      "geometry": {
        "type": "Point",
        "coordinates": [
          9.5345889,
          57.0984074
        ]
      },
      "properties": {
        "id": 12091039831,
        "osm_type": "node",
        "brand": "OK"
      }
    },
    {
      "type": "Feature",
      "geometry": {
        "type": "Point",
        "coordinates": [
          10.4034375,
          57.1475463
        ]
      },
      "properties": {
        "id": 12810419778,
        "osm_type": "node",
        "name": "Go'on",
        "brand": "Go'on",
        "opening_hours": "24/7"
      }
    },
    {
      "type": "Feature",
      "geometry": {
        "type": "Point",
        "coordinates": [
          9.9790892,
          57.0849766
        ]
      },
      "properties": {
        "id": 12863447984,
        "osm_type": "node",
        "name": "Circle K Truck",
        "brand": "Circle K"
      }
    },
    {
      "type": "Feature",
      "geometry": {
        "type": "Point",
        "coordinates": [
          9.5394092,
          56.801755
        ]
      },
      "properties": {
        "id": 12863485108,
        "osm_type": "node",
        "name": "Circle K",
        "brand": "Circle K"
      }
    },
    {
      "type": "Feature",
      "geometry": {
        "type": "Point",
        "coordinates": [
          10.3041873,
          57.1603808
        ]
      },
      "properties": {
        "id": 12893555501,
        "osm_type": "node",
        "name": "Go'on",
        "brand": "Go'on"
      }
    },
    {
      "type": "Feature",
      "geometry": {
        "type": "Point",
        "coordinates": [
          9.8868514,
          56.8327086
        ]
      },
      "properties": {
        "id": 13147604231,
        "osm_type": "node",
        "name": "Go’on",
        "opening_hours": "24/7"
      }
    },
    {
      "type": "Feature",
      "geometry": {
        "type": "Point",
        "coordinates": [
          9.6289931,
          56.7078198
        ]
      },
      "properties": {
        "id": 13306598899,
        "osm_type": "node",
        "name": "OK",
        "brand": "OK"
      }
    },
    {
      "type": "Feature",
      "geometry": {
        "type": "Point",
        "coordinates": [
          8.4977546,
          57.0401275
        ]
      },
      "properties": {
        "id": 13351778778,
        "osm_type": "node",
        "name": "Go'on",
        "brand": "Go'on"
      }
    },
    {
      "type": "Feature",
      "geometry": {
        "type": "Point",
        "coordinates": [
          10.9815601,
          57.2613479
        ]
      },
      "properties": {
        "id": 13354176025,
        "osm_type": "node",
        "name": "Shell Express",
        "brand": "Shell Express"
      }
    },
    {
      "type": "Feature",
      "geometry": {
        "type": "Point",
        "coordinates": [
          9.3320248,
          56.6913574
        ]
      },
      "properties": {
        "id": 13723529641,
        "osm_type": "node",
        "name": "Go'on",
        "brand": "Go'on"
      }
    },
    {
      "type": "Feature",
      "geometry": {
        "type": "Point",
        "coordinates": [
          10.0417912,
          57.4558759
        ]
      },
      "properties": {
        "id": 13728049476,
        "osm_type": "node",
        "name": "Uno-X Truck",
        "brand": "Uno-X"
      }
    },
    {
      "type": "Feature",
      "geometry": {
        "type": "Point",
        "coordinates": [
          10.0395661,
          57.4555446
        ]
      },
      "properties": {
        "id": 13728049477,
        "osm_type": "node",
        "name": "F24",
        "brand": "F24"
      }
    },
    {
      "type": "Feature",
      "geometry": {
        "type": "Point",
        "coordinates": [
          9.9313741,
          57.0393482
        ]
      },
      "properties": {
        "id": 91649126,
        "osm_type": "way",
        "name": "Circle K",
        "brand": "Circle K",
        "opening_hours": "24/7"
      }
    },
    {
      "type": "Feature",
      "geometry": {
        "type": "Point",
        "coordinates": [
          9.9261374,
          57.0317237
        ]
      },
      "properties": {
        "id": 91723466,
        "osm_type": "way",
        "name": "OK",
        "brand": "OK"
      }
    },
    {
      "type": "Feature",
      "geometry": {
        "type": "Point",
        "coordinates": [
          9.9131746,
          57.0254779
        ]
      },
      "properties": {
        "id": 91731490,
        "osm_type": "way",
        "name": "Uno-X",
        "brand": "Uno-X",
        "opening_hours": "24/7"
      }
    },
    {
      "type": "Feature",
      "geometry": {
        "type": "Point",
        "coordinates": [
          9.8959064,
          57.0149716
        ]
      },
      "properties": {
        "id": 100519974,
        "osm_type": "way",
        "name": "Ingo",
        "brand": "Ingo",
        "opening_hours": "24/7"
      }
    },
    {
      "type": "Feature",
      "geometry": {
        "type": "Point",
        "coordinates": [
          9.8874606,
          57.0105835
        ]
      },
      "properties": {
        "id": 128172967,
        "osm_type": "way",
        "name": "Ingo",
        "brand": "Ingo"
      }
    },
    {
      "type": "Feature",
      "geometry": {
        "type": "Point",
        "coordinates": [
          10.0921532,
          57.2866193
        ]
      },
      "properties": {
        "id": 247406787,
        "osm_type": "way",
        "name": "OK",
        "brand": "OK"
      }
    },
    {
      "type": "Feature",
      "geometry": {
        "type": "Point",
        "coordinates": [
          9.9649409,
          57.5896203
        ]
      },
      "properties": {
        "id": 251833141,
        "osm_type": "way",
        "name": "Bonus",
        "brand": "Bonus"
      }
    },
    {
      "type": "Feature",
      "geometry": {
        "type": "Point",
        "coordinates": [
          9.9451797,
          57.0454873
        ]
      },
      "properties": {
        "id": 270273147,
        "osm_type": "way",
        "name": "Uno-X",
        "brand": "Uno-X"
      }
    },
    {
      "type": "Feature",
      "geometry": {
        "type": "Point",
        "coordinates": [
          9.9344534,
          57.0428844
        ]
      },
      "properties": {
        "id": 270273150,
        "osm_type": "way",
        "name": "Shell",
        "brand": "Shell"
      }
    },
    {
      "type": "Feature",
      "geometry": {
        "type": "Point",
        "coordinates": [
          10.0469977,
          57.0187239
        ]
      },
      "properties": {
        "id": 275535331,
        "osm_type": "way",
        "brand": "Shell"
      }
    },
    {
      "type": "Feature",
      "geometry": {
        "type": "Point",
        "coordinates": [
          9.904313,
          57.0222518
        ]
      },
      "properties": {
        "id": 280859964,
        "osm_type": "way",
        "name": "Q8",
        "brand": "Q8",
        "opening_hours": "Mo-Fr 06:00-24:00, Sa,Su 07:00-24:00",
        "check_date": "2026-01-16"
      }
    },
    {
      "type": "Feature",
      "geometry": {
        "type": "Point",
        "coordinates": [
          9.9481735,
          57.5296751
        ]
      },
      "properties": {
        "id": 297989582,
        "osm_type": "way",
        "name": "OK",
        "brand": "OK"
      }
    },
    {
      "type": "Feature",
      "geometry": {
        "type": "Point",
        "coordinates": [
          10.5024121,
          57.3327171
        ]
      },
      "properties": {
        "id": 299895869,
        "osm_type": "way"
      }
    },
    {
      "type": "Feature",
      "geometry": {
        "type": "Point",
        "coordinates": [
          10.5006382,
          57.446942
        ]
      },
      "properties": {
        "id": 309274082,
        "osm_type": "way",
        "name": "INGO",
        "brand": "Ingo"
      }
    },
    {
      "type": "Feature",
      "geometry": {
        "type": "Point",
        "coordinates": [
          8.994762,
          57.0859514
        ]
      },
      "properties": {
        "id": 312905612,
        "osm_type": "way",
        "name": "OK",
        "brand": "OK"
      }
    },
    {
      "type": "Feature",
      "geometry": {
        "type": "Point",
        "coordinates": [
          10.3564771,
          57.2747311
        ]
      },
      "properties": {
        "id": 318833539,
        "osm_type": "way"
      }
    },
    {
      "type": "Feature",
      "geometry": {
        "type": "Point",
        "coordinates": [
          10.1299941,
          57.0663395
        ]
      },
      "properties": {
        "id": 321152700,
        "osm_type": "way"
      }
    },
    {
      "type": "Feature",
      "geometry": {
        "type": "Point",
        "coordinates": [
          9.2747901,
          56.9688977
        ]
      },
      "properties": {
        "id": 336002661,
        "osm_type": "way",
        "name": "Shell",
        "brand": "Shell"
      }
    },
    {
      "type": "Feature",
      "geometry": {
        "type": "Point",
        "coordinates": [
          9.9952569,
          57.4499716
        ]
      },
      "properties": {
        "id": 363807021,
        "osm_type": "way",
        "name": "Q8",
        "brand": "Q8",
        "opening_hours": "Mo-Fr 06:00-22:00, Sa-Su 07:00-22:00"
      }
    },
    {
      "type": "Feature",
      "geometry": {
        "type": "Point",
        "coordinates": [
          9.2789043,
          56.9700292
        ]
      },
      "properties": {
        "id": 383995898,
        "osm_type": "way",
        "name": "Go'on",
        "brand": "Go'on"
      }
    },
    {
      "type": "Feature",
      "geometry": {
        "type": "Point",
        "coordinates": [
          9.2585612,
          56.9693368
        ]
      },
      "properties": {
        "id": 385901146,
        "osm_type": "way",
        "name": "OK",
        "brand": "OK"
      }
    },
    {
      "type": "Feature",
      "geometry": {
        "type": "Point",
        "coordinates": [
          9.2137815,
          56.7931815
        ]
      },
      "properties": {
        "id": 385907569,
        "osm_type": "way",
        "name": "Go'on",
        "brand": "Go'on"
      }
    },
    {
      "type": "Feature",
      "geometry": {
        "type": "Point",
        "coordinates": [
          9.3605231,
          56.9498885
        ]
      },
      "properties": {
        "id": 389141936,
        "osm_type": "way",
        "name": "OK",
        "brand": "OK"
      }
    },
    {
      "type": "Feature",
      "geometry": {
        "type": "Point",
        "coordinates": [
          9.8075055,
          56.6166019
        ]
      },
      "properties": {
        "id": 445626123,
        "osm_type": "way"
      }
    },
    {
      "type": "Feature",
      "geometry": {
        "type": "Point",
        "coordinates": [
          10.5291732,
          57.4412066
        ]
      },
      "properties": {
        "id": 449220413,
        "osm_type": "way",
        "name": "Ingo",
        "brand": "Ingo",
        "opening_hours": "24/7"
      }
    },
    {
      "type": "Feature",
      "geometry": {
        "type": "Point",
        "coordinates": [
          10.5097933,
          57.4466372
        ]
      },
      "properties": {
        "id": 494770714,
        "osm_type": "way",
        "name": "Ingo",
        "brand": "Ingo",
        "opening_hours": "24/7"
      }
    },
    {
      "type": "Feature",
      "geometry": {
        "type": "Point",
        "coordinates": [
          9.9818478,
          56.6525316
        ]
      },
      "properties": {
        "id": 495565835,
        "osm_type": "way",
        "name": "OK",
        "brand": "OK",
        "opening_hours": "24/7"
      }
    },
    {
      "type": "Feature",
      "geometry": {
        "type": "Point",
        "coordinates": [
          10.4132511,
          57.5891437
        ]
      },
      "properties": {
        "id": 496685267,
        "osm_type": "way",
        "name": "Bonus",
        "opening_hours": "24/7"
      }
    },
    {
      "type": "Feature",
      "geometry": {
        "type": "Point",
        "coordinates": [
          9.903868,
          57.0659084
        ]
      },
      "properties": {
        "id": 510718286,
        "osm_type": "way",
        "name": "Ingo",
        "brand": "Ingo",
        "opening_hours": "24/7"
      }
    },
    {
      "type": "Feature",
      "geometry": {
        "type": "Point",
        "coordinates": [
          8.6816505,
          57.0233583
        ]
      },
      "properties": {
        "id": 519277765,
        "osm_type": "way",
        "name": "1-2-3 Nors"
      }
    },
    {
      "type": "Feature",
      "geometry": {
        "type": "Point",
        "coordinates": [
          10.5259759,
          57.455791
        ]
      },
      "properties": {
        "id": 525179433,
        "osm_type": "way",
        "name": "OK",
        "brand": "OK",
        "opening_hours": "24/7",
        "check_date": "2025-09-21"
      }
    },
    {
      "type": "Feature",
      "geometry": {
        "type": "Point",
        "coordinates": [
          9.9493202,
          57.0425838
        ]
      },
      "properties": {
        "id": 532154908,
        "osm_type": "way",
        "name": "OK",
        "brand": "OK",
        "opening_hours": "24/7"
      }
    },
    {
      "type": "Feature",
      "geometry": {
        "type": "Point",
        "coordinates": [
          10.4197334,
          57.5341138
        ]
      },
      "properties": {
        "id": 534275511,
        "osm_type": "way",
        "name": "OK Jerup",
        "brand": "OK",
        "opening_hours": "24/7"
      }
    },
    {
      "type": "Feature",
      "geometry": {
        "type": "Point",
        "coordinates": [
          9.9456857,
          57.0456806
        ]
      },
      "properties": {
        "id": 534819189,
        "osm_type": "way",
        "name": "Uno-X",
        "brand": "Uno-X"
      }
    },
    {
      "type": "Feature",
      "geometry": {
        "type": "Point",
        "coordinates": [
          10.0570614,
          56.8092572
        ]
      },
      "properties": {
        "id": 541081271,
        "osm_type": "way",
        "name": "OK",
        "brand": "OK"
      }
    },
    {
      "type": "Feature",
      "geometry": {
        "type": "Point",
        "coordinates": [
          10.1146522,
          57.3853979
        ]
      },
      "properties": {
        "id": 551037996,
        "osm_type": "way",
        "name": "Uno X",
        "brand": "Uno-X"
      }
    },
    {
      "type": "Feature",
      "geometry": {
        "type": "Point",
        "coordinates": [
          9.9511321,
          57.2632917
        ]
      },
      "properties": {
        "id": 576383971,
        "osm_type": "way",
        "name": "Go'on",
        "brand": "Go'on"
      }
    },
    {
      "type": "Feature",
      "geometry": {
        "type": "Point",
        "coordinates": [
          10.004004,
          57.4556177
        ]
      },
      "properties": {
        "id": 576725146,
        "osm_type": "way",
        "name": "Shell Express",
        "brand": "Shell Express"
      }
    },
    {
      "type": "Feature",
      "geometry": {
        "type": "Point",
        "coordinates": [
          9.9724529,
          57.4672906
        ]
      },
      "properties": {
        "id": 577082923,
        "osm_type": "way",
        "name": "Uno-X",
        "brand": "Uno-X"
      }
    },
    {
      "type": "Feature",
      "geometry": {
        "type": "Point",
        "coordinates": [
          10.201719,
          57.4729217
        ]
      },
      "properties": {
        "id": 583284947,
        "osm_type": "way",
        "name": "F24",
        "brand": "F24"
      }
    },
    {
      "type": "Feature",
      "geometry": {
        "type": "Point",
        "coordinates": [
          10.1915311,
          57.4706336
        ]
      },
      "properties": {
        "id": 583286705,
        "osm_type": "way",
        "name": "OK Sindal",
        "brand": "OK",
        "opening_hours": "24/7"
      }
    },
    {
      "type": "Feature",
      "geometry": {
        "type": "Point",
        "coordinates": [
          8.6282059,
          57.1162694
        ]
      },
      "properties": {
        "id": 584186610,
        "osm_type": "way",
        "name": "Circle K",
        "brand": "Circle K"
      }
    },
    {
      "type": "Feature",
      "geometry": {
        "type": "Point",
        "coordinates": [
          10.0010728,
          57.4560337
        ]
      },
      "properties": {
        "id": 590099904,
        "osm_type": "way",
        "name": "Circle K",
        "brand": "Circle K",
        "opening_hours": "05:00-24:00; Sa-Su 07:00 - 24:00"
      }
    },
    {
      "type": "Feature",
      "geometry": {
        "type": "Point",
        "coordinates": [
          10.5692825,
          57.7267038
        ]
      },
      "properties": {
        "id": 602171948,
        "osm_type": "way",
        "name": "OK Skagen",
        "brand": "OK",
        "opening_hours": "24/7"
      }
    },
    {
      "type": "Feature",
      "geometry": {
        "type": "Point",
        "coordinates": [
          9.6276754,
          56.7079495
        ]
      },
      "properties": {
        "id": 603989714,
        "osm_type": "way",
        "name": "OIL! tank & go Nørager",
        "brand": "OIL!"
      }
    },
    {
      "type": "Feature",
      "geometry": {
        "type": "Point",
        "coordinates": [
          8.7060419,
          56.9571693
        ]
      },
      "properties": {
        "id": 624733262,
        "osm_type": "way",
        "name": "Circle K",
        "brand": "Circle K",
        "opening_hours": "24/7"
      }
    },
    {
      "type": "Feature",
      "geometry": {
        "type": "Point",
        "coordinates": [
          10.1958216,
          57.5421528
        ]
      },
      "properties": {
        "id": 629929272,
        "osm_type": "way",
        "name": "OK Bindslev",
        "brand": "OK",
        "opening_hours": "24/7"
      }
    },
    {
      "type": "Feature",
      "geometry": {
        "type": "Point",
        "coordinates": [
          9.965467,
          57.5749984
        ]
      },
      "properties": {
        "id": 635565425,
        "osm_type": "way"
      }
    },
    {
      "type": "Feature",
      "geometry": {
        "type": "Point",
        "coordinates": [
          10.5209669,
          57.4615713
        ]
      },
      "properties": {
        "id": 801710937,
        "osm_type": "way",
        "name": "OIL! tank & go Frederikshavn Nord",
        "brand": "OIL!",
        "opening_hours": "24/7"
      }
    },
    {
      "type": "Feature",
      "geometry": {
        "type": "Point",
        "coordinates": [
          10.0089475,
          57.0342932
        ]
      },
      "properties": {
        "id": 862119763,
        "osm_type": "way",
        "name": "OK",
        "brand": "OK"
      }
    },
    {
      "type": "Feature",
      "geometry": {
        "type": "Point",
        "coordinates": [
          9.9952062,
          56.9975421
        ]
      },
      "properties": {
        "id": 896310484,
        "osm_type": "way",
        "name": "OK",
        "brand": "OK",
        "opening_hours": "24/7"
      }
    },
    {
      "type": "Feature",
      "geometry": {
        "type": "Point",
        "coordinates": [
          10.0234444,
          57.1028647
        ]
      },
      "properties": {
        "id": 917195078,
        "osm_type": "way",
        "name": "OK",
        "brand": "OK",
        "opening_hours": "24/7"
      }
    },
    {
      "type": "Feature",
      "geometry": {
        "type": "Point",
        "coordinates": [
          9.8841005,
          57.036789
        ]
      },
      "properties": {
        "id": 1104519762,
        "osm_type": "way",
        "name": "Circle K",
        "brand": "Circle K"
      }
    },
    {
      "type": "Feature",
      "geometry": {
        "type": "Point",
        "coordinates": [
          10.1360611,
          56.7276634
        ]
      },
      "properties": {
        "id": 1175881784,
        "osm_type": "way",
        "name": "Go'on",
        "brand": "Go'on"
      }
    },
    {
      "type": "Feature",
      "geometry": {
        "type": "Point",
        "coordinates": [
          10.2784949,
          57.5024074
        ]
      },
      "properties": {
        "id": 1248159709,
        "osm_type": "way",
        "name": "OK Mosbjerg",
        "brand": "OK",
        "opening_hours": "24/7"
      }
    },
    {
      "type": "Feature",
      "geometry": {
        "type": "Point",
        "coordinates": [
          9.9851511,
          57.5767636
        ]
      },
      "properties": {
        "id": 1254548009,
        "osm_type": "way",
        "name": "Go'on",
        "brand": "Go'on",
        "opening_hours": "24/7"
      }
    },
    {
      "type": "Feature",
      "geometry": {
        "type": "Point",
        "coordinates": [
          9.9083369,
          57.0342343
        ]
      },
      "properties": {
        "id": 1316682758,
        "osm_type": "way",
        "name": "Circle K",
        "brand": "Circle K",
        "opening_hours": "24/7",
        "check_date": "2026-04-23"
      }
    },
    {
      "type": "Feature",
      "geometry": {
        "type": "Point",
        "coordinates": [
          9.8763178,
          57.0065099
        ]
      },
      "properties": {
        "id": 1340040735,
        "osm_type": "way",
        "name": "OIL!",
        "brand": "OIL!",
        "opening_hours": "24/7"
      }
    },
    {
      "type": "Feature",
      "geometry": {
        "type": "Point",
        "coordinates": [
          9.9232036,
          57.0331097
        ]
      },
      "properties": {
        "id": 1421970374,
        "osm_type": "way",
        "name": "Uno-X",
        "brand": "Uno-X"
      }
    },
    {
      "type": "Feature",
      "geometry": {
        "type": "Point",
        "coordinates": [
          9.9065841,
          57.0544019
        ]
      },
      "properties": {
        "id": 1483586636,
        "osm_type": "way",
        "name": "OK",
        "brand": "OK",
        "opening_hours": "24/7"
      }
    }
  ]
}