{
  "type": "FeatureCollection",
  "features": [
    {
      "type": "Feature",
      "geometry": {
        "type": "Point",
        "coordinates": [
          5.6957209,
          53.0223634
        ]
      },
      "properties": {
        "id": 1102604432,
        "osm_type": "node"
      }
    },
    {
      "type": "Feature",
      "geometry": {
        "type": "Point",
        "coordinates": [
          5.7963474,
          53.199509
        ]
      },
      "properties": {
        "id": 2102747566,
        "osm_type": "node"
      }
    },
    {
      "type": "Feature",
      "geometry": {
        "type": "Point",
        "coordinates": [
          5.8244284,
          53.0489711
        ]
      },
      "properties": {
        "id": 2653946409,
        "osm_type": "node",
        "fee": "yes"
      }
    },
    {
      "type": "Feature",
      "geometry": {
        "type": "Point",
        "coordinates": [
          5.9358039,
          53.1278895
        ]
      },
      "properties": {
        "id": 4011467095,
        "osm_type": "node"
      }
    },
    {
      "type": "Feature",
      "geometry": {
        "type": "Point",
        "coordinates": [
          5.0773908,
          53.3024745
        ]
      },
      "properties": {
        "id": 4788988182,
        "osm_type": "node"
      }
    },
    {
      "type": "Feature",
      "geometry": {
        "type": "Point",
        "coordinates": [
          5.5207789,
          53.0617182
        ]
      },
      "properties": {
        "id": 4892628736,
        "osm_type": "node"
      }
    },
    {
      "type": "Feature",
      "geometry": {
        "type": "Point",
        "coordinates": [
          5.9495017,
          53.1045593
        ]
      },
      "properties": {
        "id": 5095102721,
        "osm_type": "node"
      }
    },
    {
      "type": "Feature",
      "geometry": {
        "type": "Point",
        "coordinates": [
          5.9989995,
          53.3248852
        ]
      },
      "properties": {
        "id": 5110956260,
        "osm_type": "node"
      }
    },
    {
      "type": "Feature",
      "geometry": {
        "type": "Point",
        "coordinates": [
          5.8848475,
          53.0832873
        ]
      },
      "properties": {
        "id": 5792764653,
        "osm_type": "node"
      }
    },
    {
      "type": "Feature",
      "geometry": {
        "type": "Point",
        "coordinates": [
          5.8847216,
          53.0825157
        ]
      },
      "properties": {
        "id": 5792764853,
        "osm_type": "node"
      }
    },
    {
      "type": "Feature",
      "geometry": {
        "type": "Point",
        "coordinates": [
          5.821517,
          52.8737889
        ]
      },
      "properties": {
        "id": 5796163857,
        "osm_type": "node"
      }
    },
    {
      "type": "Feature",
      "geometry": {
        "type": "Point",
        "coordinates": [
          5.8236923,
          52.8729816
        ]
      },
      "properties": {
        "id": 5796265553,
        "osm_type": "node"
      }
    },
    {
      "type": "Feature",
      "geometry": {
        "type": "Point",
        "coordinates": [
          5.820426,
          52.8739901
        ]
      },
      "properties": {
        "id": 5796473466,
        "osm_type": "node"
      }
    },
    {
      "type": "Feature",
      "geometry": {
        "type": "Point",
        "coordinates": [
          5.6478985,
          52.891357
        ]
      },
      "properties": {
        "id": 5804846354,
        "osm_type": "node"
      }
    },
    {
      "type": "Feature",
      "geometry": {
        "type": "Point",
        "coordinates": [
          5.2141754,
          53.3602292
        ]
      },
      "properties": {
        "id": 5818698544,
        "osm_type": "node",
        "opening_hours": "24/7"
      }
    },
    {
      "type": "Feature",
      "geometry": {
        "type": "Point",
        "coordinates": [
          6.0942722,
          53.1085869
        ]
      },
      "properties": {
        "id": 5909466190,
        "osm_type": "node",
        "operator": "Vitens",
        "indoor": "no"
      }
    },
    {
      "type": "Feature",
      "geometry": {
        "type": "Point",
        "coordinates": [
          5.5121246,
          53.2343882
        ]
      },
      "properties": {
        "id": 6035103201,
        "osm_type": "node"
      }
    },
    {
      "type": "Feature",
      "geometry": {
        "type": "Point",
        "coordinates": [
          5.9045879,
          53.1487477
        ]
      },
      "properties": {
        "id": 6124099618,
        "osm_type": "node"
      }
    },
    {
      "type": "Feature",
      "geometry": {
        "type": "Point",
        "coordinates": [
          5.8816949,
          53.2963606
        ]
      },
      "properties": {
        "id": 6553866628,
        "osm_type": "node",
        "indoor": "no"
      }
    },
    {
      "type": "Feature",
      "geometry": {
        "type": "Point",
        "coordinates": [
          5.4192736,
          53.1719248
        ]
      },
      "properties": {
        "id": 6665407336,
        "osm_type": "node",
        "access": "yes",
        "fee": "no"
      }
    },
    {
      "type": "Feature",
      "geometry": {
        "type": "Point",
        "coordinates": [
          5.544078,
          53.1861081
        ]
      },
      "properties": {
        "id": 6665416456,
        "osm_type": "node",
        "access": "yes",
        "opening_hours": "24/7",
        "fee": "no",
        "seasonal": "spring;summer;autumn"
      }
    },
    {
      "type": "Feature",
      "geometry": {
        "type": "Point",
        "coordinates": [
          5.4433826,
          52.9796316
        ]
      },
      "properties": {
        "id": 6691088385,
        "osm_type": "node",
        "name": "Join The Pipe",
        "operator": "Join The Pipe"
      }
    },
    {
      "type": "Feature",
      "geometry": {
        "type": "Point",
        "coordinates": [
          5.4257056,
          53.1705999
        ]
      },
      "properties": {
        "id": 6751300147,
        "osm_type": "node",
        "operator": "NS"
      }
    },
    {
      "type": "Feature",
      "geometry": {
        "type": "Point",
        "coordinates": [
          5.9370679,
          52.955911
        ]
      },
      "properties": {
        "id": 6763717285,
        "osm_type": "node",
        "name": "Join the pipe"
      }
    },
    {
      "type": "Feature",
      "geometry": {
        "type": "Point",
        "coordinates": [
          5.4609531,
          53.1955379
        ]
      },
      "properties": {
        "id": 7831877230,
        "osm_type": "node",
        "indoor": "no"
      }
    },
    {
      "type": "Feature",
      "geometry": {
        "type": "Point",
        "coordinates": [
          5.421456,
          53.1762131
        ]
      },
      "properties": {
        "id": 7840025274,
        "osm_type": "node",
        "indoor": "no"
      }
    },
    {
      "type": "Feature",
      "geometry": {
        "type": "Point",
        "coordinates": [
          5.4182172,
          53.1749993
        ]
      },
      "properties": {
        "id": 7840049545,
        "osm_type": "node",
        "indoor": "no"
      }
    },
    {
      "type": "Feature",
      "geometry": {
        "type": "Point",
        "coordinates": [
          5.9938829,
          53.192002
        ]
      },
      "properties": {
        "id": 7868699295,
        "osm_type": "node",
        "access": "yes",
        "fee": "no",
        "operator": "www.drinkwaterkaart.nl",
        "indoor": "no"
      }
    },
    {
      "type": "Feature",
      "geometry": {
        "type": "Point",
        "coordinates": [
          5.7922693,
          53.1964602
        ]
      },
      "properties": {
        "id": 8006281951,
        "osm_type": "node",
        "name": "Watertappunt NS"
      }
    },
    {
      "type": "Feature",
      "geometry": {
        "type": "Point",
        "coordinates": [
          5.4964054,
          53.0247855
        ]
      },
      "properties": {
        "id": 8522279584,
        "osm_type": "node"
      }
    },
    {
      "type": "Feature",
      "geometry": {
        "type": "Point",
        "coordinates": [
          5.4974194,
          53.0244939
        ]
      },
      "properties": {
        "id": 8522279585,
        "osm_type": "node"
      }
    },
    {
      "type": "Feature",
      "geometry": {
        "type": "Point",
        "coordinates": [
          6.1445692,
          53.2562525
        ]
      },
      "properties": {
        "id": 8751160657,
        "osm_type": "node"
      }
    },
    {
      "type": "Feature",
      "geometry": {
        "type": "Point",
        "coordinates": [
          5.6438702,
          53.2440016
        ]
      },
      "properties": {
        "id": 8982654443,
        "osm_type": "node"
      }
    },
    {
      "type": "Feature",
      "geometry": {
        "type": "Point",
        "coordinates": [
          5.9565916,
          52.9348703
        ]
      },
      "properties": {
        "id": 9017396905,
        "osm_type": "node"
      }
    },
    {
      "type": "Feature",
      "geometry": {
        "type": "Point",
        "coordinates": [
          5.892534,
          52.9360956
        ]
      },
      "properties": {
        "id": 9032551564,
        "osm_type": "node"
      }
    },
    {
      "type": "Feature",
      "geometry": {
        "type": "Point",
        "coordinates": [
          5.9872292,
          53.1880055
        ]
      },
      "properties": {
        "id": 9061645828,
        "osm_type": "node",
        "access": "yes",
        "operator": "www.drinkwaterkaart.nl"
      }
    },
    {
      "type": "Feature",
      "geometry": {
        "type": "Point",
        "coordinates": [
          5.6521045,
          53.032526
        ]
      },
      "properties": {
        "id": 9158152774,
        "osm_type": "node"
      }
    },
    {
      "type": "Feature",
      "geometry": {
        "type": "Point",
        "coordinates": [
          5.4058606,
          52.9341119
        ]
      },
      "properties": {
        "id": 9665957163,
        "osm_type": "node",
        "access": "customers"
      }
    },
    {
      "type": "Feature",
      "geometry": {
        "type": "Point",
        "coordinates": [
          5.9896827,
          53.2351387
        ]
      },
      "properties": {
        "id": 9742947008,
        "osm_type": "node",
        "indoor": "no"
      }
    },
    {
      "type": "Feature",
      "geometry": {
        "type": "Point",
        "coordinates": [
          6.0978885,
          53.1066541
        ]
      },
      "properties": {
        "id": 9758108865,
        "osm_type": "node"
      }
    },
    {
      "type": "Feature",
      "geometry": {
        "type": "Point",
        "coordinates": [
          6.1470888,
          53.4867078
        ]
      },
      "properties": {
        "id": 9901294384,
        "osm_type": "node",
        "access": "yes"
      }
    },
    {
      "type": "Feature",
      "geometry": {
        "type": "Point",
        "coordinates": [
          5.4506313,
          52.9151873
        ]
      },
      "properties": {
        "id": 9936620933,
        "osm_type": "node",
        "access": "yes",
        "fee": "no"
      }
    },
    {
      "type": "Feature",
      "geometry": {
        "type": "Point",
        "coordinates": [
          5.7933211,
          53.204351
        ]
      },
      "properties": {
        "id": 9957671369,
        "osm_type": "node",
        "indoor": "no"
      }
    },
    {
      "type": "Feature",
      "geometry": {
        "type": "Point",
        "coordinates": [
          6.1095424,
          53.1085975
        ]
      },
      "properties": {
        "id": 10285292351,
        "osm_type": "node",
        "access": "permissive",
        "indoor": "no"
      }
    },
    {
      "type": "Feature",
      "geometry": {
        "type": "Point",
        "coordinates": [
          6.1174011,
          53.1024421
        ]
      },
      "properties": {
        "id": 10285292352,
        "osm_type": "node",
        "indoor": "no"
      }
    },
    {
      "type": "Feature",
      "geometry": {
        "type": "Point",
        "coordinates": [
          6.1369739,
          53.1346782
        ]
      },
      "properties": {
        "id": 10285292353,
        "osm_type": "node",
        "indoor": "no"
      }
    },
    {
      "type": "Feature",
      "geometry": {
        "type": "Point",
        "coordinates": [
          5.9159549,
          52.9606474
        ]
      },
      "properties": {
        "id": 10973509043,
        "osm_type": "node",
        "opening_hours": "24/7",
        "fee": "no",
        "seasonal": "no"
      }
    },
    {
      "type": "Feature",
      "geometry": {
        "type": "Point",
        "coordinates": [
          6.005098,
          52.8797124
        ]
      },
      "properties": {
        "id": 11033196630,
        "osm_type": "node"
      }
    },
    {
      "type": "Feature",
      "geometry": {
        "type": "Point",
        "coordinates": [
          6.161154,
          53.4786916
        ]
      },
      "properties": {
        "id": 11161235205,
        "osm_type": "node"
      }
    },
    {
      "type": "Feature",
      "geometry": {
        "type": "Point",
        "coordinates": [
          6.256648,
          53.0804045
        ]
      },
      "properties": {
        "id": 11180382811,
        "osm_type": "node"
      }
    },
    {
      "type": "Feature",
      "geometry": {
        "type": "Point",
        "coordinates": [
          5.803039,
          53.2215999
        ]
      },
      "properties": {
        "id": 11881626509,
        "osm_type": "node"
      }
    },
    {
      "type": "Feature",
      "geometry": {
        "type": "Point",
        "coordinates": [
          5.903272,
          53.3675374
        ]
      },
      "properties": {
        "id": 11891108271,
        "osm_type": "node",
        "indoor": "no"
      }
    },
    {
      "type": "Feature",
      "geometry": {
        "type": "Point",
        "coordinates": [
          5.8223717,
          53.0901413
        ]
      },
      "properties": {
        "id": 12057445743,
        "osm_type": "node"
      }
    },
    {
      "type": "Feature",
      "geometry": {
        "type": "Point",
        "coordinates": [
          6.3296778,
          52.9508304
        ]
      },
      "properties": {
        "id": 12148081451,
        "osm_type": "node",
        "opening_hours": "24/7"
      }
    },
    {
      "type": "Feature",
      "geometry": {
        "type": "Point",
        "coordinates": [
          6.3296691,
          52.9502364
        ]
      },
      "properties": {
        "id": 12148099551,
        "osm_type": "node",
        "opening_hours": "24/7",
        "fee": "no"
      }
    },
    {
      "type": "Feature",
      "geometry": {
        "type": "Point",
        "coordinates": [
          6.3296766,
          52.9505567
        ]
      },
      "properties": {
        "id": 12148108070,
        "osm_type": "node",
        "opening_hours": "24/7",
        "fee": "no"
      }
    },
    {
      "type": "Feature",
      "geometry": {
        "type": "Point",
        "coordinates": [
          6.3296556,
          52.9499101
        ]
      },
      "properties": {
        "id": 12148114204,
        "osm_type": "node",
        "opening_hours": "24/7",
        "fee": "no"
      }
    },
    {
      "type": "Feature",
      "geometry": {
        "type": "Point",
        "coordinates": [
          6.3295526,
          52.9503411
        ]
      },
      "properties": {
        "id": 12149734930,
        "osm_type": "node",
        "opening_hours": "24/7",
        "fee": "no"
      }
    },
    {
      "type": "Feature",
      "geometry": {
        "type": "Point",
        "coordinates": [
          4.9424235,
          53.2551341
        ]
      },
      "properties": {
        "id": 12336638187,
        "osm_type": "node",
        "access": "yes"
      }
    },
    {
      "type": "Feature",
      "geometry": {
        "type": "Point",
        "coordinates": [
          5.8222276,
          53.2041264
        ]
      },
      "properties": {
        "id": 12556162216,
        "osm_type": "node",
        "opening_hours": "24/7",
        "fee": "no"
      }
    },
    {
      "type": "Feature",
      "geometry": {
        "type": "Point",
        "coordinates": [
          4.942435,
          53.2551468
        ]
      },
      "properties": {
        "id": 12636321953,
        "osm_type": "node"
      }
    },
    {
      "type": "Feature",
      "geometry": {
        "type": "Point",
        "coordinates": [
          5.0751567,
          53.2965268
        ]
      },
      "properties": {
        "id": 12659425201,
        "osm_type": "node",
        "name": "Waterpunt VVV Vlieland",
        "access": "yes",
        "operator": "Waterroute Vlieland"
      }
    },
    {
      "type": "Feature",
      "geometry": {
        "type": "Point",
        "coordinates": [
          5.061556,
          53.2943482
        ]
      },
      "properties": {
        "id": 12850571217,
        "osm_type": "node",
        "fee": "no"
      }
    },
    {
      "type": "Feature",
      "geometry": {
        "type": "Point",
        "coordinates": [
          5.8649678,
          53.2152266
        ]
      },
      "properties": {
        "id": 13129000232,
        "osm_type": "node",
        "access": "yes",
        "fee": "no"
      }
    }
  ]
}