{
  "type": "FeatureCollection",
  "features": [
    {
      "type": "Feature",
      "geometry": {
        "type": "Point",
        "coordinates": [
          20.089118,
          45.9307602
        ]
      },
      "properties": {
        "id": 767256542,
        "osm_type": "node",
        "name": "Trocadero"
      }
    },
    {
      "type": "Feature",
      "geometry": {
        "type": "Point",
        "coordinates": [
          20.088839,
          45.9311482
        ]
      },
      "properties": {
        "id": 767256543,
        "osm_type": "node",
        "name": "Syrah"
      }
    },
    {
      "type": "Feature",
      "geometry": {
        "type": "Point",
        "coordinates": [
          19.9189003,
          46.0697074
        ]
      },
      "properties": {
        "id": 1534020482,
        "osm_type": "node"
      }
    },
    {
      "type": "Feature",
      "geometry": {
        "type": "Point",
        "coordinates": [
          20.1467007,
          45.9380195
        ]
      },
      "properties": {
        "id": 3865738770,
        "osm_type": "node",
        "name": "Арок"
      }
    },
    {
      "type": "Feature",
      "geometry": {
        "type": "Point",
        "coordinates": [
          20.0961128,
          45.9327436
        ]
      },
      "properties": {
        "id": 4889700221,
        "osm_type": "node",
        "name": "Банатска плажа"
      }
    },
    {
      "type": "Feature",
      "geometry": {
        "type": "Point",
        "coordinates": [
          20.086909,
          45.9310612
        ]
      },
      "properties": {
        "id": 5250018522,
        "osm_type": "node",
        "name": "Европа"
      }
    },
    {
      "type": "Feature",
      "geometry": {
        "type": "Point",
        "coordinates": [
          20.4678349,
          45.8304721
        ]
      },
      "properties": {
        "id": 5487252342,
        "osm_type": "node",
        "name": "Caffe Caffe",
        "outdoor_seating": "yes"
      }
    },
    {
      "type": "Feature",
      "geometry": {
        "type": "Point",
        "coordinates": [
          20.4151149,
          45.6430393
        ]
      },
      "properties": {
        "id": 5774055656,
        "osm_type": "node",
        "name": "Кордун"
      }
    },
    {
      "type": "Feature",
      "geometry": {
        "type": "Point",
        "coordinates": [
          20.4122168,
          45.6380679
        ]
      },
      "properties": {
        "id": 5774055697,
        "osm_type": "node",
        "name": "Лони"
      }
    },
    {
      "type": "Feature",
      "geometry": {
        "type": "Point",
        "coordinates": [
          20.4664789,
          45.8283294
        ]
      },
      "properties": {
        "id": 6264407553,
        "osm_type": "node",
        "name": "MB Baja"
      }
    },
    {
      "type": "Feature",
      "geometry": {
        "type": "Point",
        "coordinates": [
          19.833189,
          45.9763589
        ]
      },
      "properties": {
        "id": 9483943868,
        "osm_type": "node"
      }
    },
    {
      "type": "Feature",
      "geometry": {
        "type": "Point",
        "coordinates": [
          20.4361922,
          45.8164145
        ]
      },
      "properties": {
        "id": 9889585615,
        "osm_type": "node",
        "name": "DriveCafe"
      }
    },
    {
      "type": "Feature",
      "geometry": {
        "type": "Point",
        "coordinates": [
          20.461898,
          45.8291487
        ]
      },
      "properties": {
        "id": 10038294751,
        "osm_type": "node",
        "name": "Мала радионица кафе"
      }
    },
    {
      "type": "Feature",
      "geometry": {
        "type": "Point",
        "coordinates": [
          20.4570998,
          45.8254711
        ]
      },
      "properties": {
        "id": 10047405302,
        "osm_type": "node",
        "name": "ECO racing cafe"
      }
    },
    {
      "type": "Feature",
      "geometry": {
        "type": "Point",
        "coordinates": [
          20.4668973,
          45.8293562
        ]
      },
      "properties": {
        "id": 11229083856,
        "osm_type": "node",
        "name": "Champion",
        "check_date": "2023-09-30"
      }
    },
    {
      "type": "Feature",
      "geometry": {
        "type": "Point",
        "coordinates": [
          20.456775,
          45.8230968
        ]
      },
      "properties": {
        "id": 11229083874,
        "osm_type": "node",
        "name": "Тестенина Сунце",
        "check_date": "2023-09-30"
      }
    },
    {
      "type": "Feature",
      "geometry": {
        "type": "Point",
        "coordinates": [
          20.4559299,
          45.8239198
        ]
      },
      "properties": {
        "id": 11229153036,
        "osm_type": "node",
        "name": "Dunjine slatke zavrzlame",
        "check_date": "2023-09-30"
      }
    },
    {
      "type": "Feature",
      "geometry": {
        "type": "Point",
        "coordinates": [
          20.4733628,
          45.831248
        ]
      },
      "properties": {
        "id": 11229162711,
        "osm_type": "node",
        "name": "Тестотека",
        "check_date": "2023-09-30"
      }
    },
    {
      "type": "Feature",
      "geometry": {
        "type": "Point",
        "coordinates": [
          20.4636771,
          45.8303092
        ]
      },
      "properties": {
        "id": 11229601781,
        "osm_type": "node",
        "name": "Mini pani",
        "check_date": "2023-09-30"
      }
    },
    {
      "type": "Feature",
      "geometry": {
        "type": "Point",
        "coordinates": [
          20.4626867,
          45.8312337
        ]
      },
      "properties": {
        "id": 11229601817,
        "osm_type": "node",
        "name": "Trojka",
        "check_date": "2023-09-30"
      }
    },
    {
      "type": "Feature",
      "geometry": {
        "type": "Point",
        "coordinates": [
          20.4526813,
          45.8241808
        ]
      },
      "properties": {
        "id": 11229601825,
        "osm_type": "node",
        "name": "Bife 67",
        "check_date": "2023-09-30"
      }
    },
    {
      "type": "Feature",
      "geometry": {
        "type": "Point",
        "coordinates": [
          20.4582058,
          45.8242547
        ]
      },
      "properties": {
        "id": 11229616156,
        "osm_type": "node",
        "name": "Trivit"
      }
    },
    {
      "type": "Feature",
      "geometry": {
        "type": "Point",
        "coordinates": [
          20.4683046,
          45.8305077
        ]
      },
      "properties": {
        "id": 11229621659,
        "osm_type": "node",
        "name": "Feniks"
      }
    },
    {
      "type": "Feature",
      "geometry": {
        "type": "Point",
        "coordinates": [
          20.4704769,
          45.8318268
        ]
      },
      "properties": {
        "id": 11229655493,
        "osm_type": "node",
        "name": "Enteršpajz",
        "opening_hours": "Mo-Th 09:00-00:00; Fr, Sa 09:00-03:00; Su 16:00-00:00"
      }
    },
    {
      "type": "Feature",
      "geometry": {
        "type": "Point",
        "coordinates": [
          20.4647059,
          45.8325038
        ]
      },
      "properties": {
        "id": 11229711037,
        "osm_type": "node",
        "name": "Testoteka",
        "check_date": "2023-09-30"
      }
    },
    {
      "type": "Feature",
      "geometry": {
        "type": "Point",
        "coordinates": [
          20.4540523,
          45.8273924
        ]
      },
      "properties": {
        "id": 11230007186,
        "osm_type": "node",
        "name": "Perla",
        "check_date": "2023-09-30"
      }
    },
    {
      "type": "Feature",
      "geometry": {
        "type": "Point",
        "coordinates": [
          20.4876093,
          45.8379952
        ]
      },
      "properties": {
        "id": 11231240852,
        "osm_type": "node",
        "name": "Ristevski buregdžinica",
        "opening_hours": "Mo-Sa 05:00-12:00",
        "check_date": "2023-10-02"
      }
    },
    {
      "type": "Feature",
      "geometry": {
        "type": "Point",
        "coordinates": [
          20.4671868,
          45.8272929
        ]
      },
      "properties": {
        "id": 11232644387,
        "osm_type": "node",
        "name": "Matrix"
      }
    },
    {
      "type": "Feature",
      "geometry": {
        "type": "Point",
        "coordinates": [
          20.4456051,
          45.8216627
        ]
      },
      "properties": {
        "id": 11746813813,
        "osm_type": "node",
        "name": "Бифе Бисер"
      }
    },
    {
      "type": "Feature",
      "geometry": {
        "type": "Point",
        "coordinates": [
          20.4657924,
          45.8309316
        ]
      },
      "properties": {
        "id": 11799405090,
        "osm_type": "node",
        "name": "Caffe Ipon"
      }
    },
    {
      "type": "Feature",
      "geometry": {
        "type": "Point",
        "coordinates": [
          20.4710161,
          45.8331727
        ]
      },
      "properties": {
        "id": 11799405091,
        "osm_type": "node"
      }
    },
    {
      "type": "Feature",
      "geometry": {
        "type": "Point",
        "coordinates": [
          20.1287222,
          45.7899618
        ]
      },
      "properties": {
        "id": 12597854452,
        "osm_type": "node",
        "name": "Клас 0-24",
        "opening_hours": "Mo-Sa,PH 00:00+; Su 00:00-22:00"
      }
    },
    {
      "type": "Feature",
      "geometry": {
        "type": "Point",
        "coordinates": [
          20.4760467,
          45.8361394
        ]
      },
      "properties": {
        "id": 13727328573,
        "osm_type": "node",
        "name": "Johnnie"
      }
    },
    {
      "type": "Feature",
      "geometry": {
        "type": "Point",
        "coordinates": [
          20.4691449,
          45.8320156
        ]
      },
      "properties": {
        "id": 13728452441,
        "osm_type": "node",
        "name": "Max"
      }
    },
    {
      "type": "Feature",
      "geometry": {
        "type": "Point",
        "coordinates": [
          20.4636327,
          45.8286428
        ]
      },
      "properties": {
        "id": 13728452469,
        "osm_type": "node",
        "name": "Фрида"
      }
    },
    {
      "type": "Feature",
      "geometry": {
        "type": "Point",
        "coordinates": [
          20.0871323,
          45.930561
        ]
      },
      "properties": {
        "id": 107005537,
        "osm_type": "way",
        "name": "RinTinTin"
      }
    },
    {
      "type": "Feature",
      "geometry": {
        "type": "Point",
        "coordinates": [
          20.0536173,
          46.0656391
        ]
      },
      "properties": {
        "id": 1058288317,
        "osm_type": "way"
      }
    },
    {
      "type": "Feature",
      "geometry": {
        "type": "Point",
        "coordinates": [
          20.4523729,
          45.818158
        ]
      },
      "properties": {
        "id": 1212394639,
        "osm_type": "way",
        "name": "Ristevski"
      }
    }
  ]
}