{
  "type": "FeatureCollection",
  "features": [
    {
      "type": "Feature",
      "geometry": {
        "type": "Point",
        "coordinates": [
          -7.9992769,
          51.9487299
        ]
      },
      "properties": {
        "id": 1686205014,
        "osm_type": "node",
        "shelter_type": "weather_shelter"
      }
    },
    {
      "type": "Feature",
      "geometry": {
        "type": "Point",
        "coordinates": [
          -8.0082619,
          51.952002
        ]
      },
      "properties": {
        "id": 1686205104,
        "osm_type": "node",
        "shelter_type": "weather_shelter"
      }
    },
    {
      "type": "Feature",
      "geometry": {
        "type": "Point",
        "coordinates": [
          -9.6756321,
          52.6802244
        ]
      },
      "properties": {
        "id": 2906297195,
        "osm_type": "node",
        "shelter_type": "weather_shelter",
        "bench": "no"
      }
    },
    {
      "type": "Feature",
      "geometry": {
        "type": "Point",
        "coordinates": [
          -7.9143318,
          52.7184578
        ]
      },
      "properties": {
        "id": 4041093842,
        "osm_type": "node",
        "shelter_type": "weather_shelter"
      }
    },
    {
      "type": "Feature",
      "geometry": {
        "type": "Point",
        "coordinates": [
          -7.913786,
          52.7185244
        ]
      },
      "properties": {
        "id": 4041093843,
        "osm_type": "node",
        "shelter_type": "weather_shelter"
      }
    },
    {
      "type": "Feature",
      "geometry": {
        "type": "Point",
        "coordinates": [
          -8.2963236,
          52.1300878
        ]
      },
      "properties": {
        "id": 6557326088,
        "osm_type": "node",
        "name": "Glenabo"
      }
    },
    {
      "type": "Feature",
      "geometry": {
        "type": "Point",
        "coordinates": [
          -9.7349837,
          52.2573358
        ]
      },
      "properties": {
        "id": 6920238411,
        "osm_type": "node",
        "shelter_type": "lean_to"
      }
    },
    {
      "type": "Feature",
      "geometry": {
        "type": "Point",
        "coordinates": [
          -8.4968076,
          51.6983993
        ]
      },
      "properties": {
        "id": 11244994159,
        "osm_type": "node",
        "shelter_type": "weather_shelter"
      }
    },
    {
      "type": "Feature",
      "geometry": {
        "type": "Point",
        "coordinates": [
          -8.4966687,
          51.6983055
        ]
      },
      "properties": {
        "id": 11244994160,
        "osm_type": "node",
        "shelter_type": "weather_shelter"
      }
    },
    {
      "type": "Feature",
      "geometry": {
        "type": "Point",
        "coordinates": [
          -8.3776294,
          51.8097276
        ]
      },
      "properties": {
        "id": 11245006997,
        "osm_type": "node",
        "shelter_type": "weather_shelter"
      }
    },
    {
      "type": "Feature",
      "geometry": {
        "type": "Point",
        "coordinates": [
          -8.3776509,
          51.8100295
        ]
      },
      "properties": {
        "id": 11245006998,
        "osm_type": "node",
        "shelter_type": "weather_shelter"
      }
    },
    {
      "type": "Feature",
      "geometry": {
        "type": "Point",
        "coordinates": [
          -8.3800287,
          51.8110659
        ]
      },
      "properties": {
        "id": 11245006999,
        "osm_type": "node",
        "shelter_type": "weather_shelter"
      }
    },
    {
      "type": "Feature",
      "geometry": {
        "type": "Point",
        "coordinates": [
          -8.3803881,
          51.81108
        ]
      },
      "properties": {
        "id": 11245007000,
        "osm_type": "node",
        "shelter_type": "weather_shelter"
      }
    },
    {
      "type": "Feature",
      "geometry": {
        "type": "Point",
        "coordinates": [
          -8.0965203,
          51.9696766
        ]
      },
      "properties": {
        "id": 12140536805,
        "osm_type": "node",
        "shelter_type": "weather_shelter"
      }
    },
    {
      "type": "Feature",
      "geometry": {
        "type": "Point",
        "coordinates": [
          -8.0963382,
          51.969714
        ]
      },
      "properties": {
        "id": 12140536806,
        "osm_type": "node",
        "shelter_type": "weather_shelter"
      }
    },
    {
      "type": "Feature",
      "geometry": {
        "type": "Point",
        "coordinates": [
          -8.6281978,
          52.6574544
        ]
      },
      "properties": {
        "id": 128431809,
        "osm_type": "way",
        "shelter_type": "weather_shelter"
      }
    },
    {
      "type": "Feature",
      "geometry": {
        "type": "Point",
        "coordinates": [
          -8.6276117,
          52.6575422
        ]
      },
      "properties": {
        "id": 128431810,
        "osm_type": "way",
        "shelter_type": "weather_shelter"
      }
    },
    {
      "type": "Feature",
      "geometry": {
        "type": "Point",
        "coordinates": [
          -9.7361339,
          52.0017974
        ]
      },
      "properties": {
        "id": 186012730,
        "osm_type": "way",
        "name": "Emergency Shelter",
        "shelter_type": "weather_shelter"
      }
    },
    {
      "type": "Feature",
      "geometry": {
        "type": "Point",
        "coordinates": [
          -8.9809336,
          52.8420258
        ]
      },
      "properties": {
        "id": 219771820,
        "osm_type": "way",
        "shelter_type": "weather_shelter"
      }
    },
    {
      "type": "Feature",
      "geometry": {
        "type": "Point",
        "coordinates": [
          -8.4902302,
          51.8919655
        ]
      },
      "properties": {
        "id": 236338390,
        "osm_type": "way",
        "shelter_type": "weather_shelter"
      }
    },
    {
      "type": "Feature",
      "geometry": {
        "type": "Point",
        "coordinates": [
          -9.4326266,
          52.8429344
        ]
      },
      "properties": {
        "id": 619280144,
        "osm_type": "way",
        "shelter_type": "weather_shelter"
      }
    },
    {
      "type": "Feature",
      "geometry": {
        "type": "Point",
        "coordinates": [
          -8.4875633,
          51.8971095
        ]
      },
      "properties": {
        "id": 675018224,
        "osm_type": "way",
        "shelter_type": "weather_shelter"
      }
    },
    {
      "type": "Feature",
      "geometry": {
        "type": "Point",
        "coordinates": [
          -7.0995153,
          52.2680319
        ]
      },
      "properties": {
        "id": 699098667,
        "osm_type": "way",
        "shelter_type": "weather_shelter"
      }
    },
    {
      "type": "Feature",
      "geometry": {
        "type": "Point",
        "coordinates": [
          -7.3965998,
          52.3112014
        ]
      },
      "properties": {
        "id": 762548849,
        "osm_type": "way",
        "shelter_type": "weather_shelter"
      }
    },
    {
      "type": "Feature",
      "geometry": {
        "type": "Point",
        "coordinates": [
          -10.3580542,
          52.1326612
        ]
      },
      "properties": {
        "id": 822778926,
        "osm_type": "way",
        "shelter_type": "weather_shelter"
      }
    },
    {
      "type": "Feature",
      "geometry": {
        "type": "Point",
        "coordinates": [
          -8.3590539,
          52.1923888
        ]
      },
      "properties": {
        "id": 830437439,
        "osm_type": "way",
        "shelter_type": "weather_shelter"
      }
    },
    {
      "type": "Feature",
      "geometry": {
        "type": "Point",
        "coordinates": [
          -9.3860184,
          52.3220821
        ]
      },
      "properties": {
        "id": 908479759,
        "osm_type": "way",
        "shelter_type": "lean_to"
      }
    },
    {
      "type": "Feature",
      "geometry": {
        "type": "Point",
        "coordinates": [
          -9.3861946,
          52.3216288
        ]
      },
      "properties": {
        "id": 908479760,
        "osm_type": "way",
        "shelter_type": "lean_to"
      }
    },
    {
      "type": "Feature",
      "geometry": {
        "type": "Point",
        "coordinates": [
          -9.3863583,
          52.3212075
        ]
      },
      "properties": {
        "id": 908479761,
        "osm_type": "way",
        "shelter_type": "lean_to"
      }
    },
    {
      "type": "Feature",
      "geometry": {
        "type": "Point",
        "coordinates": [
          -9.3865246,
          52.3207632
        ]
      },
      "properties": {
        "id": 908479762,
        "osm_type": "way",
        "shelter_type": "lean_to"
      }
    },
    {
      "type": "Feature",
      "geometry": {
        "type": "Point",
        "coordinates": [
          -7.699822,
          52.3556582
        ]
      },
      "properties": {
        "id": 1013512209,
        "osm_type": "way",
        "shelter_type": "weather_shelter"
      }
    },
    {
      "type": "Feature",
      "geometry": {
        "type": "Point",
        "coordinates": [
          -8.5907124,
          51.8865274
        ]
      },
      "properties": {
        "id": 1302798313,
        "osm_type": "way",
        "shelter_type": "weather_shelter"
      }
    },
    {
      "type": "Feature",
      "geometry": {
        "type": "Point",
        "coordinates": [
          -8.3551974,
          52.3607509
        ]
      },
      "properties": {
        "id": 1308849450,
        "osm_type": "way",
        "shelter_type": "weather_shelter"
      }
    },
    {
      "type": "Feature",
      "geometry": {
        "type": "Point",
        "coordinates": [
          -9.1007588,
          52.7664925
        ]
      },
      "properties": {
        "id": 1322614512,
        "osm_type": "way",
        "shelter_type": "weather_shelter"
      }
    },
    {
      "type": "Feature",
      "geometry": {
        "type": "Point",
        "coordinates": [
          -7.7128582,
          52.2131069
        ]
      },
      "properties": {
        "id": 1447022799,
        "osm_type": "way",
        "shelter_type": "weather_shelter"
      }
    },
    {
      "type": "Feature",
      "geometry": {
        "type": "Point",
        "coordinates": [
          -7.7117012,
          52.2134973
        ]
      },
      "properties": {
        "id": 1447022800,
        "osm_type": "way",
        "shelter_type": "weather_shelter"
      }
    },
    {
      "type": "Feature",
      "geometry": {
        "type": "Point",
        "coordinates": [
          -9.2614194,
          52.3102121
        ]
      },
      "properties": {
        "id": 1488793445,
        "osm_type": "way",
        "shelter_type": "weather_shelter"
      }
    }
  ]
}