{
  "type": "FeatureCollection",
  "features": [
    {
      "type": "Feature",
      "geometry": {
        "type": "Point",
        "coordinates": [
          -8.4528713,
          38.6761671
        ]
      },
      "properties": {
        "id": 880525848,
        "osm_type": "node",
        "name": "Repsol",
        "brand": "Repsol"
      }
    },
    {
      "type": "Feature",
      "geometry": {
        "type": "Point",
        "coordinates": [
          -7.9127639,
          38.5515546
        ]
      },
      "properties": {
        "id": 1014353438,
        "osm_type": "node",
        "name": "Intermarché",
        "brand": "Intermarché",
        "opening_hours": "24/7"
      }
    },
    {
      "type": "Feature",
      "geometry": {
        "type": "Point",
        "coordinates": [
          -7.8977004,
          38.7043988
        ]
      },
      "properties": {
        "id": 1069088415,
        "osm_type": "node",
        "name": "João Alexandre Sandes da Silva & Filhos, Lda.",
        "brand": "João Alexandre Sandes da Silva & Filhos, Lda.;Shell"
      }
    },
    {
      "type": "Feature",
      "geometry": {
        "type": "Point",
        "coordinates": [
          -7.9022872,
          38.5665214
        ]
      },
      "properties": {
        "id": 1255699444,
        "osm_type": "node",
        "name": "Repsol",
        "brand": "Repsol"
      }
    },
    {
      "type": "Feature",
      "geometry": {
        "type": "Point",
        "coordinates": [
          -8.1575312,
          38.9434245
        ]
      },
      "properties": {
        "id": 1259912461,
        "osm_type": "node",
        "name": "Galp",
        "brand": "Galp"
      }
    },
    {
      "type": "Feature",
      "geometry": {
        "type": "Point",
        "coordinates": [
          -8.0237543,
          38.8951838
        ]
      },
      "properties": {
        "id": 1259912477,
        "osm_type": "node",
        "name": "BP",
        "brand": "BP"
      }
    },
    {
      "type": "Feature",
      "geometry": {
        "type": "Point",
        "coordinates": [
          -8.1595879,
          38.946566
        ]
      },
      "properties": {
        "id": 1259912507,
        "osm_type": "node",
        "name": "Cooperativa Agrícola de Mora"
      }
    },
    {
      "type": "Feature",
      "geometry": {
        "type": "Point",
        "coordinates": [
          -7.8915936,
          38.5574285
        ]
      },
      "properties": {
        "id": 1314695914,
        "osm_type": "node",
        "name": "BP",
        "brand": "BP"
      }
    },
    {
      "type": "Feature",
      "geometry": {
        "type": "Point",
        "coordinates": [
          -7.4846208,
          38.7757368
        ]
      },
      "properties": {
        "id": 1588285339,
        "osm_type": "node",
        "name": "Alves Bandeira",
        "brand": "Alves Bandeira"
      }
    },
    {
      "type": "Feature",
      "geometry": {
        "type": "Point",
        "coordinates": [
          -7.9121548,
          38.5481832
        ]
      },
      "properties": {
        "id": 1602453756,
        "osm_type": "node",
        "name": "Prio",
        "brand": "Prio"
      }
    },
    {
      "type": "Feature",
      "geometry": {
        "type": "Point",
        "coordinates": [
          -8.4733629,
          38.6821542
        ]
      },
      "properties": {
        "id": 1708315097,
        "osm_type": "node",
        "name": "Galp",
        "brand": "Galp"
      }
    },
    {
      "type": "Feature",
      "geometry": {
        "type": "Point",
        "coordinates": [
          -8.4457265,
          38.6740837
        ]
      },
      "properties": {
        "id": 1708315105,
        "osm_type": "node",
        "name": "TFuel",
        "brand": "TFuel"
      }
    },
    {
      "type": "Feature",
      "geometry": {
        "type": "Point",
        "coordinates": [
          -7.5815538,
          38.8474425
        ]
      },
      "properties": {
        "id": 2030908665,
        "osm_type": "node",
        "name": "BP",
        "brand": "BP"
      }
    },
    {
      "type": "Feature",
      "geometry": {
        "type": "Point",
        "coordinates": [
          -7.5860711,
          38.8437082
        ]
      },
      "properties": {
        "id": 2030908672,
        "osm_type": "node",
        "name": "Repsol",
        "brand": "Repsol"
      }
    },
    {
      "type": "Feature",
      "geometry": {
        "type": "Point",
        "coordinates": [
          -8.0779475,
          38.6176801
        ]
      },
      "properties": {
        "id": 2187762523,
        "osm_type": "node",
        "name": "Galp",
        "brand": "Galp",
        "opening_hours": "24/7"
      }
    },
    {
      "type": "Feature",
      "geometry": {
        "type": "Point",
        "coordinates": [
          -8.0818635,
          38.6178645
        ]
      },
      "properties": {
        "id": 2187762775,
        "osm_type": "node",
        "name": "Galp",
        "brand": "Galp",
        "opening_hours": "24/7"
      }
    },
    {
      "type": "Feature",
      "geometry": {
        "type": "Point",
        "coordinates": [
          -7.4690687,
          38.8105168
        ]
      },
      "properties": {
        "id": 2373543814,
        "osm_type": "node",
        "name": "Prio",
        "brand": "Prio",
        "opening_hours": "24/7"
      }
    },
    {
      "type": "Feature",
      "geometry": {
        "type": "Point",
        "coordinates": [
          -7.4699629,
          38.8104692
        ]
      },
      "properties": {
        "id": 2373543817,
        "osm_type": "node",
        "name": "Prio",
        "brand": "Prio"
      }
    },
    {
      "type": "Feature",
      "geometry": {
        "type": "Point",
        "coordinates": [
          -7.8293045,
          38.8295913
        ]
      },
      "properties": {
        "id": 2374942794,
        "osm_type": "node",
        "name": "Prio",
        "brand": "Prio",
        "opening_hours": "Mo-Su 05:00-24:00"
      }
    },
    {
      "type": "Feature",
      "geometry": {
        "type": "Point",
        "coordinates": [
          -7.4508193,
          38.8099527
        ]
      },
      "properties": {
        "id": 2402541815,
        "osm_type": "node",
        "name": "Pingo Doce",
        "brand": "Pingo Doce;BP"
      }
    },
    {
      "type": "Feature",
      "geometry": {
        "type": "Point",
        "coordinates": [
          -7.5794645,
          38.8384448
        ]
      },
      "properties": {
        "id": 2402552814,
        "osm_type": "node",
        "name": "Prio",
        "brand": "Prio"
      }
    },
    {
      "type": "Feature",
      "geometry": {
        "type": "Point",
        "coordinates": [
          -8.1710322,
          38.5452754
        ]
      },
      "properties": {
        "id": 3163360544,
        "osm_type": "node",
        "name": "Repsol",
        "brand": "Repsol"
      }
    },
    {
      "type": "Feature",
      "geometry": {
        "type": "Point",
        "coordinates": [
          -7.5498898,
          38.6514744
        ]
      },
      "properties": {
        "id": 3695628188,
        "osm_type": "node",
        "name": "Repsol",
        "brand": "Repsol"
      }
    },
    {
      "type": "Feature",
      "geometry": {
        "type": "Point",
        "coordinates": [
          -7.5490932,
          38.6449488
        ]
      },
      "properties": {
        "id": 3695628189,
        "osm_type": "node",
        "name": "Galp",
        "brand": "Galp"
      }
    },
    {
      "type": "Feature",
      "geometry": {
        "type": "Point",
        "coordinates": [
          -7.5478695,
          38.6534421
        ]
      },
      "properties": {
        "id": 3695628190,
        "osm_type": "node",
        "name": "Intermarché",
        "brand": "Intermarché"
      }
    },
    {
      "type": "Feature",
      "geometry": {
        "type": "Point",
        "coordinates": [
          -7.5400665,
          38.2137088
        ]
      },
      "properties": {
        "id": 3827756046,
        "osm_type": "node",
        "name": "Alves Bandeira",
        "brand": "Alves Bandeira"
      }
    },
    {
      "type": "Feature",
      "geometry": {
        "type": "Point",
        "coordinates": [
          -8.5775946,
          38.6227684
        ]
      },
      "properties": {
        "id": 3922344341,
        "osm_type": "node",
        "name": "Repsol",
        "brand": "Repsol"
      }
    },
    {
      "type": "Feature",
      "geometry": {
        "type": "Point",
        "coordinates": [
          -8.5808283,
          38.6203488
        ]
      },
      "properties": {
        "id": 3922345866,
        "osm_type": "node",
        "name": "Repsol",
        "brand": "Repsol"
      }
    },
    {
      "type": "Feature",
      "geometry": {
        "type": "Point",
        "coordinates": [
          -7.4262786,
          38.7874372
        ]
      },
      "properties": {
        "id": 4080746129,
        "osm_type": "node",
        "name": "Intermarché",
        "brand": "Intermarché"
      }
    },
    {
      "type": "Feature",
      "geometry": {
        "type": "Point",
        "coordinates": [
          -7.3911975,
          38.6959253
        ]
      },
      "properties": {
        "id": 4738025794,
        "osm_type": "node",
        "name": "Combustíveis do Guadiana",
        "brand": "Combustíveis do Guadiana",
        "opening_hours": "Mo-Su 07:00-22:00"
      }
    },
    {
      "type": "Feature",
      "geometry": {
        "type": "Point",
        "coordinates": [
          -7.9954125,
          38.3316589
        ]
      },
      "properties": {
        "id": 4792375798,
        "osm_type": "node",
        "name": "Galp",
        "brand": "Galp"
      }
    },
    {
      "type": "Feature",
      "geometry": {
        "type": "Point",
        "coordinates": [
          -7.9976878,
          38.3314626
        ]
      },
      "properties": {
        "id": 4792392483,
        "osm_type": "node"
      }
    },
    {
      "type": "Feature",
      "geometry": {
        "type": "Point",
        "coordinates": [
          -8.1656441,
          38.3874355
        ]
      },
      "properties": {
        "id": 5144903675,
        "osm_type": "node",
        "name": "Galp",
        "brand": "Galp"
      }
    },
    {
      "type": "Feature",
      "geometry": {
        "type": "Point",
        "coordinates": [
          -7.9002675,
          38.5740125
        ]
      },
      "properties": {
        "id": 5158726622,
        "osm_type": "node",
        "name": "BP",
        "brand": "BP"
      }
    },
    {
      "type": "Feature",
      "geometry": {
        "type": "Point",
        "coordinates": [
          -8.1562275,
          38.3922226
        ]
      },
      "properties": {
        "id": 5316716810,
        "osm_type": "node",
        "name": "Galp",
        "brand": "Galp"
      }
    },
    {
      "type": "Feature",
      "geometry": {
        "type": "Point",
        "coordinates": [
          -7.7490145,
          38.4582054
        ]
      },
      "properties": {
        "id": 5379266953,
        "osm_type": "node",
        "name": "Galp",
        "brand": "Galp"
      }
    },
    {
      "type": "Feature",
      "geometry": {
        "type": "Point",
        "coordinates": [
          -7.9908084,
          38.724349
        ]
      },
      "properties": {
        "id": 5567517234,
        "osm_type": "node",
        "name": "Intermarché",
        "brand": "Intermarché"
      }
    },
    {
      "type": "Feature",
      "geometry": {
        "type": "Point",
        "coordinates": [
          -7.7089591,
          38.3063195
        ]
      },
      "properties": {
        "id": 6022651826,
        "osm_type": "node",
        "name": "Galp",
        "brand": "Galp"
      }
    },
    {
      "type": "Feature",
      "geometry": {
        "type": "Point",
        "coordinates": [
          -7.7180973,
          38.7629947
        ]
      },
      "properties": {
        "id": 6046832777,
        "osm_type": "node",
        "name": "Repsol",
        "brand": "Repsol"
      }
    },
    {
      "type": "Feature",
      "geometry": {
        "type": "Point",
        "coordinates": [
          -7.5847481,
          38.8423654
        ]
      },
      "properties": {
        "id": 6068819796,
        "osm_type": "node",
        "name": "Alves Bandeira",
        "brand": "Alves Bandeira"
      }
    },
    {
      "type": "Feature",
      "geometry": {
        "type": "Point",
        "coordinates": [
          -7.5810489,
          38.8470181
        ]
      },
      "properties": {
        "id": 6068883993,
        "osm_type": "node",
        "name": "Intermarché",
        "brand": "Intermarché"
      }
    },
    {
      "type": "Feature",
      "geometry": {
        "type": "Point",
        "coordinates": [
          -7.8987022,
          38.5838509
        ]
      },
      "properties": {
        "id": 6725590985,
        "osm_type": "node",
        "name": "Intermarché",
        "brand": "Intermarché",
        "opening_hours": "24/7"
      }
    },
    {
      "type": "Feature",
      "geometry": {
        "type": "Point",
        "coordinates": [
          -7.4226089,
          38.7765287
        ]
      },
      "properties": {
        "id": 7018982914,
        "osm_type": "node",
        "name": "Galp",
        "brand": "Galp"
      }
    },
    {
      "type": "Feature",
      "geometry": {
        "type": "Point",
        "coordinates": [
          -7.4094654,
          38.6236253
        ]
      },
      "properties": {
        "id": 7508357249,
        "osm_type": "node",
        "name": "Repsol",
        "brand": "Repsol"
      }
    },
    {
      "type": "Feature",
      "geometry": {
        "type": "Point",
        "coordinates": [
          -7.5441984,
          38.423502
        ]
      },
      "properties": {
        "id": 7546224979,
        "osm_type": "node",
        "name": "Prio",
        "brand": "Prio"
      }
    },
    {
      "type": "Feature",
      "geometry": {
        "type": "Point",
        "coordinates": [
          -7.8390746,
          38.4098198
        ]
      },
      "properties": {
        "id": 7546295152,
        "osm_type": "node",
        "name": "Prio",
        "brand": "Prio"
      }
    },
    {
      "type": "Feature",
      "geometry": {
        "type": "Point",
        "coordinates": [
          -8.5111202,
          38.6852692
        ]
      },
      "properties": {
        "id": 7924539661,
        "osm_type": "node",
        "name": "Repsol",
        "brand": "Repsol"
      }
    },
    {
      "type": "Feature",
      "geometry": {
        "type": "Point",
        "coordinates": [
          -8.5111849,
          38.6850179
        ]
      },
      "properties": {
        "id": 7924539662,
        "osm_type": "node",
        "name": "Repsol",
        "brand": "Repsol"
      }
    },
    {
      "type": "Feature",
      "geometry": {
        "type": "Point",
        "coordinates": [
          -7.9672177,
          38.3910491
        ]
      },
      "properties": {
        "id": 8376454118,
        "osm_type": "node",
        "name": "Repsol",
        "brand": "Repsol"
      }
    },
    {
      "type": "Feature",
      "geometry": {
        "type": "Point",
        "coordinates": [
          -7.660605,
          38.7990892
        ]
      },
      "properties": {
        "id": 8531652672,
        "osm_type": "node",
        "name": "Cepsa",
        "brand": "Cepsa"
      }
    },
    {
      "type": "Feature",
      "geometry": {
        "type": "Point",
        "coordinates": [
          -7.6604678,
          38.8007859
        ]
      },
      "properties": {
        "id": 8531681116,
        "osm_type": "node",
        "name": "Cepsa",
        "brand": "Cepsa"
      }
    },
    {
      "type": "Feature",
      "geometry": {
        "type": "Point",
        "coordinates": [
          -7.5049728,
          38.9580207
        ]
      },
      "properties": {
        "id": 8674400581,
        "osm_type": "node",
        "name": "Galmor"
      }
    },
    {
      "type": "Feature",
      "geometry": {
        "type": "Point",
        "coordinates": [
          -7.8976738,
          38.56778
        ]
      },
      "properties": {
        "id": 9716292382,
        "osm_type": "node",
        "name": "Galp",
        "brand": "Galp"
      }
    },
    {
      "type": "Feature",
      "geometry": {
        "type": "Point",
        "coordinates": [
          -7.9825702,
          38.7230988
        ]
      },
      "properties": {
        "id": 9719251888,
        "osm_type": "node",
        "name": "Repsol",
        "brand": "Repsol"
      }
    },
    {
      "type": "Feature",
      "geometry": {
        "type": "Point",
        "coordinates": [
          -7.4742643,
          38.5435632
        ]
      },
      "properties": {
        "id": 10024422303,
        "osm_type": "node",
        "name": "Lubridão",
        "brand": "Lubridão;Galp"
      }
    },
    {
      "type": "Feature",
      "geometry": {
        "type": "Point",
        "coordinates": [
          -8.3438755,
          38.6504076
        ]
      },
      "properties": {
        "id": 10672647781,
        "osm_type": "node",
        "name": "Galp",
        "brand": "Galp"
      }
    },
    {
      "type": "Feature",
      "geometry": {
        "type": "Point",
        "coordinates": [
          -8.3438674,
          38.6506809
        ]
      },
      "properties": {
        "id": 10672647782,
        "osm_type": "node",
        "name": "Galp",
        "brand": "Galp"
      }
    },
    {
      "type": "Feature",
      "geometry": {
        "type": "Point",
        "coordinates": [
          -8.2288571,
          38.7953767
        ]
      },
      "properties": {
        "id": 11336911727,
        "osm_type": "node",
        "name": "SACV"
      }
    },
    {
      "type": "Feature",
      "geometry": {
        "type": "Point",
        "coordinates": [
          -8.3213627,
          38.7232999
        ]
      },
      "properties": {
        "id": 13285885206,
        "osm_type": "node",
        "name": "Rede Energia",
        "brand": "Rede Energia"
      }
    },
    {
      "type": "Feature",
      "geometry": {
        "type": "Point",
        "coordinates": [
          -8.1854099,
          38.6555615
        ]
      },
      "properties": {
        "id": 13287418020,
        "osm_type": "node",
        "name": "Rede Energia",
        "brand": "Rede Energia"
      }
    },
    {
      "type": "Feature",
      "geometry": {
        "type": "Point",
        "coordinates": [
          -7.5823313,
          38.8485151
        ]
      },
      "properties": {
        "id": 13287780186,
        "osm_type": "node",
        "name": "Repsol",
        "brand": "Repsol"
      }
    },
    {
      "type": "Feature",
      "geometry": {
        "type": "Point",
        "coordinates": [
          -7.7093849,
          38.3068312
        ]
      },
      "properties": {
        "id": 13288129479,
        "osm_type": "node",
        "name": "PetroIbérica",
        "brand": "PetroIbérica;Alves Bandeira"
      }
    },
    {
      "type": "Feature",
      "geometry": {
        "type": "Point",
        "coordinates": [
          -7.4183142,
          38.7680544
        ]
      },
      "properties": {
        "id": 13314271562,
        "osm_type": "node",
        "name": "A Comercial do Alentejo"
      }
    },
    {
      "type": "Feature",
      "geometry": {
        "type": "Point",
        "coordinates": [
          -7.9864984,
          38.5783279
        ]
      },
      "properties": {
        "id": 13356739056,
        "osm_type": "node",
        "name": "AJ Energy",
        "brand": "Auto Júlio;Galp"
      }
    },
    {
      "type": "Feature",
      "geometry": {
        "type": "Point",
        "coordinates": [
          -7.9826546,
          38.5751588
        ]
      },
      "properties": {
        "id": 13403847193,
        "osm_type": "node",
        "brand": "Galp"
      }
    },
    {
      "type": "Feature",
      "geometry": {
        "type": "Point",
        "coordinates": [
          -7.9953909,
          38.3310857
        ]
      },
      "properties": {
        "id": 115330542,
        "osm_type": "way",
        "name": "Intermarché",
        "brand": "Intermarché"
      }
    },
    {
      "type": "Feature",
      "geometry": {
        "type": "Point",
        "coordinates": [
          -7.9177711,
          38.5538768
        ]
      },
      "properties": {
        "id": 221910672,
        "osm_type": "way",
        "name": "Galp",
        "brand": "Galp"
      }
    },
    {
      "type": "Feature",
      "geometry": {
        "type": "Point",
        "coordinates": [
          -7.9175549,
          38.5541888
        ]
      },
      "properties": {
        "id": 221910683,
        "osm_type": "way",
        "name": "Galp",
        "brand": "Galp"
      }
    },
    {
      "type": "Feature",
      "geometry": {
        "type": "Point",
        "coordinates": [
          -8.2190414,
          38.6502685
        ]
      },
      "properties": {
        "id": 252695115,
        "osm_type": "way",
        "name": "Repsol",
        "brand": "Repsol",
        "opening_hours": "Mo-Su 07:00-22:00"
      }
    },
    {
      "type": "Feature",
      "geometry": {
        "type": "Point",
        "coordinates": [
          -8.2166397,
          38.6496621
        ]
      },
      "properties": {
        "id": 252695116,
        "osm_type": "way",
        "name": "Galp",
        "brand": "Galp",
        "opening_hours": "Mo-Su 07:00-23:00"
      }
    },
    {
      "type": "Feature",
      "geometry": {
        "type": "Point",
        "coordinates": [
          -8.2072035,
          38.6467361
        ]
      },
      "properties": {
        "id": 252695117,
        "osm_type": "way",
        "name": "BP",
        "brand": "BP"
      }
    },
    {
      "type": "Feature",
      "geometry": {
        "type": "Point",
        "coordinates": [
          -8.2071142,
          38.647153
        ]
      },
      "properties": {
        "id": 252695118,
        "osm_type": "way",
        "name": "BP",
        "brand": "BP",
        "opening_hours": "24/7"
      }
    },
    {
      "type": "Feature",
      "geometry": {
        "type": "Point",
        "coordinates": [
          -8.2055164,
          38.6463349
        ]
      },
      "properties": {
        "id": 252695120,
        "osm_type": "way",
        "name": "Intermarché",
        "brand": "Intermarché"
      }
    },
    {
      "type": "Feature",
      "geometry": {
        "type": "Point",
        "coordinates": [
          -8.3137351,
          38.4979214
        ]
      },
      "properties": {
        "id": 294856460,
        "osm_type": "way",
        "name": "Combustíveis Burgojanota",
        "brand": "Repsol"
      }
    },
    {
      "type": "Feature",
      "geometry": {
        "type": "Point",
        "coordinates": [
          -7.9153444,
          38.5676034
        ]
      },
      "properties": {
        "id": 315005835,
        "osm_type": "way",
        "name": "Galp",
        "brand": "Galp",
        "opening_hours": "24/7"
      }
    },
    {
      "type": "Feature",
      "geometry": {
        "type": "Point",
        "coordinates": [
          -7.5428387,
          38.4257532
        ]
      },
      "properties": {
        "id": 392614643,
        "osm_type": "way",
        "name": "Galp",
        "brand": "Galp"
      }
    },
    {
      "type": "Feature",
      "geometry": {
        "type": "Point",
        "coordinates": [
          -7.5418378,
          38.4260231
        ]
      },
      "properties": {
        "id": 392614645,
        "osm_type": "way",
        "name": "Galp",
        "brand": "Galp"
      }
    },
    {
      "type": "Feature",
      "geometry": {
        "type": "Point",
        "coordinates": [
          -7.8411678,
          38.829719
        ]
      },
      "properties": {
        "id": 546567984,
        "osm_type": "way",
        "name": "VMF Petróleos",
        "brand": "VMF Energia;Galp"
      }
    },
    {
      "type": "Feature",
      "geometry": {
        "type": "Point",
        "coordinates": [
          -7.9051943,
          38.5512314
        ]
      },
      "properties": {
        "id": 622700335,
        "osm_type": "way",
        "name": "Auchan",
        "brand": "Auchan",
        "opening_hours": "24/7"
      }
    },
    {
      "type": "Feature",
      "geometry": {
        "type": "Point",
        "coordinates": [
          -8.2155121,
          38.6489612
        ]
      },
      "properties": {
        "id": 642659221,
        "osm_type": "way",
        "name": "Galp",
        "brand": "Galp"
      }
    },
    {
      "type": "Feature",
      "geometry": {
        "type": "Point",
        "coordinates": [
          -8.4120583,
          38.8050323
        ]
      },
      "properties": {
        "id": 654033760,
        "osm_type": "way",
        "name": "TFuel",
        "brand": "Tfuel;BP"
      }
    },
    {
      "type": "Feature",
      "geometry": {
        "type": "Point",
        "coordinates": [
          -8.4134612,
          38.805239
        ]
      },
      "properties": {
        "id": 654035077,
        "osm_type": "way",
        "name": "Demobice, Lda."
      }
    },
    {
      "type": "Feature",
      "geometry": {
        "type": "Point",
        "coordinates": [
          -7.8293435,
          38.8300193
        ]
      },
      "properties": {
        "id": 840746491,
        "osm_type": "way",
        "name": "Prio",
        "brand": "Prio"
      }
    },
    {
      "type": "Feature",
      "geometry": {
        "type": "Point",
        "coordinates": [
          -7.6147128,
          38.8447444
        ]
      },
      "properties": {
        "id": 1398841348,
        "osm_type": "way",
        "name": "Galp",
        "brand": "Galp",
        "opening_hours": "24/7"
      }
    },
    {
      "type": "Feature",
      "geometry": {
        "type": "Point",
        "coordinates": [
          -7.6145662,
          38.8451358
        ]
      },
      "properties": {
        "id": 1398841349,
        "osm_type": "way",
        "name": "Galp",
        "brand": "Galp"
      }
    },
    {
      "type": "Feature",
      "geometry": {
        "type": "Point",
        "coordinates": [
          -7.4568635,
          38.8000631
        ]
      },
      "properties": {
        "id": 1446500018,
        "osm_type": "way",
        "name": "João A. L. Anjos & Filho Lda.",
        "brand": "João A. L. Anjos & Filho Lda."
      }
    },
    {
      "type": "Feature",
      "geometry": {
        "type": "Point",
        "coordinates": [
          -7.5447281,
          38.4255263
        ]
      },
      "properties": {
        "id": 1448225448,
        "osm_type": "way",
        "name": "Intermarché",
        "brand": "Intermarché"
      }
    },
    {
      "type": "Feature",
      "geometry": {
        "type": "Point",
        "coordinates": [
          -7.3345602,
          38.3820128
        ]
      },
      "properties": {
        "id": 1448410369,
        "osm_type": "way",
        "name": "Galp",
        "brand": "Galp",
        "opening_hours": "06:00-23:00"
      }
    }
  ]
}