{
  "type": "FeatureCollection",
  "features": [
    {
      "type": "Feature",
      "geometry": {
        "type": "Point",
        "coordinates": [
          -8.0015257,
          38.333428
        ]
      },
      "properties": {
        "id": 1314201913,
        "osm_type": "node",
        "name": "Papelaria / Quiosque"
      }
    },
    {
      "type": "Feature",
      "geometry": {
        "type": "Point",
        "coordinates": [
          -8.4701174,
          38.6813544
        ]
      },
      "properties": {
        "id": 1708420052,
        "osm_type": "node"
      }
    },
    {
      "type": "Feature",
      "geometry": {
        "type": "Point",
        "coordinates": [
          -7.5879408,
          38.8468269
        ]
      },
      "properties": {
        "id": 2030979290,
        "osm_type": "node",
        "name": "Manas"
      }
    },
    {
      "type": "Feature",
      "geometry": {
        "type": "Point",
        "coordinates": [
          -7.5915879,
          38.8504833
        ]
      },
      "properties": {
        "id": 2030979317,
        "osm_type": "node",
        "name": "Meu Super"
      }
    },
    {
      "type": "Feature",
      "geometry": {
        "type": "Point",
        "coordinates": [
          -7.9086248,
          38.5715608
        ]
      },
      "properties": {
        "id": 4565253038,
        "osm_type": "node",
        "name": "Mó-Ascte",
        "opening_hours": "Tu-Fr 10:00-14:00,15:00-19:00; Sa 10:00-14:00; Mo 15:00-19:00"
      }
    },
    {
      "type": "Feature",
      "geometry": {
        "type": "Point",
        "coordinates": [
          -7.9099874,
          38.5905464
        ]
      },
      "properties": {
        "id": 4784509134,
        "osm_type": "node"
      }
    },
    {
      "type": "Feature",
      "geometry": {
        "type": "Point",
        "coordinates": [
          -7.9078577,
          38.5900914
        ]
      },
      "properties": {
        "id": 4784509135,
        "osm_type": "node",
        "name": "Amanhecer - Minimercado Saco Cheio",
        "brand": "Amanhecer"
      }
    },
    {
      "type": "Feature",
      "geometry": {
        "type": "Point",
        "coordinates": [
          -7.9080642,
          38.5908315
        ]
      },
      "properties": {
        "id": 4784509137,
        "osm_type": "node"
      }
    },
    {
      "type": "Feature",
      "geometry": {
        "type": "Point",
        "coordinates": [
          -7.9047866,
          38.5891794
        ]
      },
      "properties": {
        "id": 4784509146,
        "osm_type": "node",
        "name": "Amanhecer - Minimercado Saco Cheio II",
        "brand": "Amanhecer"
      }
    },
    {
      "type": "Feature",
      "geometry": {
        "type": "Point",
        "coordinates": [
          -7.909377,
          38.570525
        ]
      },
      "properties": {
        "id": 5339470167,
        "osm_type": "node",
        "name": "Os Amigos",
        "opening_hours": "Su-Sa 9:00-21:00"
      }
    },
    {
      "type": "Feature",
      "geometry": {
        "type": "Point",
        "coordinates": [
          -7.914086,
          38.5580063
        ]
      },
      "properties": {
        "id": 5339486842,
        "osm_type": "node",
        "name": "Évora Home",
        "opening_hours": "Mo-Su 09:00-21:00"
      }
    },
    {
      "type": "Feature",
      "geometry": {
        "type": "Point",
        "coordinates": [
          -7.9093932,
          38.568771
        ]
      },
      "properties": {
        "id": 5366655406,
        "osm_type": "node",
        "name": "Zé do Bacalhau",
        "opening_hours": "Mo-Su 07:00-19:00",
        "check_date": "2025-05-08"
      }
    },
    {
      "type": "Feature",
      "geometry": {
        "type": "Point",
        "coordinates": [
          -7.589158,
          38.8428022
        ]
      },
      "properties": {
        "id": 5565137462,
        "osm_type": "node",
        "name": "Camoes"
      }
    },
    {
      "type": "Feature",
      "geometry": {
        "type": "Point",
        "coordinates": [
          -7.5877463,
          38.8416646
        ]
      },
      "properties": {
        "id": 5565140310,
        "osm_type": "node"
      }
    },
    {
      "type": "Feature",
      "geometry": {
        "type": "Point",
        "coordinates": [
          -7.9026166,
          38.572348
        ]
      },
      "properties": {
        "id": 5620190506,
        "osm_type": "node",
        "name": "Mercearia Ti Adelaide"
      }
    },
    {
      "type": "Feature",
      "geometry": {
        "type": "Point",
        "coordinates": [
          -8.157991,
          38.498996
        ]
      },
      "properties": {
        "id": 5625464774,
        "osm_type": "node"
      }
    },
    {
      "type": "Feature",
      "geometry": {
        "type": "Point",
        "coordinates": [
          -7.4538858,
          38.8057416
        ]
      },
      "properties": {
        "id": 5809051726,
        "osm_type": "node"
      }
    },
    {
      "type": "Feature",
      "geometry": {
        "type": "Point",
        "coordinates": [
          -8.1016695,
          38.5881111
        ]
      },
      "properties": {
        "id": 5823720248,
        "osm_type": "node",
        "name": "Venda Nova"
      }
    },
    {
      "type": "Feature",
      "geometry": {
        "type": "Point",
        "coordinates": [
          -7.4556604,
          38.8048392
        ]
      },
      "properties": {
        "id": 5840577688,
        "osm_type": "node"
      }
    },
    {
      "type": "Feature",
      "geometry": {
        "type": "Point",
        "coordinates": [
          -7.9100418,
          38.5750105
        ]
      },
      "properties": {
        "id": 6130576611,
        "osm_type": "node",
        "name": "Mercearia Portuguesa",
        "opening_hours": "Mo-Su 09:00-19:00"
      }
    },
    {
      "type": "Feature",
      "geometry": {
        "type": "Point",
        "coordinates": [
          -7.9109165,
          38.5728947
        ]
      },
      "properties": {
        "id": 6130576619,
        "osm_type": "node",
        "name": "Casa Barcharel",
        "opening_hours": "Mo-Fr 09:00-13:00,15:00-19:00; Sa 09:00-13:00; Su off"
      }
    },
    {
      "type": "Feature",
      "geometry": {
        "type": "Point",
        "coordinates": [
          -8.3158511,
          38.7193638
        ]
      },
      "properties": {
        "id": 6188181559,
        "osm_type": "node"
      }
    },
    {
      "type": "Feature",
      "geometry": {
        "type": "Point",
        "coordinates": [
          -8.2209752,
          38.6469911
        ]
      },
      "properties": {
        "id": 6262812534,
        "osm_type": "node",
        "name": "Cooperativa Integral Minga",
        "opening_hours": "Mo-Fr 09:00-13:00, 15:00-19:00"
      }
    },
    {
      "type": "Feature",
      "geometry": {
        "type": "Point",
        "coordinates": [
          -8.3201469,
          38.7213482
        ]
      },
      "properties": {
        "id": 6313096926,
        "osm_type": "node",
        "name": "Supermercado Central"
      }
    },
    {
      "type": "Feature",
      "geometry": {
        "type": "Point",
        "coordinates": [
          -8.2284884,
          38.8016417
        ]
      },
      "properties": {
        "id": 7821432276,
        "osm_type": "node",
        "name": "Amanhecer - Minimercado Raposo",
        "brand": "Amanhecer"
      }
    },
    {
      "type": "Feature",
      "geometry": {
        "type": "Point",
        "coordinates": [
          -7.8290629,
          38.8295067
        ]
      },
      "properties": {
        "id": 7844980649,
        "osm_type": "node"
      }
    },
    {
      "type": "Feature",
      "geometry": {
        "type": "Point",
        "coordinates": [
          -8.0172473,
          38.8947278
        ]
      },
      "properties": {
        "id": 8024947138,
        "osm_type": "node",
        "name": "Caeiro e Filhas, Lda",
        "opening_hours": "Mo-Sa 09:00-20:00"
      }
    },
    {
      "type": "Feature",
      "geometry": {
        "type": "Point",
        "coordinates": [
          -7.7147855,
          38.3967883
        ]
      },
      "properties": {
        "id": 8549549595,
        "osm_type": "node"
      }
    },
    {
      "type": "Feature",
      "geometry": {
        "type": "Point",
        "coordinates": [
          -8.1523872,
          38.3926347
        ]
      },
      "properties": {
        "id": 8625454937,
        "osm_type": "node",
        "name": "Minimercado J. Grosso",
        "opening_hours": "Mo-Fr 07:00-13:30, 15:00-20:00"
      }
    },
    {
      "type": "Feature",
      "geometry": {
        "type": "Point",
        "coordinates": [
          -7.5475312,
          38.6486032
        ]
      },
      "properties": {
        "id": 9491104810,
        "osm_type": "node",
        "name": "Amanhecer - Supermercado Fresquinho VIII",
        "brand": "Amanhecer"
      }
    },
    {
      "type": "Feature",
      "geometry": {
        "type": "Point",
        "coordinates": [
          -7.6510879,
          38.8447794
        ]
      },
      "properties": {
        "id": 9733141554,
        "osm_type": "node",
        "name": "A Bolotinha"
      }
    },
    {
      "type": "Feature",
      "geometry": {
        "type": "Point",
        "coordinates": [
          -7.90765,
          38.7981704
        ]
      },
      "properties": {
        "id": 9738619988,
        "osm_type": "node"
      }
    },
    {
      "type": "Feature",
      "geometry": {
        "type": "Point",
        "coordinates": [
          -8.221007,
          38.6469975
        ]
      },
      "properties": {
        "id": 10732226663,
        "osm_type": "node",
        "name": "Cooperativa Minga"
      }
    },
    {
      "type": "Feature",
      "geometry": {
        "type": "Point",
        "coordinates": [
          -7.7996239,
          38.2683994
        ]
      },
      "properties": {
        "id": 11027887680,
        "osm_type": "node"
      }
    },
    {
      "type": "Feature",
      "geometry": {
        "type": "Point",
        "coordinates": [
          -7.9885179,
          38.6553104
        ]
      },
      "properties": {
        "id": 11060727205,
        "osm_type": "node",
        "name": "O Sonho"
      }
    },
    {
      "type": "Feature",
      "geometry": {
        "type": "Point",
        "coordinates": [
          -7.9081735,
          38.5712326
        ]
      },
      "properties": {
        "id": 11177631632,
        "osm_type": "node",
        "name": "Market Diana"
      }
    },
    {
      "type": "Feature",
      "geometry": {
        "type": "Point",
        "coordinates": [
          -8.1681511,
          38.5423097
        ]
      },
      "properties": {
        "id": 12145858604,
        "osm_type": "node"
      }
    },
    {
      "type": "Feature",
      "geometry": {
        "type": "Point",
        "coordinates": [
          -8.1680863,
          38.5403986
        ]
      },
      "properties": {
        "id": 12145867763,
        "osm_type": "node",
        "name": "Drogaria Florista Calçado"
      }
    },
    {
      "type": "Feature",
      "geometry": {
        "type": "Point",
        "coordinates": [
          -8.1679164,
          38.5413165
        ]
      },
      "properties": {
        "id": 12145882626,
        "osm_type": "node"
      }
    },
    {
      "type": "Feature",
      "geometry": {
        "type": "Point",
        "coordinates": [
          -8.1680951,
          38.542261
        ]
      },
      "properties": {
        "id": 12145889281,
        "osm_type": "node"
      }
    },
    {
      "type": "Feature",
      "geometry": {
        "type": "Point",
        "coordinates": [
          -7.5988842,
          38.5088593
        ]
      },
      "properties": {
        "id": 12179277868,
        "osm_type": "node",
        "name": "Adla"
      }
    },
    {
      "type": "Feature",
      "geometry": {
        "type": "Point",
        "coordinates": [
          -7.374774,
          38.343747
        ]
      },
      "properties": {
        "id": 12312232657,
        "osm_type": "node",
        "name": "Rosa Farias"
      }
    },
    {
      "type": "Feature",
      "geometry": {
        "type": "Point",
        "coordinates": [
          -7.9354079,
          38.9376349
        ]
      },
      "properties": {
        "id": 12326887490,
        "osm_type": "node",
        "name": "Mini-mercado",
        "opening_hours": "Mo-Sa 09:00-13:00,15:00-19:00"
      }
    },
    {
      "type": "Feature",
      "geometry": {
        "type": "Point",
        "coordinates": [
          -7.9234588,
          38.5782068
        ]
      },
      "properties": {
        "id": 12726127918,
        "osm_type": "node",
        "name": "Amanhecer - Pão de Sal",
        "brand": "Amanhecer",
        "opening_hours": "Mo-Fr 07:30-13:00,15:00-19:00; Sa 07:30-13:00; Su off"
      }
    },
    {
      "type": "Feature",
      "geometry": {
        "type": "Point",
        "coordinates": [
          -7.3442192,
          38.3832141
        ]
      },
      "properties": {
        "id": 13072642316,
        "osm_type": "node",
        "name": "Quiosque do Jardim",
        "check_date": "2025-08-15"
      }
    },
    {
      "type": "Feature",
      "geometry": {
        "type": "Point",
        "coordinates": [
          -7.9667501,
          38.3925478
        ]
      },
      "properties": {
        "id": 13190882201,
        "osm_type": "node",
        "name": "O Tapinhas"
      }
    },
    {
      "type": "Feature",
      "geometry": {
        "type": "Point",
        "coordinates": [
          -7.9661224,
          38.3932788
        ]
      },
      "properties": {
        "id": 13195504001,
        "osm_type": "node"
      }
    },
    {
      "type": "Feature",
      "geometry": {
        "type": "Point",
        "coordinates": [
          -7.5847363,
          38.841694
        ]
      },
      "properties": {
        "id": 13255720392,
        "osm_type": "node",
        "name": "Mercearia Figo"
      }
    },
    {
      "type": "Feature",
      "geometry": {
        "type": "Point",
        "coordinates": [
          -7.8977403,
          38.5681046
        ]
      },
      "properties": {
        "id": 13342778386,
        "osm_type": "node",
        "name": "Amanhecer - Pão de Sal",
        "brand": "Amanhecer"
      }
    },
    {
      "type": "Feature",
      "geometry": {
        "type": "Point",
        "coordinates": [
          -7.840936,
          38.8299987
        ]
      },
      "properties": {
        "id": 13342778391,
        "osm_type": "node",
        "name": "Amanhecer - Mercearia do Vimieiro",
        "brand": "Amanhecer"
      }
    },
    {
      "type": "Feature",
      "geometry": {
        "type": "Point",
        "coordinates": [
          -8.0781822,
          38.6177769
        ]
      },
      "properties": {
        "id": 13540163218,
        "osm_type": "node",
        "name": "Tangerina",
        "opening_hours": "24/7"
      }
    },
    {
      "type": "Feature",
      "geometry": {
        "type": "Point",
        "coordinates": [
          -8.0817209,
          38.6178025
        ]
      },
      "properties": {
        "id": 13540163219,
        "osm_type": "node",
        "name": "Tangerina",
        "opening_hours": "24/7"
      }
    },
    {
      "type": "Feature",
      "geometry": {
        "type": "Point",
        "coordinates": [
          -7.9943684,
          38.3304634
        ]
      },
      "properties": {
        "id": 117643265,
        "osm_type": "way"
      }
    },
    {
      "type": "Feature",
      "geometry": {
        "type": "Point",
        "coordinates": [
          -7.6605582,
          38.8007446
        ]
      },
      "properties": {
        "id": 208482826,
        "osm_type": "way"
      }
    },
    {
      "type": "Feature",
      "geometry": {
        "type": "Point",
        "coordinates": [
          -8.5806543,
          38.6203931
        ]
      },
      "properties": {
        "id": 389074507,
        "osm_type": "way"
      }
    },
    {
      "type": "Feature",
      "geometry": {
        "type": "Point",
        "coordinates": [
          -8.5778416,
          38.6227121
        ]
      },
      "properties": {
        "id": 389074508,
        "osm_type": "way"
      }
    },
    {
      "type": "Feature",
      "geometry": {
        "type": "Point",
        "coordinates": [
          -7.8437323,
          38.831997
        ]
      },
      "properties": {
        "id": 546846859,
        "osm_type": "way"
      }
    },
    {
      "type": "Feature",
      "geometry": {
        "type": "Point",
        "coordinates": [
          -7.8407394,
          38.8317548
        ]
      },
      "properties": {
        "id": 546846860,
        "osm_type": "way"
      }
    },
    {
      "type": "Feature",
      "geometry": {
        "type": "Point",
        "coordinates": [
          -7.8386844,
          38.8311152
        ]
      },
      "properties": {
        "id": 551036371,
        "osm_type": "way",
        "name": "A Mercearia da Sonia"
      }
    },
    {
      "type": "Feature",
      "geometry": {
        "type": "Point",
        "coordinates": [
          -7.9170005,
          38.5760475
        ]
      },
      "properties": {
        "id": 551379798,
        "osm_type": "way",
        "name": "Amanhecer - Super da Tapada",
        "brand": "Amanhecer",
        "opening_hours": "Mo-Sa 08:00-20:00"
      }
    },
    {
      "type": "Feature",
      "geometry": {
        "type": "Point",
        "coordinates": [
          -7.4728229,
          38.3656987
        ]
      },
      "properties": {
        "id": 721879511,
        "osm_type": "way",
        "name": "Almeida"
      }
    },
    {
      "type": "Feature",
      "geometry": {
        "type": "Point",
        "coordinates": [
          -7.4717341,
          38.3641394
        ]
      },
      "properties": {
        "id": 721882755,
        "osm_type": "way",
        "name": "Mini Mercado Nanda"
      }
    },
    {
      "type": "Feature",
      "geometry": {
        "type": "Point",
        "coordinates": [
          -8.4557938,
          38.6774879
        ]
      },
      "properties": {
        "id": 773574961,
        "osm_type": "way"
      }
    },
    {
      "type": "Feature",
      "geometry": {
        "type": "Point",
        "coordinates": [
          -8.456857,
          38.6777842
        ]
      },
      "properties": {
        "id": 773574964,
        "osm_type": "way",
        "name": "Frutaria"
      }
    },
    {
      "type": "Feature",
      "geometry": {
        "type": "Point",
        "coordinates": [
          -7.5872191,
          38.8436426
        ]
      },
      "properties": {
        "id": 1028445450,
        "osm_type": "way",
        "name": "Manéis"
      }
    },
    {
      "type": "Feature",
      "geometry": {
        "type": "Point",
        "coordinates": [
          -8.0730344,
          38.9552267
        ]
      },
      "properties": {
        "id": 1034752076,
        "osm_type": "way"
      }
    },
    {
      "type": "Feature",
      "geometry": {
        "type": "Point",
        "coordinates": [
          -7.6604575,
          38.7992018
        ]
      },
      "properties": {
        "id": 1040918525,
        "osm_type": "way"
      }
    },
    {
      "type": "Feature",
      "geometry": {
        "type": "Point",
        "coordinates": [
          -7.9848399,
          38.7234142
        ]
      },
      "properties": {
        "id": 1061382392,
        "osm_type": "way",
        "name": "My Auchan",
        "brand": "My Auchan"
      }
    },
    {
      "type": "Feature",
      "geometry": {
        "type": "Point",
        "coordinates": [
          -7.8977675,
          38.7081729
        ]
      },
      "properties": {
        "id": 1062354152,
        "osm_type": "way",
        "name": "Estrela do Alentejo"
      }
    },
    {
      "type": "Feature",
      "geometry": {
        "type": "Point",
        "coordinates": [
          -7.8980904,
          38.7100668
        ]
      },
      "properties": {
        "id": 1062379845,
        "osm_type": "way",
        "name": "A Avó"
      }
    },
    {
      "type": "Feature",
      "geometry": {
        "type": "Point",
        "coordinates": [
          -7.3456208,
          38.6248122
        ]
      },
      "properties": {
        "id": 1066174476,
        "osm_type": "way"
      }
    },
    {
      "type": "Feature",
      "geometry": {
        "type": "Point",
        "coordinates": [
          -7.5369149,
          38.422285
        ]
      },
      "properties": {
        "id": 1072665727,
        "osm_type": "way"
      }
    },
    {
      "type": "Feature",
      "geometry": {
        "type": "Point",
        "coordinates": [
          -7.4167426,
          38.7766472
        ]
      },
      "properties": {
        "id": 1190204670,
        "osm_type": "way"
      }
    },
    {
      "type": "Feature",
      "geometry": {
        "type": "Point",
        "coordinates": [
          -7.4171453,
          38.7771556
        ]
      },
      "properties": {
        "id": 1190204671,
        "osm_type": "way"
      }
    },
    {
      "type": "Feature",
      "geometry": {
        "type": "Point",
        "coordinates": [
          -7.4568553,
          38.8001464
        ]
      },
      "properties": {
        "id": 1446500016,
        "osm_type": "way"
      }
    }
  ]
}