{
  "type": "FeatureCollection",
  "features": [
    {
      "type": "Feature",
      "geometry": {
        "type": "Point",
        "coordinates": [
          9.5505016,
          47.4225447
        ]
      },
      "properties": {
        "id": 2904986746,
        "osm_type": "node",
        "name": "Bischofberger"
      }
    },
    {
      "type": "Feature",
      "geometry": {
        "type": "Point",
        "coordinates": [
          9.4283851,
          47.2854252
        ]
      },
      "properties": {
        "id": 3619975819,
        "osm_type": "node",
        "outdoor_seating": "yes"
      }
    },
    {
      "type": "Feature",
      "geometry": {
        "type": "Point",
        "coordinates": [
          9.347602,
          47.3290078
        ]
      },
      "properties": {
        "id": 4303008607,
        "osm_type": "node",
        "name": "Bäckerei-Konditorei Motzer"
      }
    },
    {
      "type": "Feature",
      "geometry": {
        "type": "Point",
        "coordinates": [
          9.4077951,
          47.3255477
        ]
      },
      "properties": {
        "id": 5020326916,
        "osm_type": "node",
        "name": "Bistro Kunsthalle Ziegelhütte",
        "opening_hours": "Tu-Fr 10:00-12:00,14:00-17:00; Sa-Su 11:00-17:00",
        "outdoor_seating": "yes"
      }
    },
    {
      "type": "Feature",
      "geometry": {
        "type": "Point",
        "coordinates": [
          9.4081306,
          47.331935
        ]
      },
      "properties": {
        "id": 5308475723,
        "osm_type": "node",
        "name": "Auslese Barbara"
      }
    },
    {
      "type": "Feature",
      "geometry": {
        "type": "Point",
        "coordinates": [
          9.4557405,
          47.2976146
        ]
      },
      "properties": {
        "id": 5786505156,
        "osm_type": "node",
        "name": "Bäckerei Conditorei",
        "opening_hours": "Mo-Tu 07:00-12:00, 13:30-18:30; We 07:00-12:00; Th-Fr 07:00-12:00, 13:30-18:30; Sa 07:00-17:00"
      }
    },
    {
      "type": "Feature",
      "geometry": {
        "type": "Point",
        "coordinates": [
          9.4073736,
          47.3306871
        ]
      },
      "properties": {
        "id": 6283452446,
        "osm_type": "node",
        "name": "BÖHLI AG, Bäckerei Confiserie",
        "opening_hours": "Mo-Fr 06:00-12:15,13:30-18:30; Sa 06:00-16:00; Su off",
        "check_date": "2025-09-09"
      }
    },
    {
      "type": "Feature",
      "geometry": {
        "type": "Point",
        "coordinates": [
          9.4322761,
          47.3486649
        ]
      },
      "properties": {
        "id": 6283475051,
        "osm_type": "node",
        "name": "Landbäckerei Sammelplatz",
        "opening_hours": "Mo 07:00-12:15,14:00-18:30; Tu-Fr 07:00-12:15,13:15-18:30; Sa 06:30-16:00"
      }
    },
    {
      "type": "Feature",
      "geometry": {
        "type": "Point",
        "coordinates": [
          9.4281576,
          47.2852588
        ]
      },
      "properties": {
        "id": 6690871311,
        "osm_type": "node",
        "name": "Gartenbeiz"
      }
    },
    {
      "type": "Feature",
      "geometry": {
        "type": "Point",
        "coordinates": [
          9.4115643,
          47.3312335
        ]
      },
      "properties": {
        "id": 6691042672,
        "osm_type": "node",
        "name": "Böhli",
        "opening_hours": "Mo-Fr 06:00-12:15,13:00-18:30; Sa 06:00-17:00; Su 06:15-17:00",
        "outdoor_seating": "yes",
        "check_date": "2025-09-09"
      }
    },
    {
      "type": "Feature",
      "geometry": {
        "type": "Point",
        "coordinates": [
          9.4096215,
          47.3306823
        ]
      },
      "properties": {
        "id": 6884790089,
        "osm_type": "node",
        "name": "Land bäckerei",
        "opening_hours": "Mo-Fr 07:30-18:30; Sa-Su 07:30-17:00",
        "outdoor_seating": "yes"
      }
    },
    {
      "type": "Feature",
      "geometry": {
        "type": "Point",
        "coordinates": [
          9.4073602,
          47.3337531
        ]
      },
      "properties": {
        "id": 12190979791,
        "osm_type": "node",
        "name": "Böhli",
        "opening_hours": "Mo-Th 07:30-19:00; Fr 07:30-20:00; Sa 07:30-17:00; Su off",
        "outdoor_seating": "yes",
        "check_date": "2025-09-09"
      }
    },
    {
      "type": "Feature",
      "geometry": {
        "type": "Point",
        "coordinates": [
          9.4108885,
          47.3306305
        ]
      },
      "properties": {
        "id": 13421848481,
        "osm_type": "node",
        "name": "Edi",
        "outdoor_seating": "yes"
      }
    },
    {
      "type": "Feature",
      "geometry": {
        "type": "Point",
        "coordinates": [
          9.5343879,
          47.4099966
        ]
      },
      "properties": {
        "id": 196764840,
        "osm_type": "way",
        "name": "Kafi Anton",
        "opening_hours": "We-Fr 10:00-17:00; Sa-Su 09:00-17:00",
        "outdoor_seating": "terrace"
      }
    },
    {
      "type": "Feature",
      "geometry": {
        "type": "Point",
        "coordinates": [
          9.4363385,
          47.3075223
        ]
      },
      "properties": {
        "id": 211159852,
        "osm_type": "way",
        "name": "Backwerk"
      }
    },
    {
      "type": "Feature",
      "geometry": {
        "type": "Point",
        "coordinates": [
          9.4356718,
          47.3076723
        ]
      },
      "properties": {
        "id": 211159854,
        "osm_type": "way",
        "name": "Loosmühle"
      }
    },
    {
      "type": "Feature",
      "geometry": {
        "type": "Point",
        "coordinates": [
          9.4257031,
          47.3232227
        ]
      },
      "properties": {
        "id": 239865004,
        "osm_type": "way",
        "name": "Restaurant/Bäckerei Schäfli",
        "opening_hours": "Mo-We,Fr 06:30-18:30; Sa-Su 06:30-17:00",
        "check_date": "2025-09-11"
      }
    },
    {
      "type": "Feature",
      "geometry": {
        "type": "Point",
        "coordinates": [
          9.4113982,
          47.3304182
        ]
      },
      "properties": {
        "id": 239877639,
        "osm_type": "way",
        "name": "Café-Confiserie Laimbacher"
      }
    },
    {
      "type": "Feature",
      "geometry": {
        "type": "Point",
        "coordinates": [
          9.4086203,
          47.330984
        ]
      },
      "properties": {
        "id": 240787973,
        "osm_type": "way",
        "name": "Drei Könige",
        "opening_hours": "Mo-Fr 06:30-18:30; Sa 06:30-17:00; Su 08:00-17:00; Tu off"
      }
    }
  ]
}