{
  "type": "FeatureCollection",
  "features": [
    {
      "type": "Feature",
      "geometry": {
        "type": "Point",
        "coordinates": [
          20.2251424,
          40.5055482
        ]
      },
      "properties": {
        "id": 2405792116,
        "osm_type": "node",
        "chain": "unknown"
      }
    },
    {
      "type": "Feature",
      "geometry": {
        "type": "Point",
        "coordinates": [
          20.3516053,
          40.2357775
        ]
      },
      "properties": {
        "id": 2421071707,
        "osm_type": "node",
        "name": "Bar Azani",
        "chain": "unknown"
      }
    },
    {
      "type": "Feature",
      "geometry": {
        "type": "Point",
        "coordinates": [
          20.3525235,
          40.2331015
        ]
      },
      "properties": {
        "id": 2423106428,
        "osm_type": "node",
        "name": "Byrek",
        "cuisine": "regional",
        "chain": "unknown"
      }
    },
    {
      "type": "Feature",
      "geometry": {
        "type": "Point",
        "coordinates": [
          20.3556515,
          40.2319223
        ]
      },
      "properties": {
        "id": 2423185878,
        "osm_type": "node",
        "name": "Edi",
        "chain": "unknown"
      }
    },
    {
      "type": "Feature",
      "geometry": {
        "type": "Point",
        "coordinates": [
          20.3542609,
          40.2326096
        ]
      },
      "properties": {
        "id": 2423185885,
        "osm_type": "node",
        "name": "Krenari",
        "chain": "unknown"
      }
    },
    {
      "type": "Feature",
      "geometry": {
        "type": "Point",
        "coordinates": [
          20.3538641,
          40.2328741
        ]
      },
      "properties": {
        "id": 2423185893,
        "osm_type": "node",
        "name": "Pizza Klodi",
        "chain": "unknown"
      }
    },
    {
      "type": "Feature",
      "geometry": {
        "type": "Point",
        "coordinates": [
          20.0023551,
          39.8726915
        ]
      },
      "properties": {
        "id": 2435132401,
        "osm_type": "node",
        "name": "Kreperi",
        "cuisine": "pencake",
        "chain": "unknown"
      }
    },
    {
      "type": "Feature",
      "geometry": {
        "type": "Point",
        "coordinates": [
          19.6627014,
          41.0084184
        ]
      },
      "properties": {
        "id": 2459455945,
        "osm_type": "node",
        "chain": "unknown"
      }
    },
    {
      "type": "Feature",
      "geometry": {
        "type": "Point",
        "coordinates": [
          19.6637349,
          41.009213
        ]
      },
      "properties": {
        "id": 2460758867,
        "osm_type": "node",
        "chain": "unknown"
      }
    },
    {
      "type": "Feature",
      "geometry": {
        "type": "Point",
        "coordinates": [
          19.9682979,
          40.7009285
        ]
      },
      "properties": {
        "id": 2461995213,
        "osm_type": "node",
        "cuisine": "regional",
        "chain": "unknown"
      }
    },
    {
      "type": "Feature",
      "geometry": {
        "type": "Point",
        "coordinates": [
          20.1431026,
          40.0853372
        ]
      },
      "properties": {
        "id": 2483402156,
        "osm_type": "node",
        "chain": "unknown"
      }
    },
    {
      "type": "Feature",
      "geometry": {
        "type": "Point",
        "coordinates": [
          19.5697467,
          40.7327267
        ]
      },
      "properties": {
        "id": 3911399427,
        "osm_type": "node",
        "name": "Fredi The Best",
        "chain": "unknown"
      }
    },
    {
      "type": "Feature",
      "geometry": {
        "type": "Point",
        "coordinates": [
          19.4869177,
          40.4540741
        ]
      },
      "properties": {
        "id": 4325259690,
        "osm_type": "node",
        "name": "Kolona",
        "chain": "unknown"
      }
    },
    {
      "type": "Feature",
      "geometry": {
        "type": "Point",
        "coordinates": [
          19.4692054,
          40.3273916
        ]
      },
      "properties": {
        "id": 4328283871,
        "osm_type": "node",
        "name": "Amo Pizza",
        "chain": "unknown"
      }
    },
    {
      "type": "Feature",
      "geometry": {
        "type": "Point",
        "coordinates": [
          19.9539718,
          40.704432
        ]
      },
      "properties": {
        "id": 4344549691,
        "osm_type": "node",
        "name": "Piceri Medine",
        "chain": "unknown"
      }
    },
    {
      "type": "Feature",
      "geometry": {
        "type": "Point",
        "coordinates": [
          19.9486949,
          40.7044159
        ]
      },
      "properties": {
        "id": 4344549993,
        "osm_type": "node",
        "name": "Lundra",
        "chain": "unknown"
      }
    },
    {
      "type": "Feature",
      "geometry": {
        "type": "Point",
        "coordinates": [
          19.9571514,
          40.702032
        ]
      },
      "properties": {
        "id": 4344551592,
        "osm_type": "node",
        "chain": "unknown"
      }
    },
    {
      "type": "Feature",
      "geometry": {
        "type": "Point",
        "coordinates": [
          19.7047821,
          40.9416799
        ]
      },
      "properties": {
        "id": 4399541789,
        "osm_type": "node",
        "name": "Fast Food Lala",
        "cuisine": "mediterranean",
        "chain": "unknown"
      }
    },
    {
      "type": "Feature",
      "geometry": {
        "type": "Point",
        "coordinates": [
          19.8790348,
          40.7740838
        ]
      },
      "properties": {
        "id": 4400932394,
        "osm_type": "node",
        "name": "Piceri Xhango Hallall",
        "cuisine": "italian_pizza",
        "chain": "unknown"
      }
    },
    {
      "type": "Feature",
      "geometry": {
        "type": "Point",
        "coordinates": [
          19.4765298,
          40.3298432
        ]
      },
      "properties": {
        "id": 4415123761,
        "osm_type": "node",
        "name": "M. Mustafaraj",
        "chain": "unknown"
      }
    },
    {
      "type": "Feature",
      "geometry": {
        "type": "Point",
        "coordinates": [
          19.5542275,
          40.7240043
        ]
      },
      "properties": {
        "id": 4486076990,
        "osm_type": "node",
        "chain": "unknown"
      }
    },
    {
      "type": "Feature",
      "geometry": {
        "type": "Point",
        "coordinates": [
          19.5621894,
          40.7285146
        ]
      },
      "properties": {
        "id": 4802497578,
        "osm_type": "node",
        "name": "Pizza Roma",
        "cuisine": "_sandwich;italian_pizza",
        "chain": "unknown"
      }
    },
    {
      "type": "Feature",
      "geometry": {
        "type": "Point",
        "coordinates": [
          19.5625952,
          40.7282932
        ]
      },
      "properties": {
        "id": 4802497582,
        "osm_type": "node",
        "name": "Pizza Italia",
        "cuisine": "pizza,sandwich,burger",
        "chain": "unknown"
      }
    },
    {
      "type": "Feature",
      "geometry": {
        "type": "Point",
        "coordinates": [
          20.0005261,
          39.7695519
        ]
      },
      "properties": {
        "id": 4929269922,
        "osm_type": "node",
        "name": "Koko",
        "cuisine": "fast_food;gyros;shawarma;international",
        "chain": "unknown"
      }
    },
    {
      "type": "Feature",
      "geometry": {
        "type": "Point",
        "coordinates": [
          19.6098911,
          40.1559464
        ]
      },
      "properties": {
        "id": 5014926123,
        "osm_type": "node",
        "name": "Fast food",
        "phone": "+355 69 783 9465",
        "cuisine": "crepe",
        "chain": "unknown"
      }
    },
    {
      "type": "Feature",
      "geometry": {
        "type": "Point",
        "coordinates": [
          20.0010634,
          39.7692812
        ]
      },
      "properties": {
        "id": 5052005223,
        "osm_type": "node",
        "name": "Iceberg",
        "cuisine": "kebab",
        "chain": "unknown"
      }
    },
    {
      "type": "Feature",
      "geometry": {
        "type": "Point",
        "coordinates": [
          19.7442728,
          40.101495
        ]
      },
      "properties": {
        "id": 5054596822,
        "osm_type": "node",
        "name": "I Love Souvlaki",
        "chain": "unknown"
      }
    },
    {
      "type": "Feature",
      "geometry": {
        "type": "Point",
        "coordinates": [
          20.0047495,
          39.8729961
        ]
      },
      "properties": {
        "id": 5149166821,
        "osm_type": "node",
        "name": "All day grill",
        "chain": "unknown"
      }
    },
    {
      "type": "Feature",
      "geometry": {
        "type": "Point",
        "coordinates": [
          20.6668236,
          40.9013293
        ]
      },
      "properties": {
        "id": 5375472802,
        "osm_type": "node",
        "name": "Pica Me Gusta",
        "cuisine": "pizza",
        "chain": "unknown"
      }
    },
    {
      "type": "Feature",
      "geometry": {
        "type": "Point",
        "coordinates": [
          20.2158261,
          39.9969956
        ]
      },
      "properties": {
        "id": 5475331421,
        "osm_type": "node",
        "name": "Sofratika",
        "chain": "unknown"
      }
    },
    {
      "type": "Feature",
      "geometry": {
        "type": "Point",
        "coordinates": [
          19.5325595,
          40.9961287
        ]
      },
      "properties": {
        "id": 5527425719,
        "osm_type": "node",
        "name": "Kokoneshi",
        "chain": "unknown"
      }
    },
    {
      "type": "Feature",
      "geometry": {
        "type": "Point",
        "coordinates": [
          19.5323316,
          40.9966213
        ]
      },
      "properties": {
        "id": 5533008964,
        "osm_type": "node",
        "name": "Hamati",
        "chain": "unknown"
      }
    },
    {
      "type": "Feature",
      "geometry": {
        "type": "Point",
        "coordinates": [
          20.1383934,
          40.0741244
        ]
      },
      "properties": {
        "id": 5596202029,
        "osm_type": "node",
        "name": "Liti",
        "chain": "unknown"
      }
    },
    {
      "type": "Feature",
      "geometry": {
        "type": "Point",
        "coordinates": [
          20.1386492,
          40.0740479
        ]
      },
      "properties": {
        "id": 5596533424,
        "osm_type": "node",
        "name": "Byrektore",
        "chain": "unknown"
      }
    },
    {
      "type": "Feature",
      "geometry": {
        "type": "Point",
        "coordinates": [
          20.7795816,
          40.6168623
        ]
      },
      "properties": {
        "id": 5598906922,
        "osm_type": "node",
        "name": "Creperie Pedonale",
        "cuisine": "burger;sandwich;crepe",
        "chain": "unknown"
      }
    },
    {
      "type": "Feature",
      "geometry": {
        "type": "Point",
        "coordinates": [
          20.7791551,
          40.6172167
        ]
      },
      "properties": {
        "id": 5598906924,
        "osm_type": "node",
        "name": "Piccolino",
        "phone": "+355 69 282 9555",
        "cuisine": "pizza",
        "chain": "unknown"
      }
    },
    {
      "type": "Feature",
      "geometry": {
        "type": "Point",
        "coordinates": [
          20.7787584,
          40.616723
        ]
      },
      "properties": {
        "id": 5599699922,
        "osm_type": "node",
        "name": "Ana Maria",
        "phone": "+355 69 257 7884",
        "cuisine": "kebab",
        "chain": "unknown"
      }
    },
    {
      "type": "Feature",
      "geometry": {
        "type": "Point",
        "coordinates": [
          20.1382987,
          40.0799456
        ]
      },
      "properties": {
        "id": 5719685522,
        "osm_type": "node",
        "name": "Alfa",
        "phone": "+355 69 850 2001",
        "chain": "unknown"
      }
    },
    {
      "type": "Feature",
      "geometry": {
        "type": "Point",
        "coordinates": [
          19.5125087,
          40.4840888
        ]
      },
      "properties": {
        "id": 5719685630,
        "osm_type": "node",
        "chain": "unknown"
      }
    },
    {
      "type": "Feature",
      "geometry": {
        "type": "Point",
        "coordinates": [
          19.4762902,
          40.658909
        ]
      },
      "properties": {
        "id": 5720117121,
        "osm_type": "node",
        "opening_hours": "Mo-Su 06:00-18:00",
        "chain": "unknown"
      }
    },
    {
      "type": "Feature",
      "geometry": {
        "type": "Point",
        "coordinates": [
          19.6518463,
          41.0509939
        ]
      },
      "properties": {
        "id": 5729805026,
        "osm_type": "node",
        "opening_hours": "24/7",
        "chain": "unknown"
      }
    },
    {
      "type": "Feature",
      "geometry": {
        "type": "Point",
        "coordinates": [
          19.4727925,
          40.3261643
        ]
      },
      "properties": {
        "id": 5823426953,
        "osm_type": "node",
        "name": "Pizzeri Marta",
        "chain": "unknown"
      }
    },
    {
      "type": "Feature",
      "geometry": {
        "type": "Point",
        "coordinates": [
          19.7025454,
          40.1190454
        ]
      },
      "properties": {
        "id": 5833103885,
        "osm_type": "node",
        "name": "Bar restorant",
        "cuisine": "greek;kebab;sandwich",
        "chain": "unknown"
      }
    },
    {
      "type": "Feature",
      "geometry": {
        "type": "Point",
        "coordinates": [
          19.4871177,
          40.4521383
        ]
      },
      "properties": {
        "id": 5839243486,
        "osm_type": "node",
        "name": "Vellezerit Zeneli",
        "chain": "unknown"
      }
    },
    {
      "type": "Feature",
      "geometry": {
        "type": "Point",
        "coordinates": [
          20.9863892,
          40.6236629
        ]
      },
      "properties": {
        "id": 5840484088,
        "osm_type": "node",
        "name": "Zamiri",
        "phone": "+355 69 224 3181",
        "cuisine": "pizza;kebab;burger",
        "chain": "unknown"
      }
    },
    {
      "type": "Feature",
      "geometry": {
        "type": "Point",
        "coordinates": [
          20.1369998,
          40.0803302
        ]
      },
      "properties": {
        "id": 5943575685,
        "osm_type": "node",
        "opening_hours": "Mo-Su 09:00-22:00",
        "phone": "+355696551888",
        "chain": "unknown"
      }
    },
    {
      "type": "Feature",
      "geometry": {
        "type": "Point",
        "coordinates": [
          20.664246,
          40.9016459
        ]
      },
      "properties": {
        "id": 5954141219,
        "osm_type": "node",
        "name": "Zgara Pogradecare",
        "chain": "unknown"
      }
    },
    {
      "type": "Feature",
      "geometry": {
        "type": "Point",
        "coordinates": [
          20.664289,
          40.9016419
        ]
      },
      "properties": {
        "id": 5954142795,
        "osm_type": "node",
        "name": "Fast Food Shkodra",
        "chain": "unknown"
      }
    },
    {
      "type": "Feature",
      "geometry": {
        "type": "Point",
        "coordinates": [
          20.658756,
          40.9018994
        ]
      },
      "properties": {
        "id": 5954216352,
        "osm_type": "node",
        "chain": "unknown"
      }
    },
    {
      "type": "Feature",
      "geometry": {
        "type": "Point",
        "coordinates": [
          20.7768524,
          40.6182785
        ]
      },
      "properties": {
        "id": 6054075939,
        "osm_type": "node",
        "cuisine": "burger",
        "chain": "unknown"
      }
    },
    {
      "type": "Feature",
      "geometry": {
        "type": "Point",
        "coordinates": [
          20.007759,
          39.8750706
        ]
      },
      "properties": {
        "id": 6193099585,
        "osm_type": "node",
        "name": "Fast Food Geri",
        "cuisine": "kebab",
        "chain": "unknown"
      }
    },
    {
      "type": "Feature",
      "geometry": {
        "type": "Point",
        "coordinates": [
          20.6805415,
          40.3367144
        ]
      },
      "properties": {
        "id": 6239416776,
        "osm_type": "node",
        "name": "Byrekë",
        "chain": "unknown"
      }
    },
    {
      "type": "Feature",
      "geometry": {
        "type": "Point",
        "coordinates": [
          19.5582556,
          40.7284198
        ]
      },
      "properties": {
        "id": 6291332385,
        "osm_type": "node",
        "name": "Proper Pizza",
        "opening_hours": "Mo-Su 09:00-00:00",
        "chain": "unknown"
      }
    },
    {
      "type": "Feature",
      "geometry": {
        "type": "Point",
        "coordinates": [
          20.7829573,
          40.6195064
        ]
      },
      "properties": {
        "id": 6370673119,
        "osm_type": "node",
        "name": "Creperie 2",
        "cuisine": "crepe",
        "chain": "unknown"
      }
    },
    {
      "type": "Feature",
      "geometry": {
        "type": "Point",
        "coordinates": [
          20.7825822,
          40.6179711
        ]
      },
      "properties": {
        "id": 6370673136,
        "osm_type": "node",
        "name": "La Creperia",
        "phone": "+355 69 254 1662",
        "cuisine": "crepe",
        "chain": "unknown"
      }
    },
    {
      "type": "Feature",
      "geometry": {
        "type": "Point",
        "coordinates": [
          20.7829626,
          40.6192041
        ]
      },
      "properties": {
        "id": 6372713781,
        "osm_type": "node",
        "name": "Theo Zoi",
        "phone": "+355 82 254 747",
        "cuisine": "kebab",
        "chain": "unknown"
      }
    },
    {
      "type": "Feature",
      "geometry": {
        "type": "Point",
        "coordinates": [
          20.7763695,
          40.6137781
        ]
      },
      "properties": {
        "id": 6395887505,
        "osm_type": "node",
        "name": "Romeo Grill",
        "phone": "+355 69 693 0010",
        "cuisine": "burger;kebab;chicken",
        "chain": "unknown"
      }
    },
    {
      "type": "Feature",
      "geometry": {
        "type": "Point",
        "coordinates": [
          20.7763974,
          40.6171012
        ]
      },
      "properties": {
        "id": 6396490472,
        "osm_type": "node",
        "cuisine": "kebab;chicken",
        "chain": "unknown"
      }
    },
    {
      "type": "Feature",
      "geometry": {
        "type": "Point",
        "coordinates": [
          20.7799224,
          40.6159145
        ]
      },
      "properties": {
        "id": 6396774903,
        "osm_type": "node",
        "name": "Vasport",
        "cuisine": "kebab",
        "chain": "unknown"
      }
    },
    {
      "type": "Feature",
      "geometry": {
        "type": "Point",
        "coordinates": [
          20.7829894,
          40.6203311
        ]
      },
      "properties": {
        "id": 6400635976,
        "osm_type": "node",
        "name": "Mik Mak",
        "phone": "+355 69 523 2371",
        "cuisine": "regional",
        "chain": "unknown"
      }
    },
    {
      "type": "Feature",
      "geometry": {
        "type": "Point",
        "coordinates": [
          19.4827245,
          40.455397
        ]
      },
      "properties": {
        "id": 6401921550,
        "osm_type": "node",
        "name": "Hera",
        "chain": "unknown"
      }
    },
    {
      "type": "Feature",
      "geometry": {
        "type": "Point",
        "coordinates": [
          20.7787337,
          40.6171906
        ]
      },
      "properties": {
        "id": 6402824184,
        "osm_type": "node",
        "name": "Zgara Korçare",
        "cuisine": "regional;burger;kebab",
        "chain": "unknown"
      }
    },
    {
      "type": "Feature",
      "geometry": {
        "type": "Point",
        "coordinates": [
          20.010077,
          39.8739805
        ]
      },
      "properties": {
        "id": 6404990087,
        "osm_type": "node",
        "name": "Fast Food Corner",
        "chain": "unknown"
      }
    },
    {
      "type": "Feature",
      "geometry": {
        "type": "Point",
        "coordinates": [
          20.1439354,
          40.0846416
        ]
      },
      "properties": {
        "id": 6408562765,
        "osm_type": "node",
        "name": "Bar Cafe Station",
        "chain": "unknown"
      }
    },
    {
      "type": "Feature",
      "geometry": {
        "type": "Point",
        "coordinates": [
          20.7814502,
          40.6236926
        ]
      },
      "properties": {
        "id": 6430146345,
        "osm_type": "node",
        "name": "Ana Maria 2",
        "phone": "+355 69 633 9933",
        "cuisine": "kebab",
        "chain": "unknown"
      }
    },
    {
      "type": "Feature",
      "geometry": {
        "type": "Point",
        "coordinates": [
          20.9841633,
          40.6260383
        ]
      },
      "properties": {
        "id": 6438906296,
        "osm_type": "node",
        "name": "Pizza Passion",
        "phone": "+355 69 392 0240",
        "cuisine": "pizza;burger;sandwich;hot_dog;crepe;kebab",
        "chain": "unknown"
      }
    },
    {
      "type": "Feature",
      "geometry": {
        "type": "Point",
        "coordinates": [
          20.9869378,
          40.6227928
        ]
      },
      "properties": {
        "id": 6438906298,
        "osm_type": "node",
        "name": "Merlin",
        "cuisine": "regional",
        "chain": "unknown"
      }
    },
    {
      "type": "Feature",
      "geometry": {
        "type": "Point",
        "coordinates": [
          20.9853842,
          40.6253231
        ]
      },
      "properties": {
        "id": 6438906327,
        "osm_type": "node",
        "name": "Serxhi",
        "phone": "+355 69 457 4545",
        "cuisine": "kebab;burger",
        "chain": "unknown"
      }
    },
    {
      "type": "Feature",
      "geometry": {
        "type": "Point",
        "coordinates": [
          19.5502724,
          40.7149483
        ]
      },
      "properties": {
        "id": 6452392685,
        "osm_type": "node",
        "chain": "unknown"
      }
    },
    {
      "type": "Feature",
      "geometry": {
        "type": "Point",
        "coordinates": [
          19.5632057,
          40.7285476
        ]
      },
      "properties": {
        "id": 6614697092,
        "osm_type": "node",
        "name": "Tip-Top Food & Coffee",
        "chain": "unknown"
      }
    },
    {
      "type": "Feature",
      "geometry": {
        "type": "Point",
        "coordinates": [
          19.5623483,
          40.7284732
        ]
      },
      "properties": {
        "id": 6614821339,
        "osm_type": "node",
        "name": "Prodhime Brumi Magic Hand",
        "chain": "unknown"
      }
    },
    {
      "type": "Feature",
      "geometry": {
        "type": "Point",
        "coordinates": [
          19.5604226,
          40.7279006
        ]
      },
      "properties": {
        "id": 6617225319,
        "osm_type": "node",
        "name": "Pizza Uno",
        "chain": "unknown"
      }
    },
    {
      "type": "Feature",
      "geometry": {
        "type": "Point",
        "coordinates": [
          19.5647048,
          40.7312936
        ]
      },
      "properties": {
        "id": 6617267063,
        "osm_type": "node",
        "name": "Fast Food",
        "chain": "unknown"
      }
    },
    {
      "type": "Feature",
      "geometry": {
        "type": "Point",
        "coordinates": [
          19.5653659,
          40.7312379
        ]
      },
      "properties": {
        "id": 6617272902,
        "osm_type": "node",
        "name": "Fast Food",
        "chain": "unknown"
      }
    },
    {
      "type": "Feature",
      "geometry": {
        "type": "Point",
        "coordinates": [
          19.5595219,
          40.7286782
        ]
      },
      "properties": {
        "id": 6617488524,
        "osm_type": "node",
        "name": "Piceri Gustosa",
        "chain": "unknown"
      }
    },
    {
      "type": "Feature",
      "geometry": {
        "type": "Point",
        "coordinates": [
          19.5549183,
          40.7204044
        ]
      },
      "properties": {
        "id": 6621128831,
        "osm_type": "node",
        "name": "Tip-Top",
        "chain": "unknown"
      }
    },
    {
      "type": "Feature",
      "geometry": {
        "type": "Point",
        "coordinates": [
          19.5570194,
          40.7236256
        ]
      },
      "properties": {
        "id": 6621130477,
        "osm_type": "node",
        "name": "Pizza Hallal Relax",
        "chain": "unknown"
      }
    },
    {
      "type": "Feature",
      "geometry": {
        "type": "Point",
        "coordinates": [
          19.5538927,
          40.7197632
        ]
      },
      "properties": {
        "id": 6621132718,
        "osm_type": "node",
        "name": "Pizzeria Nardi",
        "chain": "unknown"
      }
    },
    {
      "type": "Feature",
      "geometry": {
        "type": "Point",
        "coordinates": [
          19.5584709,
          40.7250002
        ]
      },
      "properties": {
        "id": 6621138310,
        "osm_type": "node",
        "name": "Fast Food",
        "chain": "unknown"
      }
    },
    {
      "type": "Feature",
      "geometry": {
        "type": "Point",
        "coordinates": [
          19.558337,
          40.725799
        ]
      },
      "properties": {
        "id": 6621140454,
        "osm_type": "node",
        "name": "Fast Food",
        "chain": "unknown"
      }
    },
    {
      "type": "Feature",
      "geometry": {
        "type": "Point",
        "coordinates": [
          19.5564292,
          40.7242526
        ]
      },
      "properties": {
        "id": 6621144537,
        "osm_type": "node",
        "name": "Fast Food",
        "chain": "unknown"
      }
    },
    {
      "type": "Feature",
      "geometry": {
        "type": "Point",
        "coordinates": [
          19.555925,
          40.7222706
        ]
      },
      "properties": {
        "id": 6621148343,
        "osm_type": "node",
        "name": "Byrek Çasti",
        "chain": "unknown"
      }
    },
    {
      "type": "Feature",
      "geometry": {
        "type": "Point",
        "coordinates": [
          19.556774,
          40.723241
        ]
      },
      "properties": {
        "id": 6621152814,
        "osm_type": "node",
        "name": "Fast Food Pashaj",
        "chain": "unknown"
      }
    },
    {
      "type": "Feature",
      "geometry": {
        "type": "Point",
        "coordinates": [
          19.5554003,
          40.7216
        ]
      },
      "properties": {
        "id": 6621155352,
        "osm_type": "node",
        "name": "Fast Food Benitoni",
        "chain": "unknown"
      }
    },
    {
      "type": "Feature",
      "geometry": {
        "type": "Point",
        "coordinates": [
          20.0015405,
          39.7689854
        ]
      },
      "properties": {
        "id": 6644790287,
        "osm_type": "node",
        "name": "L'arte della Pizza 2",
        "cuisine": "italian_pizza",
        "chain": "unknown"
      }
    },
    {
      "type": "Feature",
      "geometry": {
        "type": "Point",
        "coordinates": [
          20.0019396,
          39.7685295
        ]
      },
      "properties": {
        "id": 6644791185,
        "osm_type": "node",
        "name": "Geri",
        "chain": "unknown"
      }
    },
    {
      "type": "Feature",
      "geometry": {
        "type": "Point",
        "coordinates": [
          19.7411166,
          40.5183724
        ]
      },
      "properties": {
        "id": 6657114533,
        "osm_type": "node",
        "name": "Autogrill 24",
        "chain": "unknown"
      }
    },
    {
      "type": "Feature",
      "geometry": {
        "type": "Point",
        "coordinates": [
          20.0019573,
          39.8697942
        ]
      },
      "properties": {
        "id": 6657458786,
        "osm_type": "node",
        "chain": "unknown"
      }
    },
    {
      "type": "Feature",
      "geometry": {
        "type": "Point",
        "coordinates": [
          19.5562655,
          40.7259958
        ]
      },
      "properties": {
        "id": 6832257989,
        "osm_type": "node",
        "name": "Kreperi Ciao",
        "cuisine": "crepe",
        "chain": "unknown"
      }
    },
    {
      "type": "Feature",
      "geometry": {
        "type": "Point",
        "coordinates": [
          19.5560145,
          40.7258397
        ]
      },
      "properties": {
        "id": 6832269203,
        "osm_type": "node",
        "name": "Byrektore",
        "cuisine": "balkan;mediterranean",
        "chain": "unknown"
      }
    },
    {
      "type": "Feature",
      "geometry": {
        "type": "Point",
        "coordinates": [
          19.5591443,
          40.7279482
        ]
      },
      "properties": {
        "id": 6833035485,
        "osm_type": "node",
        "name": "Rinia 1 te Portokallet",
        "chain": "unknown"
      }
    },
    {
      "type": "Feature",
      "geometry": {
        "type": "Point",
        "coordinates": [
          19.5578639,
          40.7272626
        ]
      },
      "properties": {
        "id": 6853561267,
        "osm_type": "node",
        "name": "Bar Pizzeri Kristi",
        "chain": "unknown"
      }
    },
    {
      "type": "Feature",
      "geometry": {
        "type": "Point",
        "coordinates": [
          19.5590949,
          40.7281482
        ]
      },
      "properties": {
        "id": 6853576801,
        "osm_type": "node",
        "name": "Pizza Colosseum",
        "chain": "unknown"
      }
    },
    {
      "type": "Feature",
      "geometry": {
        "type": "Point",
        "coordinates": [
          19.5579602,
          40.7261945
        ]
      },
      "properties": {
        "id": 6853580622,
        "osm_type": "node",
        "name": "Byrektore Flora",
        "chain": "unknown"
      }
    },
    {
      "type": "Feature",
      "geometry": {
        "type": "Point",
        "coordinates": [
          19.5569492,
          40.7257559
        ]
      },
      "properties": {
        "id": 6853583679,
        "osm_type": "node",
        "name": "Fast Food Everest",
        "chain": "unknown"
      }
    },
    {
      "type": "Feature",
      "geometry": {
        "type": "Point",
        "coordinates": [
          19.5574499,
          40.7258921
        ]
      },
      "properties": {
        "id": 6853599040,
        "osm_type": "node",
        "name": "Tip Top",
        "chain": "unknown"
      }
    },
    {
      "type": "Feature",
      "geometry": {
        "type": "Point",
        "coordinates": [
          19.5561421,
          40.7271479
        ]
      },
      "properties": {
        "id": 6853608678,
        "osm_type": "node",
        "name": "Fast Food Merlin",
        "chain": "unknown"
      }
    },
    {
      "type": "Feature",
      "geometry": {
        "type": "Point",
        "coordinates": [
          19.5565591,
          40.7257425
        ]
      },
      "properties": {
        "id": 6853612213,
        "osm_type": "node",
        "name": "Byrektore",
        "chain": "unknown"
      }
    },
    {
      "type": "Feature",
      "geometry": {
        "type": "Point",
        "coordinates": [
          19.5582203,
          40.7261057
        ]
      },
      "properties": {
        "id": 6853612733,
        "osm_type": "node",
        "name": "Byrek Gimi",
        "chain": "unknown"
      }
    },
    {
      "type": "Feature",
      "geometry": {
        "type": "Point",
        "coordinates": [
          19.5559972,
          40.7260194
        ]
      },
      "properties": {
        "id": 6853614287,
        "osm_type": "node",
        "name": "Byrek",
        "chain": "unknown"
      }
    },
    {
      "type": "Feature",
      "geometry": {
        "type": "Point",
        "coordinates": [
          19.5560262,
          40.7259192
        ]
      },
      "properties": {
        "id": 6853641866,
        "osm_type": "node",
        "name": "Fast Food Goody's",
        "cuisine": "burger;greek;kebab;sandwich",
        "chain": "unknown"
      }
    },
    {
      "type": "Feature",
      "geometry": {
        "type": "Point",
        "coordinates": [
          19.4842369,
          40.4651069
        ]
      },
      "properties": {
        "id": 6861406887,
        "osm_type": "node",
        "name": "Pizza",
        "chain": "unknown"
      }
    },
    {
      "type": "Feature",
      "geometry": {
        "type": "Point",
        "coordinates": [
          19.4900296,
          40.4691231
        ]
      },
      "properties": {
        "id": 6861409786,
        "osm_type": "node",
        "chain": "unknown"
      }
    },
    {
      "type": "Feature",
      "geometry": {
        "type": "Point",
        "coordinates": [
          19.4939829,
          40.4738502
        ]
      },
      "properties": {
        "id": 6863520290,
        "osm_type": "node",
        "chain": "unknown"
      }
    },
    {
      "type": "Feature",
      "geometry": {
        "type": "Point",
        "coordinates": [
          19.487947,
          40.4737
        ]
      },
      "properties": {
        "id": 6866308395,
        "osm_type": "node",
        "name": "Pita Pan",
        "chain": "unknown"
      }
    },
    {
      "type": "Feature",
      "geometry": {
        "type": "Point",
        "coordinates": [
          20.0023608,
          39.8726414
        ]
      },
      "properties": {
        "id": 6870927390,
        "osm_type": "node",
        "name": "Joan",
        "chain": "unknown"
      }
    },
    {
      "type": "Feature",
      "geometry": {
        "type": "Point",
        "coordinates": [
          20.0011102,
          39.8755844
        ]
      },
      "properties": {
        "id": 6870928988,
        "osm_type": "node",
        "name": "Studenti",
        "chain": "unknown"
      }
    },
    {
      "type": "Feature",
      "geometry": {
        "type": "Point",
        "coordinates": [
          20.0044899,
          39.874548
        ]
      },
      "properties": {
        "id": 6872682987,
        "osm_type": "node",
        "name": "Fast Food Çuçi",
        "chain": "unknown"
      }
    },
    {
      "type": "Feature",
      "geometry": {
        "type": "Point",
        "coordinates": [
          20.0142821,
          39.8705946
        ]
      },
      "properties": {
        "id": 6872683989,
        "osm_type": "node",
        "name": "Ine's Grill",
        "chain": "unknown"
      }
    },
    {
      "type": "Feature",
      "geometry": {
        "type": "Point",
        "coordinates": [
          20.012712,
          39.8732465
        ]
      },
      "properties": {
        "id": 6873603586,
        "osm_type": "node",
        "name": "Mangall",
        "chain": "unknown"
      }
    },
    {
      "type": "Feature",
      "geometry": {
        "type": "Point",
        "coordinates": [
          20.0050498,
          39.8746179
        ]
      },
      "properties": {
        "id": 6873603592,
        "osm_type": "node",
        "name": "Byrektore",
        "chain": "unknown"
      }
    },
    {
      "type": "Feature",
      "geometry": {
        "type": "Point",
        "coordinates": [
          19.9953614,
          39.8712284
        ]
      },
      "properties": {
        "id": 6873603888,
        "osm_type": "node",
        "name": "Kasandro",
        "chain": "unknown"
      }
    },
    {
      "type": "Feature",
      "geometry": {
        "type": "Point",
        "coordinates": [
          20.1402595,
          40.0813398
        ]
      },
      "properties": {
        "id": 6877456091,
        "osm_type": "node",
        "name": "Wide Mountain",
        "cuisine": "burger;pizza;kebab",
        "chain": "unknown"
      }
    },
    {
      "type": "Feature",
      "geometry": {
        "type": "Point",
        "coordinates": [
          20.1423707,
          40.086916
        ]
      },
      "properties": {
        "id": 6881507730,
        "osm_type": "node",
        "name": "Mega Mania",
        "opening_hours": "24/7",
        "phone": "+355692292444",
        "website": "https://mega-mania-fast-food-restaurant.business.site/?utm_source=gmb&utm_medium=referral",
        "cuisine": "fast_food",
        "chain": "unknown"
      }
    },
    {
      "type": "Feature",
      "geometry": {
        "type": "Point",
        "coordinates": [
          19.5663387,
          40.7299153
        ]
      },
      "properties": {
        "id": 7011935633,
        "osm_type": "node",
        "name": "Fast Food Toddy's",
        "chain": "unknown"
      }
    },
    {
      "type": "Feature",
      "geometry": {
        "type": "Point",
        "coordinates": [
          19.5683659,
          40.7314716
        ]
      },
      "properties": {
        "id": 7017462634,
        "osm_type": "node",
        "name": "Byrektore",
        "chain": "unknown"
      }
    },
    {
      "type": "Feature",
      "geometry": {
        "type": "Point",
        "coordinates": [
          19.5688627,
          40.7319827
        ]
      },
      "properties": {
        "id": 7017497914,
        "osm_type": "node",
        "name": "Fast Food Pizzeri Toto",
        "chain": "unknown"
      }
    },
    {
      "type": "Feature",
      "geometry": {
        "type": "Point",
        "coordinates": [
          19.570835,
          40.7336867
        ]
      },
      "properties": {
        "id": 7019570661,
        "osm_type": "node",
        "name": "Byrektore",
        "chain": "unknown"
      }
    },
    {
      "type": "Feature",
      "geometry": {
        "type": "Point",
        "coordinates": [
          19.5591299,
          40.7292216
        ]
      },
      "properties": {
        "id": 7019724619,
        "osm_type": "node",
        "name": "Sufllaqe tek PS",
        "chain": "unknown"
      }
    },
    {
      "type": "Feature",
      "geometry": {
        "type": "Point",
        "coordinates": [
          19.56764,
          40.7308659
        ]
      },
      "properties": {
        "id": 7021622745,
        "osm_type": "node",
        "name": "Fast Food Bedriu",
        "chain": "unknown"
      }
    },
    {
      "type": "Feature",
      "geometry": {
        "type": "Point",
        "coordinates": [
          19.5548644,
          40.7263418
        ]
      },
      "properties": {
        "id": 7021776438,
        "osm_type": "node",
        "name": "1-Stop",
        "chain": "unknown"
      }
    },
    {
      "type": "Feature",
      "geometry": {
        "type": "Point",
        "coordinates": [
          19.5559793,
          40.7282871
        ]
      },
      "properties": {
        "id": 7021803563,
        "osm_type": "node",
        "name": "Pizzeria Jummy Jummy",
        "cuisine": "pizza",
        "chain": "unknown"
      }
    },
    {
      "type": "Feature",
      "geometry": {
        "type": "Point",
        "coordinates": [
          19.8706363,
          40.0296108
        ]
      },
      "properties": {
        "id": 7021950017,
        "osm_type": "node",
        "chain": "unknown"
      }
    },
    {
      "type": "Feature",
      "geometry": {
        "type": "Point",
        "coordinates": [
          19.74603,
          40.1013002
        ]
      },
      "properties": {
        "id": 7949027750,
        "osm_type": "node",
        "name": "Burbos",
        "chain": "unknown"
      }
    },
    {
      "type": "Feature",
      "geometry": {
        "type": "Point",
        "coordinates": [
          19.7459267,
          40.1013165
        ]
      },
      "properties": {
        "id": 7949028717,
        "osm_type": "node",
        "chain": "unknown"
      }
    },
    {
      "type": "Feature",
      "geometry": {
        "type": "Point",
        "coordinates": [
          19.7458177,
          40.1013901
        ]
      },
      "properties": {
        "id": 7950014993,
        "osm_type": "node",
        "name": "Guma",
        "phone": "+355685506211",
        "cuisine": "gyros;shawarma",
        "chain": "unknown"
      }
    },
    {
      "type": "Feature",
      "geometry": {
        "type": "Point",
        "coordinates": [
          19.4869539,
          40.453336
        ]
      },
      "properties": {
        "id": 8026465218,
        "osm_type": "node",
        "name": "KFC",
        "brand": "KFC",
        "website": "https://www.kfc.al/",
        "brand:wikidata": "Q524757",
        "cuisine": "chicken",
        "chain": "unknown"
      }
    },
    {
      "type": "Feature",
      "geometry": {
        "type": "Point",
        "coordinates": [
          19.7047026,
          40.9417998
        ]
      },
      "properties": {
        "id": 9057098558,
        "osm_type": "node",
        "name": "Pizza Haus",
        "cuisine": "pizza",
        "chain": "unknown"
      }
    },
    {
      "type": "Feature",
      "geometry": {
        "type": "Point",
        "coordinates": [
          19.4856168,
          40.4549242
        ]
      },
      "properties": {
        "id": 9153931195,
        "osm_type": "node",
        "name": "Rivieta",
        "chain": "unknown"
      }
    },
    {
      "type": "Feature",
      "geometry": {
        "type": "Point",
        "coordinates": [
          19.487834,
          40.4574175
        ]
      },
      "properties": {
        "id": 9153938236,
        "osm_type": "node",
        "name": "PitaFun",
        "chain": "unknown"
      }
    },
    {
      "type": "Feature",
      "geometry": {
        "type": "Point",
        "coordinates": [
          19.9613369,
          40.700311
        ]
      },
      "properties": {
        "id": 9153938274,
        "osm_type": "node",
        "chain": "unknown"
      }
    },
    {
      "type": "Feature",
      "geometry": {
        "type": "Point",
        "coordinates": [
          19.938782,
          40.7104988
        ]
      },
      "properties": {
        "id": 9153938493,
        "osm_type": "node",
        "chain": "unknown"
      }
    },
    {
      "type": "Feature",
      "geometry": {
        "type": "Point",
        "coordinates": [
          19.4969812,
          40.475403
        ]
      },
      "properties": {
        "id": 9153948039,
        "osm_type": "node",
        "chain": "unknown"
      }
    },
    {
      "type": "Feature",
      "geometry": {
        "type": "Point",
        "coordinates": [
          19.9522779,
          40.7046862
        ]
      },
      "properties": {
        "id": 9153949058,
        "osm_type": "node",
        "chain": "unknown"
      }
    },
    {
      "type": "Feature",
      "geometry": {
        "type": "Point",
        "coordinates": [
          19.9584159,
          40.7022319
        ]
      },
      "properties": {
        "id": 9153949068,
        "osm_type": "node",
        "chain": "unknown"
      }
    },
    {
      "type": "Feature",
      "geometry": {
        "type": "Point",
        "coordinates": [
          20.6589814,
          40.8986378
        ]
      },
      "properties": {
        "id": 9161308030,
        "osm_type": "node",
        "chain": "unknown"
      }
    },
    {
      "type": "Feature",
      "geometry": {
        "type": "Point",
        "coordinates": [
          20.6578063,
          40.9008921
        ]
      },
      "properties": {
        "id": 9161308423,
        "osm_type": "node",
        "name": "Pizza Benvenuto",
        "chain": "unknown"
      }
    },
    {
      "type": "Feature",
      "geometry": {
        "type": "Point",
        "coordinates": [
          20.6553039,
          40.9012906
        ]
      },
      "properties": {
        "id": 9161308427,
        "osm_type": "node",
        "chain": "unknown"
      }
    },
    {
      "type": "Feature",
      "geometry": {
        "type": "Point",
        "coordinates": [
          20.65793,
          40.9015195
        ]
      },
      "properties": {
        "id": 9161308534,
        "osm_type": "node",
        "name": "OMA Healthy Bar",
        "chain": "unknown"
      }
    },
    {
      "type": "Feature",
      "geometry": {
        "type": "Point",
        "coordinates": [
          20.7750041,
          40.619299
        ]
      },
      "properties": {
        "id": 9200216024,
        "osm_type": "node",
        "name": "Neli",
        "chain": "unknown"
      }
    },
    {
      "type": "Feature",
      "geometry": {
        "type": "Point",
        "coordinates": [
          20.3533054,
          40.2325558
        ]
      },
      "properties": {
        "id": 9200216141,
        "osm_type": "node",
        "chain": "unknown"
      }
    },
    {
      "type": "Feature",
      "geometry": {
        "type": "Point",
        "coordinates": [
          20.3553457,
          40.2321448
        ]
      },
      "properties": {
        "id": 9200216142,
        "osm_type": "node",
        "name": "Ana",
        "chain": "unknown"
      }
    },
    {
      "type": "Feature",
      "geometry": {
        "type": "Point",
        "coordinates": [
          20.7804466,
          40.6228669
        ]
      },
      "properties": {
        "id": 9200216528,
        "osm_type": "node",
        "name": "Tradita",
        "cuisine": "kebab;hot_dog;pizza;burger",
        "chain": "unknown"
      }
    },
    {
      "type": "Feature",
      "geometry": {
        "type": "Point",
        "coordinates": [
          19.825407,
          40.053086
        ]
      },
      "properties": {
        "id": 9282711672,
        "osm_type": "node",
        "name": "Fast food Ring",
        "chain": "unknown"
      }
    },
    {
      "type": "Feature",
      "geometry": {
        "type": "Point",
        "coordinates": [
          20.0068927,
          39.8736495
        ]
      },
      "properties": {
        "id": 9607618110,
        "osm_type": "node",
        "name": "2A Fast Food",
        "chain": "unknown"
      }
    },
    {
      "type": "Feature",
      "geometry": {
        "type": "Point",
        "coordinates": [
          20.0200983,
          40.2961206
        ]
      },
      "properties": {
        "id": 9798988422,
        "osm_type": "node",
        "cuisine": "kebab",
        "chain": "unknown"
      }
    },
    {
      "type": "Feature",
      "geometry": {
        "type": "Point",
        "coordinates": [
          20.0210264,
          40.2960553
        ]
      },
      "properties": {
        "id": 9798988467,
        "osm_type": "node",
        "name": "Fast Food Mr. Food",
        "cuisine": "kebab",
        "chain": "unknown"
      }
    },
    {
      "type": "Feature",
      "geometry": {
        "type": "Point",
        "coordinates": [
          20.6799045,
          40.3366961
        ]
      },
      "properties": {
        "id": 9819780798,
        "osm_type": "node",
        "name": "Joni",
        "cuisine": "barbecue",
        "chain": "unknown"
      }
    },
    {
      "type": "Feature",
      "geometry": {
        "type": "Point",
        "coordinates": [
          20.7780386,
          40.6178126
        ]
      },
      "properties": {
        "id": 9826047309,
        "osm_type": "node",
        "name": "Korça Food - Hallall",
        "phone": "+355 69 606 6636",
        "chain": "unknown"
      }
    },
    {
      "type": "Feature",
      "geometry": {
        "type": "Point",
        "coordinates": [
          20.774947,
          40.6178395
        ]
      },
      "properties": {
        "id": 9826051426,
        "osm_type": "node",
        "name": "Shija e Saçit",
        "chain": "unknown"
      }
    },
    {
      "type": "Feature",
      "geometry": {
        "type": "Point",
        "coordinates": [
          20.7740053,
          40.6235152
        ]
      },
      "properties": {
        "id": 9832809099,
        "osm_type": "node",
        "name": "Neli",
        "phone": "+355 69 455 3447",
        "cuisine": "kebab;burger",
        "chain": "unknown"
      }
    },
    {
      "type": "Feature",
      "geometry": {
        "type": "Point",
        "coordinates": [
          20.7743615,
          40.6218047
        ]
      },
      "properties": {
        "id": 9832822420,
        "osm_type": "node",
        "name": "Pandi",
        "chain": "unknown"
      }
    },
    {
      "type": "Feature",
      "geometry": {
        "type": "Point",
        "coordinates": [
          20.7837215,
          40.6121705
        ]
      },
      "properties": {
        "id": 9844769330,
        "osm_type": "node",
        "name": "Fast Food #1",
        "cuisine": "sandwich;burger;kebab;barbecue",
        "chain": "unknown"
      }
    },
    {
      "type": "Feature",
      "geometry": {
        "type": "Point",
        "coordinates": [
          20.9273755,
          40.5074284
        ]
      },
      "properties": {
        "id": 9856298729,
        "osm_type": "node",
        "chain": "unknown"
      }
    },
    {
      "type": "Feature",
      "geometry": {
        "type": "Point",
        "coordinates": [
          20.9853831,
          40.6246031
        ]
      },
      "properties": {
        "id": 9856408199,
        "osm_type": "node",
        "name": "Zgara Devollite",
        "chain": "unknown"
      }
    },
    {
      "type": "Feature",
      "geometry": {
        "type": "Point",
        "coordinates": [
          20.9858122,
          40.6265998
        ]
      },
      "properties": {
        "id": 9856408202,
        "osm_type": "node",
        "chain": "unknown"
      }
    },
    {
      "type": "Feature",
      "geometry": {
        "type": "Point",
        "coordinates": [
          20.9856852,
          40.6265629
        ]
      },
      "properties": {
        "id": 9856408203,
        "osm_type": "node",
        "chain": "unknown"
      }
    },
    {
      "type": "Feature",
      "geometry": {
        "type": "Point",
        "coordinates": [
          20.7765329,
          40.6110477
        ]
      },
      "properties": {
        "id": 9893625728,
        "osm_type": "node",
        "name": "Gjergji",
        "cuisine": "kebab;burger;chicken",
        "chain": "unknown"
      }
    },
    {
      "type": "Feature",
      "geometry": {
        "type": "Point",
        "coordinates": [
          20.1431113,
          40.0831036
        ]
      },
      "properties": {
        "id": 9943819037,
        "osm_type": "node",
        "name": "Fast Food Corner",
        "cuisine": "kebab",
        "chain": "unknown"
      }
    },
    {
      "type": "Feature",
      "geometry": {
        "type": "Point",
        "coordinates": [
          20.1388816,
          40.074939
        ]
      },
      "properties": {
        "id": 9945567809,
        "osm_type": "node",
        "chain": "unknown"
      }
    },
    {
      "type": "Feature",
      "geometry": {
        "type": "Point",
        "coordinates": [
          20.1387639,
          40.0742429
        ]
      },
      "properties": {
        "id": 9945572421,
        "osm_type": "node",
        "name": "Buffet Bazar",
        "cuisine": "crepe;sandwich",
        "chain": "unknown"
      }
    },
    {
      "type": "Feature",
      "geometry": {
        "type": "Point",
        "coordinates": [
          20.6578633,
          40.9014448
        ]
      },
      "properties": {
        "id": 9947112663,
        "osm_type": "node",
        "name": "Byrektore Lulushi",
        "cuisine": "albanian",
        "chain": "unknown"
      }
    },
    {
      "type": "Feature",
      "geometry": {
        "type": "Point",
        "coordinates": [
          20.6572373,
          40.9007598
        ]
      },
      "properties": {
        "id": 9947117097,
        "osm_type": "node",
        "name": "Byrektore Tetova",
        "cuisine": "albanian",
        "chain": "unknown"
      }
    },
    {
      "type": "Feature",
      "geometry": {
        "type": "Point",
        "coordinates": [
          20.0088053,
          39.8750436
        ]
      },
      "properties": {
        "id": 9954734752,
        "osm_type": "node",
        "name": "Le Amiche",
        "cuisine": "sandwich;pizza",
        "chain": "unknown"
      }
    },
    {
      "type": "Feature",
      "geometry": {
        "type": "Point",
        "coordinates": [
          20.7778592,
          40.6196915
        ]
      },
      "properties": {
        "id": 10118570749,
        "osm_type": "node",
        "name": "Byrek Tradicional",
        "phone": "+355 69 617 2463",
        "chain": "unknown"
      }
    },
    {
      "type": "Feature",
      "geometry": {
        "type": "Point",
        "coordinates": [
          20.7784198,
          40.6227513
        ]
      },
      "properties": {
        "id": 10118570776,
        "osm_type": "node",
        "name": "Pirro",
        "phone": "+355 69 215 3791",
        "cuisine": "chicken",
        "chain": "unknown"
      }
    },
    {
      "type": "Feature",
      "geometry": {
        "type": "Point",
        "coordinates": [
          20.7796714,
          40.6223067
        ]
      },
      "properties": {
        "id": 10118570785,
        "osm_type": "node",
        "name": "Llui",
        "opening_hours": "Mo-Su 10:00-22:00",
        "cuisine": "kebab",
        "chain": "unknown"
      }
    },
    {
      "type": "Feature",
      "geometry": {
        "type": "Point",
        "coordinates": [
          19.7458155,
          40.1017468
        ]
      },
      "properties": {
        "id": 10200925546,
        "osm_type": "node",
        "name": "Brothers Grill & Fast Food",
        "phone": "+355695399818",
        "chain": "unknown"
      }
    },
    {
      "type": "Feature",
      "geometry": {
        "type": "Point",
        "coordinates": [
          19.7455524,
          40.1029802
        ]
      },
      "properties": {
        "id": 11017601219,
        "osm_type": "node",
        "name": "Burbo",
        "chain": "unknown"
      }
    },
    {
      "type": "Feature",
      "geometry": {
        "type": "Point",
        "coordinates": [
          20.6890922,
          40.9002211
        ]
      },
      "properties": {
        "id": 11099767100,
        "osm_type": "node",
        "name": "Swiss Burger House",
        "chain": "unknown"
      }
    },
    {
      "type": "Feature",
      "geometry": {
        "type": "Point",
        "coordinates": [
          19.4064984,
          40.5176133
        ]
      },
      "properties": {
        "id": 11333213658,
        "osm_type": "node",
        "name": "Kantina",
        "chain": "unknown"
      }
    },
    {
      "type": "Feature",
      "geometry": {
        "type": "Point",
        "coordinates": [
          19.7435307,
          40.1030052
        ]
      },
      "properties": {
        "id": 11391550990,
        "osm_type": "node",
        "name": "Pizza and Burek",
        "chain": "unknown"
      }
    },
    {
      "type": "Feature",
      "geometry": {
        "type": "Point",
        "coordinates": [
          19.9956745,
          39.8737991
        ]
      },
      "properties": {
        "id": 11932710880,
        "osm_type": "node",
        "name": "Leo's",
        "cuisine": "kebab",
        "chain": "unknown"
      }
    },
    {
      "type": "Feature",
      "geometry": {
        "type": "Point",
        "coordinates": [
          20.6820567,
          40.3381157
        ]
      },
      "properties": {
        "id": 12004631331,
        "osm_type": "node",
        "cuisine": "regional",
        "chain": "unknown"
      }
    },
    {
      "type": "Feature",
      "geometry": {
        "type": "Point",
        "coordinates": [
          20.1380262,
          40.0741395
        ]
      },
      "properties": {
        "id": 12101209101,
        "osm_type": "node",
        "name": "Fast food Sara",
        "opening_hours": "Mo-Su 11:30-23:00",
        "cuisine": "burger;kebab;local;sandwich;turkish",
        "chain": "unknown"
      }
    },
    {
      "type": "Feature",
      "geometry": {
        "type": "Point",
        "coordinates": [
          20.6612944,
          40.9002092
        ]
      },
      "properties": {
        "id": 12119044801,
        "osm_type": "node",
        "name": "Los Pollos Hermanos",
        "chain": "unknown"
      }
    },
    {
      "type": "Feature",
      "geometry": {
        "type": "Point",
        "coordinates": [
          20.778583,
          40.6143478
        ]
      },
      "properties": {
        "id": 12121921701,
        "osm_type": "node",
        "phone": "+355 67 669 5455",
        "cuisine": "pizza;burger",
        "chain": "unknown"
      }
    },
    {
      "type": "Feature",
      "geometry": {
        "type": "Point",
        "coordinates": [
          19.7050881,
          40.9424117
        ]
      },
      "properties": {
        "id": 12188436463,
        "osm_type": "node",
        "name": "Berxolla Mish Quengji",
        "cuisine": "sandwich",
        "chain": "unknown"
      }
    },
    {
      "type": "Feature",
      "geometry": {
        "type": "Point",
        "coordinates": [
          19.7065518,
          40.9396166
        ]
      },
      "properties": {
        "id": 12188484997,
        "osm_type": "node",
        "name": "Fasst Food Luna Park",
        "chain": "unknown"
      }
    },
    {
      "type": "Feature",
      "geometry": {
        "type": "Point",
        "coordinates": [
          19.7043906,
          40.9414145
        ]
      },
      "properties": {
        "id": 12188496733,
        "osm_type": "node",
        "name": "Byrek",
        "chain": "unknown"
      }
    },
    {
      "type": "Feature",
      "geometry": {
        "type": "Point",
        "coordinates": [
          19.7052079,
          40.942675
        ]
      },
      "properties": {
        "id": 12188500025,
        "osm_type": "node",
        "chain": "unknown"
      }
    },
    {
      "type": "Feature",
      "geometry": {
        "type": "Point",
        "coordinates": [
          19.4956098,
          40.4421412
        ]
      },
      "properties": {
        "id": 12641053509,
        "osm_type": "node",
        "name": "Burger King",
        "brand": "Burger King",
        "brand:wikidata": "Q177054",
        "cuisine": "burger",
        "chain": "burger_king"
      }
    },
    {
      "type": "Feature",
      "geometry": {
        "type": "Point",
        "coordinates": [
          20.7744873,
          40.6175099
        ]
      },
      "properties": {
        "id": 12782165571,
        "osm_type": "node",
        "name": "O Vangos",
        "cuisine": "barbecue",
        "chain": "unknown"
      }
    },
    {
      "type": "Feature",
      "geometry": {
        "type": "Point",
        "coordinates": [
          19.5964995,
          40.1716828
        ]
      },
      "properties": {
        "id": 12812418394,
        "osm_type": "node",
        "name": "Heb's",
        "opening_hours": "Mo-Su 10:00-02:00",
        "phone": "+355697111611",
        "website": "https://hebsfriedchicken.com/al",
        "cuisine": "coffee_shop;fast_food;chicken;fried_chicken;wings;sandwich;dessert;burger",
        "chain": "unknown"
      }
    },
    {
      "type": "Feature",
      "geometry": {
        "type": "Point",
        "coordinates": [
          20.7759869,
          40.6166059
        ]
      },
      "properties": {
        "id": 12899664023,
        "osm_type": "node",
        "name": "Coffee & Grill House",
        "cuisine": "chicken;kebab",
        "chain": "unknown"
      }
    },
    {
      "type": "Feature",
      "geometry": {
        "type": "Point",
        "coordinates": [
          20.7761606,
          40.6164912
        ]
      },
      "properties": {
        "id": 12899664025,
        "osm_type": "node",
        "cuisine": "chicken;kebab",
        "chain": "unknown"
      }
    },
    {
      "type": "Feature",
      "geometry": {
        "type": "Point",
        "coordinates": [
          21.0489198,
          40.6227339
        ]
      },
      "properties": {
        "id": 12903118237,
        "osm_type": "node",
        "cuisine": "burger;kebab",
        "chain": "unknown"
      }
    },
    {
      "type": "Feature",
      "geometry": {
        "type": "Point",
        "coordinates": [
          19.5560644,
          40.7225217
        ]
      },
      "properties": {
        "id": 12905992301,
        "osm_type": "node",
        "name": "Streed Food S.O.A.",
        "cuisine": "burger;greek;hotdog;sandwich",
        "chain": "unknown"
      }
    },
    {
      "type": "Feature",
      "geometry": {
        "type": "Point",
        "coordinates": [
          20.7778526,
          40.6206574
        ]
      },
      "properties": {
        "id": 12966982974,
        "osm_type": "node",
        "name": "Te Zgara",
        "phone": "+355 69 203 1454",
        "cuisine": "kebab",
        "chain": "unknown"
      }
    },
    {
      "type": "Feature",
      "geometry": {
        "type": "Point",
        "coordinates": [
          20.773012,
          40.6235735
        ]
      },
      "properties": {
        "id": 12967141517,
        "osm_type": "node",
        "name": "Grill Station",
        "cuisine": "kebab",
        "chain": "unknown"
      }
    },
    {
      "type": "Feature",
      "geometry": {
        "type": "Point",
        "coordinates": [
          20.0098617,
          39.8737375
        ]
      },
      "properties": {
        "id": 13201228521,
        "osm_type": "node",
        "name": "Nasto's",
        "chain": "unknown"
      }
    },
    {
      "type": "Feature",
      "geometry": {
        "type": "Point",
        "coordinates": [
          20.0091307,
          39.8741717
        ]
      },
      "properties": {
        "id": 13201234229,
        "osm_type": "node",
        "name": "Burger King",
        "chain": "burger_king"
      }
    },
    {
      "type": "Feature",
      "geometry": {
        "type": "Point",
        "coordinates": [
          19.7460808,
          40.101885
        ]
      },
      "properties": {
        "id": 13249911933,
        "osm_type": "node",
        "name": "Meraklis",
        "chain": "unknown"
      }
    },
    {
      "type": "Feature",
      "geometry": {
        "type": "Point",
        "coordinates": [
          19.9435247,
          40.7248225
        ]
      },
      "properties": {
        "id": 405165690,
        "osm_type": "way",
        "chain": "unknown"
      }
    },
    {
      "type": "Feature",
      "geometry": {
        "type": "Point",
        "coordinates": [
          20.0030743,
          39.768403
        ]
      },
      "properties": {
        "id": 436201861,
        "osm_type": "way",
        "chain": "unknown"
      }
    },
    {
      "type": "Feature",
      "geometry": {
        "type": "Point",
        "coordinates": [
          20.0043754,
          39.7722174
        ]
      },
      "properties": {
        "id": 437119578,
        "osm_type": "way",
        "name": "Fast Food Beshiku",
        "chain": "unknown"
      }
    },
    {
      "type": "Feature",
      "geometry": {
        "type": "Point",
        "coordinates": [
          20.0050333,
          39.7741623
        ]
      },
      "properties": {
        "id": 437127350,
        "osm_type": "way",
        "name": "Fast Food Ksamili",
        "chain": "unknown"
      }
    },
    {
      "type": "Feature",
      "geometry": {
        "type": "Point",
        "coordinates": [
          20.0042223,
          39.7727467
        ]
      },
      "properties": {
        "id": 437127358,
        "osm_type": "way",
        "name": "4 Valletaret",
        "chain": "unknown"
      }
    },
    {
      "type": "Feature",
      "geometry": {
        "type": "Point",
        "coordinates": [
          19.7356143,
          40.6007889
        ]
      },
      "properties": {
        "id": 1049133271,
        "osm_type": "way",
        "chain": "unknown"
      }
    },
    {
      "type": "Feature",
      "geometry": {
        "type": "Point",
        "coordinates": [
          20.2256722,
          40.5040915
        ]
      },
      "properties": {
        "id": 1271439111,
        "osm_type": "way",
        "name": "Zgara Korcare",
        "chain": "unknown"
      }
    }
  ]
}