{
  "type": "FeatureCollection",
  "features": [
    {
      "type": "Feature",
      "geometry": {
        "type": "Point",
        "coordinates": [
          36.0967963,
          37.3710724
        ]
      },
      "properties": {
        "id": 3860328516,
        "osm_type": "node",
        "name": "BİM",
        "brand": "BİM",
        "opening_hours": "Mo-Su 09:00-21:00"
      }
    },
    {
      "type": "Feature",
      "geometry": {
        "type": "Point",
        "coordinates": [
          36.1013453,
          37.3707518
        ]
      },
      "properties": {
        "id": 3860328517,
        "osm_type": "node",
        "name": "BİM",
        "brand": "BİM",
        "opening_hours": "Mo-Su 09:00-21:00"
      }
    },
    {
      "type": "Feature",
      "geometry": {
        "type": "Point",
        "coordinates": [
          36.2440625,
          37.0761309
        ]
      },
      "properties": {
        "id": 3914578096,
        "osm_type": "node",
        "name": "Şok",
        "brand": "Şok"
      }
    },
    {
      "type": "Feature",
      "geometry": {
        "type": "Point",
        "coordinates": [
          36.2372669,
          37.0605017
        ]
      },
      "properties": {
        "id": 4069731962,
        "osm_type": "node",
        "name": "BİM",
        "brand": "BİM",
        "opening_hours": "Mo-Su 09:00-21:00"
      }
    },
    {
      "type": "Feature",
      "geometry": {
        "type": "Point",
        "coordinates": [
          36.254322,
          37.073912
        ]
      },
      "properties": {
        "id": 4457971189,
        "osm_type": "node",
        "name": "BİM",
        "brand": "BİM",
        "opening_hours": "Mo-Su 09:00-21:00"
      }
    },
    {
      "type": "Feature",
      "geometry": {
        "type": "Point",
        "coordinates": [
          36.4580444,
          37.2495836
        ]
      },
      "properties": {
        "id": 4858047121,
        "osm_type": "node",
        "name": "A101",
        "brand": "A101",
        "opening_hours": "Mo-Su 09:00-21:30"
      }
    },
    {
      "type": "Feature",
      "geometry": {
        "type": "Point",
        "coordinates": [
          36.457963,
          37.2493693
        ]
      },
      "properties": {
        "id": 4858191926,
        "osm_type": "node",
        "name": "BİM",
        "brand": "BİM",
        "opening_hours": "Mo-Su 09:00-21:00"
      }
    },
    {
      "type": "Feature",
      "geometry": {
        "type": "Point",
        "coordinates": [
          36.4634009,
          37.2494188
        ]
      },
      "properties": {
        "id": 4858212723,
        "osm_type": "node",
        "name": "D3 AVM"
      }
    },
    {
      "type": "Feature",
      "geometry": {
        "type": "Point",
        "coordinates": [
          36.4513478,
          37.2385004
        ]
      },
      "properties": {
        "id": 5583884723,
        "osm_type": "node",
        "name": "BİM",
        "brand": "BİM",
        "opening_hours": "Mo-Su 09:00-21:00"
      }
    },
    {
      "type": "Feature",
      "geometry": {
        "type": "Point",
        "coordinates": [
          36.2618707,
          37.0807359
        ]
      },
      "properties": {
        "id": 5583884724,
        "osm_type": "node",
        "name": "BİM",
        "brand": "BİM",
        "opening_hours": "Mo-Su 09:00-21:00"
      }
    },
    {
      "type": "Feature",
      "geometry": {
        "type": "Point",
        "coordinates": [
          36.25219,
          37.0813715
        ]
      },
      "properties": {
        "id": 5583884725,
        "osm_type": "node",
        "name": "A101",
        "brand": "A101",
        "opening_hours": "Mo-Su 09:00-21:30"
      }
    },
    {
      "type": "Feature",
      "geometry": {
        "type": "Point",
        "coordinates": [
          36.2522327,
          37.0810438
        ]
      },
      "properties": {
        "id": 5583884726,
        "osm_type": "node",
        "name": "BİM",
        "brand": "BİM",
        "opening_hours": "Mo-Su 09:00-21:00"
      }
    },
    {
      "type": "Feature",
      "geometry": {
        "type": "Point",
        "coordinates": [
          36.2591203,
          37.0742308
        ]
      },
      "properties": {
        "id": 7623274216,
        "osm_type": "node",
        "name": "Şok",
        "brand": "Şok"
      }
    },
    {
      "type": "Feature",
      "geometry": {
        "type": "Point",
        "coordinates": [
          36.257333,
          37.0745127
        ]
      },
      "properties": {
        "id": 7623274218,
        "osm_type": "node",
        "name": "Turkuaz"
      }
    },
    {
      "type": "Feature",
      "geometry": {
        "type": "Point",
        "coordinates": [
          36.4618158,
          37.2443592
        ]
      },
      "properties": {
        "id": 7626849751,
        "osm_type": "node",
        "name": "Elif Market"
      }
    },
    {
      "type": "Feature",
      "geometry": {
        "type": "Point",
        "coordinates": [
          36.2575065,
          37.0786646
        ]
      },
      "properties": {
        "id": 7920971830,
        "osm_type": "node",
        "name": "Şok",
        "brand": "Şok"
      }
    },
    {
      "type": "Feature",
      "geometry": {
        "type": "Point",
        "coordinates": [
          36.2511436,
          37.0770154
        ]
      },
      "properties": {
        "id": 7920978211,
        "osm_type": "node",
        "name": "Migros",
        "brand": "Migros"
      }
    },
    {
      "type": "Feature",
      "geometry": {
        "type": "Point",
        "coordinates": [
          36.2504409,
          37.0666198
        ]
      },
      "properties": {
        "id": 7920994038,
        "osm_type": "node",
        "name": "Şok",
        "brand": "Şok"
      }
    },
    {
      "type": "Feature",
      "geometry": {
        "type": "Point",
        "coordinates": [
          36.1399773,
          37.0748833
        ]
      },
      "properties": {
        "id": 7923650809,
        "osm_type": "node",
        "name": "BİM",
        "brand": "BİM",
        "opening_hours": "Mo-Su 09:00-21:00"
      }
    },
    {
      "type": "Feature",
      "geometry": {
        "type": "Point",
        "coordinates": [
          36.0950003,
          37.365126
        ]
      },
      "properties": {
        "id": 7936549036,
        "osm_type": "node",
        "name": "A101",
        "brand": "A101",
        "opening_hours": "Mo-Su 09:00-21:30"
      }
    },
    {
      "type": "Feature",
      "geometry": {
        "type": "Point",
        "coordinates": [
          36.2429648,
          37.0675118
        ]
      },
      "properties": {
        "id": 10708338290,
        "osm_type": "node",
        "name": "Torunoglu Market"
      }
    },
    {
      "type": "Feature",
      "geometry": {
        "type": "Point",
        "coordinates": [
          36.0787475,
          37.3639816
        ]
      },
      "properties": {
        "id": 10708607911,
        "osm_type": "node",
        "name": "BİM",
        "brand": "BİM",
        "opening_hours": "Mo-Su 09:00-21:00"
      }
    },
    {
      "type": "Feature",
      "geometry": {
        "type": "Point",
        "coordinates": [
          36.0952941,
          37.3691446
        ]
      },
      "properties": {
        "id": 10708609247,
        "osm_type": "node",
        "name": "BİM",
        "brand": "BİM",
        "opening_hours": "Mo-Su 09:00-21:00"
      }
    },
    {
      "type": "Feature",
      "geometry": {
        "type": "Point",
        "coordinates": [
          36.2424785,
          37.0646465
        ]
      },
      "properties": {
        "id": 10732867702,
        "osm_type": "node",
        "name": "Şok",
        "brand": "Şok"
      }
    },
    {
      "type": "Feature",
      "geometry": {
        "type": "Point",
        "coordinates": [
          36.2409894,
          37.0590225
        ]
      },
      "properties": {
        "id": 10732890566,
        "osm_type": "node",
        "name": "BİM",
        "brand": "BİM",
        "opening_hours": "Mo-Su 09:00-21:00"
      }
    },
    {
      "type": "Feature",
      "geometry": {
        "type": "Point",
        "coordinates": [
          36.2415812,
          37.064654
        ]
      },
      "properties": {
        "id": 10732904404,
        "osm_type": "node",
        "name": "BİM",
        "brand": "BİM",
        "opening_hours": "Mo-Su 09:00-21:00"
      }
    },
    {
      "type": "Feature",
      "geometry": {
        "type": "Point",
        "coordinates": [
          36.4544391,
          37.2396643
        ]
      },
      "properties": {
        "id": 10752618589,
        "osm_type": "node",
        "name": "Şok",
        "brand": "Şok"
      }
    },
    {
      "type": "Feature",
      "geometry": {
        "type": "Point",
        "coordinates": [
          36.4594509,
          37.239844
        ]
      },
      "properties": {
        "id": 10757307462,
        "osm_type": "node",
        "name": "Fettahoglu Market"
      }
    },
    {
      "type": "Feature",
      "geometry": {
        "type": "Point",
        "coordinates": [
          36.2483677,
          37.0621528
        ]
      },
      "properties": {
        "id": 10770040899,
        "osm_type": "node",
        "name": "BİM",
        "brand": "BİM",
        "opening_hours": "Mo-Su 09:00-21:00"
      }
    },
    {
      "type": "Feature",
      "geometry": {
        "type": "Point",
        "coordinates": [
          36.2456936,
          37.059319
        ]
      },
      "properties": {
        "id": 10770166062,
        "osm_type": "node",
        "name": "BİM",
        "brand": "BİM",
        "opening_hours": "Mo-Su 09:00-21:00"
      }
    },
    {
      "type": "Feature",
      "geometry": {
        "type": "Point",
        "coordinates": [
          36.2429007,
          37.0629282
        ]
      },
      "properties": {
        "id": 10771719118,
        "osm_type": "node",
        "name": "Ay Market",
        "opening_hours": "Mo-Su 06:30-20:00"
      }
    },
    {
      "type": "Feature",
      "geometry": {
        "type": "Point",
        "coordinates": [
          36.2339332,
          37.0639972
        ]
      },
      "properties": {
        "id": 10771800280,
        "osm_type": "node",
        "name": "MM Migros",
        "opening_hours": "Mo-Su 10:00-22:00"
      }
    },
    {
      "type": "Feature",
      "geometry": {
        "type": "Point",
        "coordinates": [
          36.2455676,
          37.0700191
        ]
      },
      "properties": {
        "id": 10771810802,
        "osm_type": "node",
        "name": "A101",
        "brand": "A101",
        "opening_hours": "Mo-Su 09:00-21:30"
      }
    },
    {
      "type": "Feature",
      "geometry": {
        "type": "Point",
        "coordinates": [
          36.2524609,
          37.07096
        ]
      },
      "properties": {
        "id": 10771821297,
        "osm_type": "node",
        "name": "A101",
        "brand": "A101",
        "opening_hours": "Mo-Su 09:00-21:30"
      }
    },
    {
      "type": "Feature",
      "geometry": {
        "type": "Point",
        "coordinates": [
          36.2604621,
          37.0876113
        ]
      },
      "properties": {
        "id": 10961009413,
        "osm_type": "node",
        "name": "Yayla Market"
      }
    },
    {
      "type": "Feature",
      "geometry": {
        "type": "Point",
        "coordinates": [
          36.1762914,
          37.213012
        ]
      },
      "properties": {
        "id": 10973216582,
        "osm_type": "node"
      }
    },
    {
      "type": "Feature",
      "geometry": {
        "type": "Point",
        "coordinates": [
          36.2537751,
          37.0774065
        ]
      },
      "properties": {
        "id": 10980046180,
        "osm_type": "node",
        "name": "shop = supermarket  name = Mizan Tavukculuk ve Market  phone = +903288129414  addr:district = Osmaniye  note = Mehmet Şahin Bulv. No: 294  source = SafeGraph  check_date = 2023-02-12  fixme = resurvey after recovery"
      }
    },
    {
      "type": "Feature",
      "geometry": {
        "type": "Point",
        "coordinates": [
          36.4655491,
          37.2513726
        ]
      },
      "properties": {
        "id": 11377647869,
        "osm_type": "node",
        "name": "Migros",
        "brand": "Migros"
      }
    },
    {
      "type": "Feature",
      "geometry": {
        "type": "Point",
        "coordinates": [
          36.1098683,
          37.36687
        ]
      },
      "properties": {
        "id": 12201413269,
        "osm_type": "node",
        "name": "BİM",
        "brand": "BİM",
        "opening_hours": "Mo-Su 09:00-21:00"
      }
    },
    {
      "type": "Feature",
      "geometry": {
        "type": "Point",
        "coordinates": [
          36.2547231,
          37.0644031
        ]
      },
      "properties": {
        "id": 12439470127,
        "osm_type": "node",
        "name": "BİM",
        "brand": "BİM",
        "opening_hours": "Mo-Su 09:00-21:00"
      }
    },
    {
      "type": "Feature",
      "geometry": {
        "type": "Point",
        "coordinates": [
          36.1461167,
          37.0670395
        ]
      },
      "properties": {
        "id": 12740982984,
        "osm_type": "node",
        "name": "A101",
        "brand": "A101"
      }
    },
    {
      "type": "Feature",
      "geometry": {
        "type": "Point",
        "coordinates": [
          36.1463885,
          37.066904
        ]
      },
      "properties": {
        "id": 12740982985,
        "osm_type": "node",
        "name": "Türkiye Tarım Kredi Kooperatif Market",
        "brand": "Türkiye Tarım Kredi Kooperatif Market"
      }
    },
    {
      "type": "Feature",
      "geometry": {
        "type": "Point",
        "coordinates": [
          36.1065234,
          37.3684457
        ]
      },
      "properties": {
        "id": 12803855285,
        "osm_type": "node",
        "name": "A101",
        "brand": "A101"
      }
    },
    {
      "type": "Feature",
      "geometry": {
        "type": "Point",
        "coordinates": [
          36.2393688,
          37.0624844
        ]
      },
      "properties": {
        "id": 404700981,
        "osm_type": "way",
        "name": "Yalçın Market"
      }
    },
    {
      "type": "Feature",
      "geometry": {
        "type": "Point",
        "coordinates": [
          36.2522296,
          37.0710775
        ]
      },
      "properties": {
        "id": 1158279629,
        "osm_type": "way",
        "name": "Şok",
        "brand": "Şok",
        "opening_hours": "Mo-Su 09:00-21:30"
      }
    },
    {
      "type": "Feature",
      "geometry": {
        "type": "Point",
        "coordinates": [
          36.2529259,
          37.0723903
        ]
      },
      "properties": {
        "id": 1158281455,
        "osm_type": "way",
        "name": "Şok",
        "brand": "Şok",
        "opening_hours": "Mo-Su 09:00-21:00"
      }
    }
  ]
}