{
  "type": "FeatureCollection",
  "features": [
    {
      "type": "Feature",
      "geometry": {
        "type": "Point",
        "coordinates": [
          8.4405965,
          47.1407288
        ]
      },
      "properties": {
        "id": 4095716098,
        "osm_type": "node",
        "name": "BEBECO",
        "brand": "BEBECO",
        "opening_hours": "Mo-Fr 07:30-11:45,13:30-16:45"
      }
    },
    {
      "type": "Feature",
      "geometry": {
        "type": "Point",
        "coordinates": [
          8.4317033,
          47.1790298
        ]
      },
      "properties": {
        "id": 299363864,
        "osm_type": "node",
        "name": "Agrola",
        "brand": "Agrola"
      }
    },
    {
      "type": "Feature",
      "geometry": {
        "type": "Point",
        "coordinates": [
          8.4338162,
          47.1795921
        ]
      },
      "properties": {
        "id": 299364634,
        "osm_type": "node",
        "name": "AutoSuter",
        "brand": "Shell",
        "opening_hours": "PH; Mo-Fr 06:00-21:00; Sa-Su 07:00-21:00"
      }
    },
    {
      "type": "Feature",
      "geometry": {
        "type": "Point",
        "coordinates": [
          8.4341059,
          47.1964661
        ]
      },
      "properties": {
        "id": 257282729,
        "osm_type": "node",
        "brand": "Avia"
      }
    },
    {
      "type": "Feature",
      "geometry": {
        "type": "Point",
        "coordinates": [
          8.4350498,
          47.196558
        ]
      },
      "properties": {
        "id": 8897803330,
        "osm_type": "node",
        "name": "BP",
        "brand": "BP"
      }
    },
    {
      "type": "Feature",
      "geometry": {
        "type": "Point",
        "coordinates": [
          8.451709,
          47.1758326
        ]
      },
      "properties": {
        "id": 321679040,
        "osm_type": "node"
      }
    },
    {
      "type": "Feature",
      "geometry": {
        "type": "Point",
        "coordinates": [
          8.454374,
          47.1857372
        ]
      },
      "properties": {
        "id": 286059665,
        "osm_type": "node",
        "brand": "BP",
        "opening_hours": "24/7"
      }
    },
    {
      "type": "Feature",
      "geometry": {
        "type": "Point",
        "coordinates": [
          8.4733743,
          47.1869418
        ]
      },
      "properties": {
        "id": 1817527603,
        "osm_type": "node",
        "name": "Migrol Tankstelle AMAG Cham",
        "brand": "Migrol",
        "opening_hours": "24/7"
      }
    },
    {
      "type": "Feature",
      "geometry": {
        "type": "Point",
        "coordinates": [
          8.4753869,
          47.1866245
        ]
      },
      "properties": {
        "id": 599765353,
        "osm_type": "node",
        "name": "Coop",
        "brand": "Coop"
      }
    },
    {
      "type": "Feature",
      "geometry": {
        "type": "Point",
        "coordinates": [
          8.4738992,
          47.1885284
        ]
      },
      "properties": {
        "id": 3836514597,
        "osm_type": "node",
        "brand": "Agip"
      }
    },
    {
      "type": "Feature",
      "geometry": {
        "type": "Point",
        "coordinates": [
          8.4840529,
          47.1824852
        ]
      },
      "properties": {
        "id": 1816824536,
        "osm_type": "node",
        "name": "Migrol Service Zug",
        "brand": "Migrol",
        "opening_hours": "Mo-Su 06:00-23:00"
      }
    },
    {
      "type": "Feature",
      "geometry": {
        "type": "Point",
        "coordinates": [
          8.4843391,
          47.1825095
        ]
      },
      "properties": {
        "id": 1816824547,
        "osm_type": "node",
        "name": "WWZ",
        "opening_hours": "Mo-Su 06:00-23:00"
      }
    },
    {
      "type": "Feature",
      "geometry": {
        "type": "Point",
        "coordinates": [
          8.4766899,
          47.190787
        ]
      },
      "properties": {
        "id": 4970198222,
        "osm_type": "node",
        "name": "Migrol Service Steinhausen",
        "brand": "Migrol",
        "opening_hours": "24/7"
      }
    },
    {
      "type": "Feature",
      "geometry": {
        "type": "Point",
        "coordinates": [
          8.4882368,
          47.1921608
        ]
      },
      "properties": {
        "id": 1819439499,
        "osm_type": "node",
        "name": "Landi"
      }
    },
    {
      "type": "Feature",
      "geometry": {
        "type": "Point",
        "coordinates": [
          8.4810829,
          47.1966126
        ]
      },
      "properties": {
        "id": 339957313,
        "osm_type": "node",
        "name": "Avia",
        "brand": "AVIA",
        "opening_hours": "24/7"
      }
    },
    {
      "type": "Feature",
      "geometry": {
        "type": "Point",
        "coordinates": [
          8.5066809,
          47.1477077
        ]
      },
      "properties": {
        "id": 6052931654,
        "osm_type": "node",
        "brand": "AVIA",
        "opening_hours": "24/7"
      }
    },
    {
      "type": "Feature",
      "geometry": {
        "type": "Point",
        "coordinates": [
          8.5800107,
          47.1376627
        ]
      },
      "properties": {
        "id": 666391084,
        "osm_type": "node",
        "name": "BP",
        "brand": "BP"
      }
    },
    {
      "type": "Feature",
      "geometry": {
        "type": "Point",
        "coordinates": [
          8.5109711,
          47.1721081
        ]
      },
      "properties": {
        "id": 5924411446,
        "osm_type": "node",
        "name": "Socar",
        "brand": "SOCAR"
      }
    },
    {
      "type": "Feature",
      "geometry": {
        "type": "Point",
        "coordinates": [
          8.5245412,
          47.1826527
        ]
      },
      "properties": {
        "id": 612768908,
        "osm_type": "node",
        "name": "Agrola",
        "brand": "Agrola",
        "opening_hours": "PH,Mo-Su 00:00-24:00"
      }
    },
    {
      "type": "Feature",
      "geometry": {
        "type": "Point",
        "coordinates": [
          8.5209067,
          47.1858117
        ]
      },
      "properties": {
        "id": 324648649,
        "osm_type": "node",
        "name": "Migrol Service Baar",
        "brand": "Migrol",
        "opening_hours": "Mo-Fr 06:30-20:00; Sa 07:00-20:00"
      }
    },
    {
      "type": "Feature",
      "geometry": {
        "type": "Point",
        "coordinates": [
          8.5228027,
          47.1915585
        ]
      },
      "properties": {
        "id": 1816824579,
        "osm_type": "node",
        "name": "Avia",
        "brand": "Avia",
        "opening_hours": "PH,Mo-Su 00:00-23:59+"
      }
    },
    {
      "type": "Feature",
      "geometry": {
        "type": "Point",
        "coordinates": [
          8.5294199,
          47.1969578
        ]
      },
      "properties": {
        "id": 3096177968,
        "osm_type": "node",
        "name": "AGROLA Tankstelle Baar",
        "brand": "Agrola"
      }
    },
    {
      "type": "Feature",
      "geometry": {
        "type": "Point",
        "coordinates": [
          8.5298839,
          47.1965856
        ]
      },
      "properties": {
        "id": 4969901431,
        "osm_type": "node",
        "name": "Avia",
        "brand": "Avia"
      }
    },
    {
      "type": "Feature",
      "geometry": {
        "type": "Point",
        "coordinates": [
          8.5599052,
          47.1546449
        ]
      },
      "properties": {
        "id": 340381113,
        "osm_type": "node",
        "name": "Migrol Tankstelle Schmidtli",
        "brand": "Migrol",
        "opening_hours": "24/7"
      }
    },
    {
      "type": "Feature",
      "geometry": {
        "type": "Point",
        "coordinates": [
          8.5919977,
          47.1779326
        ]
      },
      "properties": {
        "id": 10875228533,
        "osm_type": "node",
        "brand": "Agrola"
      }
    },
    {
      "type": "Feature",
      "geometry": {
        "type": "Point",
        "coordinates": [
          8.5736624,
          47.1994085
        ]
      },
      "properties": {
        "id": 102728438,
        "osm_type": "node"
      }
    },
    {
      "type": "Feature",
      "geometry": {
        "type": "Point",
        "coordinates": [
          8.6087761,
          47.1359348
        ]
      },
      "properties": {
        "id": 2471120934,
        "osm_type": "node",
        "name": "Tamoil",
        "brand": "Tamoil"
      }
    },
    {
      "type": "Feature",
      "geometry": {
        "type": "Point",
        "coordinates": [
          8.5763211,
          47.2169721
        ]
      },
      "properties": {
        "id": 102726613,
        "osm_type": "node",
        "name": "Migrol Service Sihlbrugg",
        "brand": "Migrol"
      }
    },
    {
      "type": "Feature",
      "geometry": {
        "type": "Point",
        "coordinates": [
          8.573721,
          47.2158393
        ]
      },
      "properties": {
        "id": 421981859,
        "osm_type": "node",
        "name": "Coop",
        "brand": "Coop"
      }
    },
    {
      "type": "Feature",
      "geometry": {
        "type": "Point",
        "coordinates": [
          8.5762619,
          47.2165237
        ]
      },
      "properties": {
        "id": 3660847528,
        "osm_type": "node",
        "name": "Shell Sihlbrugg",
        "brand": "Shell",
        "opening_hours": "24/7"
      }
    },
    {
      "type": "Feature",
      "geometry": {
        "type": "Point",
        "coordinates": [
          8.5180092,
          47.0956901
        ]
      },
      "properties": {
        "id": 1329335084,
        "osm_type": "way",
        "name": "BP Walchwil",
        "brand": "BP",
        "opening_hours": "24/7"
      }
    },
    {
      "type": "Feature",
      "geometry": {
        "type": "Point",
        "coordinates": [
          8.4344829,
          47.1477958
        ]
      },
      "properties": {
        "id": 1332935752,
        "osm_type": "way",
        "name": "Shell Rotkreuz",
        "brand": "Shell"
      }
    },
    {
      "type": "Feature",
      "geometry": {
        "type": "Point",
        "coordinates": [
          8.4340462,
          47.1478686
        ]
      },
      "properties": {
        "id": 255018056,
        "osm_type": "way",
        "name": "Coop",
        "brand": "Coop",
        "opening_hours": "24/7"
      }
    },
    {
      "type": "Feature",
      "geometry": {
        "type": "Point",
        "coordinates": [
          8.4318547,
          47.1455552
        ]
      },
      "properties": {
        "id": 1332935736,
        "osm_type": "way",
        "name": "BP - Garage Wismer",
        "brand": "BP",
        "opening_hours": "24/7"
      }
    },
    {
      "type": "Feature",
      "geometry": {
        "type": "Point",
        "coordinates": [
          8.4718052,
          47.1826444
        ]
      },
      "properties": {
        "id": 273175303,
        "osm_type": "way",
        "name": "Shell Cham",
        "brand": "Shell"
      }
    },
    {
      "type": "Feature",
      "geometry": {
        "type": "Point",
        "coordinates": [
          8.5734027,
          47.1398373
        ]
      },
      "properties": {
        "id": 386817451,
        "osm_type": "way",
        "name": "Avia",
        "brand": "Avia"
      }
    },
    {
      "type": "Feature",
      "geometry": {
        "type": "Point",
        "coordinates": [
          8.5200989,
          47.1848597
        ]
      },
      "properties": {
        "id": 791049106,
        "osm_type": "way",
        "name": "Coop",
        "brand": "Coop"
      }
    },
    {
      "type": "Feature",
      "geometry": {
        "type": "Point",
        "coordinates": [
          8.5204464,
          47.185698
        ]
      },
      "properties": {
        "id": 1347778853,
        "osm_type": "way",
        "name": "BP",
        "brand": "BP"
      }
    },
    {
      "type": "Feature",
      "geometry": {
        "type": "Point",
        "coordinates": [
          8.5394922,
          47.1972679
        ]
      },
      "properties": {
        "id": 54677026,
        "osm_type": "way",
        "name": "Shell",
        "brand": "Shell",
        "opening_hours": "Mo-Su,PH 00:00-23:59+"
      }
    },
    {
      "type": "Feature",
      "geometry": {
        "type": "Point",
        "coordinates": [
          8.5716953,
          47.1947962
        ]
      },
      "properties": {
        "id": 255381747,
        "osm_type": "way",
        "name": "avia",
        "opening_hours": "PH,Mo-Su 00:00-23:59+"
      }
    }
  ]
}