{
  "type": "FeatureCollection",
  "features": [
    {
      "type": "Feature",
      "geometry": {
        "type": "Point",
        "coordinates": [
          20.6067242,
          45.5079101
        ]
      },
      "properties": {
        "id": 1943327972,
        "osm_type": "node"
      }
    },
    {
      "type": "Feature",
      "geometry": {
        "type": "Point",
        "coordinates": [
          20.369128,
          45.3803679
        ]
      },
      "properties": {
        "id": 2940789501,
        "osm_type": "node"
      }
    },
    {
      "type": "Feature",
      "geometry": {
        "type": "Point",
        "coordinates": [
          20.4569514,
          45.295002
        ]
      },
      "properties": {
        "id": 6649737082,
        "osm_type": "node"
      }
    },
    {
      "type": "Feature",
      "geometry": {
        "type": "Point",
        "coordinates": [
          20.4166721,
          45.2818557
        ]
      },
      "properties": {
        "id": 8667977783,
        "osm_type": "node"
      }
    },
    {
      "type": "Feature",
      "geometry": {
        "type": "Point",
        "coordinates": [
          20.6614168,
          45.3647157
        ]
      },
      "properties": {
        "id": 11964284869,
        "osm_type": "node"
      }
    }
  ]
}