{
  "type": "FeatureCollection",
  "features": [
    {
      "type": "Feature",
      "geometry": {
        "type": "Point",
        "coordinates": [
          20.316055,
          45.5169803
        ]
      },
      "properties": {
        "id": 4491370389,
        "osm_type": "node",
        "name": "Брза храна Боб",
        "chain": "unknown"
      }
    },
    {
      "type": "Feature",
      "geometry": {
        "type": "Point",
        "coordinates": [
          20.397189,
          45.3803977
        ]
      },
      "properties": {
        "id": 5845059485,
        "osm_type": "node",
        "name": "Arena",
        "chain": "unknown"
      }
    },
    {
      "type": "Feature",
      "geometry": {
        "type": "Point",
        "coordinates": [
          20.4537025,
          45.3142052
        ]
      },
      "properties": {
        "id": 6461789421,
        "osm_type": "node",
        "name": "Банат у срцу",
        "cuisine": "regional",
        "chain": "unknown"
      }
    },
    {
      "type": "Feature",
      "geometry": {
        "type": "Point",
        "coordinates": [
          20.4508035,
          45.2998057
        ]
      },
      "properties": {
        "id": 6461895352,
        "osm_type": "node",
        "name": "Ranch",
        "opening_hours": "07:00-24:00",
        "phone": "+381 62 1901778; +381 64 0030366",
        "cuisine": "kebab;pizza;ice_cream",
        "check_date": "2025-06-06",
        "chain": "unknown"
      }
    },
    {
      "type": "Feature",
      "geometry": {
        "type": "Point",
        "coordinates": [
          20.3536796,
          45.3783829
        ]
      },
      "properties": {
        "id": 9267480177,
        "osm_type": "node",
        "name": "Бањалучки ћевап",
        "opening_hours": "08:00-22:30",
        "phone": "+381 62 246-005",
        "cuisine": "balkan",
        "chain": "unknown"
      }
    },
    {
      "type": "Feature",
      "geometry": {
        "type": "Point",
        "coordinates": [
          20.3683009,
          45.3818803
        ]
      },
      "properties": {
        "id": 10576923713,
        "osm_type": "node",
        "name": "Бањалучки ћевап",
        "cuisine": "balkan",
        "chain": "unknown"
      }
    },
    {
      "type": "Feature",
      "geometry": {
        "type": "Point",
        "coordinates": [
          20.3892363,
          45.3831614
        ]
      },
      "properties": {
        "id": 10748636370,
        "osm_type": "node",
        "name": "Лесковачки роштиљ",
        "opening_hours": "Mo-Th 08:00-02:00, Fr,Sa 08:00-05:00, Su 10:00-24:00",
        "chain": "unknown"
      }
    },
    {
      "type": "Feature",
      "geometry": {
        "type": "Point",
        "coordinates": [
          20.4047484,
          45.3704616
        ]
      },
      "properties": {
        "id": 10856084409,
        "osm_type": "node",
        "name": "Kulinarnica",
        "chain": "unknown"
      }
    },
    {
      "type": "Feature",
      "geometry": {
        "type": "Point",
        "coordinates": [
          20.3536617,
          45.3792531
        ]
      },
      "properties": {
        "id": 12590211383,
        "osm_type": "node",
        "name": "McDonald's",
        "brand": "McDonald's",
        "opening_hours": "Mo-Su 08:00-24:00",
        "website": "https://www.mcdonalds.rs/",
        "operator": "Nicefoods doo",
        "brand:wikidata": "Q38076",
        "cuisine": "burger",
        "chain": "mcdonalds"
      }
    },
    {
      "type": "Feature",
      "geometry": {
        "type": "Point",
        "coordinates": [
          20.3961329,
          45.381363
        ]
      },
      "properties": {
        "id": 12859261231,
        "osm_type": "node",
        "name": "Чили",
        "chain": "unknown"
      }
    },
    {
      "type": "Feature",
      "geometry": {
        "type": "Point",
        "coordinates": [
          20.353065,
          45.3790993
        ]
      },
      "properties": {
        "id": 13145090044,
        "osm_type": "node",
        "name": "KFC",
        "brand": "KFC",
        "opening_hours": "09:00-23:00",
        "brand:wikidata": "Q524757",
        "cuisine": "chicken",
        "chain": "unknown"
      }
    },
    {
      "type": "Feature",
      "geometry": {
        "type": "Point",
        "coordinates": [
          20.4147112,
          45.3728162
        ]
      },
      "properties": {
        "id": 13507743204,
        "osm_type": "node",
        "name": "Хамбургерија бус",
        "chain": "unknown"
      }
    },
    {
      "type": "Feature",
      "geometry": {
        "type": "Point",
        "coordinates": [
          20.368916,
          45.3806888
        ]
      },
      "properties": {
        "id": 567823332,
        "osm_type": "way",
        "name": "Picerija TWIX",
        "cuisine": "sandwich;pizza",
        "chain": "unknown"
      }
    },
    {
      "type": "Feature",
      "geometry": {
        "type": "Point",
        "coordinates": [
          20.6067198,
          45.5085178
        ]
      },
      "properties": {
        "id": 850069207,
        "osm_type": "way",
        "name": "Hamba",
        "chain": "unknown"
      }
    },
    {
      "type": "Feature",
      "geometry": {
        "type": "Point",
        "coordinates": [
          20.5515385,
          45.4831403
        ]
      },
      "properties": {
        "id": 1378948793,
        "osm_type": "way",
        "name": "Alpi",
        "opening_hours": "Mo-Th 07:00-24:00; Fr-Sa 07:00-25:00",
        "phone": "+381 643553694",
        "website": "https://alpirestoran.wordpress.com/",
        "operator": "Alpi",
        "cuisine": "burger;sandwich;chicken;barbecue;hot_dog;balkan;fries",
        "chain": "unknown"
      }
    }
  ]
}