{
  "type": "FeatureCollection",
  "features": [
    {
      "type": "Feature",
      "geometry": {
        "type": "Point",
        "coordinates": [
          33.5159198,
          40.7360561
        ]
      },
      "properties": {
        "id": 850482111,
        "osm_type": "node",
        "name": "Tuvaletler"
      }
    },
    {
      "type": "Feature",
      "geometry": {
        "type": "Point",
        "coordinates": [
          33.5172086,
          40.7351312
        ]
      },
      "properties": {
        "id": 861581116,
        "osm_type": "node"
      }
    },
    {
      "type": "Feature",
      "geometry": {
        "type": "Point",
        "coordinates": [
          33.1266203,
          40.8112047
        ]
      },
      "properties": {
        "id": 7276458050,
        "osm_type": "node"
      }
    },
    {
      "type": "Feature",
      "geometry": {
        "type": "Point",
        "coordinates": [
          33.1288301,
          40.8068551
        ]
      },
      "properties": {
        "id": 7276458056,
        "osm_type": "node"
      }
    },
    {
      "type": "Feature",
      "geometry": {
        "type": "Point",
        "coordinates": [
          33.1259131,
          40.8120923
        ]
      },
      "properties": {
        "id": 8853091793,
        "osm_type": "node",
        "name": "Eski Tuvalet",
        "access": "yes"
      }
    },
    {
      "type": "Feature",
      "geometry": {
        "type": "Point",
        "coordinates": [
          33.1281865,
          40.8093633
        ]
      },
      "properties": {
        "id": 782654963,
        "osm_type": "way"
      }
    },
    {
      "type": "Feature",
      "geometry": {
        "type": "Point",
        "coordinates": [
          33.1246752,
          40.80694
        ]
      },
      "properties": {
        "id": 783237772,
        "osm_type": "way",
        "name": "Eski Tuvalet"
      }
    }
  ]
}