{
  "type": "FeatureCollection",
  "features": [
    {
      "type": "Feature",
      "geometry": {
        "type": "Point",
        "coordinates": [
          -1.7189459,
          43.162012
        ]
      },
      "properties": {
        "id": 6612525792,
        "osm_type": "node",
        "description": "Private, Open access, one bed, fireplace, clean"
      }
    },
    {
      "type": "Feature",
      "geometry": {
        "type": "Point",
        "coordinates": [
          -1.0753747,
          42.9047883
        ]
      },
      "properties": {
        "id": 6726380778,
        "osm_type": "node",
        "shelter_type": "weather_shelter"
      }
    },
    {
      "type": "Feature",
      "geometry": {
        "type": "Point",
        "coordinates": [
          -1.1375275,
          42.9887079
        ]
      },
      "properties": {
        "id": 7892980280,
        "osm_type": "node",
        "name": "Irabiako oihan etxea",
        "shelter_type": "basic_hut",
        "capacity": "4"
      }
    },
    {
      "type": "Feature",
      "geometry": {
        "type": "Point",
        "coordinates": [
          -1.8156871,
          42.7972203
        ]
      },
      "properties": {
        "id": 8205723820,
        "osm_type": "node",
        "name": "Etxauriko Haitzetako aterpea",
        "description": "above a 8m ladder, 4 beds, some roof-collected water"
      }
    },
    {
      "type": "Feature",
      "geometry": {
        "type": "Point",
        "coordinates": [
          -1.8723925,
          43.0128437
        ]
      },
      "properties": {
        "id": 9216701238,
        "osm_type": "node"
      }
    },
    {
      "type": "Feature",
      "geometry": {
        "type": "Point",
        "coordinates": [
          -2.2375407,
          42.8958818
        ]
      },
      "properties": {
        "id": 12531611401,
        "osm_type": "node"
      }
    },
    {
      "type": "Feature",
      "geometry": {
        "type": "Point",
        "coordinates": [
          -1.7618769,
          42.6724765
        ]
      },
      "properties": {
        "id": 111232634,
        "osm_type": "way"
      }
    },
    {
      "type": "Feature",
      "geometry": {
        "type": "Point",
        "coordinates": [
          -2.0049453,
          42.6600342
        ]
      },
      "properties": {
        "id": 118929693,
        "osm_type": "way",
        "name": "Ermita San Miguel",
        "shelter_type": "basic_hut"
      }
    },
    {
      "type": "Feature",
      "geometry": {
        "type": "Point",
        "coordinates": [
          -0.9048472,
          42.9530296
        ]
      },
      "properties": {
        "id": 121099606,
        "osm_type": "way",
        "shelter_type": "weather_shelter"
      }
    },
    {
      "type": "Feature",
      "geometry": {
        "type": "Point",
        "coordinates": [
          -1.2273485,
          43.0323176
        ]
      },
      "properties": {
        "id": 158043913,
        "osm_type": "way",
        "name": "Azpegiko Aterpea",
        "shelter_type": "weather_shelter",
        "capacity": "15",
        "fee": "no"
      }
    },
    {
      "type": "Feature",
      "geometry": {
        "type": "Point",
        "coordinates": [
          -1.2886213,
          43.0373091
        ]
      },
      "properties": {
        "id": 179292975,
        "osm_type": "way",
        "name": "Izandorre",
        "operator": "Gobierno de Navarra"
      }
    },
    {
      "type": "Feature",
      "geometry": {
        "type": "Point",
        "coordinates": [
          -1.0091287,
          42.9673889
        ]
      },
      "properties": {
        "id": 184628892,
        "osm_type": "way",
        "name": "Cal Pelo",
        "capacity": "8"
      }
    },
    {
      "type": "Feature",
      "geometry": {
        "type": "Point",
        "coordinates": [
          -1.1436529,
          43.0106354
        ]
      },
      "properties": {
        "id": 207442622,
        "osm_type": "way",
        "name": "Egurgiko aterpea",
        "capacity": "15"
      }
    },
    {
      "type": "Feature",
      "geometry": {
        "type": "Point",
        "coordinates": [
          -1.6277772,
          43.2940741
        ]
      },
      "properties": {
        "id": 226919736,
        "osm_type": "way",
        "shelter_type": "basic_hut",
        "capacity": "4",
        "description": "C'est une ancienne venta en ruine, elle est en très mauvais état mais permet de s'abriter voire de dormir sur le sol en cas de mauvais temps. Elle semble squattée et quelques matelas et débris y sont présents."
      }
    },
    {
      "type": "Feature",
      "geometry": {
        "type": "Point",
        "coordinates": [
          -1.0122692,
          42.9541557
        ]
      },
      "properties": {
        "id": 232223612,
        "osm_type": "way",
        "shelter_type": "basic_hut"
      }
    },
    {
      "type": "Feature",
      "geometry": {
        "type": "Point",
        "coordinates": [
          -1.6758815,
          43.0584829
        ]
      },
      "properties": {
        "id": 276781376,
        "osm_type": "way",
        "name": "Bidakorriko etxola",
        "access": "permissive"
      }
    },
    {
      "type": "Feature",
      "geometry": {
        "type": "Point",
        "coordinates": [
          -1.6608308,
          43.057784
        ]
      },
      "properties": {
        "id": 276781380,
        "osm_type": "way",
        "name": "Uztalakortako borda",
        "access": "permissive"
      }
    },
    {
      "type": "Feature",
      "geometry": {
        "type": "Point",
        "coordinates": [
          -1.6583878,
          43.068096
        ]
      },
      "properties": {
        "id": 276781386,
        "osm_type": "way",
        "name": "Txarutako etxola"
      }
    },
    {
      "type": "Feature",
      "geometry": {
        "type": "Point",
        "coordinates": [
          -1.6458981,
          43.0538461
        ]
      },
      "properties": {
        "id": 276781389,
        "osm_type": "way",
        "name": "Golbaiko borda",
        "access": "permissive"
      }
    },
    {
      "type": "Feature",
      "geometry": {
        "type": "Point",
        "coordinates": [
          -1.6825474,
          43.0653499
        ]
      },
      "properties": {
        "id": 276781391,
        "osm_type": "way",
        "name": "Labigeko borda",
        "access": "permissive"
      }
    },
    {
      "type": "Feature",
      "geometry": {
        "type": "Point",
        "coordinates": [
          -1.6802484,
          43.1367503
        ]
      },
      "properties": {
        "id": 305569923,
        "osm_type": "way",
        "shelter_type": "lean_to"
      }
    },
    {
      "type": "Feature",
      "geometry": {
        "type": "Point",
        "coordinates": [
          -1.7101685,
          43.0526467
        ]
      },
      "properties": {
        "id": 305610835,
        "osm_type": "way",
        "name": "Aratanzolota etxola",
        "fee": "no"
      }
    },
    {
      "type": "Feature",
      "geometry": {
        "type": "Point",
        "coordinates": [
          -1.3525331,
          43.0262941
        ]
      },
      "properties": {
        "id": 322240188,
        "osm_type": "way",
        "name": "Tronako aterpea",
        "shelter_type": "weather_shelter"
      }
    },
    {
      "type": "Feature",
      "geometry": {
        "type": "Point",
        "coordinates": [
          -1.3431136,
          43.0949634
        ]
      },
      "properties": {
        "id": 322317015,
        "osm_type": "way",
        "name": "Euntzaro",
        "shelter_type": "weather_shelter"
      }
    },
    {
      "type": "Feature",
      "geometry": {
        "type": "Point",
        "coordinates": [
          -1.3444269,
          42.9348155
        ]
      },
      "properties": {
        "id": 322354186,
        "osm_type": "way",
        "name": "Erdikolarre",
        "shelter_type": "weather_shelter"
      }
    },
    {
      "type": "Feature",
      "geometry": {
        "type": "Point",
        "coordinates": [
          -1.4894813,
          43.0426799
        ]
      },
      "properties": {
        "id": 322556480,
        "osm_type": "way",
        "name": "Zaguako etxola",
        "shelter_type": "weather_shelter"
      }
    },
    {
      "type": "Feature",
      "geometry": {
        "type": "Point",
        "coordinates": [
          -1.5391294,
          42.6655602
        ]
      },
      "properties": {
        "id": 379760703,
        "osm_type": "way",
        "name": "La cabaña de Mariano",
        "shelter_type": "basic_hut"
      }
    },
    {
      "type": "Feature",
      "geometry": {
        "type": "Point",
        "coordinates": [
          -2.1143034,
          42.8708498
        ]
      },
      "properties": {
        "id": 382646601,
        "osm_type": "way",
        "name": "Refugio de Santa de Marina"
      }
    },
    {
      "type": "Feature",
      "geometry": {
        "type": "Point",
        "coordinates": [
          -1.6758214,
          43.2994889
        ]
      },
      "properties": {
        "id": 390881654,
        "osm_type": "way",
        "shelter_type": "basic_hut",
        "description": "2021-04 : Cabane propriété de la société de chasse de Bera Vera de Bidasoa. Un écriteau en espagnol informe que la cabane peut être utilisée par les promeneurs, pour une journée maximum. A condition de ne pas être occupée par les sociétaires."
      }
    },
    {
      "type": "Feature",
      "geometry": {
        "type": "Point",
        "coordinates": [
          -1.4569066,
          43.1787573
        ]
      },
      "properties": {
        "id": 457971747,
        "osm_type": "way",
        "shelter_type": "lean_to"
      }
    },
    {
      "type": "Feature",
      "geometry": {
        "type": "Point",
        "coordinates": [
          -1.101928,
          42.9554263
        ]
      },
      "properties": {
        "id": 463772938,
        "osm_type": "way",
        "shelter_type": "basic_hut",
        "bench": "no",
        "fee": "no",
        "description": "muy basico refugio. no chairs, no table, no beds, no water. windows broken,"
      }
    },
    {
      "type": "Feature",
      "geometry": {
        "type": "Point",
        "coordinates": [
          -1.8050049,
          42.9239547
        ]
      },
      "properties": {
        "id": 514486731,
        "osm_type": "way"
      }
    },
    {
      "type": "Feature",
      "geometry": {
        "type": "Point",
        "coordinates": [
          -1.5171466,
          43.1479933
        ]
      },
      "properties": {
        "id": 517109408,
        "osm_type": "way",
        "shelter_type": "lean_to"
      }
    },
    {
      "type": "Feature",
      "geometry": {
        "type": "Point",
        "coordinates": [
          -1.4094652,
          43.2608424
        ]
      },
      "properties": {
        "id": 518933376,
        "osm_type": "way",
        "shelter_type": "basic_hut"
      }
    },
    {
      "type": "Feature",
      "geometry": {
        "type": "Point",
        "coordinates": [
          -1.939925,
          42.8103427
        ]
      },
      "properties": {
        "id": 533379239,
        "osm_type": "way",
        "name": "Refugio de Irugitxa"
      }
    },
    {
      "type": "Feature",
      "geometry": {
        "type": "Point",
        "coordinates": [
          -2.0961561,
          42.9394091
        ]
      },
      "properties": {
        "id": 550126373,
        "osm_type": "way",
        "name": "Auntzetxe",
        "shelter_type": "basic_hut"
      }
    },
    {
      "type": "Feature",
      "geometry": {
        "type": "Point",
        "coordinates": [
          -1.546586,
          43.1424085
        ]
      },
      "properties": {
        "id": 600418082,
        "osm_type": "way",
        "shelter_type": "lean_to"
      }
    },
    {
      "type": "Feature",
      "geometry": {
        "type": "Point",
        "coordinates": [
          -1.5463695,
          43.1439242
        ]
      },
      "properties": {
        "id": 600418086,
        "osm_type": "way",
        "name": "Borda",
        "shelter_type": "lean_to"
      }
    },
    {
      "type": "Feature",
      "geometry": {
        "type": "Point",
        "coordinates": [
          -1.5463116,
          43.1436451
        ]
      },
      "properties": {
        "id": 600418088,
        "osm_type": "way",
        "shelter_type": "lean_to"
      }
    },
    {
      "type": "Feature",
      "geometry": {
        "type": "Point",
        "coordinates": [
          -1.5464551,
          43.1433786
        ]
      },
      "properties": {
        "id": 600418092,
        "osm_type": "way",
        "shelter_type": "lean_to"
      }
    },
    {
      "type": "Feature",
      "geometry": {
        "type": "Point",
        "coordinates": [
          -1.5940386,
          43.0487821
        ]
      },
      "properties": {
        "id": 628117622,
        "osm_type": "way"
      }
    },
    {
      "type": "Feature",
      "geometry": {
        "type": "Point",
        "coordinates": [
          -1.0138136,
          42.8901064
        ]
      },
      "properties": {
        "id": 661501055,
        "osm_type": "way",
        "name": "Refugio Borda de Arrese",
        "shelter_type": "basic_hut"
      }
    },
    {
      "type": "Feature",
      "geometry": {
        "type": "Point",
        "coordinates": [
          -1.6791225,
          43.1350691
        ]
      },
      "properties": {
        "id": 813937087,
        "osm_type": "way",
        "shelter_type": "lean_to"
      }
    },
    {
      "type": "Feature",
      "geometry": {
        "type": "Point",
        "coordinates": [
          -1.6149693,
          43.2557871
        ]
      },
      "properties": {
        "id": 845909234,
        "osm_type": "way",
        "name": "Cabane d'Usategieta",
        "capacity": "6",
        "description": "Cabane assez propre, mais nous n'avons pas trouvé d'eau à proximité."
      }
    },
    {
      "type": "Feature",
      "geometry": {
        "type": "Point",
        "coordinates": [
          -1.1033967,
          42.9962076
        ]
      },
      "properties": {
        "id": 846638779,
        "osm_type": "way",
        "capacity": "11"
      }
    },
    {
      "type": "Feature",
      "geometry": {
        "type": "Point",
        "coordinates": [
          -1.4171726,
          42.3052432
        ]
      },
      "properties": {
        "id": 1191878765,
        "osm_type": "way",
        "fee": "no"
      }
    },
    {
      "type": "Feature",
      "geometry": {
        "type": "Point",
        "coordinates": [
          -1.9664299,
          42.8053735
        ]
      },
      "properties": {
        "id": 1198027267,
        "osm_type": "way",
        "name": "Txerri borda"
      }
    },
    {
      "type": "Feature",
      "geometry": {
        "type": "Point",
        "coordinates": [
          -1.6460987,
          43.1436592
        ]
      },
      "properties": {
        "id": 1305604323,
        "osm_type": "way"
      }
    },
    {
      "type": "Feature",
      "geometry": {
        "type": "Point",
        "coordinates": [
          -1.6342148,
          42.956905
        ]
      },
      "properties": {
        "id": 1433110152,
        "osm_type": "way",
        "shelter_type": "basic_hut"
      }
    },
    {
      "type": "Feature",
      "geometry": {
        "type": "Point",
        "coordinates": [
          -1.6583808,
          42.4729109
        ]
      },
      "properties": {
        "id": 1466837666,
        "osm_type": "way",
        "shelter_type": "lean_to"
      }
    },
    {
      "type": "Feature",
      "geometry": {
        "type": "Point",
        "coordinates": [
          -1.672033,
          42.5027078
        ]
      },
      "properties": {
        "id": 1475061621,
        "osm_type": "way",
        "shelter_type": "lean_to"
      }
    },
    {
      "type": "Feature",
      "geometry": {
        "type": "Point",
        "coordinates": [
          -1.6722304,
          42.5031271
        ]
      },
      "properties": {
        "id": 1475061634,
        "osm_type": "way",
        "shelter_type": "lean_to"
      }
    },
    {
      "type": "Feature",
      "geometry": {
        "type": "Point",
        "coordinates": [
          -1.6631116,
          42.4946673
        ]
      },
      "properties": {
        "id": 1478683110,
        "osm_type": "way",
        "shelter_type": "lean_to"
      }
    },
    {
      "type": "Feature",
      "geometry": {
        "type": "Point",
        "coordinates": [
          -1.6651172,
          42.4951183
        ]
      },
      "properties": {
        "id": 1478757005,
        "osm_type": "way",
        "shelter_type": "lean_to"
      }
    },
    {
      "type": "Feature",
      "geometry": {
        "type": "Point",
        "coordinates": [
          -1.6654043,
          42.4949782
        ]
      },
      "properties": {
        "id": 1478757006,
        "osm_type": "way",
        "shelter_type": "lean_to"
      }
    },
    {
      "type": "Feature",
      "geometry": {
        "type": "Point",
        "coordinates": [
          -1.6673427,
          42.4958499
        ]
      },
      "properties": {
        "id": 1479015518,
        "osm_type": "way",
        "shelter_type": "lean_to"
      }
    },
    {
      "type": "Feature",
      "geometry": {
        "type": "Point",
        "coordinates": [
          -1.6676317,
          42.4963422
        ]
      },
      "properties": {
        "id": 1482011529,
        "osm_type": "way",
        "shelter_type": "lean_to"
      }
    },
    {
      "type": "Feature",
      "geometry": {
        "type": "Point",
        "coordinates": [
          -1.8330417,
          42.5383578
        ]
      },
      "properties": {
        "id": 1486261343,
        "osm_type": "way",
        "shelter_type": "lean_to"
      }
    },
    {
      "type": "Feature",
      "geometry": {
        "type": "Point",
        "coordinates": [
          -1.6197617,
          42.3280474
        ]
      },
      "properties": {
        "id": 1495797836,
        "osm_type": "way",
        "shelter_type": "lean_to"
      }
    }
  ]
}