{
  "type": "FeatureCollection",
  "features": [
    {
      "type": "Feature",
      "geometry": {
        "type": "Point",
        "coordinates": [
          -13.9055648,
          28.6949321
        ]
      },
      "properties": {
        "id": 3332840988,
        "osm_type": "node",
        "shelter_type": "lean_to",
        "description": "All shelters along the trails here are same. Good against the wind, but not heavy rain. Only got a very loose thach roof to protect against the sun. (If this is an exception, please adjust this description.) However, these places are good to pitch a tent."
      }
    },
    {
      "type": "Feature",
      "geometry": {
        "type": "Point",
        "coordinates": [
          -13.9210354,
          28.6381369
        ]
      },
      "properties": {
        "id": 3332863744,
        "osm_type": "node",
        "shelter_type": "lean_to",
        "description": "All shelters along the trails here are same. Good against the wind, but not heavy rain. Only got a very loose thach roof to protect against the sun. (If this is an exception, please adjust this description.) However, these places are good to pitch a tent."
      }
    },
    {
      "type": "Feature",
      "geometry": {
        "type": "Point",
        "coordinates": [
          -14.0116559,
          28.5155588
        ]
      },
      "properties": {
        "id": 3332923858,
        "osm_type": "node",
        "shelter_type": "lean_to",
        "description": "Good against the wind, but not heavy rain. Only has a very loose thach roof to protect against the sun. All shelters along the trails seem to be similar. If not, please adjust this description. But these places are good to pitch a tent."
      }
    },
    {
      "type": "Feature",
      "geometry": {
        "type": "Point",
        "coordinates": [
          -14.135626,
          28.2737102
        ]
      },
      "properties": {
        "id": 3332966782,
        "osm_type": "node",
        "shelter_type": "lean_to",
        "description": "All shelters along the trails here are same. Good against the wind, but not heavy rain. Only got a very loose thach roof to protect against the sun. (If this is an exception, please adjust this description.) However, these places are good to pitch a tent."
      }
    },
    {
      "type": "Feature",
      "geometry": {
        "type": "Point",
        "coordinates": [
          -14.1428626,
          28.2540886
        ]
      },
      "properties": {
        "id": 3332973307,
        "osm_type": "node",
        "shelter_type": "lean_to",
        "description": "All shelters along the trails here are same. Good against the wind, but not heavy rain. Only got a very loose thach roof to protect against the sun. (If this is an exception, please adjust this description.) However, these places are good to pitch a tent."
      }
    },
    {
      "type": "Feature",
      "geometry": {
        "type": "Point",
        "coordinates": [
          -14.0453507,
          28.4224413
        ]
      },
      "properties": {
        "id": 4026711331,
        "osm_type": "node",
        "shelter_type": "lean_to",
        "description": "Good against the wind, but not heavy rain. Only got a rather loose thach roof to protect against the sun. Two picnic benches with chairs inside. Space for 3-4 people on the ground. But also good to pitch a tent here."
      }
    },
    {
      "type": "Feature",
      "geometry": {
        "type": "Point",
        "coordinates": [
          -13.976378,
          28.6663584
        ]
      },
      "properties": {
        "id": 4845861255,
        "osm_type": "node",
        "shelter_type": "lean_to",
        "description": "All shelters along the trails here are same. Good against the wind, but not heavy rain. Only got a very loose thach roof to protect against the sun. (If this is an exception, please adjust this description.) However, these places are good to pitch a tent."
      }
    },
    {
      "type": "Feature",
      "geometry": {
        "type": "Point",
        "coordinates": [
          -13.9472254,
          28.5145195
        ]
      },
      "properties": {
        "id": 5451137213,
        "osm_type": "node",
        "shelter_type": "lean_to",
        "description": "All shelters along the trails here are same. Good against the wind, but not heavy rain. Only got a very loose thach roof to protect against the sun. (If this is an exception, please adjust this description.) However, these places are good to pitch a tent."
      }
    },
    {
      "type": "Feature",
      "geometry": {
        "type": "Point",
        "coordinates": [
          -16.2870975,
          28.5604335
        ]
      },
      "properties": {
        "id": 6846406710,
        "osm_type": "node",
        "shelter_type": "weather_shelter",
        "bench": "yes"
      }
    },
    {
      "type": "Feature",
      "geometry": {
        "type": "Point",
        "coordinates": [
          -16.4763929,
          28.2964359
        ]
      },
      "properties": {
        "id": 6848506442,
        "osm_type": "node",
        "shelter_type": "weather_shelter",
        "bench": "no"
      }
    },
    {
      "type": "Feature",
      "geometry": {
        "type": "Point",
        "coordinates": [
          -15.6157467,
          28.0005562
        ]
      },
      "properties": {
        "id": 7251643086,
        "osm_type": "node",
        "shelter_type": "weather_shelter"
      }
    },
    {
      "type": "Feature",
      "geometry": {
        "type": "Point",
        "coordinates": [
          -16.485212,
          28.3342191
        ]
      },
      "properties": {
        "id": 8715823882,
        "osm_type": "node",
        "capacity": "3"
      }
    },
    {
      "type": "Feature",
      "geometry": {
        "type": "Point",
        "coordinates": [
          -16.8402326,
          28.2707338
        ]
      },
      "properties": {
        "id": 8898607079,
        "osm_type": "node",
        "shelter_type": "basic_hut",
        "description": "Hut inside of a cave. One window, one door, but no frames, i.e. open. Concrete floor, but dirty."
      }
    },
    {
      "type": "Feature",
      "geometry": {
        "type": "Point",
        "coordinates": [
          -16.630938,
          28.3290239
        ]
      },
      "properties": {
        "id": 9511722368,
        "osm_type": "node",
        "shelter_type": "lean_to",
        "description": "Abandoned house, everything open. Protection from the rain, not the cold. Space for 6-8 mattresses."
      }
    },
    {
      "type": "Feature",
      "geometry": {
        "type": "Point",
        "coordinates": [
          -16.6887736,
          28.1224629
        ]
      },
      "properties": {
        "id": 9511733275,
        "osm_type": "node",
        "shelter_type": "basic_hut",
        "description": "One room with intact roof. No door nor windows, open. Dusty concrete floor. Space for up to 8 people."
      }
    },
    {
      "type": "Feature",
      "geometry": {
        "type": "Point",
        "coordinates": [
          -16.5904115,
          28.3273947
        ]
      },
      "properties": {
        "id": 9511735576,
        "osm_type": "node",
        "description": "Sleeping room is locked, but kitchen and fire room are open. Maybe space for 4-8 people for overnighting."
      }
    },
    {
      "type": "Feature",
      "geometry": {
        "type": "Point",
        "coordinates": [
          -16.6855034,
          28.1145869
        ]
      },
      "properties": {
        "id": 9511752237,
        "osm_type": "node",
        "shelter_type": "basic_hut",
        "description": "Two of the ruins have mostly intact roofs. They are open otherwise. There are some wooden plankets which can be used as ground cover for mattresses. 3-4 people. The hut 880 m southwest is better suited for overnighting and as shelter though."
      }
    },
    {
      "type": "Feature",
      "geometry": {
        "type": "Point",
        "coordinates": [
          -16.7355978,
          28.1724544
        ]
      },
      "properties": {
        "id": 9511753092,
        "osm_type": "node",
        "shelter_type": "basic_hut",
        "description": "A former \"motor house\" with conrete floor, proper roof and nice views. Two entrances and one window hole, but without frames, i.e. open."
      }
    },
    {
      "type": "Feature",
      "geometry": {
        "type": "Point",
        "coordinates": [
          -16.6293783,
          28.2742993
        ]
      },
      "properties": {
        "id": 9511753253,
        "osm_type": "node",
        "name": "Altavista Shelter",
        "shelter_type": "basic_hut",
        "description": "6 bunk beds and a closable door. There is potentially space for 3 more people with mattresses on the floor. This place seems to be always accessible, even without the Altavista Refugio running. When we slept there the room smellt of cleaning products👍 ."
      }
    },
    {
      "type": "Feature",
      "geometry": {
        "type": "Point",
        "coordinates": [
          -16.8485419,
          28.2707825
        ]
      },
      "properties": {
        "id": 9511762147,
        "osm_type": "node",
        "shelter_type": "basic_hut",
        "description": "Hut in a rock shelter. Two rooms, windows and doors but no frames, i.e. open. There seems to be someone living here."
      }
    },
    {
      "type": "Feature",
      "geometry": {
        "type": "Point",
        "coordinates": [
          -16.6903937,
          28.1079604
        ]
      },
      "properties": {
        "id": 9511762592,
        "osm_type": "node",
        "shelter_type": "basic_hut",
        "description": "A ruin with mostly intact roof. No facilities, just dusty ground floor. A few wooden plankets."
      }
    },
    {
      "type": "Feature",
      "geometry": {
        "type": "Point",
        "coordinates": [
          -16.8324446,
          28.2901738
        ]
      },
      "properties": {
        "id": 9511772415,
        "osm_type": "node",
        "shelter_type": "basic_hut",
        "description": "Hut with roof in a cave. Concrete floor, some old sand sack sheets lying around. One window and one door, no frames/open."
      }
    },
    {
      "type": "Feature",
      "geometry": {
        "type": "Point",
        "coordinates": [
          -17.338855,
          28.0947899
        ]
      },
      "properties": {
        "id": 12293992216,
        "osm_type": "node",
        "shelter_type": "weather_shelter",
        "bench": "yes"
      }
    },
    {
      "type": "Feature",
      "geometry": {
        "type": "Point",
        "coordinates": [
          -16.4067624,
          28.2926352
        ]
      },
      "properties": {
        "id": 12715922035,
        "osm_type": "node",
        "shelter_type": "basic_hut",
        "description": "2 rooms, quite clean"
      }
    },
    {
      "type": "Feature",
      "geometry": {
        "type": "Point",
        "coordinates": [
          -16.5397603,
          28.1204021
        ]
      },
      "properties": {
        "id": 12741758691,
        "osm_type": "node",
        "name": "Abandoned house",
        "shelter_type": "basic_hut"
      }
    },
    {
      "type": "Feature",
      "geometry": {
        "type": "Point",
        "coordinates": [
          -16.5393642,
          28.1201347
        ]
      },
      "properties": {
        "id": 12741765010,
        "osm_type": "node",
        "name": "Abandoned house",
        "shelter_type": "basic_hut"
      }
    },
    {
      "type": "Feature",
      "geometry": {
        "type": "Point",
        "coordinates": [
          -16.5343801,
          28.2060659
        ]
      },
      "properties": {
        "id": 12757803075,
        "osm_type": "node",
        "name": "Abandoned house",
        "shelter_type": "basic_hut"
      }
    },
    {
      "type": "Feature",
      "geometry": {
        "type": "Point",
        "coordinates": [
          -16.6112735,
          28.328397
        ]
      },
      "properties": {
        "id": 12757845534,
        "osm_type": "node",
        "name": "Picnic place",
        "shelter_type": "lean_to",
        "description": "Large front roof of house, good sun protection, also rain protection"
      }
    },
    {
      "type": "Feature",
      "geometry": {
        "type": "Point",
        "coordinates": [
          -16.4956711,
          28.31414
        ]
      },
      "properties": {
        "id": 160047257,
        "osm_type": "way"
      }
    },
    {
      "type": "Feature",
      "geometry": {
        "type": "Point",
        "coordinates": [
          -17.8141174,
          28.7398262
        ]
      },
      "properties": {
        "id": 276499154,
        "osm_type": "way",
        "name": "Casa Forestal"
      }
    },
    {
      "type": "Feature",
      "geometry": {
        "type": "Point",
        "coordinates": [
          -14.355276,
          28.1019426
        ]
      },
      "properties": {
        "id": 280160350,
        "osm_type": "way",
        "shelter_type": "weather_shelter"
      }
    },
    {
      "type": "Feature",
      "geometry": {
        "type": "Point",
        "coordinates": [
          -16.5948445,
          28.3552504
        ]
      },
      "properties": {
        "id": 306458075,
        "osm_type": "way",
        "name": "Choza Viera y Clavijo",
        "shelter_type": "basic_hut",
        "description": "Fireplace, 2 benches, no door. Ground space for 3-5 people."
      }
    },
    {
      "type": "Feature",
      "geometry": {
        "type": "Point",
        "coordinates": [
          -17.8401974,
          28.7977236
        ]
      },
      "properties": {
        "id": 353433135,
        "osm_type": "way",
        "name": "Refugio de Gallegos"
      }
    },
    {
      "type": "Feature",
      "geometry": {
        "type": "Point",
        "coordinates": [
          -15.6033055,
          28.0160239
        ]
      },
      "properties": {
        "id": 562338798,
        "osm_type": "way",
        "shelter_type": "weather_shelter",
        "bench": "yes"
      }
    },
    {
      "type": "Feature",
      "geometry": {
        "type": "Point",
        "coordinates": [
          -15.6145834,
          27.9910999
        ]
      },
      "properties": {
        "id": 660768092,
        "osm_type": "way",
        "shelter_type": "weather_shelter"
      }
    },
    {
      "type": "Feature",
      "geometry": {
        "type": "Point",
        "coordinates": [
          -17.9433139,
          28.744175
        ]
      },
      "properties": {
        "id": 689751097,
        "osm_type": "way",
        "name": "Refugio de Tinizara",
        "access": "yes",
        "capacity": "12"
      }
    },
    {
      "type": "Feature",
      "geometry": {
        "type": "Point",
        "coordinates": [
          -17.8460751,
          28.7037372
        ]
      },
      "properties": {
        "id": 705241011,
        "osm_type": "way",
        "name": "Refugio Punta de Los Roques",
        "fee": "no"
      }
    },
    {
      "type": "Feature",
      "geometry": {
        "type": "Point",
        "coordinates": [
          -16.8318851,
          28.2763258
        ]
      },
      "properties": {
        "id": 706231093,
        "osm_type": "way",
        "shelter_type": "basic_hut"
      }
    },
    {
      "type": "Feature",
      "geometry": {
        "type": "Point",
        "coordinates": [
          -15.4518818,
          27.9152937
        ]
      },
      "properties": {
        "id": 706647894,
        "osm_type": "way",
        "shelter_type": "lean_to"
      }
    },
    {
      "type": "Feature",
      "geometry": {
        "type": "Point",
        "coordinates": [
          -15.4520427,
          27.9152034
        ]
      },
      "properties": {
        "id": 706647895,
        "osm_type": "way",
        "shelter_type": "lean_to"
      }
    },
    {
      "type": "Feature",
      "geometry": {
        "type": "Point",
        "coordinates": [
          -15.4517657,
          27.9151957
        ]
      },
      "properties": {
        "id": 706647896,
        "osm_type": "way",
        "shelter_type": "lean_to"
      }
    },
    {
      "type": "Feature",
      "geometry": {
        "type": "Point",
        "coordinates": [
          -15.4509688,
          27.9149285
        ]
      },
      "properties": {
        "id": 706647899,
        "osm_type": "way",
        "shelter_type": "lean_to"
      }
    },
    {
      "type": "Feature",
      "geometry": {
        "type": "Point",
        "coordinates": [
          -15.4541833,
          27.9141703
        ]
      },
      "properties": {
        "id": 706647907,
        "osm_type": "way",
        "shelter_type": "lean_to"
      }
    },
    {
      "type": "Feature",
      "geometry": {
        "type": "Point",
        "coordinates": [
          -15.4506546,
          27.916866
        ]
      },
      "properties": {
        "id": 706647911,
        "osm_type": "way",
        "shelter_type": "lean_to"
      }
    },
    {
      "type": "Feature",
      "geometry": {
        "type": "Point",
        "coordinates": [
          -15.4503227,
          27.9168915
        ]
      },
      "properties": {
        "id": 706647912,
        "osm_type": "way",
        "shelter_type": "lean_to"
      }
    },
    {
      "type": "Feature",
      "geometry": {
        "type": "Point",
        "coordinates": [
          -15.6005664,
          27.9405224
        ]
      },
      "properties": {
        "id": 911286091,
        "osm_type": "way",
        "name": "Casa de Cho Flores"
      }
    },
    {
      "type": "Feature",
      "geometry": {
        "type": "Point",
        "coordinates": [
          -16.5303774,
          28.3591057
        ]
      },
      "properties": {
        "id": 1051294441,
        "osm_type": "way",
        "shelter_type": "weather_shelter",
        "description": "Roof of 6x8 m with picnic table"
      }
    },
    {
      "type": "Feature",
      "geometry": {
        "type": "Point",
        "coordinates": [
          -13.5967589,
          28.9491065
        ]
      },
      "properties": {
        "id": 1339875852,
        "osm_type": "way",
        "shelter_type": "weather_shelter"
      }
    },
    {
      "type": "Feature",
      "geometry": {
        "type": "Point",
        "coordinates": [
          -16.2686884,
          28.4599451
        ]
      },
      "properties": {
        "id": 1434886992,
        "osm_type": "way",
        "shelter_type": "lean_to"
      }
    },
    {
      "type": "Feature",
      "geometry": {
        "type": "Point",
        "coordinates": [
          -16.2679544,
          28.4603352
        ]
      },
      "properties": {
        "id": 1485354496,
        "osm_type": "way",
        "shelter_type": "lean_to"
      }
    }
  ]
}