{
  "type": "FeatureCollection",
  "features": [
    {
      "type": "Feature",
      "geometry": {
        "type": "Point",
        "coordinates": [
          16.6593465,
          49.7516732
        ]
      },
      "properties": {
        "id": 86006377,
        "osm_type": "node",
        "name": "OMV",
        "brand": "OMV",
        "opening_hours": "24/7",
        "check_date": "2024-11-17"
      }
    },
    {
      "type": "Feature",
      "geometry": {
        "type": "Point",
        "coordinates": [
          16.1541692,
          49.7463829
        ]
      },
      "properties": {
        "id": 286815137,
        "osm_type": "node",
        "name": "G.A.S. Petroleum",
        "brand": "G.A.S. Petroleum",
        "opening_hours": "Mo-Su 05:00-22:00"
      }
    },
    {
      "type": "Feature",
      "geometry": {
        "type": "Point",
        "coordinates": [
          16.1715239,
          49.8026011
        ]
      },
      "properties": {
        "id": 286865184,
        "osm_type": "node",
        "name": "Zaris, Budislav",
        "opening_hours": "Mo-Fr 07:00-18:00; Sa,Su 08:00-18:00"
      }
    },
    {
      "type": "Feature",
      "geometry": {
        "type": "Point",
        "coordinates": [
          15.762289,
          50.0271986
        ]
      },
      "properties": {
        "id": 308450719,
        "osm_type": "node",
        "name": "Shell",
        "brand": "Shell"
      }
    },
    {
      "type": "Feature",
      "geometry": {
        "type": "Point",
        "coordinates": [
          16.1658942,
          49.9421803
        ]
      },
      "properties": {
        "id": 314686915,
        "osm_type": "node",
        "name": "Shell",
        "brand": "Shell"
      }
    },
    {
      "type": "Feature",
      "geometry": {
        "type": "Point",
        "coordinates": [
          16.1643554,
          49.9429407
        ]
      },
      "properties": {
        "id": 314686919,
        "osm_type": "node",
        "name": "Orlen express",
        "brand": "Orlen express",
        "opening_hours": "24/7"
      }
    },
    {
      "type": "Feature",
      "geometry": {
        "type": "Point",
        "coordinates": [
          15.9146697,
          50.1306871
        ]
      },
      "properties": {
        "id": 314687783,
        "osm_type": "node",
        "name": "KM-Prona, Býšť",
        "brand": "KM - PRONA",
        "opening_hours": "24/7"
      }
    },
    {
      "type": "Feature",
      "geometry": {
        "type": "Point",
        "coordinates": [
          15.7954575,
          49.9384451
        ]
      },
      "properties": {
        "id": 341734949,
        "osm_type": "node",
        "name": "Eurobit, Chrudim 1",
        "opening_hours": "05:00-22:00"
      }
    },
    {
      "type": "Feature",
      "geometry": {
        "type": "Point",
        "coordinates": [
          15.7082664,
          49.9677866
        ]
      },
      "properties": {
        "id": 341740177,
        "osm_type": "node"
      }
    },
    {
      "type": "Feature",
      "geometry": {
        "type": "Point",
        "coordinates": [
          15.7947121,
          50.1508887
        ]
      },
      "properties": {
        "id": 342162289,
        "osm_type": "node",
        "name": "KM-Prona, Opatovice nad Labem",
        "brand": "KM-Prona",
        "opening_hours": "05:00-22:00"
      }
    },
    {
      "type": "Feature",
      "geometry": {
        "type": "Point",
        "coordinates": [
          15.7730449,
          50.0084484
        ]
      },
      "properties": {
        "id": 343500300,
        "osm_type": "node",
        "name": "Benzina - Pardubice, Dražkovice",
        "brand": "Benzina",
        "opening_hours": "05:00-21:00"
      }
    },
    {
      "type": "Feature",
      "geometry": {
        "type": "Point",
        "coordinates": [
          15.6374246,
          49.9908771
        ]
      },
      "properties": {
        "id": 343704436,
        "osm_type": "node",
        "name": "Cyklos"
      }
    },
    {
      "type": "Feature",
      "geometry": {
        "type": "Point",
        "coordinates": [
          15.6751192,
          49.9455545
        ]
      },
      "properties": {
        "id": 343705506,
        "osm_type": "node",
        "name": "Prim Heřmanův Městec",
        "opening_hours": "06:00-22:00"
      }
    },
    {
      "type": "Feature",
      "geometry": {
        "type": "Point",
        "coordinates": [
          16.0383461,
          49.8873125
        ]
      },
      "properties": {
        "id": 364818160,
        "osm_type": "node"
      }
    },
    {
      "type": "Feature",
      "geometry": {
        "type": "Point",
        "coordinates": [
          16.2937319,
          49.8796914
        ]
      },
      "properties": {
        "id": 366211938,
        "osm_type": "node",
        "name": "MOL",
        "brand": "MOL"
      }
    },
    {
      "type": "Feature",
      "geometry": {
        "type": "Point",
        "coordinates": [
          16.3896692,
          49.9757668
        ]
      },
      "properties": {
        "id": 456026807,
        "osm_type": "node",
        "name": "Shell",
        "brand": "Shell"
      }
    },
    {
      "type": "Feature",
      "geometry": {
        "type": "Point",
        "coordinates": [
          16.3946341,
          49.9814693
        ]
      },
      "properties": {
        "id": 456027047,
        "osm_type": "node",
        "name": "Orlen - Ústí Nad Orlicí, Královéhradecká",
        "brand": "Orlen",
        "opening_hours": "24/7"
      }
    },
    {
      "type": "Feature",
      "geometry": {
        "type": "Point",
        "coordinates": [
          15.6091008,
          50.0318001
        ]
      },
      "properties": {
        "id": 566815226,
        "osm_type": "node",
        "name": "Tomegas"
      }
    },
    {
      "type": "Feature",
      "geometry": {
        "type": "Point",
        "coordinates": [
          15.6532389,
          49.8523556
        ]
      },
      "properties": {
        "id": 824891630,
        "osm_type": "node",
        "name": "K&P čerpací stanice, s. r. o.",
        "brand": "K&P čerpací stanice, s. r. o.",
        "opening_hours": "Mo-Su 06:00-19:00"
      }
    },
    {
      "type": "Feature",
      "geometry": {
        "type": "Point",
        "coordinates": [
          16.5047476,
          50.0355633
        ]
      },
      "properties": {
        "id": 842112511,
        "osm_type": "node",
        "name": "EuroOil Letohrad",
        "brand": "EuroOil",
        "opening_hours": "Mo-Su 06:00-21:00"
      }
    },
    {
      "type": "Feature",
      "geometry": {
        "type": "Point",
        "coordinates": [
          15.9926458,
          49.8493215
        ]
      },
      "properties": {
        "id": 1016109713,
        "osm_type": "node",
        "name": "RoBiN OIL Skuteč",
        "opening_hours": "24/7"
      }
    },
    {
      "type": "Feature",
      "geometry": {
        "type": "Point",
        "coordinates": [
          15.7992947,
          49.9562971
        ]
      },
      "properties": {
        "id": 1159131239,
        "osm_type": "node",
        "name": "Mercia",
        "brand": "HUNSGAS"
      }
    },
    {
      "type": "Feature",
      "geometry": {
        "type": "Point",
        "coordinates": [
          15.6653542,
          50.0863391
        ]
      },
      "properties": {
        "id": 1159286142,
        "osm_type": "node",
        "name": "EuroOil Lázně Bohdaneč",
        "brand": "EuroOil",
        "opening_hours": "Mo-Su 05:00-21:00"
      }
    },
    {
      "type": "Feature",
      "geometry": {
        "type": "Point",
        "coordinates": [
          15.57401,
          50.0353588
        ]
      },
      "properties": {
        "id": 1160455900,
        "osm_type": "node",
        "name": "MOL Přelouč",
        "brand": "MOL",
        "opening_hours": "24/7"
      }
    },
    {
      "type": "Feature",
      "geometry": {
        "type": "Point",
        "coordinates": [
          15.8085994,
          49.8475624
        ]
      },
      "properties": {
        "id": 1286535117,
        "osm_type": "node",
        "name": "Eurobit, Nasavrky",
        "opening_hours": "05:00-22:00"
      }
    },
    {
      "type": "Feature",
      "geometry": {
        "type": "Point",
        "coordinates": [
          16.7613043,
          50.0817007
        ]
      },
      "properties": {
        "id": 1292068869,
        "osm_type": "node",
        "name": "Benzina - Králíky",
        "brand": "Benzina",
        "opening_hours": "05:00-22:00"
      }
    },
    {
      "type": "Feature",
      "geometry": {
        "type": "Point",
        "coordinates": [
          16.6000625,
          49.9064323
        ]
      },
      "properties": {
        "id": 1299362117,
        "osm_type": "node",
        "name": "Agrochem Lanškroun",
        "opening_hours": "Mo-Fr 05:30-21:00; Sa 07:00-19:00; Su 08:00-19:00"
      }
    },
    {
      "type": "Feature",
      "geometry": {
        "type": "Point",
        "coordinates": [
          16.6223681,
          49.9200481
        ]
      },
      "properties": {
        "id": 1299362132,
        "osm_type": "node",
        "name": "Avia Lanškroun",
        "brand": "Avia",
        "opening_hours": "05:00-23:00"
      }
    },
    {
      "type": "Feature",
      "geometry": {
        "type": "Point",
        "coordinates": [
          16.3468502,
          49.6254893
        ]
      },
      "properties": {
        "id": 1327528740,
        "osm_type": "node",
        "name": "EuroOil",
        "brand": "EuroOil",
        "opening_hours": "Mo-Su 06:00-20:00"
      }
    },
    {
      "type": "Feature",
      "geometry": {
        "type": "Point",
        "coordinates": [
          16.2279809,
          49.9972151
        ]
      },
      "properties": {
        "id": 1395411051,
        "osm_type": "node",
        "brand": "Agro"
      }
    },
    {
      "type": "Feature",
      "geometry": {
        "type": "Point",
        "coordinates": [
          15.7824875,
          49.9532326
        ]
      },
      "properties": {
        "id": 1587150186,
        "osm_type": "node",
        "name": "Eurobit, Chrudim 2",
        "opening_hours": "05:00-22:00"
      }
    },
    {
      "type": "Feature",
      "geometry": {
        "type": "Point",
        "coordinates": [
          16.1425357,
          49.9540922
        ]
      },
      "properties": {
        "id": 1621591238,
        "osm_type": "node"
      }
    },
    {
      "type": "Feature",
      "geometry": {
        "type": "Point",
        "coordinates": [
          15.9384827,
          50.1092435
        ]
      },
      "properties": {
        "id": 1772942798,
        "osm_type": "node",
        "name": "MOL",
        "brand": "MOL"
      }
    },
    {
      "type": "Feature",
      "geometry": {
        "type": "Point",
        "coordinates": [
          16.1644176,
          49.9433607
        ]
      },
      "properties": {
        "id": 1785829161,
        "osm_type": "node",
        "name": "EuroOil Vysoké Mýto",
        "brand": "EuroOil",
        "opening_hours": "Mo-Su 06:00-20:00"
      }
    },
    {
      "type": "Feature",
      "geometry": {
        "type": "Point",
        "coordinates": [
          16.4354809,
          49.928888
        ]
      },
      "properties": {
        "id": 1799109337,
        "osm_type": "node",
        "name": "OMV",
        "brand": "OMV",
        "opening_hours": "24/7"
      }
    },
    {
      "type": "Feature",
      "geometry": {
        "type": "Point",
        "coordinates": [
          16.6219223,
          49.9177674
        ]
      },
      "properties": {
        "id": 1839122536,
        "osm_type": "node",
        "name": "Prim Lanškroun",
        "brand": "Prim",
        "opening_hours": "24/7"
      }
    },
    {
      "type": "Feature",
      "geometry": {
        "type": "Point",
        "coordinates": [
          15.5444481,
          49.942005
        ]
      },
      "properties": {
        "id": 1845129661,
        "osm_type": "node"
      }
    },
    {
      "type": "Feature",
      "geometry": {
        "type": "Point",
        "coordinates": [
          15.9227268,
          49.9053948
        ]
      },
      "properties": {
        "id": 1845539699,
        "osm_type": "node",
        "name": "Benzina - Chrast U Chrudimě",
        "brand": "Benzina",
        "opening_hours": "05:00-21:00"
      }
    },
    {
      "type": "Feature",
      "geometry": {
        "type": "Point",
        "coordinates": [
          15.8718454,
          49.9137883
        ]
      },
      "properties": {
        "id": 1845541826,
        "osm_type": "node"
      }
    },
    {
      "type": "Feature",
      "geometry": {
        "type": "Point",
        "coordinates": [
          15.9735891,
          50.0874375
        ]
      },
      "properties": {
        "id": 1870532787,
        "osm_type": "node",
        "name": "LPG camp Hluboký"
      }
    },
    {
      "type": "Feature",
      "geometry": {
        "type": "Point",
        "coordinates": [
          16.1864244,
          49.924079
        ]
      },
      "properties": {
        "id": 1909247978,
        "osm_type": "node",
        "name": "Tank Ono – ČS Vysoké Mýto",
        "brand": "Tank Ono",
        "opening_hours": "24/7"
      }
    },
    {
      "type": "Feature",
      "geometry": {
        "type": "Point",
        "coordinates": [
          16.2560351,
          49.8292415
        ]
      },
      "properties": {
        "id": 1970177308,
        "osm_type": "node"
      }
    },
    {
      "type": "Feature",
      "geometry": {
        "type": "Point",
        "coordinates": [
          16.4775521,
          49.7538132
        ]
      },
      "properties": {
        "id": 2006354469,
        "osm_type": "node"
      }
    },
    {
      "type": "Feature",
      "geometry": {
        "type": "Point",
        "coordinates": [
          16.4071531,
          49.9608586
        ]
      },
      "properties": {
        "id": 2087603846,
        "osm_type": "node"
      }
    },
    {
      "type": "Feature",
      "geometry": {
        "type": "Point",
        "coordinates": [
          16.2037768,
          49.9055135
        ]
      },
      "properties": {
        "id": 2113355583,
        "osm_type": "node"
      }
    },
    {
      "type": "Feature",
      "geometry": {
        "type": "Point",
        "coordinates": [
          16.0307717,
          49.7720651
        ]
      },
      "properties": {
        "id": 2119805308,
        "osm_type": "node",
        "name": "Agro Žamberk - Krouna",
        "opening_hours": "Mo-Fr 05:00-22:00; PH,Sa,Su 06:30-22:00"
      }
    },
    {
      "type": "Feature",
      "geometry": {
        "type": "Point",
        "coordinates": [
          16.6613486,
          49.752209
        ]
      },
      "properties": {
        "id": 2286027996,
        "osm_type": "node"
      }
    },
    {
      "type": "Feature",
      "geometry": {
        "type": "Point",
        "coordinates": [
          15.9177545,
          49.961109
        ]
      },
      "properties": {
        "id": 2305377653,
        "osm_type": "node",
        "name": "Framex"
      }
    },
    {
      "type": "Feature",
      "geometry": {
        "type": "Point",
        "coordinates": [
          16.2211889,
          49.9364731
        ]
      },
      "properties": {
        "id": 2425733678,
        "osm_type": "node"
      }
    },
    {
      "type": "Feature",
      "geometry": {
        "type": "Point",
        "coordinates": [
          15.9169557,
          49.7675839
        ]
      },
      "properties": {
        "id": 2489870492,
        "osm_type": "node",
        "name": "Benzina",
        "brand": "Benzina"
      }
    },
    {
      "type": "Feature",
      "geometry": {
        "type": "Point",
        "coordinates": [
          16.599734,
          49.9067689
        ]
      },
      "properties": {
        "id": 2700776975,
        "osm_type": "node",
        "name": "coop 24 Lanškroun",
        "opening_hours": "24/7"
      }
    },
    {
      "type": "Feature",
      "geometry": {
        "type": "Point",
        "coordinates": [
          15.7953931,
          49.9372033
        ]
      },
      "properties": {
        "id": 2782483994,
        "osm_type": "node",
        "name": "Benzina",
        "brand": "Benzina"
      }
    },
    {
      "type": "Feature",
      "geometry": {
        "type": "Point",
        "coordinates": [
          15.981658,
          50.0745771
        ]
      },
      "properties": {
        "id": 2913309949,
        "osm_type": "node",
        "name": "MOL",
        "brand": "MOL",
        "opening_hours": "24/7"
      }
    },
    {
      "type": "Feature",
      "geometry": {
        "type": "Point",
        "coordinates": [
          16.4785093,
          49.7443865
        ]
      },
      "properties": {
        "id": 3334249798,
        "osm_type": "node",
        "name": "OMV",
        "brand": "OMV",
        "opening_hours": "24/7"
      }
    },
    {
      "type": "Feature",
      "geometry": {
        "type": "Point",
        "coordinates": [
          15.91968,
          49.76982
        ]
      },
      "properties": {
        "id": 3334250795,
        "osm_type": "node",
        "name": "OMV",
        "brand": "OMV",
        "opening_hours": "Mo-Su 05:00-23:00"
      }
    },
    {
      "type": "Feature",
      "geometry": {
        "type": "Point",
        "coordinates": [
          16.2556665,
          49.7154703
        ]
      },
      "properties": {
        "id": 3409397963,
        "osm_type": "node",
        "name": "Shell",
        "brand": "Shell"
      }
    },
    {
      "type": "Feature",
      "geometry": {
        "type": "Point",
        "coordinates": [
          15.7496773,
          50.0594159
        ]
      },
      "properties": {
        "id": 3669858545,
        "osm_type": "node",
        "name": "Globus",
        "brand": "Globus",
        "opening_hours": "24/7"
      }
    },
    {
      "type": "Feature",
      "geometry": {
        "type": "Point",
        "coordinates": [
          16.2566519,
          49.7144358
        ]
      },
      "properties": {
        "id": 3767276157,
        "osm_type": "node",
        "name": "Orlen",
        "brand": "Orlen",
        "opening_hours": "05:00-23:00"
      }
    },
    {
      "type": "Feature",
      "geometry": {
        "type": "Point",
        "coordinates": [
          15.7658263,
          50.047015
        ]
      },
      "properties": {
        "id": 3840504540,
        "osm_type": "node",
        "name": "OMV",
        "brand": "OMV",
        "opening_hours": "24/7"
      }
    },
    {
      "type": "Feature",
      "geometry": {
        "type": "Point",
        "coordinates": [
          15.7325155,
          50.0211299
        ]
      },
      "properties": {
        "id": 3871339201,
        "osm_type": "node",
        "name": "MOL",
        "brand": "MOL",
        "opening_hours": "24/7"
      }
    },
    {
      "type": "Feature",
      "geometry": {
        "type": "Point",
        "coordinates": [
          15.7606553,
          50.0572552
        ]
      },
      "properties": {
        "id": 3882294597,
        "osm_type": "node",
        "name": "Kiwi Pardubice",
        "opening_hours": "24/7"
      }
    },
    {
      "type": "Feature",
      "geometry": {
        "type": "Point",
        "coordinates": [
          15.7528851,
          50.0601105
        ]
      },
      "properties": {
        "id": 3883016896,
        "osm_type": "node",
        "name": "EUROBIT"
      }
    },
    {
      "type": "Feature",
      "geometry": {
        "type": "Point",
        "coordinates": [
          15.7969213,
          49.9438039
        ]
      },
      "properties": {
        "id": 4031229170,
        "osm_type": "node",
        "name": "Nikey",
        "brand": "Nikey",
        "opening_hours": "24/7"
      }
    },
    {
      "type": "Feature",
      "geometry": {
        "type": "Point",
        "coordinates": [
          16.6791321,
          49.7963438
        ]
      },
      "properties": {
        "id": 4191963041,
        "osm_type": "node"
      }
    },
    {
      "type": "Feature",
      "geometry": {
        "type": "Point",
        "coordinates": [
          15.6891602,
          49.8598357
        ]
      },
      "properties": {
        "id": 4213182951,
        "osm_type": "node",
        "name": "Indikon",
        "brand": "Indikon",
        "opening_hours": "24/7"
      }
    },
    {
      "type": "Feature",
      "geometry": {
        "type": "Point",
        "coordinates": [
          16.5001922,
          50.034885
        ]
      },
      "properties": {
        "id": 4259926722,
        "osm_type": "node",
        "name": "Coop 24",
        "brand": "Coop",
        "opening_hours": "24/7"
      }
    },
    {
      "type": "Feature",
      "geometry": {
        "type": "Point",
        "coordinates": [
          16.4774191,
          49.7600428
        ]
      },
      "properties": {
        "id": 4291022694,
        "osm_type": "node",
        "name": "ČSAD"
      }
    },
    {
      "type": "Feature",
      "geometry": {
        "type": "Point",
        "coordinates": [
          16.4011609,
          49.9667881
        ]
      },
      "properties": {
        "id": 4506845601,
        "osm_type": "node",
        "name": "coop 24 Ústí nad Orlicí",
        "opening_hours": "24/7"
      }
    },
    {
      "type": "Feature",
      "geometry": {
        "type": "Point",
        "coordinates": [
          15.7510171,
          50.0345359
        ]
      },
      "properties": {
        "id": 4566492792,
        "osm_type": "node",
        "name": "Orlen",
        "brand": "Orlen",
        "opening_hours": "24/7"
      }
    },
    {
      "type": "Feature",
      "geometry": {
        "type": "Point",
        "coordinates": [
          16.1066584,
          49.813728
        ]
      },
      "properties": {
        "id": 4812026799,
        "osm_type": "node",
        "brand": "Caterone"
      }
    },
    {
      "type": "Feature",
      "geometry": {
        "type": "Point",
        "coordinates": [
          15.8005492,
          50.0415525
        ]
      },
      "properties": {
        "id": 4828735725,
        "osm_type": "node",
        "name": "Shell",
        "brand": "Shell"
      }
    },
    {
      "type": "Feature",
      "geometry": {
        "type": "Point",
        "coordinates": [
          16.4829327,
          49.7896632
        ]
      },
      "properties": {
        "id": 4828758421,
        "osm_type": "node",
        "name": "Shell",
        "brand": "Shell",
        "opening_hours": "24/7"
      }
    },
    {
      "type": "Feature",
      "geometry": {
        "type": "Point",
        "coordinates": [
          16.6061514,
          50.0252336
        ]
      },
      "properties": {
        "id": 4858320040,
        "osm_type": "node",
        "name": "EuroOil Jablonné nad Orlicí",
        "brand": "EuroOil",
        "opening_hours": "Mo-Su 06:00-20:00"
      }
    },
    {
      "type": "Feature",
      "geometry": {
        "type": "Point",
        "coordinates": [
          16.2685495,
          49.8335611
        ]
      },
      "properties": {
        "id": 4890686186,
        "osm_type": "node",
        "name": "Zaris, Dolní Újezd",
        "opening_hours": "Mo-Fr 06:00-18:30; Sa 06:30-15:30; Su 06:30-13:30"
      }
    },
    {
      "type": "Feature",
      "geometry": {
        "type": "Point",
        "coordinates": [
          15.8921773,
          49.7628083
        ]
      },
      "properties": {
        "id": 4904854540,
        "osm_type": "node",
        "name": "G.A.S. Petroleum",
        "brand": "G.A.S. Petroleum",
        "opening_hours": "Mo-Su 05:30-22:00"
      }
    },
    {
      "type": "Feature",
      "geometry": {
        "type": "Point",
        "coordinates": [
          16.3701435,
          50.0283292
        ]
      },
      "properties": {
        "id": 5255326766,
        "osm_type": "node",
        "name": "EUROBIT",
        "brand": "Eurobit"
      }
    },
    {
      "type": "Feature",
      "geometry": {
        "type": "Point",
        "coordinates": [
          15.7520033,
          50.0484913
        ]
      },
      "properties": {
        "id": 5265777006,
        "osm_type": "node",
        "name": "Prim Pardubice",
        "brand": "Prim",
        "opening_hours": "06:00-22:00"
      }
    },
    {
      "type": "Feature",
      "geometry": {
        "type": "Point",
        "coordinates": [
          15.7404269,
          49.8724952
        ]
      },
      "properties": {
        "id": 5358890101,
        "osm_type": "node"
      }
    },
    {
      "type": "Feature",
      "geometry": {
        "type": "Point",
        "coordinates": [
          16.7132374,
          49.6384153
        ]
      },
      "properties": {
        "id": 5422665575,
        "osm_type": "node",
        "name": "EuroOil",
        "brand": "EuroOil",
        "opening_hours": "Mo-Su 06:00-19:00"
      }
    },
    {
      "type": "Feature",
      "geometry": {
        "type": "Point",
        "coordinates": [
          15.7490184,
          50.0331447
        ]
      },
      "properties": {
        "id": 5424256424,
        "osm_type": "node",
        "name": "ČEPRO TANKOMAT",
        "opening_hours": "24/7"
      }
    },
    {
      "type": "Feature",
      "geometry": {
        "type": "Point",
        "coordinates": [
          15.7991995,
          49.956087
        ]
      },
      "properties": {
        "id": 5475382786,
        "osm_type": "node",
        "name": "Shell",
        "brand": "Shell",
        "opening_hours": "Mo-Su,PH 00:00-00:00"
      }
    },
    {
      "type": "Feature",
      "geometry": {
        "type": "Point",
        "coordinates": [
          16.4576868,
          49.8954355
        ]
      },
      "properties": {
        "id": 5599873981,
        "osm_type": "node",
        "name": "EuroOil",
        "brand": "EuroOil",
        "opening_hours": "24/7"
      }
    },
    {
      "type": "Feature",
      "geometry": {
        "type": "Point",
        "coordinates": [
          15.824804,
          50.0251212
        ]
      },
      "properties": {
        "id": 5599904393,
        "osm_type": "node",
        "name": "EuroOil",
        "brand": "EuroOil",
        "opening_hours": "Mo-Su 06:00-20:00"
      }
    },
    {
      "type": "Feature",
      "geometry": {
        "type": "Point",
        "coordinates": [
          16.2284861,
          49.9867667
        ]
      },
      "properties": {
        "id": 5599904634,
        "osm_type": "node",
        "name": "EuroOil Choceň",
        "brand": "EuroOil",
        "opening_hours": "Mo-Su 06:00-22:00"
      }
    },
    {
      "type": "Feature",
      "geometry": {
        "type": "Point",
        "coordinates": [
          15.4109225,
          50.0368361
        ]
      },
      "properties": {
        "id": 5614174778,
        "osm_type": "node",
        "name": "EuroOil Chvaletice",
        "brand": "EuroOil",
        "opening_hours": "Mo-Su 06:00-20:00"
      }
    },
    {
      "type": "Feature",
      "geometry": {
        "type": "Point",
        "coordinates": [
          16.3252543,
          49.865362
        ]
      },
      "properties": {
        "id": 5695399490,
        "osm_type": "node",
        "name": "EuroOil Litomyšl",
        "brand": "EuroOil",
        "opening_hours": "Mo-Fr 05:00-20:00;Sa-Su 06:00-20:00"
      }
    },
    {
      "type": "Feature",
      "geometry": {
        "type": "Point",
        "coordinates": [
          15.9212062,
          49.8298077
        ]
      },
      "properties": {
        "id": 5793546464,
        "osm_type": "node",
        "name": "ČEPRO - VOTAVA CZ",
        "opening_hours": "Mo-Fr 06:00-20:00,Sa-Su 07:00-20:00"
      }
    },
    {
      "type": "Feature",
      "geometry": {
        "type": "Point",
        "coordinates": [
          15.7826497,
          49.9604528
        ]
      },
      "properties": {
        "id": 6429862987,
        "osm_type": "node",
        "name": "MOL, Chrudim",
        "brand": "MOL",
        "opening_hours": "06:00-21:00"
      }
    },
    {
      "type": "Feature",
      "geometry": {
        "type": "Point",
        "coordinates": [
          15.8037238,
          50.0430744
        ]
      },
      "properties": {
        "id": 6429862988,
        "osm_type": "node",
        "name": "MOL, Pardubice - Jana Zajíce",
        "brand": "MOL",
        "opening_hours": "05:00-22:00"
      }
    },
    {
      "type": "Feature",
      "geometry": {
        "type": "Point",
        "coordinates": [
          16.5277733,
          49.621329
        ]
      },
      "properties": {
        "id": 7216995105,
        "osm_type": "node",
        "name": "TOPAS",
        "brand": "TOPAS"
      }
    },
    {
      "type": "Feature",
      "geometry": {
        "type": "Point",
        "coordinates": [
          16.6496689,
          49.758136
        ]
      },
      "properties": {
        "id": 7513458038,
        "osm_type": "node",
        "name": "Prim Moravská Třebová",
        "brand": "Prim",
        "opening_hours": "05:00-22:00"
      }
    },
    {
      "type": "Feature",
      "geometry": {
        "type": "Point",
        "coordinates": [
          15.7715996,
          50.0143718
        ]
      },
      "properties": {
        "id": 7529740454,
        "osm_type": "node",
        "name": "Eurobit, Pardubice",
        "opening_hours": "05:00-22:00"
      }
    },
    {
      "type": "Feature",
      "geometry": {
        "type": "Point",
        "coordinates": [
          16.2694323,
          49.748712
        ]
      },
      "properties": {
        "id": 7551953276,
        "osm_type": "node",
        "name": "Zaris, Polička",
        "opening_hours": "Mo-Fr 06:00-20:00; Sa,Su 07:00-20:00"
      }
    },
    {
      "type": "Feature",
      "geometry": {
        "type": "Point",
        "coordinates": [
          15.9808816,
          50.0739825
        ]
      },
      "properties": {
        "id": 7551970326,
        "osm_type": "node",
        "name": "Zaris, Holice",
        "opening_hours": "Mo-Fr 05:30-20:00; Sa, Su 07:00-20:00"
      }
    },
    {
      "type": "Feature",
      "geometry": {
        "type": "Point",
        "coordinates": [
          15.7547258,
          50.0272624
        ]
      },
      "properties": {
        "id": 7556486268,
        "osm_type": "node",
        "name": "Benzina - Pardubice, Dukla",
        "brand": "Benzina",
        "opening_hours": "05:00-23:00"
      }
    },
    {
      "type": "Feature",
      "geometry": {
        "type": "Point",
        "coordinates": [
          16.4562616,
          50.088745
        ]
      },
      "properties": {
        "id": 7556487688,
        "osm_type": "node",
        "name": "Benzina - Žamberk",
        "brand": "Benzina",
        "opening_hours": "24/7"
      }
    },
    {
      "type": "Feature",
      "geometry": {
        "type": "Point",
        "coordinates": [
          16.5345811,
          50.0547387
        ]
      },
      "properties": {
        "id": 7575515066,
        "osm_type": "node",
        "name": "Agro Žamberk - Šedivec",
        "opening_hours": "Mo-Fr 05:00-23:00; PH,Sa,Su 06:30-23:00"
      }
    },
    {
      "type": "Feature",
      "geometry": {
        "type": "Point",
        "coordinates": [
          16.34889,
          49.892304
        ]
      },
      "properties": {
        "id": 7575515193,
        "osm_type": "node",
        "name": "Agro Žamberk - Němčice",
        "opening_hours": "Mo-Fr 06:00-21:00; PH,Sa,Su 07:00-21:00"
      }
    },
    {
      "type": "Feature",
      "geometry": {
        "type": "Point",
        "coordinates": [
          16.4738037,
          50.0072252
        ]
      },
      "properties": {
        "id": 7575515198,
        "osm_type": "node",
        "name": "Agro Žamberk - Dolní Dobrouč",
        "opening_hours": "Mo-Fr 05:30-22:00; PH,Sa,Su 07:00-21:00"
      }
    },
    {
      "type": "Feature",
      "geometry": {
        "type": "Point",
        "coordinates": [
          15.5254705,
          49.8840787
        ]
      },
      "properties": {
        "id": 8032927638,
        "osm_type": "node"
      }
    },
    {
      "type": "Feature",
      "geometry": {
        "type": "Point",
        "coordinates": [
          16.6808041,
          49.7612889
        ]
      },
      "properties": {
        "id": 9038883479,
        "osm_type": "node"
      }
    },
    {
      "type": "Feature",
      "geometry": {
        "type": "Point",
        "coordinates": [
          16.6583841,
          49.7505382
        ]
      },
      "properties": {
        "id": 11175189196,
        "osm_type": "node",
        "name": "CCoil",
        "opening_hours": "05:00-22:00"
      }
    },
    {
      "type": "Feature",
      "geometry": {
        "type": "Point",
        "coordinates": [
          16.4849026,
          49.7680268
        ]
      },
      "properties": {
        "id": 12142655845,
        "osm_type": "node"
      }
    },
    {
      "type": "Feature",
      "geometry": {
        "type": "Point",
        "coordinates": [
          16.1168355,
          49.9843307
        ]
      },
      "properties": {
        "id": 12215002610,
        "osm_type": "node",
        "name": "Autocentrum Zámrsk"
      }
    },
    {
      "type": "Feature",
      "geometry": {
        "type": "Point",
        "coordinates": [
          16.4577452,
          49.8954288
        ]
      },
      "properties": {
        "id": 12681485989,
        "osm_type": "node",
        "name": "ATM Energy",
        "brand": "ATM Energy",
        "opening_hours": "24/7"
      }
    },
    {
      "type": "Feature",
      "geometry": {
        "type": "Point",
        "coordinates": [
          15.7678211,
          50.0447364
        ]
      },
      "properties": {
        "id": 12824172857,
        "osm_type": "node",
        "name": "Orlen benzina",
        "brand": "Orlen",
        "opening_hours": "24/7"
      }
    },
    {
      "type": "Feature",
      "geometry": {
        "type": "Point",
        "coordinates": [
          16.2234125,
          49.7412706
        ]
      },
      "properties": {
        "id": 13039621730,
        "osm_type": "node",
        "name": "F24"
      }
    },
    {
      "type": "Feature",
      "geometry": {
        "type": "Point",
        "coordinates": [
          16.3888905,
          49.8334532
        ]
      },
      "properties": {
        "id": 13581740570,
        "osm_type": "node",
        "name": "Čerpací stanice Janov",
        "opening_hours": "24/7"
      }
    },
    {
      "type": "Feature",
      "geometry": {
        "type": "Point",
        "coordinates": [
          15.4777812,
          50.0857871
        ]
      },
      "properties": {
        "id": 13704202696,
        "osm_type": "node",
        "name": "ELEKTROVASURY"
      }
    },
    {
      "type": "Feature",
      "geometry": {
        "type": "Point",
        "coordinates": [
          16.4769317,
          49.753274
        ]
      },
      "properties": {
        "id": 13746158836,
        "osm_type": "node",
        "name": "Orlen",
        "brand": "Orlen",
        "opening_hours": "24/7"
      }
    },
    {
      "type": "Feature",
      "geometry": {
        "type": "Point",
        "coordinates": [
          15.7993057,
          49.9563404
        ]
      },
      "properties": {
        "id": 39013479,
        "osm_type": "way",
        "name": "Hungas LPG"
      }
    },
    {
      "type": "Feature",
      "geometry": {
        "type": "Point",
        "coordinates": [
          15.7953627,
          49.9372286
        ]
      },
      "properties": {
        "id": 59034005,
        "osm_type": "way",
        "name": "Benzina",
        "brand": "Benzina"
      }
    },
    {
      "type": "Feature",
      "geometry": {
        "type": "Point",
        "coordinates": [
          16.4047329,
          49.9660009
        ]
      },
      "properties": {
        "id": 62389396,
        "osm_type": "way",
        "name": "ORLEN - Ústí Nad Orlicí, Moravská",
        "brand": "Benzina",
        "opening_hours": "05:00-22:00"
      }
    },
    {
      "type": "Feature",
      "geometry": {
        "type": "Point",
        "coordinates": [
          15.5765123,
          50.1162549
        ]
      },
      "properties": {
        "id": 70341373,
        "osm_type": "way"
      }
    },
    {
      "type": "Feature",
      "geometry": {
        "type": "Point",
        "coordinates": [
          16.5961124,
          49.912954
        ]
      },
      "properties": {
        "id": 71046613,
        "osm_type": "way",
        "name": "LPG LiYoS",
        "opening_hours": "Mo-Su 08:00-20:00"
      }
    },
    {
      "type": "Feature",
      "geometry": {
        "type": "Point",
        "coordinates": [
          16.5952956,
          49.9069865
        ]
      },
      "properties": {
        "id": 71207788,
        "osm_type": "way"
      }
    },
    {
      "type": "Feature",
      "geometry": {
        "type": "Point",
        "coordinates": [
          16.5756854,
          49.8923771
        ]
      },
      "properties": {
        "id": 168618691,
        "osm_type": "way"
      }
    },
    {
      "type": "Feature",
      "geometry": {
        "type": "Point",
        "coordinates": [
          15.8846628,
          50.1023912
        ]
      },
      "properties": {
        "id": 178235974,
        "osm_type": "way",
        "name": "Fuel"
      }
    },
    {
      "type": "Feature",
      "geometry": {
        "type": "Point",
        "coordinates": [
          16.7228316,
          49.7142394
        ]
      },
      "properties": {
        "id": 211329456,
        "osm_type": "way"
      }
    },
    {
      "type": "Feature",
      "geometry": {
        "type": "Point",
        "coordinates": [
          15.5645909,
          50.0373657
        ]
      },
      "properties": {
        "id": 211554956,
        "osm_type": "way",
        "name": "Benzina",
        "brand": "Benzina"
      }
    },
    {
      "type": "Feature",
      "geometry": {
        "type": "Point",
        "coordinates": [
          16.4052184,
          49.8236347
        ]
      },
      "properties": {
        "id": 214809096,
        "osm_type": "way",
        "name": "Benzina",
        "brand": "Benzina"
      }
    },
    {
      "type": "Feature",
      "geometry": {
        "type": "Point",
        "coordinates": [
          16.4860964,
          49.7150118
        ]
      },
      "properties": {
        "id": 221616183,
        "osm_type": "way",
        "name": "ORLEN",
        "brand": "ORLEN"
      }
    },
    {
      "type": "Feature",
      "geometry": {
        "type": "Point",
        "coordinates": [
          15.8184545,
          49.9106478
        ]
      },
      "properties": {
        "id": 225744582,
        "osm_type": "way",
        "name": "ČS Slatiňany"
      }
    },
    {
      "type": "Feature",
      "geometry": {
        "type": "Point",
        "coordinates": [
          15.7745509,
          50.0603021
        ]
      },
      "properties": {
        "id": 264912926,
        "osm_type": "way",
        "name": "MOL",
        "brand": "MOL"
      }
    },
    {
      "type": "Feature",
      "geometry": {
        "type": "Point",
        "coordinates": [
          16.4259936,
          50.0935446
        ]
      },
      "properties": {
        "id": 315689958,
        "osm_type": "way",
        "name": "Olbena",
        "brand": "Olbena"
      }
    },
    {
      "type": "Feature",
      "geometry": {
        "type": "Point",
        "coordinates": [
          16.7413976,
          50.043032
        ]
      },
      "properties": {
        "id": 351834722,
        "osm_type": "way"
      }
    },
    {
      "type": "Feature",
      "geometry": {
        "type": "Point",
        "coordinates": [
          16.5342772,
          50.0548334
        ]
      },
      "properties": {
        "id": 388848798,
        "osm_type": "way"
      }
    },
    {
      "type": "Feature",
      "geometry": {
        "type": "Point",
        "coordinates": [
          16.4608779,
          50.073194
        ]
      },
      "properties": {
        "id": 407732919,
        "osm_type": "way",
        "name": "Agro Žamberk",
        "brand": "Agro Žamberk"
      }
    },
    {
      "type": "Feature",
      "geometry": {
        "type": "Point",
        "coordinates": [
          15.8947797,
          50.1429794
        ]
      },
      "properties": {
        "id": 476500826,
        "osm_type": "way",
        "name": "Benzina",
        "brand": "Benzina",
        "opening_hours": "Mo-Su 05:00-22:00"
      }
    },
    {
      "type": "Feature",
      "geometry": {
        "type": "Point",
        "coordinates": [
          16.6003843,
          49.8769129
        ]
      },
      "properties": {
        "id": 568671808,
        "osm_type": "way"
      }
    },
    {
      "type": "Feature",
      "geometry": {
        "type": "Point",
        "coordinates": [
          15.9176928,
          49.9610473
        ]
      },
      "properties": {
        "id": 640765279,
        "osm_type": "way"
      }
    },
    {
      "type": "Feature",
      "geometry": {
        "type": "Point",
        "coordinates": [
          15.575047,
          49.8757236
        ]
      },
      "properties": {
        "id": 701777440,
        "osm_type": "way",
        "name": "K & P čerpací stanice"
      }
    },
    {
      "type": "Feature",
      "geometry": {
        "type": "Point",
        "coordinates": [
          15.6129022,
          49.8752004
        ]
      },
      "properties": {
        "id": 943633419,
        "osm_type": "way"
      }
    },
    {
      "type": "Feature",
      "geometry": {
        "type": "Point",
        "coordinates": [
          15.8225647,
          50.0255648
        ]
      },
      "properties": {
        "id": 1014025481,
        "osm_type": "way",
        "name": "TOMEGAS",
        "opening_hours": "Mo-Su 06:00-18:00"
      }
    },
    {
      "type": "Feature",
      "geometry": {
        "type": "Point",
        "coordinates": [
          15.5222927,
          49.8893346
        ]
      },
      "properties": {
        "id": 1049257076,
        "osm_type": "way",
        "name": "Čerpací stanice LPG"
      }
    },
    {
      "type": "Feature",
      "geometry": {
        "type": "Point",
        "coordinates": [
          15.8128287,
          49.7901538
        ]
      },
      "properties": {
        "id": 1081698213,
        "osm_type": "way",
        "name": "Eurobit",
        "opening_hours": "Mo-Su,PH 05:00-22:00"
      }
    },
    {
      "type": "Feature",
      "geometry": {
        "type": "Point",
        "coordinates": [
          15.9743564,
          50.0163676
        ]
      },
      "properties": {
        "id": 1111962536,
        "osm_type": "way",
        "name": "Shell",
        "brand": "Shell"
      }
    },
    {
      "type": "Feature",
      "geometry": {
        "type": "Point",
        "coordinates": [
          15.9750277,
          50.0178381
        ]
      },
      "properties": {
        "id": 1111962540,
        "osm_type": "way",
        "name": "Shell",
        "brand": "Shell"
      }
    }
  ]
}