{
  "type": "FeatureCollection",
  "features": [
    {
      "type": "Feature",
      "geometry": {
        "type": "Point",
        "coordinates": [
          29.5212501,
          37.3198191
        ]
      },
      "properties": {
        "id": 1401431695,
        "osm_type": "node"
      }
    },
    {
      "type": "Feature",
      "geometry": {
        "type": "Point",
        "coordinates": [
          29.119534,
          37.9164008
        ]
      },
      "properties": {
        "id": 2465804771,
        "osm_type": "node",
        "name": "İlhan Bakkal"
      }
    },
    {
      "type": "Feature",
      "geometry": {
        "type": "Point",
        "coordinates": [
          29.1180421,
          37.9121852
        ]
      },
      "properties": {
        "id": 2465807174,
        "osm_type": "node",
        "name": "Poyraz Market"
      }
    },
    {
      "type": "Feature",
      "geometry": {
        "type": "Point",
        "coordinates": [
          28.887156,
          37.9249901
        ]
      },
      "properties": {
        "id": 3561569581,
        "osm_type": "node"
      }
    },
    {
      "type": "Feature",
      "geometry": {
        "type": "Point",
        "coordinates": [
          29.0812532,
          37.7828467
        ]
      },
      "properties": {
        "id": 3765265226,
        "osm_type": "node",
        "name": "Kan Market"
      }
    },
    {
      "type": "Feature",
      "geometry": {
        "type": "Point",
        "coordinates": [
          29.1008829,
          37.7565841
        ]
      },
      "properties": {
        "id": 3773456714,
        "osm_type": "node",
        "name": "Samet Market"
      }
    },
    {
      "type": "Feature",
      "geometry": {
        "type": "Point",
        "coordinates": [
          29.0990005,
          37.7645402
        ]
      },
      "properties": {
        "id": 3773669570,
        "osm_type": "node",
        "name": "Efe Büfe Tekel Bayi"
      }
    },
    {
      "type": "Feature",
      "geometry": {
        "type": "Point",
        "coordinates": [
          29.0949771,
          37.7420065
        ]
      },
      "properties": {
        "id": 3775294663,
        "osm_type": "node",
        "name": "Bayır Büfe"
      }
    },
    {
      "type": "Feature",
      "geometry": {
        "type": "Point",
        "coordinates": [
          29.1001214,
          37.7482931
        ]
      },
      "properties": {
        "id": 3775730491,
        "osm_type": "node",
        "name": "Bardakçıoğlu Market"
      }
    },
    {
      "type": "Feature",
      "geometry": {
        "type": "Point",
        "coordinates": [
          29.0960314,
          37.7513437
        ]
      },
      "properties": {
        "id": 3775753057,
        "osm_type": "node",
        "name": "Eyice Market"
      }
    },
    {
      "type": "Feature",
      "geometry": {
        "type": "Point",
        "coordinates": [
          29.0550817,
          37.750706
        ]
      },
      "properties": {
        "id": 3780907960,
        "osm_type": "node",
        "name": "Çiftlikoğlu Şarküter"
      }
    },
    {
      "type": "Feature",
      "geometry": {
        "type": "Point",
        "coordinates": [
          29.0551781,
          37.7521207
        ]
      },
      "properties": {
        "id": 3780933481,
        "osm_type": "node",
        "name": "Doğa Şarküteri"
      }
    },
    {
      "type": "Feature",
      "geometry": {
        "type": "Point",
        "coordinates": [
          29.1204503,
          37.9191582
        ]
      },
      "properties": {
        "id": 3786704276,
        "osm_type": "node",
        "name": "Saraç Büfe"
      }
    },
    {
      "type": "Feature",
      "geometry": {
        "type": "Point",
        "coordinates": [
          29.0878829,
          37.7516587
        ]
      },
      "properties": {
        "id": 3787556553,
        "osm_type": "node",
        "name": "Gül Market"
      }
    },
    {
      "type": "Feature",
      "geometry": {
        "type": "Point",
        "coordinates": [
          29.0890631,
          37.7518729
        ]
      },
      "properties": {
        "id": 3787556556,
        "osm_type": "node",
        "name": "Cadde Market"
      }
    },
    {
      "type": "Feature",
      "geometry": {
        "type": "Point",
        "coordinates": [
          29.0853562,
          37.7529163
        ]
      },
      "properties": {
        "id": 3787557860,
        "osm_type": "node"
      }
    },
    {
      "type": "Feature",
      "geometry": {
        "type": "Point",
        "coordinates": [
          29.0873572,
          37.753368
        ]
      },
      "properties": {
        "id": 3787557862,
        "osm_type": "node"
      }
    },
    {
      "type": "Feature",
      "geometry": {
        "type": "Point",
        "coordinates": [
          29.0879731,
          37.7553958
        ]
      },
      "properties": {
        "id": 3787585886,
        "osm_type": "node",
        "name": "Kurtuluş Market"
      }
    },
    {
      "type": "Feature",
      "geometry": {
        "type": "Point",
        "coordinates": [
          29.0861737,
          37.7586892
        ]
      },
      "properties": {
        "id": 3787600913,
        "osm_type": "node",
        "name": "Yükseller Market"
      }
    },
    {
      "type": "Feature",
      "geometry": {
        "type": "Point",
        "coordinates": [
          29.083142,
          37.7593655
        ]
      },
      "properties": {
        "id": 3787612687,
        "osm_type": "node"
      }
    },
    {
      "type": "Feature",
      "geometry": {
        "type": "Point",
        "coordinates": [
          29.086122,
          37.7571873
        ]
      },
      "properties": {
        "id": 3787612693,
        "osm_type": "node",
        "name": "Yayla Market"
      }
    },
    {
      "type": "Feature",
      "geometry": {
        "type": "Point",
        "coordinates": [
          29.0880868,
          37.7576518
        ]
      },
      "properties": {
        "id": 3787613690,
        "osm_type": "node",
        "name": "Atılgan Market"
      }
    },
    {
      "type": "Feature",
      "geometry": {
        "type": "Point",
        "coordinates": [
          29.09238,
          37.7576883
        ]
      },
      "properties": {
        "id": 3788945261,
        "osm_type": "node"
      }
    },
    {
      "type": "Feature",
      "geometry": {
        "type": "Point",
        "coordinates": [
          29.0940752,
          37.7559664
        ]
      },
      "properties": {
        "id": 3788945265,
        "osm_type": "node",
        "name": "Merve Market"
      }
    },
    {
      "type": "Feature",
      "geometry": {
        "type": "Point",
        "coordinates": [
          29.0957816,
          37.7560804
        ]
      },
      "properties": {
        "id": 3789033496,
        "osm_type": "node",
        "name": "Görkem Büfe"
      }
    },
    {
      "type": "Feature",
      "geometry": {
        "type": "Point",
        "coordinates": [
          29.1434679,
          37.6983648
        ]
      },
      "properties": {
        "id": 3790568607,
        "osm_type": "node"
      }
    },
    {
      "type": "Feature",
      "geometry": {
        "type": "Point",
        "coordinates": [
          29.0912021,
          37.7613821
        ]
      },
      "properties": {
        "id": 3791238467,
        "osm_type": "node"
      }
    },
    {
      "type": "Feature",
      "geometry": {
        "type": "Point",
        "coordinates": [
          29.0855292,
          37.7590262
        ]
      },
      "properties": {
        "id": 3791238477,
        "osm_type": "node",
        "name": "Memişoğlu Market"
      }
    },
    {
      "type": "Feature",
      "geometry": {
        "type": "Point",
        "coordinates": [
          29.0843282,
          37.7648985
        ]
      },
      "properties": {
        "id": 3791691530,
        "osm_type": "node",
        "name": "Yudum Büfe"
      }
    },
    {
      "type": "Feature",
      "geometry": {
        "type": "Point",
        "coordinates": [
          29.0922176,
          37.7648742
        ]
      },
      "properties": {
        "id": 3794135944,
        "osm_type": "node",
        "name": "Aksu Market"
      }
    },
    {
      "type": "Feature",
      "geometry": {
        "type": "Point",
        "coordinates": [
          29.0229898,
          37.7786011
        ]
      },
      "properties": {
        "id": 3799229951,
        "osm_type": "node",
        "name": "Kaya Market"
      }
    },
    {
      "type": "Feature",
      "geometry": {
        "type": "Point",
        "coordinates": [
          29.0229716,
          37.7798854
        ]
      },
      "properties": {
        "id": 3799245773,
        "osm_type": "node",
        "name": "Can Market"
      }
    },
    {
      "type": "Feature",
      "geometry": {
        "type": "Point",
        "coordinates": [
          29.027823,
          37.7787386
        ]
      },
      "properties": {
        "id": 3799275904,
        "osm_type": "node",
        "name": "A101 Market",
        "opening_hours": "Mo-Su 09:00-21:00+"
      }
    },
    {
      "type": "Feature",
      "geometry": {
        "type": "Point",
        "coordinates": [
          29.0388352,
          37.7815222
        ]
      },
      "properties": {
        "id": 3815315595,
        "osm_type": "node",
        "name": "Tuana Market"
      }
    },
    {
      "type": "Feature",
      "geometry": {
        "type": "Point",
        "coordinates": [
          29.081965,
          37.7729383
        ]
      },
      "properties": {
        "id": 3817334396,
        "osm_type": "node",
        "name": "Nail Bakkal"
      }
    },
    {
      "type": "Feature",
      "geometry": {
        "type": "Point",
        "coordinates": [
          29.0707574,
          37.5725515
        ]
      },
      "properties": {
        "id": 4294584317,
        "osm_type": "node",
        "name": "Veli Bakkal Gazete Dergi"
      }
    },
    {
      "type": "Feature",
      "geometry": {
        "type": "Point",
        "coordinates": [
          29.0560651,
          37.5854943
        ]
      },
      "properties": {
        "id": 4294584700,
        "osm_type": "node",
        "name": "Bakkal Bagpazari"
      }
    },
    {
      "type": "Feature",
      "geometry": {
        "type": "Point",
        "coordinates": [
          29.0720286,
          37.5728917
        ]
      },
      "properties": {
        "id": 4294584804,
        "osm_type": "node",
        "name": "Varlikli Market",
        "opening_hours": "Mo-Su 07:00-22:00"
      }
    },
    {
      "type": "Feature",
      "geometry": {
        "type": "Point",
        "coordinates": [
          29.0609748,
          37.5809277
        ]
      },
      "properties": {
        "id": 4315654422,
        "osm_type": "node",
        "name": "Kınlı Büfe"
      }
    },
    {
      "type": "Feature",
      "geometry": {
        "type": "Point",
        "coordinates": [
          29.0831247,
          37.7829771
        ]
      },
      "properties": {
        "id": 4331385249,
        "osm_type": "node",
        "name": "Başarırlar Kırtasiye"
      }
    },
    {
      "type": "Feature",
      "geometry": {
        "type": "Point",
        "coordinates": [
          29.0822016,
          37.7770849
        ]
      },
      "properties": {
        "id": 4331459746,
        "osm_type": "node",
        "name": "Tuğba Kırtasiye"
      }
    },
    {
      "type": "Feature",
      "geometry": {
        "type": "Point",
        "coordinates": [
          29.1957026,
          37.8424694
        ]
      },
      "properties": {
        "id": 4403303690,
        "osm_type": "node",
        "name": "Saraçoğlu Market"
      }
    },
    {
      "type": "Feature",
      "geometry": {
        "type": "Point",
        "coordinates": [
          29.121781,
          37.9175961
        ]
      },
      "properties": {
        "id": 4760226622,
        "osm_type": "node"
      }
    },
    {
      "type": "Feature",
      "geometry": {
        "type": "Point",
        "coordinates": [
          29.0103106,
          37.9555878
        ]
      },
      "properties": {
        "id": 4771956321,
        "osm_type": "node",
        "name": "Adaköy Bakkal"
      }
    },
    {
      "type": "Feature",
      "geometry": {
        "type": "Point",
        "coordinates": [
          29.0083823,
          37.4718518
        ]
      },
      "properties": {
        "id": 5246868243,
        "osm_type": "node",
        "name": "Paydaş Market"
      }
    },
    {
      "type": "Feature",
      "geometry": {
        "type": "Point",
        "coordinates": [
          29.0085352,
          37.4713452
        ]
      },
      "properties": {
        "id": 5246868244,
        "osm_type": "node",
        "name": "Zaybak Market"
      }
    },
    {
      "type": "Feature",
      "geometry": {
        "type": "Point",
        "coordinates": [
          29.0819652,
          37.7755744
        ]
      },
      "properties": {
        "id": 5312559565,
        "osm_type": "node",
        "name": "YÜKSEKTEPE GIDA"
      }
    },
    {
      "type": "Feature",
      "geometry": {
        "type": "Point",
        "coordinates": [
          29.0266786,
          37.8024524
        ]
      },
      "properties": {
        "id": 5314107226,
        "osm_type": "node"
      }
    },
    {
      "type": "Feature",
      "geometry": {
        "type": "Point",
        "coordinates": [
          29.0957596,
          37.7824182
        ]
      },
      "properties": {
        "id": 5938458688,
        "osm_type": "node"
      }
    },
    {
      "type": "Feature",
      "geometry": {
        "type": "Point",
        "coordinates": [
          29.0963275,
          37.7440855
        ]
      },
      "properties": {
        "id": 5938936750,
        "osm_type": "node",
        "name": "Özlem Tekel"
      }
    },
    {
      "type": "Feature",
      "geometry": {
        "type": "Point",
        "coordinates": [
          29.0955771,
          37.7442898
        ]
      },
      "properties": {
        "id": 5938936762,
        "osm_type": "node",
        "name": "Kampüs Büfe"
      }
    },
    {
      "type": "Feature",
      "geometry": {
        "type": "Point",
        "coordinates": [
          29.0968056,
          37.7435095
        ]
      },
      "properties": {
        "id": 5938936767,
        "osm_type": "node",
        "name": "Tefenlili"
      }
    },
    {
      "type": "Feature",
      "geometry": {
        "type": "Point",
        "coordinates": [
          29.0965557,
          37.7433306
        ]
      },
      "properties": {
        "id": 5938936993,
        "osm_type": "node",
        "name": "Balcı Büfe"
      }
    },
    {
      "type": "Feature",
      "geometry": {
        "type": "Point",
        "coordinates": [
          29.1170295,
          37.9185369
        ]
      },
      "properties": {
        "id": 6156189085,
        "osm_type": "node"
      }
    },
    {
      "type": "Feature",
      "geometry": {
        "type": "Point",
        "coordinates": [
          29.3500745,
          37.4296999
        ]
      },
      "properties": {
        "id": 6161787615,
        "osm_type": "node",
        "name": "pekdemir"
      }
    },
    {
      "type": "Feature",
      "geometry": {
        "type": "Point",
        "coordinates": [
          29.0926034,
          37.7639384
        ]
      },
      "properties": {
        "id": 6558290985,
        "osm_type": "node",
        "name": "şaşkın bakkal"
      }
    },
    {
      "type": "Feature",
      "geometry": {
        "type": "Point",
        "coordinates": [
          29.0786991,
          37.7738874
        ]
      },
      "properties": {
        "id": 6558290986,
        "osm_type": "node",
        "name": "YİĞİT Market"
      }
    },
    {
      "type": "Feature",
      "geometry": {
        "type": "Point",
        "coordinates": [
          29.431732,
          37.3783358
        ]
      },
      "properties": {
        "id": 7110666516,
        "osm_type": "node",
        "name": "Bi Mola"
      }
    },
    {
      "type": "Feature",
      "geometry": {
        "type": "Point",
        "coordinates": [
          29.0255793,
          37.7800858
        ]
      },
      "properties": {
        "id": 8342439652,
        "osm_type": "node",
        "name": "Eren Market",
        "opening_hours": "Mo-Su 07:30-23:00+"
      }
    },
    {
      "type": "Feature",
      "geometry": {
        "type": "Point",
        "coordinates": [
          29.1209589,
          37.9176433
        ]
      },
      "properties": {
        "id": 8622601617,
        "osm_type": "node"
      }
    },
    {
      "type": "Feature",
      "geometry": {
        "type": "Point",
        "coordinates": [
          29.1641694,
          37.8170152
        ]
      },
      "properties": {
        "id": 8735554630,
        "osm_type": "node",
        "name": "Ekomini",
        "brand": "Ekomini"
      }
    },
    {
      "type": "Feature",
      "geometry": {
        "type": "Point",
        "coordinates": [
          29.1193761,
          37.9131912
        ]
      },
      "properties": {
        "id": 10033842024,
        "osm_type": "node",
        "name": "Can market"
      }
    },
    {
      "type": "Feature",
      "geometry": {
        "type": "Point",
        "coordinates": [
          29.1181978,
          37.9148297
        ]
      },
      "properties": {
        "id": 10033859739,
        "osm_type": "node"
      }
    },
    {
      "type": "Feature",
      "geometry": {
        "type": "Point",
        "coordinates": [
          29.1212598,
          37.9189067
        ]
      },
      "properties": {
        "id": 10035646139,
        "osm_type": "node"
      }
    },
    {
      "type": "Feature",
      "geometry": {
        "type": "Point",
        "coordinates": [
          29.1114184,
          37.7439104
        ]
      },
      "properties": {
        "id": 10551680648,
        "osm_type": "node",
        "name": "Atalay",
        "opening_hours": "24/7"
      }
    },
    {
      "type": "Feature",
      "geometry": {
        "type": "Point",
        "coordinates": [
          29.1108587,
          37.7436874
        ]
      },
      "properties": {
        "id": 10551680649,
        "osm_type": "node",
        "name": "Aliverin Gari - 2",
        "opening_hours": "24/7"
      }
    },
    {
      "type": "Feature",
      "geometry": {
        "type": "Point",
        "coordinates": [
          29.1052826,
          37.7434329
        ]
      },
      "properties": {
        "id": 10554315681,
        "osm_type": "node",
        "name": "Kampus"
      }
    },
    {
      "type": "Feature",
      "geometry": {
        "type": "Point",
        "coordinates": [
          29.1194285,
          37.7362965
        ]
      },
      "properties": {
        "id": 10554339341,
        "osm_type": "node",
        "name": "Şok"
      }
    },
    {
      "type": "Feature",
      "geometry": {
        "type": "Point",
        "coordinates": [
          29.1076459,
          37.7470393
        ]
      },
      "properties": {
        "id": 10554573279,
        "osm_type": "node",
        "name": "A 101"
      }
    },
    {
      "type": "Feature",
      "geometry": {
        "type": "Point",
        "coordinates": [
          29.104055,
          37.7476965
        ]
      },
      "properties": {
        "id": 10555253661,
        "osm_type": "node",
        "name": "Umul"
      }
    },
    {
      "type": "Feature",
      "geometry": {
        "type": "Point",
        "coordinates": [
          29.1105683,
          37.7454632
        ]
      },
      "properties": {
        "id": 10556653118,
        "osm_type": "node",
        "name": "10 line"
      }
    },
    {
      "type": "Feature",
      "geometry": {
        "type": "Point",
        "coordinates": [
          29.1119677,
          37.7458091
        ]
      },
      "properties": {
        "id": 10568606124,
        "osm_type": "node",
        "name": "Çamlıoğlu"
      }
    },
    {
      "type": "Feature",
      "geometry": {
        "type": "Point",
        "coordinates": [
          29.1091999,
          37.7442167
        ]
      },
      "properties": {
        "id": 10570828384,
        "osm_type": "node",
        "name": "Şok"
      }
    },
    {
      "type": "Feature",
      "geometry": {
        "type": "Point",
        "coordinates": [
          29.0969072,
          37.7506367
        ]
      },
      "properties": {
        "id": 10573148169,
        "osm_type": "node",
        "name": "Şok"
      }
    },
    {
      "type": "Feature",
      "geometry": {
        "type": "Point",
        "coordinates": [
          29.1154813,
          37.7465047
        ]
      },
      "properties": {
        "id": 10584050471,
        "osm_type": "node",
        "name": "Bim"
      }
    },
    {
      "type": "Feature",
      "geometry": {
        "type": "Point",
        "coordinates": [
          29.1158247,
          37.7463265
        ]
      },
      "properties": {
        "id": 10584050472,
        "osm_type": "node",
        "name": "A 101"
      }
    },
    {
      "type": "Feature",
      "geometry": {
        "type": "Point",
        "coordinates": [
          29.1157299,
          37.7464891
        ]
      },
      "properties": {
        "id": 10584050473,
        "osm_type": "node",
        "name": "Şok"
      }
    },
    {
      "type": "Feature",
      "geometry": {
        "type": "Point",
        "coordinates": [
          29.1134623,
          37.7453832
        ]
      },
      "properties": {
        "id": 10584065471,
        "osm_type": "node",
        "name": "Yayın"
      }
    },
    {
      "type": "Feature",
      "geometry": {
        "type": "Point",
        "coordinates": [
          29.1004215,
          37.753681
        ]
      },
      "properties": {
        "id": 10588927431,
        "osm_type": "node",
        "name": "Selda Merkat"
      }
    },
    {
      "type": "Feature",
      "geometry": {
        "type": "Point",
        "coordinates": [
          29.1001558,
          37.7517221
        ]
      },
      "properties": {
        "id": 10588927433,
        "osm_type": "node",
        "name": "Şok"
      }
    },
    {
      "type": "Feature",
      "geometry": {
        "type": "Point",
        "coordinates": [
          29.0941298,
          37.7463099
        ]
      },
      "properties": {
        "id": 10589091319,
        "osm_type": "node",
        "name": "Şok"
      }
    },
    {
      "type": "Feature",
      "geometry": {
        "type": "Point",
        "coordinates": [
          29.1159086,
          37.7405804
        ]
      },
      "properties": {
        "id": 10594550091,
        "osm_type": "node"
      }
    },
    {
      "type": "Feature",
      "geometry": {
        "type": "Point",
        "coordinates": [
          29.1157385,
          37.7406114
        ]
      },
      "properties": {
        "id": 10594550092,
        "osm_type": "node",
        "name": "A 101"
      }
    },
    {
      "type": "Feature",
      "geometry": {
        "type": "Point",
        "coordinates": [
          29.1056343,
          37.7458878
        ]
      },
      "properties": {
        "id": 10606769308,
        "osm_type": "node"
      }
    },
    {
      "type": "Feature",
      "geometry": {
        "type": "Point",
        "coordinates": [
          29.1060099,
          37.7457096
        ]
      },
      "properties": {
        "id": 10606769309,
        "osm_type": "node",
        "name": "Tirbuşon shop"
      }
    },
    {
      "type": "Feature",
      "geometry": {
        "type": "Point",
        "coordinates": [
          29.1011444,
          37.7529623
        ]
      },
      "properties": {
        "id": 10612202770,
        "osm_type": "node",
        "name": "A101"
      }
    },
    {
      "type": "Feature",
      "geometry": {
        "type": "Point",
        "coordinates": [
          29.1004016,
          37.7518429
        ]
      },
      "properties": {
        "id": 10615396061,
        "osm_type": "node"
      }
    },
    {
      "type": "Feature",
      "geometry": {
        "type": "Point",
        "coordinates": [
          29.1020862,
          37.7503888
        ]
      },
      "properties": {
        "id": 10615422370,
        "osm_type": "node",
        "name": "Cool drink tekel"
      }
    },
    {
      "type": "Feature",
      "geometry": {
        "type": "Point",
        "coordinates": [
          29.0591777,
          37.7784375
        ]
      },
      "properties": {
        "id": 10638197445,
        "osm_type": "node",
        "name": "Tiryaki Shop"
      }
    },
    {
      "type": "Feature",
      "geometry": {
        "type": "Point",
        "coordinates": [
          29.1099978,
          37.750298
        ]
      },
      "properties": {
        "id": 10648800881,
        "osm_type": "node",
        "name": "Eva"
      }
    },
    {
      "type": "Feature",
      "geometry": {
        "type": "Point",
        "coordinates": [
          29.1098129,
          37.7506303
        ]
      },
      "properties": {
        "id": 10648800885,
        "osm_type": "node",
        "name": "Nirvana"
      }
    },
    {
      "type": "Feature",
      "geometry": {
        "type": "Point",
        "coordinates": [
          29.1131382,
          37.7467023
        ]
      },
      "properties": {
        "id": 10648837777,
        "osm_type": "node",
        "name": "İnci tekel"
      }
    },
    {
      "type": "Feature",
      "geometry": {
        "type": "Point",
        "coordinates": [
          29.1115841,
          37.7489033
        ]
      },
      "properties": {
        "id": 10648845928,
        "osm_type": "node",
        "name": "Bon Jardin"
      }
    },
    {
      "type": "Feature",
      "geometry": {
        "type": "Point",
        "coordinates": [
          29.1112811,
          37.7488993
        ]
      },
      "properties": {
        "id": 10648845931,
        "osm_type": "node",
        "name": "Şok"
      }
    },
    {
      "type": "Feature",
      "geometry": {
        "type": "Point",
        "coordinates": [
          29.109652,
          37.7504748
        ]
      },
      "properties": {
        "id": 10648867444,
        "osm_type": "node",
        "name": "A101"
      }
    },
    {
      "type": "Feature",
      "geometry": {
        "type": "Point",
        "coordinates": [
          29.1051794,
          37.7505486
        ]
      },
      "properties": {
        "id": 10649004860,
        "osm_type": "node",
        "name": "Öner"
      }
    },
    {
      "type": "Feature",
      "geometry": {
        "type": "Point",
        "coordinates": [
          29.0983055,
          37.7476305
        ]
      },
      "properties": {
        "id": 10655618172,
        "osm_type": "node"
      }
    },
    {
      "type": "Feature",
      "geometry": {
        "type": "Point",
        "coordinates": [
          29.097463,
          37.747256
        ]
      },
      "properties": {
        "id": 10655618174,
        "osm_type": "node",
        "name": "Alperen"
      }
    },
    {
      "type": "Feature",
      "geometry": {
        "type": "Point",
        "coordinates": [
          29.30314,
          37.5175367
        ]
      },
      "properties": {
        "id": 10675870044,
        "osm_type": "node"
      }
    },
    {
      "type": "Feature",
      "geometry": {
        "type": "Point",
        "coordinates": [
          29.2738774,
          37.577871
        ]
      },
      "properties": {
        "id": 10706492609,
        "osm_type": "node"
      }
    },
    {
      "type": "Feature",
      "geometry": {
        "type": "Point",
        "coordinates": [
          29.0953153,
          37.7454499
        ]
      },
      "properties": {
        "id": 10716632314,
        "osm_type": "node",
        "name": "Dnc Tekel"
      }
    },
    {
      "type": "Feature",
      "geometry": {
        "type": "Point",
        "coordinates": [
          29.1055607,
          37.7453422
        ]
      },
      "properties": {
        "id": 10729516479,
        "osm_type": "node",
        "name": "A101"
      }
    },
    {
      "type": "Feature",
      "geometry": {
        "type": "Point",
        "coordinates": [
          29.0973594,
          37.7465279
        ]
      },
      "properties": {
        "id": 10737543214,
        "osm_type": "node",
        "name": "Ufuk"
      }
    },
    {
      "type": "Feature",
      "geometry": {
        "type": "Point",
        "coordinates": [
          29.0886324,
          37.7476645
        ]
      },
      "properties": {
        "id": 10739751738,
        "osm_type": "node",
        "name": "Şok"
      }
    },
    {
      "type": "Feature",
      "geometry": {
        "type": "Point",
        "coordinates": [
          29.1224525,
          37.7405987
        ]
      },
      "properties": {
        "id": 10745027358,
        "osm_type": "node",
        "name": "Seç"
      }
    },
    {
      "type": "Feature",
      "geometry": {
        "type": "Point",
        "coordinates": [
          29.1188647,
          37.7404613
        ]
      },
      "properties": {
        "id": 10745036730,
        "osm_type": "node"
      }
    },
    {
      "type": "Feature",
      "geometry": {
        "type": "Point",
        "coordinates": [
          29.09539,
          37.7556048
        ]
      },
      "properties": {
        "id": 10779857540,
        "osm_type": "node",
        "name": "Şok"
      }
    },
    {
      "type": "Feature",
      "geometry": {
        "type": "Point",
        "coordinates": [
          29.428938,
          37.4707656
        ]
      },
      "properties": {
        "id": 10781597682,
        "osm_type": "node",
        "name": "Supérette"
      }
    },
    {
      "type": "Feature",
      "geometry": {
        "type": "Point",
        "coordinates": [
          29.1156219,
          37.7468292
        ]
      },
      "properties": {
        "id": 10789650766,
        "osm_type": "node",
        "name": "Mahzen Market"
      }
    },
    {
      "type": "Feature",
      "geometry": {
        "type": "Point",
        "coordinates": [
          29.1031033,
          37.7482934
        ]
      },
      "properties": {
        "id": 10792390042,
        "osm_type": "node",
        "name": "Ekomini",
        "brand": "Ekomini"
      }
    },
    {
      "type": "Feature",
      "geometry": {
        "type": "Point",
        "coordinates": [
          29.0938415,
          37.7546407
        ]
      },
      "properties": {
        "id": 10792642308,
        "osm_type": "node"
      }
    },
    {
      "type": "Feature",
      "geometry": {
        "type": "Point",
        "coordinates": [
          29.0956209,
          37.7526882
        ]
      },
      "properties": {
        "id": 10807524571,
        "osm_type": "node",
        "name": "Rüzgar"
      }
    },
    {
      "type": "Feature",
      "geometry": {
        "type": "Point",
        "coordinates": [
          29.097085,
          37.7639727
        ]
      },
      "properties": {
        "id": 10836999182,
        "osm_type": "node",
        "name": "Paşa market"
      }
    },
    {
      "type": "Feature",
      "geometry": {
        "type": "Point",
        "coordinates": [
          29.0984297,
          37.7653552
        ]
      },
      "properties": {
        "id": 10836999183,
        "osm_type": "node",
        "name": "Derici shop"
      }
    },
    {
      "type": "Feature",
      "geometry": {
        "type": "Point",
        "coordinates": [
          29.0961708,
          37.7666642
        ]
      },
      "properties": {
        "id": 10836999184,
        "osm_type": "node",
        "name": "A101"
      }
    },
    {
      "type": "Feature",
      "geometry": {
        "type": "Point",
        "coordinates": [
          29.0918274,
          37.7706729
        ]
      },
      "properties": {
        "id": 10837010607,
        "osm_type": "node",
        "name": "Sec"
      }
    },
    {
      "type": "Feature",
      "geometry": {
        "type": "Point",
        "coordinates": [
          29.3311389,
          37.8133319
        ]
      },
      "properties": {
        "id": 11459388420,
        "osm_type": "node"
      }
    },
    {
      "type": "Feature",
      "geometry": {
        "type": "Point",
        "coordinates": [
          29.67243,
          37.829581
        ]
      },
      "properties": {
        "id": 11502474960,
        "osm_type": "node",
        "name": "Hacı Bakkal"
      }
    },
    {
      "type": "Feature",
      "geometry": {
        "type": "Point",
        "coordinates": [
          29.2522858,
          37.2449042
        ]
      },
      "properties": {
        "id": 11984937860,
        "osm_type": "node"
      }
    },
    {
      "type": "Feature",
      "geometry": {
        "type": "Point",
        "coordinates": [
          29.1114828,
          37.0891336
        ]
      },
      "properties": {
        "id": 11984987926,
        "osm_type": "node"
      }
    },
    {
      "type": "Feature",
      "geometry": {
        "type": "Point",
        "coordinates": [
          29.1745434,
          37.1345885
        ]
      },
      "properties": {
        "id": 11985000120,
        "osm_type": "node"
      }
    },
    {
      "type": "Feature",
      "geometry": {
        "type": "Point",
        "coordinates": [
          29.1899431,
          37.1457831
        ]
      },
      "properties": {
        "id": 11985007700,
        "osm_type": "node"
      }
    },
    {
      "type": "Feature",
      "geometry": {
        "type": "Point",
        "coordinates": [
          29.1039474,
          37.9624685
        ]
      },
      "properties": {
        "id": 12258341201,
        "osm_type": "node",
        "name": "Günay Tekel & Market"
      }
    },
    {
      "type": "Feature",
      "geometry": {
        "type": "Point",
        "coordinates": [
          29.1038637,
          37.9611953
        ]
      },
      "properties": {
        "id": 12259436301,
        "osm_type": "node",
        "name": "Elit Süpermarket"
      }
    },
    {
      "type": "Feature",
      "geometry": {
        "type": "Point",
        "coordinates": [
          29.0862487,
          37.7610183
        ]
      },
      "properties": {
        "id": 12754807301,
        "osm_type": "node",
        "name": "ŞOK",
        "opening_hours": "Mo-Su 08:00-22:30"
      }
    },
    {
      "type": "Feature",
      "geometry": {
        "type": "Point",
        "coordinates": [
          29.1024423,
          37.7980479
        ]
      },
      "properties": {
        "id": 522481775,
        "osm_type": "way",
        "name": "Tespo"
      }
    },
    {
      "type": "Feature",
      "geometry": {
        "type": "Point",
        "coordinates": [
          29.102763,
          37.7978318
        ]
      },
      "properties": {
        "id": 522481776,
        "osm_type": "way",
        "name": "Tespo"
      }
    },
    {
      "type": "Feature",
      "geometry": {
        "type": "Point",
        "coordinates": [
          29.102761,
          37.7980923
        ]
      },
      "properties": {
        "id": 522481777,
        "osm_type": "way",
        "name": "Tespo"
      }
    },
    {
      "type": "Feature",
      "geometry": {
        "type": "Point",
        "coordinates": [
          29.7220544,
          38.3227442
        ]
      },
      "properties": {
        "id": 715826221,
        "osm_type": "way"
      }
    },
    {
      "type": "Feature",
      "geometry": {
        "type": "Point",
        "coordinates": [
          29.0422768,
          37.8019677
        ]
      },
      "properties": {
        "id": 1056898571,
        "osm_type": "way"
      }
    },
    {
      "type": "Feature",
      "geometry": {
        "type": "Point",
        "coordinates": [
          29.1299608,
          37.7321647
        ]
      },
      "properties": {
        "id": 1341331438,
        "osm_type": "way",
        "name": "Migros",
        "brand": "Migros"
      }
    },
    {
      "type": "Feature",
      "geometry": {
        "type": "Point",
        "coordinates": [
          28.8349126,
          38.0446607
        ]
      },
      "properties": {
        "id": 1489169342,
        "osm_type": "way",
        "name": "BİM",
        "brand": "BİM"
      }
    }
  ]
}