{
  "type": "FeatureCollection",
  "features": [
    {
      "type": "Feature",
      "geometry": {
        "type": "Point",
        "coordinates": [
          44.046462,
          39.9181536
        ]
      },
      "properties": {
        "id": 3822888240,
        "osm_type": "node",
        "name": "BİM",
        "brand": "BİM",
        "opening_hours": "Mo-Su 09:00-21:00"
      }
    },
    {
      "type": "Feature",
      "geometry": {
        "type": "Point",
        "coordinates": [
          44.0475574,
          39.9237474
        ]
      },
      "properties": {
        "id": 3822934367,
        "osm_type": "node",
        "name": "BİM",
        "brand": "BİM",
        "opening_hours": "Mo-Su 09:00-21:00"
      }
    },
    {
      "type": "Feature",
      "geometry": {
        "type": "Point",
        "coordinates": [
          44.0382446,
          39.9212781
        ]
      },
      "properties": {
        "id": 3822938340,
        "osm_type": "node",
        "name": "BİM",
        "brand": "BİM",
        "opening_hours": "Mo-Su 09:00-21:00"
      }
    },
    {
      "type": "Feature",
      "geometry": {
        "type": "Point",
        "coordinates": [
          44.0384831,
          39.9207121
        ]
      },
      "properties": {
        "id": 3822967568,
        "osm_type": "node",
        "name": "A101",
        "brand": "A101",
        "opening_hours": "Mo-Su 09:00-21:30"
      }
    },
    {
      "type": "Feature",
      "geometry": {
        "type": "Point",
        "coordinates": [
          44.0439491,
          39.9226167
        ]
      },
      "properties": {
        "id": 4327631789,
        "osm_type": "node",
        "name": "Migros",
        "brand": "Migros"
      }
    },
    {
      "type": "Feature",
      "geometry": {
        "type": "Point",
        "coordinates": [
          44.0552607,
          39.9321712
        ]
      },
      "properties": {
        "id": 5856752970,
        "osm_type": "node",
        "name": "Bizim Toptan"
      }
    },
    {
      "type": "Feature",
      "geometry": {
        "type": "Point",
        "coordinates": [
          43.6619379,
          39.8948957
        ]
      },
      "properties": {
        "id": 12729350458,
        "osm_type": "node",
        "name": "Hakmar",
        "brand": "Hakmar"
      }
    },
    {
      "type": "Feature",
      "geometry": {
        "type": "Point",
        "coordinates": [
          43.6652215,
          40.0392488
        ]
      },
      "properties": {
        "id": 13044762189,
        "osm_type": "node",
        "name": "BIM"
      }
    },
    {
      "type": "Feature",
      "geometry": {
        "type": "Point",
        "coordinates": [
          43.6619363,
          40.0438386
        ]
      },
      "properties": {
        "id": 13045099549,
        "osm_type": "node",
        "name": "BIM"
      }
    }
  ]
}