{
  "type": "FeatureCollection",
  "features": [
    {
      "type": "Feature",
      "geometry": {
        "type": "Point",
        "coordinates": [
          9.8735222,
          53.4480727
        ]
      },
      "properties": {
        "id": 7731327387,
        "osm_type": "node",
        "shelter_type": "weather_shelter"
      }
    },
    {
      "type": "Feature",
      "geometry": {
        "type": "Point",
        "coordinates": [
          9.7522889,
          53.5900628
        ]
      },
      "properties": {
        "id": 1577038836,
        "osm_type": "node",
        "shelter_type": "weather_shelter"
      }
    },
    {
      "type": "Feature",
      "geometry": {
        "type": "Point",
        "coordinates": [
          9.8528028,
          53.5890799
        ]
      },
      "properties": {
        "id": 11281652186,
        "osm_type": "node",
        "shelter_type": "weather_shelter",
        "bench": "yes"
      }
    },
    {
      "type": "Feature",
      "geometry": {
        "type": "Point",
        "coordinates": [
          9.8680565,
          53.5495126
        ]
      },
      "properties": {
        "id": 1079948891,
        "osm_type": "node",
        "name": "Eierhütte",
        "shelter_type": "weather_shelter",
        "bench": "yes"
      }
    },
    {
      "type": "Feature",
      "geometry": {
        "type": "Point",
        "coordinates": [
          9.8721313,
          53.5952921
        ]
      },
      "properties": {
        "id": 11418513602,
        "osm_type": "node",
        "shelter_type": "weather_shelter"
      }
    },
    {
      "type": "Feature",
      "geometry": {
        "type": "Point",
        "coordinates": [
          10.0264819,
          53.5456644
        ]
      },
      "properties": {
        "id": 10750409491,
        "osm_type": "node",
        "shelter_type": "weather_shelter"
      }
    },
    {
      "type": "Feature",
      "geometry": {
        "type": "Point",
        "coordinates": [
          9.9794451,
          53.590716
        ]
      },
      "properties": {
        "id": 8565611428,
        "osm_type": "node",
        "shelter_type": "weather_shelter"
      }
    },
    {
      "type": "Feature",
      "geometry": {
        "type": "Point",
        "coordinates": [
          10.0076487,
          53.6297238
        ]
      },
      "properties": {
        "id": 5765840585,
        "osm_type": "node",
        "shelter_type": "weather_shelter"
      }
    },
    {
      "type": "Feature",
      "geometry": {
        "type": "Point",
        "coordinates": [
          10.0324187,
          53.6293776
        ]
      },
      "properties": {
        "id": 6342891797,
        "osm_type": "node",
        "shelter_type": "weather_shelter"
      }
    },
    {
      "type": "Feature",
      "geometry": {
        "type": "Point",
        "coordinates": [
          10.1750901,
          53.5059894
        ]
      },
      "properties": {
        "id": 493906868,
        "osm_type": "node",
        "shelter_type": "weather_shelter"
      }
    },
    {
      "type": "Feature",
      "geometry": {
        "type": "Point",
        "coordinates": [
          10.1737555,
          53.5056008
        ]
      },
      "properties": {
        "id": 1475903075,
        "osm_type": "node",
        "shelter_type": "weather_shelter"
      }
    },
    {
      "type": "Feature",
      "geometry": {
        "type": "Point",
        "coordinates": [
          10.1741668,
          53.506247
        ]
      },
      "properties": {
        "id": 1475903086,
        "osm_type": "node",
        "shelter_type": "weather_shelter"
      }
    },
    {
      "type": "Feature",
      "geometry": {
        "type": "Point",
        "coordinates": [
          10.1765873,
          53.5050756
        ]
      },
      "properties": {
        "id": 2497197725,
        "osm_type": "node",
        "shelter_type": "weather_shelter"
      }
    },
    {
      "type": "Feature",
      "geometry": {
        "type": "Point",
        "coordinates": [
          9.9456652,
          53.4581386
        ]
      },
      "properties": {
        "id": 687830097,
        "osm_type": "way",
        "shelter_type": "weather_shelter",
        "bench": "yes"
      }
    },
    {
      "type": "Feature",
      "geometry": {
        "type": "Point",
        "coordinates": [
          9.9487155,
          53.4602324
        ]
      },
      "properties": {
        "id": 896161672,
        "osm_type": "way",
        "shelter_type": "weather_shelter"
      }
    },
    {
      "type": "Feature",
      "geometry": {
        "type": "Point",
        "coordinates": [
          9.9487424,
          53.4601821
        ]
      },
      "properties": {
        "id": 896161673,
        "osm_type": "way",
        "shelter_type": "weather_shelter"
      }
    },
    {
      "type": "Feature",
      "geometry": {
        "type": "Point",
        "coordinates": [
          9.9488034,
          53.4600648
        ]
      },
      "properties": {
        "id": 896161674,
        "osm_type": "way",
        "shelter_type": "weather_shelter"
      }
    },
    {
      "type": "Feature",
      "geometry": {
        "type": "Point",
        "coordinates": [
          9.9488309,
          53.4600158
        ]
      },
      "properties": {
        "id": 896161675,
        "osm_type": "way",
        "shelter_type": "weather_shelter"
      }
    },
    {
      "type": "Feature",
      "geometry": {
        "type": "Point",
        "coordinates": [
          9.9791216,
          53.4458826
        ]
      },
      "properties": {
        "id": 606029875,
        "osm_type": "way",
        "shelter_type": "weather_shelter"
      }
    },
    {
      "type": "Feature",
      "geometry": {
        "type": "Point",
        "coordinates": [
          9.9616128,
          53.4671274
        ]
      },
      "properties": {
        "id": 697341691,
        "osm_type": "way",
        "shelter_type": "weather_shelter"
      }
    },
    {
      "type": "Feature",
      "geometry": {
        "type": "Point",
        "coordinates": [
          9.9081819,
          53.5096528
        ]
      },
      "properties": {
        "id": 1473377934,
        "osm_type": "way",
        "shelter_type": "weather_shelter"
      }
    },
    {
      "type": "Feature",
      "geometry": {
        "type": "Point",
        "coordinates": [
          9.858761,
          53.5641144
        ]
      },
      "properties": {
        "id": 1372011673,
        "osm_type": "way",
        "name": "Schutzhütte",
        "shelter_type": "basic_hut",
        "capacity": "0"
      }
    },
    {
      "type": "Feature",
      "geometry": {
        "type": "Point",
        "coordinates": [
          9.9064416,
          53.5982971
        ]
      },
      "properties": {
        "id": 1246971592,
        "osm_type": "way",
        "shelter_type": "weather_shelter"
      }
    },
    {
      "type": "Feature",
      "geometry": {
        "type": "Point",
        "coordinates": [
          9.9057799,
          53.5977006
        ]
      },
      "properties": {
        "id": 1346606864,
        "osm_type": "way",
        "shelter_type": "weather_shelter"
      }
    },
    {
      "type": "Feature",
      "geometry": {
        "type": "Point",
        "coordinates": [
          9.9436101,
          53.5493317
        ]
      },
      "properties": {
        "id": 386477905,
        "osm_type": "way",
        "shelter_type": "weather_shelter"
      }
    },
    {
      "type": "Feature",
      "geometry": {
        "type": "Point",
        "coordinates": [
          10.0457028,
          53.5461846
        ]
      },
      "properties": {
        "id": 620594116,
        "osm_type": "way",
        "name": "Raucher-Lounge",
        "shelter_type": "weather_shelter",
        "bench": "yes"
      }
    },
    {
      "type": "Feature",
      "geometry": {
        "type": "Point",
        "coordinates": [
          10.05048,
          53.5412159
        ]
      },
      "properties": {
        "id": 1136175213,
        "osm_type": "way",
        "shelter_type": "weather_shelter"
      }
    },
    {
      "type": "Feature",
      "geometry": {
        "type": "Point",
        "coordinates": [
          9.9756102,
          53.5905463
        ]
      },
      "properties": {
        "id": 927823504,
        "osm_type": "way",
        "shelter_type": "weather_shelter"
      }
    },
    {
      "type": "Feature",
      "geometry": {
        "type": "Point",
        "coordinates": [
          9.9922227,
          53.5958342
        ]
      },
      "properties": {
        "id": 1216315763,
        "osm_type": "way",
        "shelter_type": "weather_shelter"
      }
    },
    {
      "type": "Feature",
      "geometry": {
        "type": "Point",
        "coordinates": [
          10.0276711,
          53.6096893
        ]
      },
      "properties": {
        "id": 974686269,
        "osm_type": "way",
        "shelter_type": "weather_shelter"
      }
    },
    {
      "type": "Feature",
      "geometry": {
        "type": "Point",
        "coordinates": [
          10.1747196,
          53.4842083
        ]
      },
      "properties": {
        "id": 532519804,
        "osm_type": "way",
        "shelter_type": "lean_to",
        "bench": "yes"
      }
    },
    {
      "type": "Feature",
      "geometry": {
        "type": "Point",
        "coordinates": [
          10.0785095,
          53.497538
        ]
      },
      "properties": {
        "id": 1176604726,
        "osm_type": "way",
        "shelter_type": "weather_shelter"
      }
    },
    {
      "type": "Feature",
      "geometry": {
        "type": "Point",
        "coordinates": [
          10.1116708,
          53.5016813
        ]
      },
      "properties": {
        "id": 746024259,
        "osm_type": "way",
        "shelter_type": "weather_shelter"
      }
    },
    {
      "type": "Feature",
      "geometry": {
        "type": "Point",
        "coordinates": [
          10.1124573,
          53.5011274
        ]
      },
      "properties": {
        "id": 746024260,
        "osm_type": "way",
        "shelter_type": "weather_shelter"
      }
    },
    {
      "type": "Feature",
      "geometry": {
        "type": "Point",
        "coordinates": [
          10.1054454,
          53.5747288
        ]
      },
      "properties": {
        "id": 970917364,
        "osm_type": "way",
        "shelter_type": "weather_shelter"
      }
    },
    {
      "type": "Feature",
      "geometry": {
        "type": "Point",
        "coordinates": [
          10.1046391,
          53.5792366
        ]
      },
      "properties": {
        "id": 685843618,
        "osm_type": "way",
        "shelter_type": "weather_shelter"
      }
    },
    {
      "type": "Feature",
      "geometry": {
        "type": "Point",
        "coordinates": [
          10.1526346,
          53.6412759
        ]
      },
      "properties": {
        "id": 1051121878,
        "osm_type": "way",
        "shelter_type": "weather_shelter"
      }
    }
  ]
}