{
  "type": "FeatureCollection",
  "features": [
    {
      "type": "Feature",
      "geometry": {
        "type": "Point",
        "coordinates": [
          41.1316018,
          37.9010631
        ]
      },
      "properties": {
        "id": 2334281601,
        "osm_type": "node",
        "name": "Bereket Döner"
      }
    },
    {
      "type": "Feature",
      "geometry": {
        "type": "Point",
        "coordinates": [
          41.1296063,
          37.8962814
        ]
      },
      "properties": {
        "id": 2334281799,
        "osm_type": "node"
      }
    },
    {
      "type": "Feature",
      "geometry": {
        "type": "Point",
        "coordinates": [
          41.1411412,
          37.8967415
        ]
      },
      "properties": {
        "id": 2445816172,
        "osm_type": "node"
      }
    },
    {
      "type": "Feature",
      "geometry": {
        "type": "Point",
        "coordinates": [
          41.1311816,
          37.9041218
        ]
      },
      "properties": {
        "id": 2445854551,
        "osm_type": "node"
      }
    },
    {
      "type": "Feature",
      "geometry": {
        "type": "Point",
        "coordinates": [
          41.1321796,
          37.9024552
        ]
      },
      "properties": {
        "id": 2455275058,
        "osm_type": "node",
        "name": "Mara Balık Evi & Izgara",
        "phone": "+90 488 221 2004"
      }
    },
    {
      "type": "Feature",
      "geometry": {
        "type": "Point",
        "coordinates": [
          41.1375582,
          37.9039339
        ]
      },
      "properties": {
        "id": 2460134899,
        "osm_type": "node",
        "name": "Buket Lahmacun",
        "phone": "+90 488 221 12 97"
      }
    },
    {
      "type": "Feature",
      "geometry": {
        "type": "Point",
        "coordinates": [
          41.1358825,
          37.9037678
        ]
      },
      "properties": {
        "id": 2491947788,
        "osm_type": "node",
        "name": "Geçit Büryan",
        "phone": "+90 488 215 6060"
      }
    },
    {
      "type": "Feature",
      "geometry": {
        "type": "Point",
        "coordinates": [
          41.1334779,
          37.9044389
        ]
      },
      "properties": {
        "id": 2491947791,
        "osm_type": "node",
        "name": "Hanedan Lokantası"
      }
    },
    {
      "type": "Feature",
      "geometry": {
        "type": "Point",
        "coordinates": [
          41.1284143,
          37.8965284
        ]
      },
      "properties": {
        "id": 2511166855,
        "osm_type": "node",
        "name": "Keyf-i Ciğer"
      }
    },
    {
      "type": "Feature",
      "geometry": {
        "type": "Point",
        "coordinates": [
          41.1352569,
          37.9046487
        ]
      },
      "properties": {
        "id": 2513585280,
        "osm_type": "node",
        "name": "Beyzade Restoran"
      }
    },
    {
      "type": "Feature",
      "geometry": {
        "type": "Point",
        "coordinates": [
          41.1289823,
          37.8965348
        ]
      },
      "properties": {
        "id": 2527573523,
        "osm_type": "node",
        "name": "Çağdaş Kavurma",
        "phone": "+90 488 213 1371"
      }
    },
    {
      "type": "Feature",
      "geometry": {
        "type": "Point",
        "coordinates": [
          41.1373092,
          37.9103831
        ]
      },
      "properties": {
        "id": 2550198528,
        "osm_type": "node",
        "name": "İsot Ali 2 Lokantası"
      }
    },
    {
      "type": "Feature",
      "geometry": {
        "type": "Point",
        "coordinates": [
          41.1277625,
          37.9010673
        ]
      },
      "properties": {
        "id": 2550801609,
        "osm_type": "node",
        "name": "Nivan Lokantası"
      }
    },
    {
      "type": "Feature",
      "geometry": {
        "type": "Point",
        "coordinates": [
          41.1326376,
          37.9039341
        ]
      },
      "properties": {
        "id": 2560897090,
        "osm_type": "node",
        "name": "Balık Evi",
        "phone": "+90 488 212 7206"
      }
    },
    {
      "type": "Feature",
      "geometry": {
        "type": "Point",
        "coordinates": [
          41.1417601,
          37.901959
        ]
      },
      "properties": {
        "id": 2567740606,
        "osm_type": "node"
      }
    },
    {
      "type": "Feature",
      "geometry": {
        "type": "Point",
        "coordinates": [
          41.1291861,
          37.8888595
        ]
      },
      "properties": {
        "id": 2573037399,
        "osm_type": "node",
        "name": "Çömçe Lokantası",
        "phone": "+90 488 213 1776"
      }
    },
    {
      "type": "Feature",
      "geometry": {
        "type": "Point",
        "coordinates": [
          41.1545272,
          37.8892561
        ]
      },
      "properties": {
        "id": 2681692802,
        "osm_type": "node",
        "name": "Şirin Ocakbaşı",
        "phone": "+90 488 213 14 14"
      }
    },
    {
      "type": "Feature",
      "geometry": {
        "type": "Point",
        "coordinates": [
          41.1439599,
          37.901727
        ]
      },
      "properties": {
        "id": 2710501502,
        "osm_type": "node",
        "name": "Sahra Lokantası"
      }
    },
    {
      "type": "Feature",
      "geometry": {
        "type": "Point",
        "coordinates": [
          41.1296498,
          37.8979442
        ]
      },
      "properties": {
        "id": 2723256779,
        "osm_type": "node",
        "name": "Esnaflar Et Lokantası"
      }
    },
    {
      "type": "Feature",
      "geometry": {
        "type": "Point",
        "coordinates": [
          41.1278439,
          37.880348
        ]
      },
      "properties": {
        "id": 2728301680,
        "osm_type": "node",
        "name": "Geçit Büryan",
        "phone": "+90 488 213 6142"
      }
    },
    {
      "type": "Feature",
      "geometry": {
        "type": "Point",
        "coordinates": [
          41.1287999,
          37.8902567
        ]
      },
      "properties": {
        "id": 2774612511,
        "osm_type": "node",
        "name": "Diyar Et Lokantası"
      }
    },
    {
      "type": "Feature",
      "geometry": {
        "type": "Point",
        "coordinates": [
          41.1609905,
          37.8843919
        ]
      },
      "properties": {
        "id": 2782714047,
        "osm_type": "node",
        "name": "Paradis Ocakbaşı"
      }
    },
    {
      "type": "Feature",
      "geometry": {
        "type": "Point",
        "coordinates": [
          41.1303187,
          37.8938636
        ]
      },
      "properties": {
        "id": 2838890636,
        "osm_type": "node",
        "name": "Hünkar Restoran Cafe"
      }
    },
    {
      "type": "Feature",
      "geometry": {
        "type": "Point",
        "coordinates": [
          41.1421749,
          37.9023729
        ]
      },
      "properties": {
        "id": 2854414641,
        "osm_type": "node",
        "name": "Balta Burger"
      }
    },
    {
      "type": "Feature",
      "geometry": {
        "type": "Point",
        "coordinates": [
          41.1267348,
          37.8838053
        ]
      },
      "properties": {
        "id": 2900342997,
        "osm_type": "node"
      }
    },
    {
      "type": "Feature",
      "geometry": {
        "type": "Point",
        "coordinates": [
          41.1282388,
          37.8872726
        ]
      },
      "properties": {
        "id": 2932307958,
        "osm_type": "node",
        "name": "Ahmet Usta Fırınlı Et Lokantası",
        "phone": "+90 488 212 6162"
      }
    },
    {
      "type": "Feature",
      "geometry": {
        "type": "Point",
        "coordinates": [
          41.1278904,
          37.8853715
        ]
      },
      "properties": {
        "id": 2945416328,
        "osm_type": "node",
        "name": "Saray Et Lokantası"
      }
    },
    {
      "type": "Feature",
      "geometry": {
        "type": "Point",
        "coordinates": [
          41.1295655,
          37.8957862
        ]
      },
      "properties": {
        "id": 2978705590,
        "osm_type": "node",
        "name": "Adanalı Resturant"
      }
    },
    {
      "type": "Feature",
      "geometry": {
        "type": "Point",
        "coordinates": [
          41.1327561,
          37.9109443
        ]
      },
      "properties": {
        "id": 3009836362,
        "osm_type": "node",
        "name": "Van Kahvaltı Salonu"
      }
    },
    {
      "type": "Feature",
      "geometry": {
        "type": "Point",
        "coordinates": [
          41.1314465,
          37.9001451
        ]
      },
      "properties": {
        "id": 3042710230,
        "osm_type": "node",
        "name": "Waffle Kumpir"
      }
    },
    {
      "type": "Feature",
      "geometry": {
        "type": "Point",
        "coordinates": [
          41.1265539,
          37.8806419
        ]
      },
      "properties": {
        "id": 3047107650,
        "osm_type": "node",
        "name": "Şişko Fırınlı Et Lokantası"
      }
    },
    {
      "type": "Feature",
      "geometry": {
        "type": "Point",
        "coordinates": [
          41.1231424,
          37.879228
        ]
      },
      "properties": {
        "id": 3066210362,
        "osm_type": "node",
        "name": "Urfalı Restorant"
      }
    },
    {
      "type": "Feature",
      "geometry": {
        "type": "Point",
        "coordinates": [
          41.2718702,
          38.2216084
        ]
      },
      "properties": {
        "id": 3077770659,
        "osm_type": "node",
        "name": "Hacı Baba Dinlenme Tesisi"
      }
    },
    {
      "type": "Feature",
      "geometry": {
        "type": "Point",
        "coordinates": [
          41.1235232,
          37.8893835
        ]
      },
      "properties": {
        "id": 3090184581,
        "osm_type": "node",
        "name": "Bereket Izgara Salonu"
      }
    },
    {
      "type": "Feature",
      "geometry": {
        "type": "Point",
        "coordinates": [
          41.1243367,
          37.8895693
        ]
      },
      "properties": {
        "id": 3090184582,
        "osm_type": "node",
        "name": "Lale Lahmacun Pide",
        "phone": "+90 530 126 4868"
      }
    },
    {
      "type": "Feature",
      "geometry": {
        "type": "Point",
        "coordinates": [
          41.1301194,
          37.8989193
        ]
      },
      "properties": {
        "id": 3090184595,
        "osm_type": "node",
        "name": "Aşiyan Lokantası"
      }
    },
    {
      "type": "Feature",
      "geometry": {
        "type": "Point",
        "coordinates": [
          41.1320604,
          37.8963116
        ]
      },
      "properties": {
        "id": 3090184596,
        "osm_type": "node",
        "name": "Keke Ocakbaşı"
      }
    },
    {
      "type": "Feature",
      "geometry": {
        "type": "Point",
        "coordinates": [
          41.1291354,
          37.8884759
        ]
      },
      "properties": {
        "id": 3103270082,
        "osm_type": "node",
        "name": "Ciğerci Pala'nın Yeri",
        "phone": "+90 488 214 5007"
      }
    },
    {
      "type": "Feature",
      "geometry": {
        "type": "Point",
        "coordinates": [
          41.1314145,
          37.8887551
        ]
      },
      "properties": {
        "id": 3114763122,
        "osm_type": "node",
        "name": "Pilav Üstü"
      }
    },
    {
      "type": "Feature",
      "geometry": {
        "type": "Point",
        "coordinates": [
          41.1239984,
          37.8901097
        ]
      },
      "properties": {
        "id": 3127557744,
        "osm_type": "node",
        "name": "Kebapçı Hoca'nın Yeri",
        "phone": "+90 488 213 8998"
      }
    },
    {
      "type": "Feature",
      "geometry": {
        "type": "Point",
        "coordinates": [
          41.1309465,
          37.9032869
        ]
      },
      "properties": {
        "id": 3127693444,
        "osm_type": "node",
        "name": "Batman Döner"
      }
    },
    {
      "type": "Feature",
      "geometry": {
        "type": "Point",
        "coordinates": [
          41.1285885,
          37.8898014
        ]
      },
      "properties": {
        "id": 3128761917,
        "osm_type": "node",
        "name": "Acetler Döner Lahmacun",
        "phone": "+90 542 413 9972"
      }
    },
    {
      "type": "Feature",
      "geometry": {
        "type": "Point",
        "coordinates": [
          41.1163602,
          37.8754803
        ]
      },
      "properties": {
        "id": 3128762083,
        "osm_type": "node",
        "name": "Sevim Et Lokantası"
      }
    },
    {
      "type": "Feature",
      "geometry": {
        "type": "Point",
        "coordinates": [
          41.1316901,
          37.9013442
        ]
      },
      "properties": {
        "id": 3132586864,
        "osm_type": "node",
        "name": "Cengiz Usta Et Lokantası"
      }
    },
    {
      "type": "Feature",
      "geometry": {
        "type": "Point",
        "coordinates": [
          41.1428262,
          37.8906188
        ]
      },
      "properties": {
        "id": 3139491850,
        "osm_type": "node",
        "name": "İnan Lahmacun Pide",
        "phone": "+90 488 214 2920"
      }
    },
    {
      "type": "Feature",
      "geometry": {
        "type": "Point",
        "coordinates": [
          41.1275307,
          37.8966331
        ]
      },
      "properties": {
        "id": 3178464744,
        "osm_type": "node",
        "name": "Neden Urfa Kebap"
      }
    },
    {
      "type": "Feature",
      "geometry": {
        "type": "Point",
        "coordinates": [
          41.1288166,
          37.8968184
        ]
      },
      "properties": {
        "id": 3178464746,
        "osm_type": "node",
        "name": "Sofram Self Servis"
      }
    },
    {
      "type": "Feature",
      "geometry": {
        "type": "Point",
        "coordinates": [
          41.1263059,
          37.8792947
        ]
      },
      "properties": {
        "id": 3204130753,
        "osm_type": "node",
        "name": "Park Restoran"
      }
    },
    {
      "type": "Feature",
      "geometry": {
        "type": "Point",
        "coordinates": [
          41.1296785,
          37.8957428
        ]
      },
      "properties": {
        "id": 3218465973,
        "osm_type": "node",
        "name": "Şehri Saray Kafe Restorant"
      }
    },
    {
      "type": "Feature",
      "geometry": {
        "type": "Point",
        "coordinates": [
          41.1296585,
          37.89518
        ]
      },
      "properties": {
        "id": 3229516848,
        "osm_type": "node",
        "name": "Tabu Döner"
      }
    },
    {
      "type": "Feature",
      "geometry": {
        "type": "Point",
        "coordinates": [
          41.1216262,
          37.8808527
        ]
      },
      "properties": {
        "id": 3235719650,
        "osm_type": "node",
        "name": "Xalo Hayran Ciğer Salonu",
        "opening_hours": "Mo-Su 08:00-21:00",
        "phone": "+90 542 631 3325"
      }
    },
    {
      "type": "Feature",
      "geometry": {
        "type": "Point",
        "coordinates": [
          41.1401945,
          37.911885
        ]
      },
      "properties": {
        "id": 3247419589,
        "osm_type": "node",
        "name": "Petrol Ocakbaşı"
      }
    },
    {
      "type": "Feature",
      "geometry": {
        "type": "Point",
        "coordinates": [
          41.1291379,
          37.8923052
        ]
      },
      "properties": {
        "id": 3255364458,
        "osm_type": "node",
        "name": "Dörtyol Döner"
      }
    },
    {
      "type": "Feature",
      "geometry": {
        "type": "Point",
        "coordinates": [
          41.1291538,
          37.8923802
        ]
      },
      "properties": {
        "id": 3255364459,
        "osm_type": "node",
        "name": "Mersin Tantuni"
      }
    },
    {
      "type": "Feature",
      "geometry": {
        "type": "Point",
        "coordinates": [
          41.1293176,
          37.8949894
        ]
      },
      "properties": {
        "id": 3283478325,
        "osm_type": "node",
        "name": "Ciğerci Kutbettin Usta",
        "phone": "+90 535 722 4582"
      }
    },
    {
      "type": "Feature",
      "geometry": {
        "type": "Point",
        "coordinates": [
          41.1332941,
          37.8944887
        ]
      },
      "properties": {
        "id": 3283478329,
        "osm_type": "node",
        "name": "Park Ocakbaşı",
        "opening_hours": "24/7"
      }
    },
    {
      "type": "Feature",
      "geometry": {
        "type": "Point",
        "coordinates": [
          41.1267753,
          37.8821924
        ]
      },
      "properties": {
        "id": 3310326884,
        "osm_type": "node",
        "name": "İsot Ali",
        "phone": "+90 488 213 57 69"
      }
    },
    {
      "type": "Feature",
      "geometry": {
        "type": "Point",
        "coordinates": [
          41.1404034,
          37.8875697
        ]
      },
      "properties": {
        "id": 3370528739,
        "osm_type": "node",
        "name": "Tutku Ocakbaşı"
      }
    },
    {
      "type": "Feature",
      "geometry": {
        "type": "Point",
        "coordinates": [
          41.1305044,
          37.8926385
        ]
      },
      "properties": {
        "id": 3374834191,
        "osm_type": "node",
        "name": "Kardelen Döner"
      }
    },
    {
      "type": "Feature",
      "geometry": {
        "type": "Point",
        "coordinates": [
          41.1290881,
          37.8969291
        ]
      },
      "properties": {
        "id": 3379204479,
        "osm_type": "node",
        "name": "İsot Ali",
        "opening_hours": "Mo-Su 08:00-23:00",
        "phone": "+90 545 212 5767"
      }
    },
    {
      "type": "Feature",
      "geometry": {
        "type": "Point",
        "coordinates": [
          41.1429035,
          37.9030734
        ]
      },
      "properties": {
        "id": 3390624375,
        "osm_type": "node",
        "name": "Sedir Et Lokantası"
      }
    },
    {
      "type": "Feature",
      "geometry": {
        "type": "Point",
        "coordinates": [
          41.1372583,
          37.8688836
        ]
      },
      "properties": {
        "id": 3401326913,
        "osm_type": "node"
      }
    },
    {
      "type": "Feature",
      "geometry": {
        "type": "Point",
        "coordinates": [
          41.1289085,
          37.8951747
        ]
      },
      "properties": {
        "id": 3407023781,
        "osm_type": "node",
        "name": "Çorbacı Ocakbaşı"
      }
    },
    {
      "type": "Feature",
      "geometry": {
        "type": "Point",
        "coordinates": [
          41.1287526,
          37.8867523
        ]
      },
      "properties": {
        "id": 3431400228,
        "osm_type": "node",
        "name": "Hüner Lahmacun"
      }
    },
    {
      "type": "Feature",
      "geometry": {
        "type": "Point",
        "coordinates": [
          41.1324535,
          37.9034105
        ]
      },
      "properties": {
        "id": 3439123512,
        "osm_type": "node",
        "name": "Sansani Döner Salonu"
      }
    },
    {
      "type": "Feature",
      "geometry": {
        "type": "Point",
        "coordinates": [
          41.1327354,
          37.9035293
        ]
      },
      "properties": {
        "id": 3439123513,
        "osm_type": "node",
        "name": "Baran Lahmacun"
      }
    },
    {
      "type": "Feature",
      "geometry": {
        "type": "Point",
        "coordinates": [
          41.1326487,
          37.9006137
        ]
      },
      "properties": {
        "id": 3444869966,
        "osm_type": "node",
        "name": "Doyum Döner"
      }
    },
    {
      "type": "Feature",
      "geometry": {
        "type": "Point",
        "coordinates": [
          41.129211,
          37.8925439
        ]
      },
      "properties": {
        "id": 3451700894,
        "osm_type": "node",
        "name": "Elit Tantuni"
      }
    },
    {
      "type": "Feature",
      "geometry": {
        "type": "Point",
        "coordinates": [
          41.1541223,
          37.8897126
        ]
      },
      "properties": {
        "id": 3486489113,
        "osm_type": "node",
        "name": "Çorbacı Fesih Usta",
        "phone": "+90 544 497 34 05"
      }
    },
    {
      "type": "Feature",
      "geometry": {
        "type": "Point",
        "coordinates": [
          41.118536,
          37.9028712
        ]
      },
      "properties": {
        "id": 3506852722,
        "osm_type": "node",
        "name": "Mıstık Lahmacun"
      }
    },
    {
      "type": "Feature",
      "geometry": {
        "type": "Point",
        "coordinates": [
          41.1280949,
          37.8866695
        ]
      },
      "properties": {
        "id": 3516714988,
        "osm_type": "node",
        "name": "Diyarbakır Ciğercisi"
      }
    },
    {
      "type": "Feature",
      "geometry": {
        "type": "Point",
        "coordinates": [
          41.1235073,
          37.8922538
        ]
      },
      "properties": {
        "id": 3561116218,
        "osm_type": "node",
        "name": "Şahin Çiğköfte"
      }
    },
    {
      "type": "Feature",
      "geometry": {
        "type": "Point",
        "coordinates": [
          41.1330974,
          37.9159931
        ]
      },
      "properties": {
        "id": 3604396376,
        "osm_type": "node",
        "name": "Divan Mangalbaşı",
        "phone": "+90 553 301 89 40"
      }
    },
    {
      "type": "Feature",
      "geometry": {
        "type": "Point",
        "coordinates": [
          41.3246623,
          37.9572254
        ]
      },
      "properties": {
        "id": 3690780091,
        "osm_type": "node"
      }
    },
    {
      "type": "Feature",
      "geometry": {
        "type": "Point",
        "coordinates": [
          41.0739287,
          37.9196731
        ]
      },
      "properties": {
        "id": 3747793826,
        "osm_type": "node",
        "name": "Bardakçılar"
      }
    },
    {
      "type": "Feature",
      "geometry": {
        "type": "Point",
        "coordinates": [
          41.1216614,
          37.8962914
        ]
      },
      "properties": {
        "id": 3751283411,
        "osm_type": "node",
        "name": "Hacıoğu Lahmacun"
      }
    },
    {
      "type": "Feature",
      "geometry": {
        "type": "Point",
        "coordinates": [
          41.1401123,
          37.8945776
        ]
      },
      "properties": {
        "id": 3832426323,
        "osm_type": "node",
        "name": "Namlı Lokantası"
      }
    },
    {
      "type": "Feature",
      "geometry": {
        "type": "Point",
        "coordinates": [
          41.1333107,
          37.9051526
        ]
      },
      "properties": {
        "id": 3907657417,
        "osm_type": "node",
        "name": "Beyzade",
        "phone": "+90 488 221 2270"
      }
    },
    {
      "type": "Feature",
      "geometry": {
        "type": "Point",
        "coordinates": [
          41.1397094,
          37.9109225
        ]
      },
      "properties": {
        "id": 3908882413,
        "osm_type": "node",
        "name": "Şefim Lahmacun",
        "opening_hours": "24/7"
      }
    },
    {
      "type": "Feature",
      "geometry": {
        "type": "Point",
        "coordinates": [
          41.1229751,
          37.8942548
        ]
      },
      "properties": {
        "id": 3916757053,
        "osm_type": "node",
        "name": "Ada Ocakbaşı"
      }
    },
    {
      "type": "Feature",
      "geometry": {
        "type": "Point",
        "coordinates": [
          41.132965,
          37.8846733
        ]
      },
      "properties": {
        "id": 3952012250,
        "osm_type": "node",
        "name": "Kebapçı Cuma Usta"
      }
    },
    {
      "type": "Feature",
      "geometry": {
        "type": "Point",
        "coordinates": [
          41.0652082,
          37.7900424
        ]
      },
      "properties": {
        "id": 3962157313,
        "osm_type": "node",
        "name": "Merkezi Yemekhane"
      }
    },
    {
      "type": "Feature",
      "geometry": {
        "type": "Point",
        "coordinates": [
          41.1352568,
          37.9236483
        ]
      },
      "properties": {
        "id": 3983975036,
        "osm_type": "node",
        "name": "Huzur Fırınlı Et Lokantası"
      }
    },
    {
      "type": "Feature",
      "geometry": {
        "type": "Point",
        "coordinates": [
          41.1443165,
          37.8872032
        ]
      },
      "properties": {
        "id": 4027489841,
        "osm_type": "node",
        "name": "Zirve Lahmacun"
      }
    },
    {
      "type": "Feature",
      "geometry": {
        "type": "Point",
        "coordinates": [
          41.1662302,
          37.8801679
        ]
      },
      "properties": {
        "id": 4030365993,
        "osm_type": "node",
        "name": "Çorbacı Eyüp Efendi"
      }
    },
    {
      "type": "Feature",
      "geometry": {
        "type": "Point",
        "coordinates": [
          41.120345,
          37.8811682
        ]
      },
      "properties": {
        "id": 4041423959,
        "osm_type": "node",
        "name": "Balpınar Lokantası"
      }
    },
    {
      "type": "Feature",
      "geometry": {
        "type": "Point",
        "coordinates": [
          41.1389436,
          37.9109807
        ]
      },
      "properties": {
        "id": 4103130189,
        "osm_type": "node",
        "name": "Çorbacı Cuma Ustanın Yeri"
      }
    },
    {
      "type": "Feature",
      "geometry": {
        "type": "Point",
        "coordinates": [
          41.1287484,
          37.8896949
        ]
      },
      "properties": {
        "id": 4105753689,
        "osm_type": "node",
        "name": "Dörtyol Döner"
      }
    },
    {
      "type": "Feature",
      "geometry": {
        "type": "Point",
        "coordinates": [
          41.1323747,
          37.9030704
        ]
      },
      "properties": {
        "id": 4111229195,
        "osm_type": "node",
        "name": "Halktan Et Döner",
        "phone": "+90 488 212 71 71"
      }
    },
    {
      "type": "Feature",
      "geometry": {
        "type": "Point",
        "coordinates": [
          41.1283421,
          37.9005847
        ]
      },
      "properties": {
        "id": 4114522504,
        "osm_type": "node",
        "name": "33 Mersin Tantuni",
        "phone": "+90 507 964 4546"
      }
    },
    {
      "type": "Feature",
      "geometry": {
        "type": "Point",
        "coordinates": [
          41.4833919,
          38.2171024
        ]
      },
      "properties": {
        "id": 4174026854,
        "osm_type": "node"
      }
    },
    {
      "type": "Feature",
      "geometry": {
        "type": "Point",
        "coordinates": [
          41.1227547,
          37.8800293
        ]
      },
      "properties": {
        "id": 4209183892,
        "osm_type": "node",
        "name": "Öz Sofra"
      }
    },
    {
      "type": "Feature",
      "geometry": {
        "type": "Point",
        "coordinates": [
          41.1332627,
          37.8962962
        ]
      },
      "properties": {
        "id": 4290993292,
        "osm_type": "node",
        "name": "Ciğerhân"
      }
    },
    {
      "type": "Feature",
      "geometry": {
        "type": "Point",
        "coordinates": [
          41.134819,
          37.9047611
        ]
      },
      "properties": {
        "id": 4312238298,
        "osm_type": "node",
        "name": "Mardin Ciğercisi"
      }
    },
    {
      "type": "Feature",
      "geometry": {
        "type": "Point",
        "coordinates": [
          41.1108732,
          37.9069163
        ]
      },
      "properties": {
        "id": 4318020499,
        "osm_type": "node",
        "name": "Zeytin Dalı Et Lokantası"
      }
    },
    {
      "type": "Feature",
      "geometry": {
        "type": "Point",
        "coordinates": [
          41.3242987,
          37.9528116
        ]
      },
      "properties": {
        "id": 4358940493,
        "osm_type": "node",
        "name": "Astan Lokantası"
      }
    },
    {
      "type": "Feature",
      "geometry": {
        "type": "Point",
        "coordinates": [
          41.276761,
          37.9133957
        ]
      },
      "properties": {
        "id": 4358971994,
        "osm_type": "node",
        "name": "Furkan Lokantası"
      }
    },
    {
      "type": "Feature",
      "geometry": {
        "type": "Point",
        "coordinates": [
          41.4073037,
          37.6165478
        ]
      },
      "properties": {
        "id": 4398906392,
        "osm_type": "node",
        "name": "Havin Ocakbaşı"
      }
    },
    {
      "type": "Feature",
      "geometry": {
        "type": "Point",
        "coordinates": [
          41.1200404,
          37.9061811
        ]
      },
      "properties": {
        "id": 4417343291,
        "osm_type": "node",
        "name": "Oskar Et Lokantası"
      }
    },
    {
      "type": "Feature",
      "geometry": {
        "type": "Point",
        "coordinates": [
          41.1364812,
          37.8856646
        ]
      },
      "properties": {
        "id": 4440732089,
        "osm_type": "node",
        "name": "Geçit Adana Ocakbaşı"
      }
    },
    {
      "type": "Feature",
      "geometry": {
        "type": "Point",
        "coordinates": [
          41.1269852,
          37.8831122
        ]
      },
      "properties": {
        "id": 4472367499,
        "osm_type": "node",
        "name": "Kasaba Döner"
      }
    },
    {
      "type": "Feature",
      "geometry": {
        "type": "Point",
        "coordinates": [
          41.1333389,
          37.9032965
        ]
      },
      "properties": {
        "id": 4494845690,
        "osm_type": "node",
        "name": "Ali Usta"
      }
    },
    {
      "type": "Feature",
      "geometry": {
        "type": "Point",
        "coordinates": [
          41.1316727,
          37.8983181
        ]
      },
      "properties": {
        "id": 4504626389,
        "osm_type": "node",
        "name": "MC Döner"
      }
    },
    {
      "type": "Feature",
      "geometry": {
        "type": "Point",
        "coordinates": [
          41.1280781,
          37.8955542
        ]
      },
      "properties": {
        "id": 4514699392,
        "osm_type": "node",
        "name": "Dürümhan"
      }
    },
    {
      "type": "Feature",
      "geometry": {
        "type": "Point",
        "coordinates": [
          41.1179341,
          37.8750369
        ]
      },
      "properties": {
        "id": 4526343991,
        "osm_type": "node",
        "name": "Zozan Lahmacun"
      }
    },
    {
      "type": "Feature",
      "geometry": {
        "type": "Point",
        "coordinates": [
          41.127909,
          37.8969199
        ]
      },
      "properties": {
        "id": 4581801190,
        "osm_type": "node",
        "name": "Asos Lahmacun"
      }
    },
    {
      "type": "Feature",
      "geometry": {
        "type": "Point",
        "coordinates": [
          41.1237457,
          37.8802455
        ]
      },
      "properties": {
        "id": 4612116399,
        "osm_type": "node",
        "name": "Altın Sofra",
        "phone": "+90 507 249 60 63"
      }
    },
    {
      "type": "Feature",
      "geometry": {
        "type": "Point",
        "coordinates": [
          41.1290825,
          37.8952106
        ]
      },
      "properties": {
        "id": 4623914689,
        "osm_type": "node",
        "name": "Tadım Tantuni"
      }
    },
    {
      "type": "Feature",
      "geometry": {
        "type": "Point",
        "coordinates": [
          41.1316357,
          37.8965563
        ]
      },
      "properties": {
        "id": 4681820318,
        "osm_type": "node",
        "name": "Ciğerci Siraç"
      }
    },
    {
      "type": "Feature",
      "geometry": {
        "type": "Point",
        "coordinates": [
          41.1418449,
          37.9333655
        ]
      },
      "properties": {
        "id": 4730763272,
        "osm_type": "node",
        "name": "Lokanta"
      }
    },
    {
      "type": "Feature",
      "geometry": {
        "type": "Point",
        "coordinates": [
          41.1271516,
          37.8873023
        ]
      },
      "properties": {
        "id": 4762490027,
        "osm_type": "node",
        "name": "Ali Haydar"
      }
    },
    {
      "type": "Feature",
      "geometry": {
        "type": "Point",
        "coordinates": [
          41.1243867,
          37.8809224
        ]
      },
      "properties": {
        "id": 4769391384,
        "osm_type": "node",
        "name": "Fadıl Usta Et Lokantası"
      }
    },
    {
      "type": "Feature",
      "geometry": {
        "type": "Point",
        "coordinates": [
          41.1292711,
          37.898831
        ]
      },
      "properties": {
        "id": 4839922123,
        "osm_type": "node",
        "name": "Köftecim"
      }
    },
    {
      "type": "Feature",
      "geometry": {
        "type": "Point",
        "coordinates": [
          41.131635,
          37.8948238
        ]
      },
      "properties": {
        "id": 4880357621,
        "osm_type": "node",
        "name": "Dünya Döner"
      }
    },
    {
      "type": "Feature",
      "geometry": {
        "type": "Point",
        "coordinates": [
          41.1382512,
          37.8949694
        ]
      },
      "properties": {
        "id": 4880357821,
        "osm_type": "node",
        "name": "Karizma Cafe & Restaurant"
      }
    },
    {
      "type": "Feature",
      "geometry": {
        "type": "Point",
        "coordinates": [
          41.1312009,
          37.89759
        ]
      },
      "properties": {
        "id": 4882069521,
        "osm_type": "node",
        "name": "Göçmen Kebap",
        "phone": "+90 542 719 32 27"
      }
    },
    {
      "type": "Feature",
      "geometry": {
        "type": "Point",
        "coordinates": [
          41.1362097,
          37.9158476
        ]
      },
      "properties": {
        "id": 4908656122,
        "osm_type": "node",
        "name": "Dedeman Izgara ve Saç Tava Salonu",
        "opening_hours": "Mo-Su 09:30-23:00",
        "phone": "+90 488 212 11 44",
        "outdoor_seating": "yes"
      }
    },
    {
      "type": "Feature",
      "geometry": {
        "type": "Point",
        "coordinates": [
          41.1304119,
          37.8914946
        ]
      },
      "properties": {
        "id": 4947222622,
        "osm_type": "node",
        "name": "Hayal Et & Izgara Salonu"
      }
    },
    {
      "type": "Feature",
      "geometry": {
        "type": "Point",
        "coordinates": [
          41.1456326,
          37.8997611
        ]
      },
      "properties": {
        "id": 5064434822,
        "osm_type": "node",
        "name": "Gözde Lahmacun & Kebap Salonu"
      }
    },
    {
      "type": "Feature",
      "geometry": {
        "type": "Point",
        "coordinates": [
          41.1322367,
          37.9235025
        ]
      },
      "properties": {
        "id": 5070995323,
        "osm_type": "node",
        "name": "Fırınlı Et Lokantası"
      }
    },
    {
      "type": "Feature",
      "geometry": {
        "type": "Point",
        "coordinates": [
          41.1242864,
          37.8996348
        ]
      },
      "properties": {
        "id": 5073986322,
        "osm_type": "node",
        "name": "Kanatçı Ali Usta"
      }
    },
    {
      "type": "Feature",
      "geometry": {
        "type": "Point",
        "coordinates": [
          41.1232492,
          37.8792785
        ]
      },
      "properties": {
        "id": 5147999422,
        "osm_type": "node",
        "name": "Botan Büryan Salonu",
        "phone": "+90 488 213 96 25"
      }
    },
    {
      "type": "Feature",
      "geometry": {
        "type": "Point",
        "coordinates": [
          41.1313913,
          37.8854851
        ]
      },
      "properties": {
        "id": 5153367322,
        "osm_type": "node",
        "name": "Kardeşler Lahmacun Pide"
      }
    },
    {
      "type": "Feature",
      "geometry": {
        "type": "Point",
        "coordinates": [
          41.133124,
          37.8849589
        ]
      },
      "properties": {
        "id": 5153375022,
        "osm_type": "node",
        "name": "Sofuoğlu Ciğercisi"
      }
    },
    {
      "type": "Feature",
      "geometry": {
        "type": "Point",
        "coordinates": [
          41.1308641,
          37.9038579
        ]
      },
      "properties": {
        "id": 5179982821,
        "osm_type": "node",
        "name": "Abide Kebap Lahmacun"
      }
    },
    {
      "type": "Feature",
      "geometry": {
        "type": "Point",
        "coordinates": [
          41.1313907,
          37.89994
        ]
      },
      "properties": {
        "id": 5181350625,
        "osm_type": "node",
        "name": "Ciğerci Sinan",
        "opening_hours": "Mo-Su 09:00-03:00",
        "phone": "+90 544 727 8852",
        "cuisine": "turkish"
      }
    },
    {
      "type": "Feature",
      "geometry": {
        "type": "Point",
        "coordinates": [
          41.1382839,
          37.9140296
        ]
      },
      "properties": {
        "id": 5203523324,
        "osm_type": "node",
        "name": "Day'nın Yeri",
        "phone": "+90 488 221 29 64"
      }
    },
    {
      "type": "Feature",
      "geometry": {
        "type": "Point",
        "coordinates": [
          41.1275492,
          37.8901528
        ]
      },
      "properties": {
        "id": 5212932021,
        "osm_type": "node",
        "name": "Can Ocakbaşı"
      }
    },
    {
      "type": "Feature",
      "geometry": {
        "type": "Point",
        "coordinates": [
          41.1265068,
          37.9011373
        ]
      },
      "properties": {
        "id": 5214874223,
        "osm_type": "node",
        "name": "Kanatçı Necdet Usta"
      }
    },
    {
      "type": "Feature",
      "geometry": {
        "type": "Point",
        "coordinates": [
          41.1334391,
          37.8885741
        ]
      },
      "properties": {
        "id": 5223160023,
        "osm_type": "node",
        "name": "Rıdvan Ustanın Yeri",
        "phone": "+90 543 749 3452"
      }
    },
    {
      "type": "Feature",
      "geometry": {
        "type": "Point",
        "coordinates": [
          41.1313119,
          37.8980764
        ]
      },
      "properties": {
        "id": 5305952923,
        "osm_type": "node",
        "name": "Kervan Kebap"
      }
    },
    {
      "type": "Feature",
      "geometry": {
        "type": "Point",
        "coordinates": [
          41.1262035,
          37.8969948
        ]
      },
      "properties": {
        "id": 5311937434,
        "osm_type": "node",
        "name": "Son Durak Köftecisi"
      }
    },
    {
      "type": "Feature",
      "geometry": {
        "type": "Point",
        "coordinates": [
          41.1347978,
          37.9126462
        ]
      },
      "properties": {
        "id": 5325070821,
        "osm_type": "node"
      }
    },
    {
      "type": "Feature",
      "geometry": {
        "type": "Point",
        "coordinates": [
          41.1327833,
          37.9106418
        ]
      },
      "properties": {
        "id": 5338624221,
        "osm_type": "node",
        "name": "Litai Restaurant - Cafe"
      }
    },
    {
      "type": "Feature",
      "geometry": {
        "type": "Point",
        "coordinates": [
          41.1353206,
          37.8997801
        ]
      },
      "properties": {
        "id": 5352519823,
        "osm_type": "node",
        "name": "Siya Et Kebap Döner",
        "cuisine": "kebab"
      }
    },
    {
      "type": "Feature",
      "geometry": {
        "type": "Point",
        "coordinates": [
          41.1374491,
          37.9137381
        ]
      },
      "properties": {
        "id": 5416462050,
        "osm_type": "node",
        "name": "Recep Usta Pide Lahmacun Izgara Salonu"
      }
    },
    {
      "type": "Feature",
      "geometry": {
        "type": "Point",
        "coordinates": [
          41.5019208,
          38.1665863
        ]
      },
      "properties": {
        "id": 5758847674,
        "osm_type": "node",
        "name": "öz sark sofrasi"
      }
    },
    {
      "type": "Feature",
      "geometry": {
        "type": "Point",
        "coordinates": [
          41.1284415,
          37.8961655
        ]
      },
      "properties": {
        "id": 5839634685,
        "osm_type": "node",
        "name": "Moon Cafe & Restaurant"
      }
    },
    {
      "type": "Feature",
      "geometry": {
        "type": "Point",
        "coordinates": [
          41.137379,
          37.91662
        ]
      },
      "properties": {
        "id": 5908183587,
        "osm_type": "node",
        "name": "Geçit Büryan"
      }
    },
    {
      "type": "Feature",
      "geometry": {
        "type": "Point",
        "coordinates": [
          41.1421128,
          37.9185307
        ]
      },
      "properties": {
        "id": 5908183685,
        "osm_type": "node",
        "name": "QuuBa Restaurant"
      }
    },
    {
      "type": "Feature",
      "geometry": {
        "type": "Point",
        "coordinates": [
          41.1320735,
          37.9010051
        ]
      },
      "properties": {
        "id": 5999803285,
        "osm_type": "node",
        "name": "Yusuf Ciğer Salonu"
      }
    },
    {
      "type": "Feature",
      "geometry": {
        "type": "Point",
        "coordinates": [
          41.132226,
          37.8997717
        ]
      },
      "properties": {
        "id": 6126632385,
        "osm_type": "node",
        "name": "Ciğerci Mico"
      }
    },
    {
      "type": "Feature",
      "geometry": {
        "type": "Point",
        "coordinates": [
          41.1534982,
          37.9134457
        ]
      },
      "properties": {
        "id": 6126632587,
        "osm_type": "node",
        "name": "Adana Sofrası"
      }
    },
    {
      "type": "Feature",
      "geometry": {
        "type": "Point",
        "coordinates": [
          41.1556548,
          37.910157
        ]
      },
      "properties": {
        "id": 6126946911,
        "osm_type": "node",
        "name": "Çamlıtepe Lahmacun"
      }
    },
    {
      "type": "Feature",
      "geometry": {
        "type": "Point",
        "coordinates": [
          41.1329018,
          37.9014107
        ]
      },
      "properties": {
        "id": 6402071085,
        "osm_type": "node",
        "name": "Damak Ocakbaşı"
      }
    },
    {
      "type": "Feature",
      "geometry": {
        "type": "Point",
        "coordinates": [
          41.1316716,
          37.9002539
        ]
      },
      "properties": {
        "id": 6433863887,
        "osm_type": "node",
        "name": "Midyeci Yasin",
        "cuisine": "seafood"
      }
    },
    {
      "type": "Feature",
      "geometry": {
        "type": "Point",
        "coordinates": [
          41.1323243,
          37.9001631
        ]
      },
      "properties": {
        "id": 6435662985,
        "osm_type": "node",
        "name": "Etiler Marmaris"
      }
    },
    {
      "type": "Feature",
      "geometry": {
        "type": "Point",
        "coordinates": [
          41.1360152,
          37.9153273
        ]
      },
      "properties": {
        "id": 6484264185,
        "osm_type": "node",
        "name": "Aşbaz Et Lokantası"
      }
    },
    {
      "type": "Feature",
      "geometry": {
        "type": "Point",
        "coordinates": [
          41.116167,
          37.9045618
        ]
      },
      "properties": {
        "id": 6516068985,
        "osm_type": "node",
        "name": "Meşhur Hal Ciğercisi"
      }
    },
    {
      "type": "Feature",
      "geometry": {
        "type": "Point",
        "coordinates": [
          41.1319601,
          37.900199
        ]
      },
      "properties": {
        "id": 6550936485,
        "osm_type": "node",
        "name": "City Döner"
      }
    },
    {
      "type": "Feature",
      "geometry": {
        "type": "Point",
        "coordinates": [
          41.1451625,
          37.9002769
        ]
      },
      "properties": {
        "id": 6636986808,
        "osm_type": "node",
        "name": "Çorbacı Mehmet Usta"
      }
    },
    {
      "type": "Feature",
      "geometry": {
        "type": "Point",
        "coordinates": [
          41.1252996,
          37.8976682
        ]
      },
      "properties": {
        "id": 6682961285,
        "osm_type": "node",
        "name": "Köşk Ocakbaşı"
      }
    },
    {
      "type": "Feature",
      "geometry": {
        "type": "Point",
        "coordinates": [
          41.1178906,
          37.9039117
        ]
      },
      "properties": {
        "id": 6702760585,
        "osm_type": "node",
        "name": "Asos Izgara Döner"
      }
    },
    {
      "type": "Feature",
      "geometry": {
        "type": "Point",
        "coordinates": [
          41.1317694,
          37.9016284
        ]
      },
      "properties": {
        "id": 6958398230,
        "osm_type": "node",
        "name": "Adak Tantuni"
      }
    },
    {
      "type": "Feature",
      "geometry": {
        "type": "Point",
        "coordinates": [
          41.1460214,
          37.8877695
        ]
      },
      "properties": {
        "id": 7003983787,
        "osm_type": "node",
        "name": "Dağ Kebap Salonu"
      }
    },
    {
      "type": "Feature",
      "geometry": {
        "type": "Point",
        "coordinates": [
          41.1328563,
          37.7615916
        ]
      },
      "properties": {
        "id": 7169180010,
        "osm_type": "node",
        "name": "Salkımlı Dinlenme Tesisi"
      }
    },
    {
      "type": "Feature",
      "geometry": {
        "type": "Point",
        "coordinates": [
          41.129704,
          37.8947562
        ]
      },
      "properties": {
        "id": 7181926788,
        "osm_type": "node",
        "name": "Heydöner"
      }
    },
    {
      "type": "Feature",
      "geometry": {
        "type": "Point",
        "coordinates": [
          41.4235084,
          37.7300524
        ]
      },
      "properties": {
        "id": 7222091764,
        "osm_type": "node"
      }
    },
    {
      "type": "Feature",
      "geometry": {
        "type": "Point",
        "coordinates": [
          41.4251494,
          37.7294051
        ]
      },
      "properties": {
        "id": 7236707785,
        "osm_type": "node",
        "name": "Konak Cafe Restaurant"
      }
    },
    {
      "type": "Feature",
      "geometry": {
        "type": "Point",
        "coordinates": [
          41.1409572,
          37.9471179
        ]
      },
      "properties": {
        "id": 7474294161,
        "osm_type": "node",
        "name": "Kavurmacı"
      }
    },
    {
      "type": "Feature",
      "geometry": {
        "type": "Point",
        "coordinates": [
          41.1319105,
          37.8966109
        ]
      },
      "properties": {
        "id": 7609721085,
        "osm_type": "node",
        "name": "Baran 2 Lahmacun"
      }
    },
    {
      "type": "Feature",
      "geometry": {
        "type": "Point",
        "coordinates": [
          41.1234091,
          37.8782238
        ]
      },
      "properties": {
        "id": 7709269485,
        "osm_type": "node",
        "name": "İstasyon Ciğercisi"
      }
    },
    {
      "type": "Feature",
      "geometry": {
        "type": "Point",
        "coordinates": [
          41.4521506,
          37.6794748
        ]
      },
      "properties": {
        "id": 7727932995,
        "osm_type": "node",
        "name": "Hasankeyf Doğa Dinlenme Tesisi"
      }
    },
    {
      "type": "Feature",
      "geometry": {
        "type": "Point",
        "coordinates": [
          41.1407518,
          37.9022594
        ]
      },
      "properties": {
        "id": 7825174289,
        "osm_type": "node",
        "name": "Can Kavurma"
      }
    },
    {
      "type": "Feature",
      "geometry": {
        "type": "Point",
        "coordinates": [
          41.1333141,
          37.901899
        ]
      },
      "properties": {
        "id": 7859080186,
        "osm_type": "node",
        "name": "Haşlamacı Mehmet Usta"
      }
    },
    {
      "type": "Feature",
      "geometry": {
        "type": "Point",
        "coordinates": [
          41.1286419,
          37.8965297
        ]
      },
      "properties": {
        "id": 7887874622,
        "osm_type": "node",
        "name": "Cemre Lahmacun"
      }
    },
    {
      "type": "Feature",
      "geometry": {
        "type": "Point",
        "coordinates": [
          41.1386161,
          37.8967615
        ]
      },
      "properties": {
        "id": 7966794820,
        "osm_type": "node",
        "name": "Fikret Usta Lahmacun"
      }
    },
    {
      "type": "Feature",
      "geometry": {
        "type": "Point",
        "coordinates": [
          41.124107,
          37.8938775
        ]
      },
      "properties": {
        "id": 8261448235,
        "osm_type": "node",
        "name": "Maruf Usta Lahmacun Pide Izgara Salonu"
      }
    },
    {
      "type": "Feature",
      "geometry": {
        "type": "Point",
        "coordinates": [
          41.1349814,
          37.9013171
        ]
      },
      "properties": {
        "id": 8420250117,
        "osm_type": "node",
        "name": "Xalo Heyran",
        "phone": "+90 538 446 87 72"
      }
    },
    {
      "type": "Feature",
      "geometry": {
        "type": "Point",
        "coordinates": [
          41.1261349,
          37.8826526
        ]
      },
      "properties": {
        "id": 8617280432,
        "osm_type": "node",
        "name": "Çağdaş Ocakbaşı"
      }
    },
    {
      "type": "Feature",
      "geometry": {
        "type": "Point",
        "coordinates": [
          41.1547119,
          37.8657399
        ]
      },
      "properties": {
        "id": 8628015917,
        "osm_type": "node",
        "name": "Çorba Durağı"
      }
    },
    {
      "type": "Feature",
      "geometry": {
        "type": "Point",
        "coordinates": [
          41.1345976,
          37.9001302
        ]
      },
      "properties": {
        "id": 8722582217,
        "osm_type": "node",
        "name": "Bağdat Ocakbaşı"
      }
    },
    {
      "type": "Feature",
      "geometry": {
        "type": "Point",
        "coordinates": [
          41.1274171,
          37.8873839
        ]
      },
      "properties": {
        "id": 8984048117,
        "osm_type": "node",
        "name": "Ciğerci Hasan"
      }
    },
    {
      "type": "Feature",
      "geometry": {
        "type": "Point",
        "coordinates": [
          41.1265031,
          37.887741
        ]
      },
      "properties": {
        "id": 8984048217,
        "osm_type": "node",
        "name": "Sanat Ciğercisi"
      }
    },
    {
      "type": "Feature",
      "geometry": {
        "type": "Point",
        "coordinates": [
          41.3061474,
          37.7334072
        ]
      },
      "properties": {
        "id": 9139398701,
        "osm_type": "node",
        "name": "Asmalı Konak Cafe & Restorant"
      }
    },
    {
      "type": "Feature",
      "geometry": {
        "type": "Point",
        "coordinates": [
          41.4244279,
          37.7285358
        ]
      },
      "properties": {
        "id": 9207298817,
        "osm_type": "node",
        "name": "Has-Keyf Fırınlı Et Lokantası"
      }
    },
    {
      "type": "Feature",
      "geometry": {
        "type": "Point",
        "coordinates": [
          41.1347627,
          37.9001156
        ]
      },
      "properties": {
        "id": 9248305717,
        "osm_type": "node",
        "name": "Eti-Bol Pide Lahmacun"
      }
    },
    {
      "type": "Feature",
      "geometry": {
        "type": "Point",
        "coordinates": [
          41.1237382,
          37.8805135
        ]
      },
      "properties": {
        "id": 9459814117,
        "osm_type": "node",
        "name": "Hal Ocakbaşı"
      }
    },
    {
      "type": "Feature",
      "geometry": {
        "type": "Point",
        "coordinates": [
          41.1402461,
          37.9136172
        ]
      },
      "properties": {
        "id": 9463842828,
        "osm_type": "node",
        "name": "Han Restaurant"
      }
    },
    {
      "type": "Feature",
      "geometry": {
        "type": "Point",
        "coordinates": [
          41.117133,
          37.9073949
        ]
      },
      "properties": {
        "id": 9603090317,
        "osm_type": "node",
        "name": "Kıvanç Adana Kebap"
      }
    },
    {
      "type": "Feature",
      "geometry": {
        "type": "Point",
        "coordinates": [
          41.1358097,
          37.920593
        ]
      },
      "properties": {
        "id": 9741766517,
        "osm_type": "node",
        "name": "Buket Lahmacun"
      }
    },
    {
      "type": "Feature",
      "geometry": {
        "type": "Point",
        "coordinates": [
          41.1358196,
          37.9206612
        ]
      },
      "properties": {
        "id": 9741766717,
        "osm_type": "node",
        "name": "Bereket Döner"
      }
    },
    {
      "type": "Feature",
      "geometry": {
        "type": "Point",
        "coordinates": [
          41.1044975,
          37.9028169
        ]
      },
      "properties": {
        "id": 9784876406,
        "osm_type": "node",
        "name": "Ciğerci Çavuş",
        "phone": "+90 488 213 88 31"
      }
    },
    {
      "type": "Feature",
      "geometry": {
        "type": "Point",
        "coordinates": [
          41.1446689,
          37.9163715
        ]
      },
      "properties": {
        "id": 9869702417,
        "osm_type": "node",
        "name": "Nejdet Usta"
      }
    },
    {
      "type": "Feature",
      "geometry": {
        "type": "Point",
        "coordinates": [
          41.1474829,
          37.9024265
        ]
      },
      "properties": {
        "id": 9869721619,
        "osm_type": "node",
        "name": "Dünya Yemek Fabrikası"
      }
    },
    {
      "type": "Feature",
      "geometry": {
        "type": "Point",
        "coordinates": [
          41.1318914,
          37.8913642
        ]
      },
      "properties": {
        "id": 9871684617,
        "osm_type": "node",
        "name": "Sahra Yemek Fabrikası"
      }
    },
    {
      "type": "Feature",
      "geometry": {
        "type": "Point",
        "coordinates": [
          41.1358261,
          37.916166
        ]
      },
      "properties": {
        "id": 9937791322,
        "osm_type": "node",
        "name": "Çorbacı Said Efendi"
      }
    },
    {
      "type": "Feature",
      "geometry": {
        "type": "Point",
        "coordinates": [
          41.1361459,
          37.9171656
        ]
      },
      "properties": {
        "id": 9937803718,
        "osm_type": "node",
        "name": "Keke Ocakbaşı"
      }
    },
    {
      "type": "Feature",
      "geometry": {
        "type": "Point",
        "coordinates": [
          41.1341225,
          37.9027943
        ]
      },
      "properties": {
        "id": 9966612317,
        "osm_type": "node",
        "name": "Hastat Self Servis"
      }
    },
    {
      "type": "Feature",
      "geometry": {
        "type": "Point",
        "coordinates": [
          41.1313895,
          37.897075
        ]
      },
      "properties": {
        "id": 9987655417,
        "osm_type": "node",
        "name": "Mehmet Usta Ocakbaşı"
      }
    },
    {
      "type": "Feature",
      "geometry": {
        "type": "Point",
        "coordinates": [
          41.1349134,
          37.9157006
        ]
      },
      "properties": {
        "id": 10100977517,
        "osm_type": "node",
        "name": "Şırdancı Mehmet"
      }
    },
    {
      "type": "Feature",
      "geometry": {
        "type": "Point",
        "coordinates": [
          41.1308385,
          37.903313
        ]
      },
      "properties": {
        "id": 10174958234,
        "osm_type": "node",
        "name": "Bi'Kova Pilav"
      }
    },
    {
      "type": "Feature",
      "geometry": {
        "type": "Point",
        "coordinates": [
          41.1682448,
          37.8780535
        ]
      },
      "properties": {
        "id": 10567075888,
        "osm_type": "node",
        "name": "Abdullah Usta - Adana Kebap Bahçesi",
        "phone": "+90 507 207 7201"
      }
    },
    {
      "type": "Feature",
      "geometry": {
        "type": "Point",
        "coordinates": [
          41.1467587,
          37.9156943
        ]
      },
      "properties": {
        "id": 10568039789,
        "osm_type": "node",
        "name": "Fırın 72",
        "opening_hours": "Mo-Su 10:00-21:00",
        "phone": "+90 488 502 82 64",
        "cuisine": "pide;lahmacun;pizza;etli_ekmek;karışık_pide;kaşarlı_pide;kıymalı_pide;et_döner;bıçak_arası"
      }
    },
    {
      "type": "Feature",
      "geometry": {
        "type": "Point",
        "coordinates": [
          41.1292549,
          37.8948447
        ]
      },
      "properties": {
        "id": 10600549616,
        "osm_type": "node",
        "name": "Merdo Tantuni"
      }
    },
    {
      "type": "Feature",
      "geometry": {
        "type": "Point",
        "coordinates": [
          41.144044,
          37.9167135
        ]
      },
      "properties": {
        "id": 10686452405,
        "osm_type": "node",
        "name": "Kristal"
      }
    },
    {
      "type": "Feature",
      "geometry": {
        "type": "Point",
        "coordinates": [
          41.1321992,
          37.9013716
        ]
      },
      "properties": {
        "id": 10773898206,
        "osm_type": "node",
        "name": "Şahin Usta"
      }
    },
    {
      "type": "Feature",
      "geometry": {
        "type": "Point",
        "coordinates": [
          41.0913425,
          37.840404
        ]
      },
      "properties": {
        "id": 10777903306,
        "osm_type": "node",
        "name": "Ziyafet Ocakbaşı"
      }
    },
    {
      "type": "Feature",
      "geometry": {
        "type": "Point",
        "coordinates": [
          41.5010982,
          38.1661622
        ]
      },
      "properties": {
        "id": 11015586906,
        "osm_type": "node",
        "name": "Paşa Kebap"
      }
    },
    {
      "type": "Feature",
      "geometry": {
        "type": "Point",
        "coordinates": [
          41.2305729,
          38.1337233
        ]
      },
      "properties": {
        "id": 11022128720,
        "osm_type": "node",
        "name": "Üçyol Dinlenme Tesisi"
      }
    },
    {
      "type": "Feature",
      "geometry": {
        "type": "Point",
        "coordinates": [
          41.2367429,
          37.9005654
        ]
      },
      "properties": {
        "id": 11041778005,
        "osm_type": "node",
        "name": "Ali Usta"
      }
    },
    {
      "type": "Feature",
      "geometry": {
        "type": "Point",
        "coordinates": [
          41.1272126,
          37.8828661
        ]
      },
      "properties": {
        "id": 11049551306,
        "osm_type": "node",
        "name": "Lo Ciğer Kebap"
      }
    },
    {
      "type": "Feature",
      "geometry": {
        "type": "Point",
        "coordinates": [
          41.1255637,
          37.8808614
        ]
      },
      "properties": {
        "id": 11146282912,
        "osm_type": "node",
        "name": "Tepsi Ciğer Kebap"
      }
    },
    {
      "type": "Feature",
      "geometry": {
        "type": "Point",
        "coordinates": [
          41.1254766,
          37.8808199
        ]
      },
      "properties": {
        "id": 11146302607,
        "osm_type": "node",
        "name": "Hostam Lahmacun",
        "phone": "+90 488 212 8182"
      }
    },
    {
      "type": "Feature",
      "geometry": {
        "type": "Point",
        "coordinates": [
          41.1541954,
          37.9087572
        ]
      },
      "properties": {
        "id": 11409759671,
        "osm_type": "node",
        "name": "Şöhret Kebap"
      }
    },
    {
      "type": "Feature",
      "geometry": {
        "type": "Point",
        "coordinates": [
          41.1326828,
          37.8975074
        ]
      },
      "properties": {
        "id": 11506663969,
        "osm_type": "node",
        "name": "Ciğerci Reşat Usta",
        "phone": "+90 552 169 3521"
      }
    },
    {
      "type": "Feature",
      "geometry": {
        "type": "Point",
        "coordinates": [
          41.0946308,
          37.9170069
        ]
      },
      "properties": {
        "id": 11518283067,
        "osm_type": "node",
        "name": "Bagro's Bohem"
      }
    },
    {
      "type": "Feature",
      "geometry": {
        "type": "Point",
        "coordinates": [
          41.134065,
          37.9008747
        ]
      },
      "properties": {
        "id": 11573823471,
        "osm_type": "node",
        "name": "Yes Chef"
      }
    },
    {
      "type": "Feature",
      "geometry": {
        "type": "Point",
        "coordinates": [
          41.0949086,
          37.9180386
        ]
      },
      "properties": {
        "id": 11795301269,
        "osm_type": "node",
        "name": "Hasan Cheff"
      }
    },
    {
      "type": "Feature",
      "geometry": {
        "type": "Point",
        "coordinates": [
          41.134182,
          37.9014797
        ]
      },
      "properties": {
        "id": 11950166669,
        "osm_type": "node",
        "name": "Ziyafet Mangal"
      }
    },
    {
      "type": "Feature",
      "geometry": {
        "type": "Point",
        "coordinates": [
          41.1410432,
          37.913858
        ]
      },
      "properties": {
        "id": 11968923071,
        "osm_type": "node",
        "name": "Halk Lokantası",
        "operator": "Batman Belediyesi"
      }
    },
    {
      "type": "Feature",
      "geometry": {
        "type": "Point",
        "coordinates": [
          41.1316344,
          37.8982197
        ]
      },
      "properties": {
        "id": 11976188670,
        "osm_type": "node",
        "name": "Şaban Usta"
      }
    },
    {
      "type": "Feature",
      "geometry": {
        "type": "Point",
        "coordinates": [
          41.1274237,
          37.885776
        ]
      },
      "properties": {
        "id": 11987217165,
        "osm_type": "node",
        "name": "Halk Lokantası",
        "operator": "Batman Belediyesi"
      }
    },
    {
      "type": "Feature",
      "geometry": {
        "type": "Point",
        "coordinates": [
          41.1401201,
          37.9136587
        ]
      },
      "properties": {
        "id": 12047159369,
        "osm_type": "node",
        "name": "Bölge Ciğer"
      }
    },
    {
      "type": "Feature",
      "geometry": {
        "type": "Point",
        "coordinates": [
          41.1401908,
          37.9136394
        ]
      },
      "properties": {
        "id": 12047159469,
        "osm_type": "node",
        "name": "İcon Dönerium"
      }
    },
    {
      "type": "Feature",
      "geometry": {
        "type": "Point",
        "coordinates": [
          41.4171944,
          37.7296259
        ]
      },
      "properties": {
        "id": 12163204450,
        "osm_type": "node",
        "name": "Tandoora Restaurant & Cafe"
      }
    },
    {
      "type": "Feature",
      "geometry": {
        "type": "Point",
        "coordinates": [
          41.1105784,
          37.9082733
        ]
      },
      "properties": {
        "id": 12289504702,
        "osm_type": "node",
        "name": "Bahçe Ocakbaşı"
      }
    },
    {
      "type": "Feature",
      "geometry": {
        "type": "Point",
        "coordinates": [
          41.1401584,
          37.9116186
        ]
      },
      "properties": {
        "id": 12386714301,
        "osm_type": "node",
        "name": "Süleyman Usta Fırınlı Et Lokantası"
      }
    },
    {
      "type": "Feature",
      "geometry": {
        "type": "Point",
        "coordinates": [
          41.2714222,
          38.2224499
        ]
      },
      "properties": {
        "id": 12387837177,
        "osm_type": "node"
      }
    },
    {
      "type": "Feature",
      "geometry": {
        "type": "Point",
        "coordinates": [
          41.1284089,
          37.8939727
        ]
      },
      "properties": {
        "id": 12422262701,
        "osm_type": "node",
        "name": "Can Kristal Et Lokantası"
      }
    },
    {
      "type": "Feature",
      "geometry": {
        "type": "Point",
        "coordinates": [
          41.0840284,
          37.8344415
        ]
      },
      "properties": {
        "id": 12511897401,
        "osm_type": "node",
        "name": "Özkan Döner"
      }
    },
    {
      "type": "Feature",
      "geometry": {
        "type": "Point",
        "coordinates": [
          41.1300278,
          37.8927807
        ]
      },
      "properties": {
        "id": 12896396901,
        "osm_type": "node",
        "name": "Çorbacı Buhara",
        "opening_hours": "24/7",
        "phone": "+90 488 215 0779"
      }
    },
    {
      "type": "Feature",
      "geometry": {
        "type": "Point",
        "coordinates": [
          41.1327384,
          37.8983789
        ]
      },
      "properties": {
        "id": 12907635201,
        "osm_type": "node",
        "name": "Löp Et"
      }
    },
    {
      "type": "Feature",
      "geometry": {
        "type": "Point",
        "coordinates": [
          41.1255993,
          37.894279
        ]
      },
      "properties": {
        "id": 12915022401,
        "osm_type": "node",
        "name": "Kanatçı Suat Usta",
        "phone": "+90 488 212 7271"
      }
    },
    {
      "type": "Feature",
      "geometry": {
        "type": "Point",
        "coordinates": [
          41.1416918,
          37.8966155
        ]
      },
      "properties": {
        "id": 12959341601,
        "osm_type": "node",
        "name": "Yaprak Lahmacun",
        "phone": "+90 538 470 2938"
      }
    },
    {
      "type": "Feature",
      "geometry": {
        "type": "Point",
        "coordinates": [
          41.1254289,
          37.899859
        ]
      },
      "properties": {
        "id": 13026862801,
        "osm_type": "node",
        "name": "Batman Izgara",
        "phone": "+90 552 638 5172"
      }
    },
    {
      "type": "Feature",
      "geometry": {
        "type": "Point",
        "coordinates": [
          41.1286806,
          37.9250731
        ]
      },
      "properties": {
        "id": 13064787801,
        "osm_type": "node",
        "name": "Hacıoğlu Izgara"
      }
    },
    {
      "type": "Feature",
      "geometry": {
        "type": "Point",
        "coordinates": [
          41.1286451,
          37.9249878
        ]
      },
      "properties": {
        "id": 13068189201,
        "osm_type": "node",
        "name": "Kebapçı Rahmi Usta",
        "phone": "+90 536 788 2151"
      }
    },
    {
      "type": "Feature",
      "geometry": {
        "type": "Point",
        "coordinates": [
          41.1290316,
          37.9257069
        ]
      },
      "properties": {
        "id": 13068189301,
        "osm_type": "node",
        "name": "Doğan Kahvaltı Çay Evi"
      }
    },
    {
      "type": "Feature",
      "geometry": {
        "type": "Point",
        "coordinates": [
          41.1185824,
          37.9039769
        ]
      },
      "properties": {
        "id": 13131257005,
        "osm_type": "node",
        "name": "Ciğerci Apê Osman"
      }
    },
    {
      "type": "Feature",
      "geometry": {
        "type": "Point",
        "coordinates": [
          41.1052676,
          37.9027698
        ]
      },
      "properties": {
        "id": 13200955201,
        "osm_type": "node",
        "name": "Ciğerci Yusuf Usta"
      }
    },
    {
      "type": "Feature",
      "geometry": {
        "type": "Point",
        "coordinates": [
          41.148,
          37.8957464
        ]
      },
      "properties": {
        "id": 13264817302,
        "osm_type": "node",
        "name": "Çorba Diyarı"
      }
    },
    {
      "type": "Feature",
      "geometry": {
        "type": "Point",
        "coordinates": [
          41.1455472,
          37.900667
        ]
      },
      "properties": {
        "id": 13264826601,
        "osm_type": "node",
        "name": "Ciğerci Murad"
      }
    },
    {
      "type": "Feature",
      "geometry": {
        "type": "Point",
        "coordinates": [
          41.1330008,
          37.9033311
        ]
      },
      "properties": {
        "id": 13374354502,
        "osm_type": "node",
        "name": "Boss Döner"
      }
    },
    {
      "type": "Feature",
      "geometry": {
        "type": "Point",
        "coordinates": [
          41.1281658,
          37.8871463
        ]
      },
      "properties": {
        "id": 13401720102,
        "osm_type": "node",
        "name": "Donas Döner"
      }
    },
    {
      "type": "Feature",
      "geometry": {
        "type": "Point",
        "coordinates": [
          41.1283511,
          37.9244383
        ]
      },
      "properties": {
        "id": 13403921101,
        "osm_type": "node",
        "name": "Sanayi Izgara Salonu",
        "phone": "+90 536 392 3462"
      }
    },
    {
      "type": "Feature",
      "geometry": {
        "type": "Point",
        "coordinates": [
          41.1368261,
          37.9201842
        ]
      },
      "properties": {
        "id": 13471289402,
        "osm_type": "node",
        "name": "Köfteci Ramiz"
      }
    },
    {
      "type": "Feature",
      "geometry": {
        "type": "Point",
        "coordinates": [
          41.1358086,
          37.9205331
        ]
      },
      "properties": {
        "id": 13471663121,
        "osm_type": "node",
        "name": "Bursa Kebap Evi"
      }
    },
    {
      "type": "Feature",
      "geometry": {
        "type": "Point",
        "coordinates": [
          41.4670922,
          37.7227031
        ]
      },
      "properties": {
        "id": 13584274160,
        "osm_type": "node",
        "name": "Köfte İstasyonu Hayvan Çiftliği"
      }
    },
    {
      "type": "Feature",
      "geometry": {
        "type": "Point",
        "coordinates": [
          41.1677043,
          37.8715575
        ]
      },
      "properties": {
        "id": 13668810756,
        "osm_type": "node",
        "name": "Köfte İstasyonu Restoranı",
        "cuisine": "steak_house"
      }
    },
    {
      "type": "Feature",
      "geometry": {
        "type": "Point",
        "coordinates": [
          41.1432141,
          37.917276
        ]
      },
      "properties": {
        "id": 13732445002,
        "osm_type": "node",
        "name": "Acar Tantuni"
      }
    },
    {
      "type": "Feature",
      "geometry": {
        "type": "Point",
        "coordinates": [
          41.2092766,
          38.1665142
        ]
      },
      "properties": {
        "id": 13760483501,
        "osm_type": "node",
        "name": "Malabadi Tabiat Parkı Restoran"
      }
    },
    {
      "type": "Feature",
      "geometry": {
        "type": "Point",
        "coordinates": [
          41.0861328,
          37.8358102
        ]
      },
      "properties": {
        "id": 13776622202,
        "osm_type": "node",
        "name": "Ciğerci Bahattin Bey"
      }
    },
    {
      "type": "Feature",
      "geometry": {
        "type": "Point",
        "coordinates": [
          41.2554035,
          37.9081283
        ]
      },
      "properties": {
        "id": 237635798,
        "osm_type": "way",
        "name": "Dört Mevsim Restoran"
      }
    },
    {
      "type": "Feature",
      "geometry": {
        "type": "Point",
        "coordinates": [
          41.1369464,
          37.9089711
        ]
      },
      "properties": {
        "id": 237765512,
        "osm_type": "way",
        "name": "Ziyade Et Lokantası"
      }
    },
    {
      "type": "Feature",
      "geometry": {
        "type": "Point",
        "coordinates": [
          41.1403287,
          37.9127652
        ]
      },
      "properties": {
        "id": 249681697,
        "osm_type": "way"
      }
    },
    {
      "type": "Feature",
      "geometry": {
        "type": "Point",
        "coordinates": [
          41.2693226,
          37.9144419
        ]
      },
      "properties": {
        "id": 364852990,
        "osm_type": "way",
        "name": "Yeşil Bahçe Cafe & Restorant"
      }
    }
  ]
}