{
  "type": "FeatureCollection",
  "features": [
    {
      "type": "Feature",
      "geometry": {
        "type": "Point",
        "coordinates": [
          20.852221,
          47.5913852
        ]
      },
      "properties": {
        "id": 1234750845,
        "osm_type": "node",
        "name": "Patkós Csárda",
        "opening_hours": "Mo-Su 11:00-20:00",
        "cuisine": "regional",
        "outdoor_seating": "yes"
      }
    },
    {
      "type": "Feature",
      "geometry": {
        "type": "Point",
        "coordinates": [
          20.2233416,
          47.1598032
        ]
      },
      "properties": {
        "id": 1288255843,
        "osm_type": "node",
        "name": "Alcsi Holt-Tisza Vendégház és Étterem",
        "website": "http://www.alcsifood.hu"
      }
    },
    {
      "type": "Feature",
      "geometry": {
        "type": "Point",
        "coordinates": [
          20.200404,
          47.1737277
        ]
      },
      "properties": {
        "id": 1326108187,
        "osm_type": "node",
        "name": "Halászcsárda"
      }
    },
    {
      "type": "Feature",
      "geometry": {
        "type": "Point",
        "coordinates": [
          20.1931085,
          47.1714297
        ]
      },
      "properties": {
        "id": 1326108227,
        "osm_type": "node",
        "name": "Galéria étterem"
      }
    },
    {
      "type": "Feature",
      "geometry": {
        "type": "Point",
        "coordinates": [
          20.2220386,
          47.1646511
        ]
      },
      "properties": {
        "id": 1351138002,
        "osm_type": "node",
        "name": "Evezős Csárda"
      }
    },
    {
      "type": "Feature",
      "geometry": {
        "type": "Point",
        "coordinates": [
          20.7551572,
          47.2157482
        ]
      },
      "properties": {
        "id": 1449747316,
        "osm_type": "node",
        "name": "Horváth-kert Étterem és Söröző"
      }
    },
    {
      "type": "Feature",
      "geometry": {
        "type": "Point",
        "coordinates": [
          20.7610057,
          47.2182028
        ]
      },
      "properties": {
        "id": 1454654067,
        "osm_type": "node",
        "name": "Kisúj Étterem"
      }
    },
    {
      "type": "Feature",
      "geometry": {
        "type": "Point",
        "coordinates": [
          20.7380675,
          47.2192449
        ]
      },
      "properties": {
        "id": 1457548513,
        "osm_type": "node",
        "name": "István fogadó"
      }
    },
    {
      "type": "Feature",
      "geometry": {
        "type": "Point",
        "coordinates": [
          20.7472855,
          47.6218329
        ]
      },
      "properties": {
        "id": 1833097556,
        "osm_type": "node",
        "name": "Molnár étterem",
        "opening_hours": "Mo-Su 11:00-22:00"
      }
    },
    {
      "type": "Feature",
      "geometry": {
        "type": "Point",
        "coordinates": [
          20.73719,
          47.624828
        ]
      },
      "properties": {
        "id": 1853492284,
        "osm_type": "node"
      }
    },
    {
      "type": "Feature",
      "geometry": {
        "type": "Point",
        "coordinates": [
          20.3048007,
          47.1753891
        ]
      },
      "properties": {
        "id": 1907430273,
        "osm_type": "node",
        "name": "Convoy City",
        "opening_hours": "24/7",
        "cuisine": "regional"
      }
    },
    {
      "type": "Feature",
      "geometry": {
        "type": "Point",
        "coordinates": [
          20.7230908,
          47.6085335
        ]
      },
      "properties": {
        "id": 2128034329,
        "osm_type": "node",
        "name": "Halászcsárda",
        "cuisine": "fish"
      }
    },
    {
      "type": "Feature",
      "geometry": {
        "type": "Point",
        "coordinates": [
          20.7603966,
          47.615677
        ]
      },
      "properties": {
        "id": 2360430460,
        "osm_type": "node",
        "name": "Nemzeti étterem"
      }
    },
    {
      "type": "Feature",
      "geometry": {
        "type": "Point",
        "coordinates": [
          20.7555246,
          47.6208644
        ]
      },
      "properties": {
        "id": 2370226579,
        "osm_type": "node",
        "name": "Park étterem és pizzéria",
        "opening_hours": "Mo-Su 11:00-21:00"
      }
    },
    {
      "type": "Feature",
      "geometry": {
        "type": "Point",
        "coordinates": [
          20.4564727,
          47.2729493
        ]
      },
      "properties": {
        "id": 2981233205,
        "osm_type": "node"
      }
    },
    {
      "type": "Feature",
      "geometry": {
        "type": "Point",
        "coordinates": [
          20.0726596,
          47.2931413
        ]
      },
      "properties": {
        "id": 2984357382,
        "osm_type": "node",
        "name": "Szász étterem"
      }
    },
    {
      "type": "Feature",
      "geometry": {
        "type": "Point",
        "coordinates": [
          19.9121826,
          47.5017774
        ]
      },
      "properties": {
        "id": 3006603189,
        "osm_type": "node",
        "name": "Krusovice étterem",
        "opening_hours": "Su-Th 11:00-22:00; Fr,Sa 11:00-23:00"
      }
    },
    {
      "type": "Feature",
      "geometry": {
        "type": "Point",
        "coordinates": [
          19.7170984,
          47.5696607
        ]
      },
      "properties": {
        "id": 3073213636,
        "osm_type": "node",
        "name": "Flamingó Étterem és Pizzéria"
      }
    },
    {
      "type": "Feature",
      "geometry": {
        "type": "Point",
        "coordinates": [
          19.9104438,
          47.5020991
        ]
      },
      "properties": {
        "id": 3148955768,
        "osm_type": "node",
        "name": "Arizona Steak house"
      }
    },
    {
      "type": "Feature",
      "geometry": {
        "type": "Point",
        "coordinates": [
          20.1864161,
          46.8672832
        ]
      },
      "properties": {
        "id": 3265671503,
        "osm_type": "node",
        "name": "Cserke csárda"
      }
    },
    {
      "type": "Feature",
      "geometry": {
        "type": "Point",
        "coordinates": [
          20.2797422,
          47.0177162
        ]
      },
      "properties": {
        "id": 3322988123,
        "osm_type": "node",
        "name": "Kaiser Étterem",
        "opening_hours": "Mo-Fr 07:00-17:00; Sa 07:00-12:00"
      }
    },
    {
      "type": "Feature",
      "geometry": {
        "type": "Point",
        "coordinates": [
          20.2852226,
          47.0195937
        ]
      },
      "properties": {
        "id": 3322988269,
        "osm_type": "node",
        "name": "Spárga",
        "outdoor_seating": "yes",
        "check_date": "2025-04-25"
      }
    },
    {
      "type": "Feature",
      "geometry": {
        "type": "Point",
        "coordinates": [
          20.7178563,
          47.6057363
        ]
      },
      "properties": {
        "id": 3474470317,
        "osm_type": "node",
        "name": "Hableány Étterem"
      }
    },
    {
      "type": "Feature",
      "geometry": {
        "type": "Point",
        "coordinates": [
          20.750467,
          47.626017
        ]
      },
      "properties": {
        "id": 3487705790,
        "osm_type": "node",
        "name": "Ezüst Sirály vendéglő"
      }
    },
    {
      "type": "Feature",
      "geometry": {
        "type": "Point",
        "coordinates": [
          20.825343,
          47.519057
        ]
      },
      "properties": {
        "id": 3487710269,
        "osm_type": "node"
      }
    },
    {
      "type": "Feature",
      "geometry": {
        "type": "Point",
        "coordinates": [
          20.753481,
          47.216135
        ]
      },
      "properties": {
        "id": 3488434669,
        "osm_type": "node",
        "name": "Atlantis pizzéria és Gyros",
        "phone": "+36 30 658 4289",
        "cuisine": "pizza"
      }
    },
    {
      "type": "Feature",
      "geometry": {
        "type": "Point",
        "coordinates": [
          20.45341,
          47.2741
        ]
      },
      "properties": {
        "id": 3489427691,
        "osm_type": "node",
        "name": "Suttogó étterem és lovasudvar",
        "phone": "+36 56 494 495",
        "website": "http://www.suttogoetterem.hu"
      }
    },
    {
      "type": "Feature",
      "geometry": {
        "type": "Point",
        "coordinates": [
          20.6185306,
          47.0023948
        ]
      },
      "properties": {
        "id": 3489668107,
        "osm_type": "node",
        "name": "Bora-Bora pizzéria",
        "cuisine": "pizza"
      }
    },
    {
      "type": "Feature",
      "geometry": {
        "type": "Point",
        "coordinates": [
          20.744917,
          47.1011
        ]
      },
      "properties": {
        "id": 3489668112,
        "osm_type": "node",
        "name": "Dodo Pizzéria étterem"
      }
    },
    {
      "type": "Feature",
      "geometry": {
        "type": "Point",
        "coordinates": [
          20.626488,
          47.006941
        ]
      },
      "properties": {
        "id": 3489668117,
        "osm_type": "node",
        "name": "Gyöngyhalász étterem"
      }
    },
    {
      "type": "Feature",
      "geometry": {
        "type": "Point",
        "coordinates": [
          20.6216449,
          47.0071332
        ]
      },
      "properties": {
        "id": 3489668130,
        "osm_type": "node",
        "name": "Spaten étterem"
      }
    },
    {
      "type": "Feature",
      "geometry": {
        "type": "Point",
        "coordinates": [
          20.1988371,
          47.174172
        ]
      },
      "properties": {
        "id": 3490657429,
        "osm_type": "node",
        "name": "Pronto Pizzéria",
        "opening_hours": "Mo-Th 10:00-23:00; Fr-Sa 10:00-24:00; Su 11:30-23:00",
        "cuisine": "pizza"
      }
    },
    {
      "type": "Feature",
      "geometry": {
        "type": "Point",
        "coordinates": [
          20.18725,
          47.173133
        ]
      },
      "properties": {
        "id": 3490657430,
        "osm_type": "node",
        "name": "Róza vendéglő"
      }
    },
    {
      "type": "Feature",
      "geometry": {
        "type": "Point",
        "coordinates": [
          20.1957877,
          47.1756524
        ]
      },
      "properties": {
        "id": 3490657434,
        "osm_type": "node",
        "name": "Sólyom étterem"
      }
    },
    {
      "type": "Feature",
      "geometry": {
        "type": "Point",
        "coordinates": [
          19.7881533,
          47.5583462
        ]
      },
      "properties": {
        "id": 3490658495,
        "osm_type": "node",
        "name": "Galéria étterem"
      }
    },
    {
      "type": "Feature",
      "geometry": {
        "type": "Point",
        "coordinates": [
          19.909222,
          47.50175
        ]
      },
      "properties": {
        "id": 3490658509,
        "osm_type": "node",
        "name": "Süti Sarok"
      }
    },
    {
      "type": "Feature",
      "geometry": {
        "type": "Point",
        "coordinates": [
          20.089717,
          47.374217
        ]
      },
      "properties": {
        "id": 3490663522,
        "osm_type": "node",
        "name": "Piramis ételbár"
      }
    },
    {
      "type": "Feature",
      "geometry": {
        "type": "Point",
        "coordinates": [
          20.589889,
          47.477952
        ]
      },
      "properties": {
        "id": 3490698972,
        "osm_type": "node",
        "name": "Lilaakác Kisvendéglő",
        "opening_hours": "Mo-Su 11:00-20:00",
        "cuisine": "regional"
      }
    },
    {
      "type": "Feature",
      "geometry": {
        "type": "Point",
        "coordinates": [
          20.7150267,
          47.6049227
        ]
      },
      "properties": {
        "id": 3647841969,
        "osm_type": "node",
        "name": "Hello hal",
        "opening_hours": "Mo-Su 11:00-20:00",
        "website": "http://www.hellohal.com/",
        "cuisine": "regional",
        "outdoor_seating": "yes"
      }
    },
    {
      "type": "Feature",
      "geometry": {
        "type": "Point",
        "coordinates": [
          20.749239,
          47.0976884
        ]
      },
      "properties": {
        "id": 3650582106,
        "osm_type": "node",
        "name": "Hellasz Falatozó",
        "opening_hours": "Mo-Su 09:00-19:00"
      }
    },
    {
      "type": "Feature",
      "geometry": {
        "type": "Point",
        "coordinates": [
          20.1958735,
          47.1753415
        ]
      },
      "properties": {
        "id": 3673966463,
        "osm_type": "node",
        "name": "Centrum Étterem",
        "opening_hours": "Mo-Fr 10:00-16:00; Sa 10:00-15:00; Su 10:00-14:00",
        "phone": "+36 30 925 3044",
        "cuisine": "regional",
        "takeaway": "yes"
      }
    },
    {
      "type": "Feature",
      "geometry": {
        "type": "Point",
        "coordinates": [
          20.7946895,
          47.4281062
        ]
      },
      "properties": {
        "id": 3841639223,
        "osm_type": "node",
        "name": "Menza"
      }
    },
    {
      "type": "Feature",
      "geometry": {
        "type": "Point",
        "coordinates": [
          20.7936324,
          47.428531
        ]
      },
      "properties": {
        "id": 3841827728,
        "osm_type": "node",
        "name": "Csikós Pihenőhely"
      }
    },
    {
      "type": "Feature",
      "geometry": {
        "type": "Point",
        "coordinates": [
          20.2036835,
          47.1855431
        ]
      },
      "properties": {
        "id": 3865403595,
        "osm_type": "node",
        "name": "Vosztok Menü Étterem",
        "opening_hours": "10:00-15:30",
        "phone": "+36 20 317 3111",
        "takeaway": "yes"
      }
    },
    {
      "type": "Feature",
      "geometry": {
        "type": "Point",
        "coordinates": [
          20.7486395,
          47.2180969
        ]
      },
      "properties": {
        "id": 4019621854,
        "osm_type": "node",
        "name": "Vörös Sárkány Klub Vendéglő",
        "cuisine": "chinese",
        "takeaway": "yes"
      }
    },
    {
      "type": "Feature",
      "geometry": {
        "type": "Point",
        "coordinates": [
          19.9135811,
          47.5034618
        ]
      },
      "properties": {
        "id": 4029039569,
        "osm_type": "node",
        "name": "River"
      }
    },
    {
      "type": "Feature",
      "geometry": {
        "type": "Point",
        "coordinates": [
          19.890465,
          47.4903533
        ]
      },
      "properties": {
        "id": 4032529441,
        "osm_type": "node",
        "name": "Pótkerék csárda"
      }
    },
    {
      "type": "Feature",
      "geometry": {
        "type": "Point",
        "coordinates": [
          19.9150989,
          47.5030862
        ]
      },
      "properties": {
        "id": 4032670218,
        "osm_type": "node",
        "name": "Pipacs",
        "opening_hours": "Mo-Th 07:30-22:00; Fr 07:30-23:00; Sa 08:00-23:00; Su off",
        "website": "http://pipacsetteremjaszbereny.hu",
        "cuisine": "regional"
      }
    },
    {
      "type": "Feature",
      "geometry": {
        "type": "Point",
        "coordinates": [
          20.19245,
          47.1736005
        ]
      },
      "properties": {
        "id": 4195803596,
        "osm_type": "node",
        "name": "Hellasz Taverna",
        "opening_hours": "Mo-Sa 11:00-21:00",
        "cuisine": "greek",
        "outdoor_seating": "yes"
      }
    },
    {
      "type": "Feature",
      "geometry": {
        "type": "Point",
        "coordinates": [
          20.1902157,
          47.1737245
        ]
      },
      "properties": {
        "id": 4195803597,
        "osm_type": "node",
        "name": "Hozam Hotel Étterem"
      }
    },
    {
      "type": "Feature",
      "geometry": {
        "type": "Point",
        "coordinates": [
          20.1894432,
          47.1765305
        ]
      },
      "properties": {
        "id": 4195803599,
        "osm_type": "node",
        "name": "Kápolna Étterem",
        "website": "http://www.kapolnaetterem.hu",
        "outdoor_seating": "yes"
      }
    },
    {
      "type": "Feature",
      "geometry": {
        "type": "Point",
        "coordinates": [
          20.1933071,
          47.1777307
        ]
      },
      "properties": {
        "id": 4529341562,
        "osm_type": "node",
        "name": "Heaven bistro",
        "opening_hours": "Mo,Tu 09:00-18:00; We-Sa 09:00-20:00; Su 11:00-16:00"
      }
    },
    {
      "type": "Feature",
      "geometry": {
        "type": "Point",
        "coordinates": [
          20.1965108,
          47.1733315
        ]
      },
      "properties": {
        "id": 4529341584,
        "osm_type": "node",
        "name": "Szolnoki Tiszti Klub Étterem"
      }
    },
    {
      "type": "Feature",
      "geometry": {
        "type": "Point",
        "coordinates": [
          20.1885807,
          47.1763234
        ]
      },
      "properties": {
        "id": 4529341609,
        "osm_type": "node",
        "name": "Dreher Étterem Söröző"
      }
    },
    {
      "type": "Feature",
      "geometry": {
        "type": "Point",
        "coordinates": [
          20.212143,
          47.121989
        ]
      },
      "properties": {
        "id": 4833155896,
        "osm_type": "node",
        "name": "Don Quijote pizzéria"
      }
    },
    {
      "type": "Feature",
      "geometry": {
        "type": "Point",
        "coordinates": [
          20.9090366,
          47.3262588
        ]
      },
      "properties": {
        "id": 4933469605,
        "osm_type": "node",
        "name": "Pethő Vendéglő"
      }
    },
    {
      "type": "Feature",
      "geometry": {
        "type": "Point",
        "coordinates": [
          20.6228179,
          47.0084673
        ]
      },
      "properties": {
        "id": 4933471880,
        "osm_type": "node",
        "name": "Pocakos Étterem"
      }
    },
    {
      "type": "Feature",
      "geometry": {
        "type": "Point",
        "coordinates": [
          20.2724344,
          47.0164492
        ]
      },
      "properties": {
        "id": 4933471958,
        "osm_type": "node",
        "name": "Fehér Kakas Vendéglő"
      }
    },
    {
      "type": "Feature",
      "geometry": {
        "type": "Point",
        "coordinates": [
          20.2063762,
          47.1247512
        ]
      },
      "properties": {
        "id": 4933472446,
        "osm_type": "node",
        "name": "Smirnoff Étterem"
      }
    },
    {
      "type": "Feature",
      "geometry": {
        "type": "Point",
        "coordinates": [
          20.1468062,
          47.5170448
        ]
      },
      "properties": {
        "id": 4939173883,
        "osm_type": "node",
        "name": "San Marinó Pizzéria és Vendéglő"
      }
    },
    {
      "type": "Feature",
      "geometry": {
        "type": "Point",
        "coordinates": [
          20.6279232,
          47.0047966
        ]
      },
      "properties": {
        "id": 4939175823,
        "osm_type": "node",
        "name": "Szőlőfürt Vendéglő",
        "phone": "+36 20 586 7630"
      }
    },
    {
      "type": "Feature",
      "geometry": {
        "type": "Point",
        "coordinates": [
          20.1690293,
          47.582008
        ]
      },
      "properties": {
        "id": 4939177825,
        "osm_type": "node",
        "name": "Gyors Étterem"
      }
    },
    {
      "type": "Feature",
      "geometry": {
        "type": "Point",
        "coordinates": [
          20.9280939,
          47.3185063
        ]
      },
      "properties": {
        "id": 4939178660,
        "osm_type": "node",
        "name": "Ezerjó Falatozó"
      }
    },
    {
      "type": "Feature",
      "geometry": {
        "type": "Point",
        "coordinates": [
          20.4029283,
          47.1770006
        ]
      },
      "properties": {
        "id": 4939179933,
        "osm_type": "node",
        "name": "Thonett Étterem"
      }
    },
    {
      "type": "Feature",
      "geometry": {
        "type": "Point",
        "coordinates": [
          20.1745756,
          47.1917201
        ]
      },
      "properties": {
        "id": 4940554478,
        "osm_type": "node",
        "name": "Lugas Vendéglő",
        "opening_hours": "Mo-Su 09:00-21:00",
        "cuisine": "magyar;local;hungarian",
        "outdoor_seating": "yes",
        "takeaway": "no"
      }
    },
    {
      "type": "Feature",
      "geometry": {
        "type": "Point",
        "coordinates": [
          20.2559796,
          46.9790509
        ]
      },
      "properties": {
        "id": 4940557194,
        "osm_type": "node",
        "name": "Taverna Étterem",
        "cuisine": "pizza"
      }
    },
    {
      "type": "Feature",
      "geometry": {
        "type": "Point",
        "coordinates": [
          20.2559466,
          46.9865093
        ]
      },
      "properties": {
        "id": 4940558597,
        "osm_type": "node",
        "name": "Dagonya Étterem"
      }
    },
    {
      "type": "Feature",
      "geometry": {
        "type": "Point",
        "coordinates": [
          20.1669779,
          47.1768661
        ]
      },
      "properties": {
        "id": 4940561490,
        "osm_type": "node",
        "name": "Sherry Étterem és Kávézó"
      }
    },
    {
      "type": "Feature",
      "geometry": {
        "type": "Point",
        "coordinates": [
          20.255895,
          46.9867382
        ]
      },
      "properties": {
        "id": 4940563246,
        "osm_type": "node",
        "name": "Falatozó"
      }
    },
    {
      "type": "Feature",
      "geometry": {
        "type": "Point",
        "coordinates": [
          20.1950625,
          47.1742049
        ]
      },
      "properties": {
        "id": 4997293856,
        "osm_type": "node",
        "name": "Gody Papa Pizzéria",
        "opening_hours": "Mo,We,Th 11:00-22:00; Tu 11:00-21:45; Fr,Sa 11:00-23:00; Su 12:00-22:00",
        "phone": "+36 56 411 010",
        "website": "https://www.godypapa.hu/rendeles",
        "cuisine": "pizza",
        "outdoor_seating": "yes",
        "takeaway": "yes"
      }
    },
    {
      "type": "Feature",
      "geometry": {
        "type": "Point",
        "coordinates": [
          20.1931849,
          47.1722093
        ]
      },
      "properties": {
        "id": 4997293858,
        "osm_type": "node",
        "name": "Stage Pizza & Bar",
        "cuisine": "italian;pizza"
      }
    },
    {
      "type": "Feature",
      "geometry": {
        "type": "Point",
        "coordinates": [
          20.1935469,
          47.1739175
        ]
      },
      "properties": {
        "id": 5258179521,
        "osm_type": "node",
        "name": "Kinai",
        "cuisine": "chinese"
      }
    },
    {
      "type": "Feature",
      "geometry": {
        "type": "Point",
        "coordinates": [
          20.1970677,
          47.1750751
        ]
      },
      "properties": {
        "id": 5574626139,
        "osm_type": "node",
        "name": "New York Café"
      }
    },
    {
      "type": "Feature",
      "geometry": {
        "type": "Point",
        "coordinates": [
          20.4201755,
          47.1766929
        ]
      },
      "properties": {
        "id": 5604761553,
        "osm_type": "node",
        "name": "Szent István vendéglő"
      }
    },
    {
      "type": "Feature",
      "geometry": {
        "type": "Point",
        "coordinates": [
          20.4082131,
          47.1833668
        ]
      },
      "properties": {
        "id": 5606801200,
        "osm_type": "node",
        "name": "Kristály étterem"
      }
    },
    {
      "type": "Feature",
      "geometry": {
        "type": "Point",
        "coordinates": [
          20.1931576,
          47.1719146
        ]
      },
      "properties": {
        "id": 5677933642,
        "osm_type": "node",
        "name": "Lakatka Burger",
        "cuisine": "burger",
        "outdoor_seating": "yes"
      }
    },
    {
      "type": "Feature",
      "geometry": {
        "type": "Point",
        "coordinates": [
          20.9186031,
          47.5462782
        ]
      },
      "properties": {
        "id": 5974696106,
        "osm_type": "node",
        "name": "Kaparó csárda",
        "opening_hours": "Mo-Su 08:00-22:00",
        "cuisine": "regional",
        "outdoor_seating": "yes"
      }
    },
    {
      "type": "Feature",
      "geometry": {
        "type": "Point",
        "coordinates": [
          20.6011078,
          47.4858821
        ]
      },
      "properties": {
        "id": 5980841447,
        "osm_type": "node",
        "name": "Aquárium Étterem és Vendégház",
        "cuisine": "regional;fish",
        "outdoor_seating": "yes"
      }
    },
    {
      "type": "Feature",
      "geometry": {
        "type": "Point",
        "coordinates": [
          20.1937043,
          47.1740284
        ]
      },
      "properties": {
        "id": 6262098088,
        "osm_type": "node",
        "name": "Arany Oszi étterem",
        "opening_hours": "Mo-Sa 09:00-22:00; Su 09:00-18:00",
        "phone": "+36 30 393 3108",
        "cuisine": "chinese"
      }
    },
    {
      "type": "Feature",
      "geometry": {
        "type": "Point",
        "coordinates": [
          20.7430905,
          47.6247476
        ]
      },
      "properties": {
        "id": 6468129385,
        "osm_type": "node",
        "name": "5350 Biciklis megálló pont",
        "website": "https://toparticamping.hu/5350-biciklis-megallo-pont/"
      }
    },
    {
      "type": "Feature",
      "geometry": {
        "type": "Point",
        "coordinates": [
          20.3898818,
          47.1711756
        ]
      },
      "properties": {
        "id": 6559882411,
        "osm_type": "node",
        "name": "Borostyán Borozó"
      }
    },
    {
      "type": "Feature",
      "geometry": {
        "type": "Point",
        "coordinates": [
          20.3848036,
          47.1752295
        ]
      },
      "properties": {
        "id": 6559882415,
        "osm_type": "node",
        "name": "AL dente"
      }
    },
    {
      "type": "Feature",
      "geometry": {
        "type": "Point",
        "coordinates": [
          20.5891456,
          47.4761664
        ]
      },
      "properties": {
        "id": 7762176863,
        "osm_type": "node",
        "name": "Pedro Pizza & Grill"
      }
    },
    {
      "type": "Feature",
      "geometry": {
        "type": "Point",
        "coordinates": [
          20.2026907,
          46.8646127
        ]
      },
      "properties": {
        "id": 8787608160,
        "osm_type": "node",
        "name": "Termál Étterem"
      }
    },
    {
      "type": "Feature",
      "geometry": {
        "type": "Point",
        "coordinates": [
          20.2018237,
          47.1701591
        ]
      },
      "properties": {
        "id": 9320760781,
        "osm_type": "node",
        "name": "Aranylakat Bistro",
        "phone": "+36 30 158 7058",
        "website": "https://aranylakatbisztro.hu/"
      }
    },
    {
      "type": "Feature",
      "geometry": {
        "type": "Point",
        "coordinates": [
          20.2852141,
          46.8426733
        ]
      },
      "properties": {
        "id": 9988479694,
        "osm_type": "node",
        "name": "Anna Cukrászda & Pizzéria",
        "opening_hours": "Mo-Su 09:00-20:00",
        "phone": "+36 56 461 452",
        "cuisine": "pizza"
      }
    },
    {
      "type": "Feature",
      "geometry": {
        "type": "Point",
        "coordinates": [
          19.913361,
          47.501592
        ]
      },
      "properties": {
        "id": 10141292369,
        "osm_type": "node",
        "name": "Pizza Palota",
        "opening_hours": "We-Su 11:00-22:00",
        "cuisine": "pizza",
        "outdoor_seating": "yes",
        "takeaway": "yes"
      }
    },
    {
      "type": "Feature",
      "geometry": {
        "type": "Point",
        "coordinates": [
          20.7552875,
          47.6094776
        ]
      },
      "properties": {
        "id": 10883175918,
        "osm_type": "node",
        "name": "Öreg Halász"
      }
    },
    {
      "type": "Feature",
      "geometry": {
        "type": "Point",
        "coordinates": [
          20.6050783,
          47.4878454
        ]
      },
      "properties": {
        "id": 11200140613,
        "osm_type": "node",
        "name": "Hajóborda Bisztró",
        "opening_hours": "Mo-Th 11:00-19:00; Fr 11:00-20:00; Sa-Su 08:00-10:00, 11:00-20:00",
        "website": "https://abadikikoto.hu/bisztro/"
      }
    },
    {
      "type": "Feature",
      "geometry": {
        "type": "Point",
        "coordinates": [
          20.1857368,
          47.1832516
        ]
      },
      "properties": {
        "id": 11537649083,
        "osm_type": "node",
        "name": "Amo la pizza",
        "cuisine": "italian;italian_pizza;pasta"
      }
    },
    {
      "type": "Feature",
      "geometry": {
        "type": "Point",
        "coordinates": [
          20.194405,
          47.1777279
        ]
      },
      "properties": {
        "id": 11871226776,
        "osm_type": "node",
        "name": "Hong Fa",
        "opening_hours": "Mo-Su 09:00-22:00",
        "cuisine": "chinese"
      }
    },
    {
      "type": "Feature",
      "geometry": {
        "type": "Point",
        "coordinates": [
          20.1931927,
          47.1777711
        ]
      },
      "properties": {
        "id": 11871264073,
        "osm_type": "node",
        "name": "Piao Xiang Lou kínai büfé",
        "cuisine": "chinese"
      }
    },
    {
      "type": "Feature",
      "geometry": {
        "type": "Point",
        "coordinates": [
          20.5906552,
          47.4790609
        ]
      },
      "properties": {
        "id": 12059799395,
        "osm_type": "node",
        "name": "Gyros büfé",
        "cuisine": "greek"
      }
    },
    {
      "type": "Feature",
      "geometry": {
        "type": "Point",
        "coordinates": [
          20.5909303,
          47.4789178
        ]
      },
      "properties": {
        "id": 12059806605,
        "osm_type": "node",
        "name": "Pepe óriáspalacsintázója",
        "opening_hours": "Tu-Su 11:00-21:00"
      }
    },
    {
      "type": "Feature",
      "geometry": {
        "type": "Point",
        "coordinates": [
          20.6248085,
          47.000772
        ]
      },
      "properties": {
        "id": 12067627122,
        "osm_type": "node",
        "name": "Buona Sera Ristorante"
      }
    },
    {
      "type": "Feature",
      "geometry": {
        "type": "Point",
        "coordinates": [
          20.6327265,
          47.3728605
        ]
      },
      "properties": {
        "id": 12218743788,
        "osm_type": "node",
        "name": "Betyár Csárda"
      }
    },
    {
      "type": "Feature",
      "geometry": {
        "type": "Point",
        "coordinates": [
          20.1899927,
          47.1761064
        ]
      },
      "properties": {
        "id": 12320065891,
        "osm_type": "node",
        "name": "Bajnok étterem",
        "phone": "+3656421089",
        "website": "http://www.bajnoketterem.hu/"
      }
    },
    {
      "type": "Feature",
      "geometry": {
        "type": "Point",
        "coordinates": [
          20.2078782,
          47.6071087
        ]
      },
      "properties": {
        "id": 12564830446,
        "osm_type": "node",
        "name": "Veszszős Csárda",
        "opening_hours": "Th-Sa 12:00-22:00; Su 12:00-20:00",
        "phone": "+36501361490",
        "website": "https://www.veszszos.hu"
      }
    },
    {
      "type": "Feature",
      "geometry": {
        "type": "Point",
        "coordinates": [
          20.2795274,
          47.0169987
        ]
      },
      "properties": {
        "id": 12785847108,
        "osm_type": "node",
        "name": "Cicero Pizzéria",
        "opening_hours": "Mo-Sa 11:00-20:00; Su off",
        "cuisine": "pizza",
        "check_date": "2025-04-25"
      }
    },
    {
      "type": "Feature",
      "geometry": {
        "type": "Point",
        "coordinates": [
          20.207626,
          46.8691789
        ]
      },
      "properties": {
        "id": 13052347513,
        "osm_type": "node",
        "name": "PS ÁMK Cserkeszőlő Közétkeztetési Konyha",
        "opening_hours": "Mo-Fr 05:40-17:00; PH off"
      }
    },
    {
      "type": "Feature",
      "geometry": {
        "type": "Point",
        "coordinates": [
          20.0899037,
          47.3592905
        ]
      },
      "properties": {
        "id": 295186742,
        "osm_type": "way",
        "name": "Vadas Csárda"
      }
    },
    {
      "type": "Feature",
      "geometry": {
        "type": "Point",
        "coordinates": [
          20.0530854,
          47.3830137
        ]
      },
      "properties": {
        "id": 313235823,
        "osm_type": "way",
        "name": "Sport Vendéglő"
      }
    },
    {
      "type": "Feature",
      "geometry": {
        "type": "Point",
        "coordinates": [
          20.7470072,
          47.6231138
        ]
      },
      "properties": {
        "id": 320714245,
        "osm_type": "way",
        "name": "33-as büfé"
      }
    },
    {
      "type": "Feature",
      "geometry": {
        "type": "Point",
        "coordinates": [
          20.8402225,
          47.3850635
        ]
      },
      "properties": {
        "id": 477669968,
        "osm_type": "way",
        "name": "Jófalat Vendeglő",
        "opening_hours": "Mo-Su 11:30-20:00",
        "cuisine": "regional",
        "outdoor_seating": "yes",
        "takeaway": "yes"
      }
    },
    {
      "type": "Feature",
      "geometry": {
        "type": "Point",
        "coordinates": [
          20.8406107,
          47.3840486
        ]
      },
      "properties": {
        "id": 477670119,
        "osm_type": "way",
        "name": "Banyi Halászcsárda",
        "opening_hours": "Mo-Su 10:00-22:00",
        "outdoor_seating": "yes"
      }
    },
    {
      "type": "Feature",
      "geometry": {
        "type": "Point",
        "coordinates": [
          20.8431993,
          47.3887799
        ]
      },
      "properties": {
        "id": 477788984,
        "osm_type": "way"
      }
    },
    {
      "type": "Feature",
      "geometry": {
        "type": "Point",
        "coordinates": [
          20.8389492,
          47.3877045
        ]
      },
      "properties": {
        "id": 477796394,
        "osm_type": "way",
        "name": "Aranypart étterem"
      }
    },
    {
      "type": "Feature",
      "geometry": {
        "type": "Point",
        "coordinates": [
          20.1817803,
          47.1679612
        ]
      },
      "properties": {
        "id": 520973795,
        "osm_type": "way",
        "name": "Beer & Burgers Restaurant",
        "phone": "+36707880706",
        "website": "https://www.szolnokburger.hu/",
        "cuisine": "burger"
      }
    },
    {
      "type": "Feature",
      "geometry": {
        "type": "Point",
        "coordinates": [
          20.841627,
          47.3856905
        ]
      },
      "properties": {
        "id": 586668262,
        "osm_type": "way",
        "name": "Park Étterem",
        "opening_hours": "Mo-Su 08:00-22:00",
        "phone": "+36 59 319 074",
        "cuisine": "regional",
        "outdoor_seating": "yes"
      }
    },
    {
      "type": "Feature",
      "geometry": {
        "type": "Point",
        "coordinates": [
          20.2169996,
          47.1627344
        ]
      },
      "properties": {
        "id": 593127329,
        "osm_type": "way"
      }
    },
    {
      "type": "Feature",
      "geometry": {
        "type": "Point",
        "coordinates": [
          20.5891177,
          47.4761996
        ]
      },
      "properties": {
        "id": 832954044,
        "osm_type": "way",
        "name": "Pedro Pizza & Grill"
      }
    },
    {
      "type": "Feature",
      "geometry": {
        "type": "Point",
        "coordinates": [
          20.5796257,
          47.479052
        ]
      },
      "properties": {
        "id": 930789644,
        "osm_type": "way",
        "name": "Amúgy Bistro",
        "opening_hours": "Fr-Su 11:30-23:00",
        "phone": "+36301409400",
        "website": "https://amugybistro.hu/"
      }
    },
    {
      "type": "Feature",
      "geometry": {
        "type": "Point",
        "coordinates": [
          20.5201173,
          47.4919613
        ]
      },
      "properties": {
        "id": 947303702,
        "osm_type": "way",
        "name": "Lépcső Bisztró",
        "phone": "+36 70 775 0443",
        "website": "https://lepcsobisztro.hu/",
        "cuisine": "burger;regional;coffee_shop",
        "outdoor_seating": "yes"
      }
    },
    {
      "type": "Feature",
      "geometry": {
        "type": "Point",
        "coordinates": [
          20.1387165,
          47.5038835
        ]
      },
      "properties": {
        "id": 1004375694,
        "osm_type": "way",
        "name": "Bbisztró",
        "cuisine": "burger;pizza;chicken"
      }
    },
    {
      "type": "Feature",
      "geometry": {
        "type": "Point",
        "coordinates": [
          20.4352156,
          47.3963268
        ]
      },
      "properties": {
        "id": 1054182618,
        "osm_type": "way",
        "name": "Retro Csucsu Vendéglő",
        "cuisine": "regional;burger;pizza"
      }
    },
    {
      "type": "Feature",
      "geometry": {
        "type": "Point",
        "coordinates": [
          20.1838386,
          47.1656575
        ]
      },
      "properties": {
        "id": 1090607025,
        "osm_type": "way",
        "name": "Ebihal Étterem"
      }
    },
    {
      "type": "Feature",
      "geometry": {
        "type": "Point",
        "coordinates": [
          20.1291385,
          47.1029712
        ]
      },
      "properties": {
        "id": 1159056764,
        "osm_type": "way",
        "name": "Csülök Csárda"
      }
    },
    {
      "type": "Feature",
      "geometry": {
        "type": "Point",
        "coordinates": [
          20.5873719,
          47.4661983
        ]
      },
      "properties": {
        "id": 1165021848,
        "osm_type": "way",
        "name": "Cifra Csárda",
        "opening_hours": "Fr-Mo 11:00-21:00",
        "outdoor_seating": "yes"
      }
    },
    {
      "type": "Feature",
      "geometry": {
        "type": "Point",
        "coordinates": [
          19.9142068,
          47.5052145
        ]
      },
      "properties": {
        "id": 1227320092,
        "osm_type": "way",
        "name": "Firenze Pizzéria Jászberény",
        "opening_hours": "Tu-Su 10:45-21:00",
        "cuisine": "pizza"
      }
    },
    {
      "type": "Feature",
      "geometry": {
        "type": "Point",
        "coordinates": [
          20.0930702,
          47.3113104
        ]
      },
      "properties": {
        "id": 1242437705,
        "osm_type": "way",
        "name": "Sasa étterem"
      }
    }
  ]
}