{
  "type": "FeatureCollection",
  "features": [
    {
      "type": "Feature",
      "geometry": {
        "type": "Point",
        "coordinates": [
          6.9219514,
          47.195368
        ]
      },
      "properties": {
        "id": 276032515,
        "osm_type": "node",
        "name": "La Légende",
        "website": "https://lalegende.ch/"
      }
    },
    {
      "type": "Feature",
      "geometry": {
        "type": "Point",
        "coordinates": [
          7.1535509,
          47.3643847
        ]
      },
      "properties": {
        "id": 276066174,
        "osm_type": "node",
        "name": "Cigogne"
      }
    },
    {
      "type": "Feature",
      "geometry": {
        "type": "Point",
        "coordinates": [
          7.1543231,
          47.3646884
        ]
      },
      "properties": {
        "id": 276066176,
        "osm_type": "node",
        "name": "Deux-Clefs",
        "outdoor_seating": "yes"
      }
    },
    {
      "type": "Feature",
      "geometry": {
        "type": "Point",
        "coordinates": [
          7.3469384,
          47.302505
        ]
      },
      "properties": {
        "id": 306568721,
        "osm_type": "node",
        "name": "Réstaurant de Combe"
      }
    },
    {
      "type": "Feature",
      "geometry": {
        "type": "Point",
        "coordinates": [
          7.0051618,
          47.2237794
        ]
      },
      "properties": {
        "id": 435560093,
        "osm_type": "node",
        "name": "Relais du Roselet",
        "opening_hours": "Mo-Su 09:00-17:00",
        "phone": "+41 32 959 18 92",
        "website": "https://www.philippos.ch/de/besuchen-sie-uns/le-roselet/restaurant-relais-du-roselet",
        "outdoor_seating": "yes"
      }
    },
    {
      "type": "Feature",
      "geometry": {
        "type": "Point",
        "coordinates": [
          7.3806504,
          47.2809628
        ]
      },
      "properties": {
        "id": 441693242,
        "osm_type": "node",
        "name": "Restaurant de la gare"
      }
    },
    {
      "type": "Feature",
      "geometry": {
        "type": "Point",
        "coordinates": [
          7.3419576,
          47.3648595
        ]
      },
      "properties": {
        "id": 442439660,
        "osm_type": "node",
        "name": "Cheval-Blanc",
        "opening_hours": "Tu-Sa 10:00-14:00,17:00-23:00; PH,Su,Mo off",
        "cuisine": "regional"
      }
    },
    {
      "type": "Feature",
      "geometry": {
        "type": "Point",
        "coordinates": [
          7.0725336,
          47.2566258
        ]
      },
      "properties": {
        "id": 744862631,
        "osm_type": "node",
        "name": "Restaurant des Voyageurs",
        "website": "http://www.voyageursboisderriere.ch"
      }
    },
    {
      "type": "Feature",
      "geometry": {
        "type": "Point",
        "coordinates": [
          7.2191846,
          47.3851867
        ]
      },
      "properties": {
        "id": 759632768,
        "osm_type": "node",
        "name": "Les Rangiers"
      }
    },
    {
      "type": "Feature",
      "geometry": {
        "type": "Point",
        "coordinates": [
          7.3104315,
          47.3685514
        ]
      },
      "properties": {
        "id": 762146873,
        "osm_type": "node",
        "name": "Rest. Domont"
      }
    },
    {
      "type": "Feature",
      "geometry": {
        "type": "Point",
        "coordinates": [
          7.0556141,
          47.3061245
        ]
      },
      "properties": {
        "id": 842947484,
        "osm_type": "node",
        "name": "Relais du Doubs",
        "opening_hours": "Tu,We off"
      }
    },
    {
      "type": "Feature",
      "geometry": {
        "type": "Point",
        "coordinates": [
          7.3435865,
          47.3656607
        ]
      },
      "properties": {
        "id": 897796186,
        "osm_type": "node",
        "name": "Croix Blanche",
        "cuisine": "italian"
      }
    },
    {
      "type": "Feature",
      "geometry": {
        "type": "Point",
        "coordinates": [
          7.3435564,
          47.3664903
        ]
      },
      "properties": {
        "id": 897796365,
        "osm_type": "node",
        "name": "Espagne"
      }
    },
    {
      "type": "Feature",
      "geometry": {
        "type": "Point",
        "coordinates": [
          7.1558026,
          47.365851
        ]
      },
      "properties": {
        "id": 980853268,
        "osm_type": "node",
        "name": "Hôtel de la Couronne",
        "opening_hours": "Fr-Tu 10:00-23:00",
        "outdoor_seating": "yes"
      }
    },
    {
      "type": "Feature",
      "geometry": {
        "type": "Point",
        "coordinates": [
          7.1124742,
          47.3666347
        ]
      },
      "properties": {
        "id": 980854391,
        "osm_type": "node",
        "name": "La Fontaine",
        "opening_hours": "Th 09:00 -18:00; Fr 09:00-23:00; Sa 09:00-24:00; Su 09:00-17:00",
        "cuisine": "regional",
        "outdoor_seating": "yes"
      }
    },
    {
      "type": "Feature",
      "geometry": {
        "type": "Point",
        "coordinates": [
          7.1673143,
          47.3659516
        ]
      },
      "properties": {
        "id": 996983773,
        "osm_type": "node",
        "name": "Le Chandelier",
        "phone": "+41 79 251 24 32",
        "website": "https://www.chandelier.ch/"
      }
    },
    {
      "type": "Feature",
      "geometry": {
        "type": "Point",
        "coordinates": [
          6.997436,
          47.2555047
        ]
      },
      "properties": {
        "id": 1231588382,
        "osm_type": "node",
        "name": "Restaurant de la Gare"
      }
    },
    {
      "type": "Feature",
      "geometry": {
        "type": "Point",
        "coordinates": [
          6.9969437,
          47.2081126
        ]
      },
      "properties": {
        "id": 1238264910,
        "osm_type": "node",
        "name": "de la Balance",
        "opening_hours": "Mo 07:30-14:00,17:00-21:00; Tu 07:30-10:00; We-Su 07:30-14:00; Fr,Sa 07:30+",
        "phone": "+41329541413",
        "website": "https://hotelbalance.ch/"
      }
    },
    {
      "type": "Feature",
      "geometry": {
        "type": "Point",
        "coordinates": [
          7.5257073,
          47.3159771
        ]
      },
      "properties": {
        "id": 1269631620,
        "osm_type": "node"
      }
    },
    {
      "type": "Feature",
      "geometry": {
        "type": "Point",
        "coordinates": [
          7.2525804,
          47.3380329
        ]
      },
      "properties": {
        "id": 1604729600,
        "osm_type": "node",
        "name": "Jura Centre"
      }
    },
    {
      "type": "Feature",
      "geometry": {
        "type": "Point",
        "coordinates": [
          7.0738926,
          47.4167159
        ]
      },
      "properties": {
        "id": 1692031870,
        "osm_type": "node",
        "name": "Brasserie des deux Clefs"
      }
    },
    {
      "type": "Feature",
      "geometry": {
        "type": "Point",
        "coordinates": [
          7.3501301,
          47.3624288
        ]
      },
      "properties": {
        "id": 1761258026,
        "osm_type": "node",
        "name": "Le Suisse",
        "opening_hours": "Mo-Su 08:00-23:00",
        "cuisine": "sandwich",
        "outdoor_seating": "yes",
        "check_date": "2024-09-25"
      }
    },
    {
      "type": "Feature",
      "geometry": {
        "type": "Point",
        "coordinates": [
          7.2932869,
          47.3553815
        ]
      },
      "properties": {
        "id": 1867979475,
        "osm_type": "node",
        "name": "Auberge du Cerf"
      }
    },
    {
      "type": "Feature",
      "geometry": {
        "type": "Point",
        "coordinates": [
          7.3715843,
          47.2793942
        ]
      },
      "properties": {
        "id": 2194935252,
        "osm_type": "node",
        "name": "Maison des Brochettes",
        "opening_hours": "Tu-Sa 11:30-14:00,18:00-22:00",
        "website": "https://maison-des-brochettes.ch/moutier/"
      }
    },
    {
      "type": "Feature",
      "geometry": {
        "type": "Point",
        "coordinates": [
          7.0036554,
          47.2122045
        ]
      },
      "properties": {
        "id": 2260932309,
        "osm_type": "node",
        "name": "Auberge au Carrefour",
        "opening_hours": "Mo 16:00-23:30; Th, Su 16:00-23:30; Fr, Sa 16:00-00:30",
        "cuisine": "regional"
      }
    },
    {
      "type": "Feature",
      "geometry": {
        "type": "Point",
        "coordinates": [
          7.005187,
          47.2119788
        ]
      },
      "properties": {
        "id": 2260932316,
        "osm_type": "node",
        "name": "Ji Fu",
        "cuisine": "chinese;japanese"
      }
    },
    {
      "type": "Feature",
      "geometry": {
        "type": "Point",
        "coordinates": [
          7.0145591,
          47.2086257
        ]
      },
      "properties": {
        "id": 2291034819,
        "osm_type": "node",
        "name": "La buvette",
        "operator": "Mathie Sandrine",
        "cuisine": "regional"
      }
    },
    {
      "type": "Feature",
      "geometry": {
        "type": "Point",
        "coordinates": [
          6.9579196,
          47.2248985
        ]
      },
      "properties": {
        "id": 2458960458,
        "osm_type": "node",
        "name": "Le Cerf"
      }
    },
    {
      "type": "Feature",
      "geometry": {
        "type": "Point",
        "coordinates": [
          6.9563963,
          47.2259126
        ]
      },
      "properties": {
        "id": 2458963359,
        "osm_type": "node"
      }
    },
    {
      "type": "Feature",
      "geometry": {
        "type": "Point",
        "coordinates": [
          7.3465617,
          47.3634226
        ]
      },
      "properties": {
        "id": 2765365479,
        "osm_type": "node",
        "name": "Migros Restaurant",
        "brand": "Migros Restaurant",
        "website": "https://filialen.migros.ch/fr/restaurant-migros-delemont",
        "operator": "Genossenschaft Migros Basel",
        "cuisine": "international"
      }
    },
    {
      "type": "Feature",
      "geometry": {
        "type": "Point",
        "coordinates": [
          7.3477306,
          47.3627261
        ]
      },
      "properties": {
        "id": 2765456734,
        "osm_type": "node",
        "name": "Metropole",
        "opening_hours": "Th-Mo 09:00-14:30; Tu,We,Su 09:00-15:30, Th-Su 18:00-23:30, Mo 18:00-23:00"
      }
    },
    {
      "type": "Feature",
      "geometry": {
        "type": "Point",
        "coordinates": [
          6.9944605,
          47.2549602
        ]
      },
      "properties": {
        "id": 2868284364,
        "osm_type": "node",
        "name": "Saigneux",
        "opening_hours": "Mo-Th 09:00-22:00; Fr,Sa 09:00-23:00; Su 09:00-22:00",
        "cuisine": "kebab"
      }
    },
    {
      "type": "Feature",
      "geometry": {
        "type": "Point",
        "coordinates": [
          7.3453135,
          47.3639432
        ]
      },
      "properties": {
        "id": 3784619559,
        "osm_type": "node",
        "name": "Le Bleu Lézard"
      }
    },
    {
      "type": "Feature",
      "geometry": {
        "type": "Point",
        "coordinates": [
          7.3496492,
          47.3625398
        ]
      },
      "properties": {
        "id": 4057151958,
        "osm_type": "node",
        "name": "Holy Cow! Gourmet Burger Co.",
        "opening_hours": "Su-Th 11:00-23:30, Fr,Sa 11:00-24:00",
        "outdoor_seating": "yes"
      }
    },
    {
      "type": "Feature",
      "geometry": {
        "type": "Point",
        "coordinates": [
          7.0144605,
          47.2644553
        ]
      },
      "properties": {
        "id": 4143229813,
        "osm_type": "node",
        "name": "Le Régional",
        "cuisine": "italian"
      }
    },
    {
      "type": "Feature",
      "geometry": {
        "type": "Point",
        "coordinates": [
          7.3027043,
          47.3821563
        ]
      },
      "properties": {
        "id": 4195551902,
        "osm_type": "node",
        "name": "La Haute-Borne",
        "cuisine": "regional"
      }
    },
    {
      "type": "Feature",
      "geometry": {
        "type": "Point",
        "coordinates": [
          7.3433983,
          47.366128
        ]
      },
      "properties": {
        "id": 4195551904,
        "osm_type": "node",
        "name": "Boeuf",
        "cuisine": "regional"
      }
    },
    {
      "type": "Feature",
      "geometry": {
        "type": "Point",
        "coordinates": [
          7.3427186,
          47.3656066
        ]
      },
      "properties": {
        "id": 4195551907,
        "osm_type": "node",
        "name": "Couronne"
      }
    },
    {
      "type": "Feature",
      "geometry": {
        "type": "Point",
        "coordinates": [
          7.3438513,
          47.3657881
        ]
      },
      "properties": {
        "id": 4195551913,
        "osm_type": "node",
        "name": "Osteria La Bottega",
        "cuisine": "pizza"
      }
    },
    {
      "type": "Feature",
      "geometry": {
        "type": "Point",
        "coordinates": [
          7.3434311,
          47.3598791
        ]
      },
      "properties": {
        "id": 4195551927,
        "osm_type": "node",
        "name": "Bistr'hockey"
      }
    },
    {
      "type": "Feature",
      "geometry": {
        "type": "Point",
        "coordinates": [
          7.3390913,
          47.3525746
        ]
      },
      "properties": {
        "id": 4195551931,
        "osm_type": "node",
        "name": "Restau-Verso"
      }
    },
    {
      "type": "Feature",
      "geometry": {
        "type": "Point",
        "coordinates": [
          7.3547048,
          47.3815017
        ]
      },
      "properties": {
        "id": 4195581798,
        "osm_type": "node",
        "name": "Vorbourg",
        "cuisine": "regional"
      }
    },
    {
      "type": "Feature",
      "geometry": {
        "type": "Point",
        "coordinates": [
          6.9548559,
          47.2424682
        ]
      },
      "properties": {
        "id": 4195623680,
        "osm_type": "node",
        "name": "Le Theusseret",
        "website": "https://letheusseret.blogspot.com"
      }
    },
    {
      "type": "Feature",
      "geometry": {
        "type": "Point",
        "coordinates": [
          7.3430798,
          47.3658633
        ]
      },
      "properties": {
        "id": 4211988196,
        "osm_type": "node",
        "name": "La New Bayerische",
        "cuisine": "regional;burger",
        "outdoor_seating": "yes"
      }
    },
    {
      "type": "Feature",
      "geometry": {
        "type": "Point",
        "coordinates": [
          7.3433321,
          47.3661208
        ]
      },
      "properties": {
        "id": 4212014089,
        "osm_type": "node",
        "name": "Hôtel du Boeuf"
      }
    },
    {
      "type": "Feature",
      "geometry": {
        "type": "Point",
        "coordinates": [
          7.3501502,
          47.3628474
        ]
      },
      "properties": {
        "id": 4368499997,
        "osm_type": "node",
        "name": "Le poivrier",
        "phone": "+41 32 423 10 80",
        "cuisine": "thai"
      }
    },
    {
      "type": "Feature",
      "geometry": {
        "type": "Point",
        "coordinates": [
          7.3429485,
          47.3650233
        ]
      },
      "properties": {
        "id": 4368517195,
        "osm_type": "node",
        "name": "La Bonne Auberge",
        "opening_hours": "Su-Mo off",
        "phone": "+41 32 422 17 58",
        "website": "http://www.labonneauberge.ch",
        "cuisine": "french",
        "outdoor_seating": "yes"
      }
    },
    {
      "type": "Feature",
      "geometry": {
        "type": "Point",
        "coordinates": [
          7.3420179,
          47.365325
        ]
      },
      "properties": {
        "id": 4368517296,
        "osm_type": "node",
        "name": "Komachi",
        "opening_hours": "Tu-Th 08:30-14:00,18:00-22:00; Fr 08:30-14:00,18:00-23:00; Sa 10:00-14:00,18:00-23:00; PH,Su off",
        "phone": "+41 32 423 00 53",
        "website": "http://www.komachi.ch/",
        "cuisine": "japanese"
      }
    },
    {
      "type": "Feature",
      "geometry": {
        "type": "Point",
        "coordinates": [
          7.3453732,
          47.3647256
        ]
      },
      "properties": {
        "id": 4368545000,
        "osm_type": "node",
        "name": "Le lion d'or"
      }
    },
    {
      "type": "Feature",
      "geometry": {
        "type": "Point",
        "coordinates": [
          7.3428873,
          47.3568062
        ]
      },
      "properties": {
        "id": 4544335689,
        "osm_type": "node",
        "name": "\"Chez Tino\" Ristorante Pizzeria Pugliese",
        "phone": "+41324226144",
        "cuisine": "italian_pizza"
      }
    },
    {
      "type": "Feature",
      "geometry": {
        "type": "Point",
        "coordinates": [
          7.3135226,
          47.3129543
        ]
      },
      "properties": {
        "id": 4596615078,
        "osm_type": "node",
        "name": "Auberge des Fouchies"
      }
    },
    {
      "type": "Feature",
      "geometry": {
        "type": "Point",
        "coordinates": [
          6.9027132,
          47.1672915
        ]
      },
      "properties": {
        "id": 4958444150,
        "osm_type": "node",
        "name": "Golf Club Les Bois",
        "phone": "+41 32 961 18 26",
        "website": "https://golflesbois.ch/restaurant/au-fil-des-saisons/"
      }
    },
    {
      "type": "Feature",
      "geometry": {
        "type": "Point",
        "coordinates": [
          7.3908147,
          47.3619476
        ]
      },
      "properties": {
        "id": 4973579421,
        "osm_type": "node",
        "name": "La Couronne"
      }
    },
    {
      "type": "Feature",
      "geometry": {
        "type": "Point",
        "coordinates": [
          7.4161937,
          47.377788
        ]
      },
      "properties": {
        "id": 4973579522,
        "osm_type": "node",
        "name": "Pierreberg - Ferme-restaurant traditionnel"
      }
    },
    {
      "type": "Feature",
      "geometry": {
        "type": "Point",
        "coordinates": [
          6.9846554,
          47.178845
        ]
      },
      "properties": {
        "id": 4973913996,
        "osm_type": "node",
        "name": "Beau Séjour \"chez Tante Eva\"",
        "opening_hours": "Th 16:00-00:00; Fr 11:00-01:00; Sa 10:00-01:00; Su 10:00-00:00",
        "phone": "+41 32 552 17 40",
        "website": "https://www.hotelbeausejour.ch/",
        "cuisine": "french"
      }
    },
    {
      "type": "Feature",
      "geometry": {
        "type": "Point",
        "coordinates": [
          7.3763074,
          47.3618668
        ]
      },
      "properties": {
        "id": 4977477232,
        "osm_type": "node",
        "name": "Le Raisin"
      }
    },
    {
      "type": "Feature",
      "geometry": {
        "type": "Point",
        "coordinates": [
          7.3629192,
          47.36186
        ]
      },
      "properties": {
        "id": 4977477243,
        "osm_type": "node"
      }
    },
    {
      "type": "Feature",
      "geometry": {
        "type": "Point",
        "coordinates": [
          7.3718966,
          47.3621202
        ]
      },
      "properties": {
        "id": 4977491621,
        "osm_type": "node",
        "name": "L'Etoile"
      }
    },
    {
      "type": "Feature",
      "geometry": {
        "type": "Point",
        "coordinates": [
          6.951921,
          47.418148
        ]
      },
      "properties": {
        "id": 5187075867,
        "osm_type": "node",
        "name": "Croix d'Or"
      }
    },
    {
      "type": "Feature",
      "geometry": {
        "type": "Point",
        "coordinates": [
          7.2953381,
          47.3573811
        ]
      },
      "properties": {
        "id": 5303900901,
        "osm_type": "node",
        "name": "Restaurant du Raisin"
      }
    },
    {
      "type": "Feature",
      "geometry": {
        "type": "Point",
        "coordinates": [
          7.0799016,
          47.4207051
        ]
      },
      "properties": {
        "id": 5370206223,
        "osm_type": "node",
        "name": "Buffet de la gare",
        "website": "https://www.juragourmand.ch/buffetdelagare"
      }
    },
    {
      "type": "Feature",
      "geometry": {
        "type": "Point",
        "coordinates": [
          7.3566258,
          47.370286
        ]
      },
      "properties": {
        "id": 5540869821,
        "osm_type": "node",
        "name": "La Paille"
      }
    },
    {
      "type": "Feature",
      "geometry": {
        "type": "Point",
        "coordinates": [
          7.0508316,
          47.4091809
        ]
      },
      "properties": {
        "id": 5542137921,
        "osm_type": "node",
        "name": "Restaurant de l’Aérodrome",
        "website": "https://www.aero-resto.ch"
      }
    },
    {
      "type": "Feature",
      "geometry": {
        "type": "Point",
        "coordinates": [
          7.3413585,
          47.3636252
        ]
      },
      "properties": {
        "id": 5548936223,
        "osm_type": "node",
        "name": "La Tour-Rouge"
      }
    },
    {
      "type": "Feature",
      "geometry": {
        "type": "Point",
        "coordinates": [
          7.4751429,
          47.3291048
        ]
      },
      "properties": {
        "id": 5600683722,
        "osm_type": "node",
        "name": "Auberge de la Gabiare"
      }
    },
    {
      "type": "Feature",
      "geometry": {
        "type": "Point",
        "coordinates": [
          7.352962,
          47.3628972
        ]
      },
      "properties": {
        "id": 5611158922,
        "osm_type": "node",
        "name": "La Maison des Brochettes"
      }
    },
    {
      "type": "Feature",
      "geometry": {
        "type": "Point",
        "coordinates": [
          6.928466,
          47.204694
        ]
      },
      "properties": {
        "id": 5677354423,
        "osm_type": "node",
        "name": "Auberge les Chatons",
        "phone": "+41 32 951 20 35",
        "website": "http://www.leschatons.ch"
      }
    },
    {
      "type": "Feature",
      "geometry": {
        "type": "Point",
        "coordinates": [
          7.2445425,
          47.3357313
        ]
      },
      "properties": {
        "id": 5707295621,
        "osm_type": "node",
        "name": "Restaurant du Jura",
        "opening_hours": "Tu-Sa 10:00-14:00,16:00-23:00",
        "phone": "+41 32 426 91 82",
        "website": "https://restaurantdujura.ch/"
      }
    },
    {
      "type": "Feature",
      "geometry": {
        "type": "Point",
        "coordinates": [
          7.371145,
          47.319087
        ]
      },
      "properties": {
        "id": 5735595324,
        "osm_type": "node",
        "name": "Restaurant du Coq d’Or"
      }
    },
    {
      "type": "Feature",
      "geometry": {
        "type": "Point",
        "coordinates": [
          7.0001069,
          47.2507206
        ]
      },
      "properties": {
        "id": 5799882569,
        "osm_type": "node",
        "name": "Hôtel Cristal"
      }
    },
    {
      "type": "Feature",
      "geometry": {
        "type": "Point",
        "coordinates": [
          7.2117691,
          47.4115993
        ]
      },
      "properties": {
        "id": 5828835985,
        "osm_type": "node",
        "name": "Château de Pleujouse",
        "opening_hours": "We-Su 12:00-24:00",
        "website": "https://www.chateaudepleujouse.ch"
      }
    },
    {
      "type": "Feature",
      "geometry": {
        "type": "Point",
        "coordinates": [
          7.1986024,
          47.3328399
        ]
      },
      "properties": {
        "id": 5912489619,
        "osm_type": "node",
        "name": "Auberge du Cheval Blanc",
        "website": "https://www.joliattraiteur.ch/"
      }
    },
    {
      "type": "Feature",
      "geometry": {
        "type": "Point",
        "coordinates": [
          7.2065337,
          47.3358226
        ]
      },
      "properties": {
        "id": 5912489622,
        "osm_type": "node",
        "name": "Restaurant de la Poste",
        "website": "https://www.cafedelaposte.ch/"
      }
    },
    {
      "type": "Feature",
      "geometry": {
        "type": "Point",
        "coordinates": [
          7.2089276,
          47.3350014
        ]
      },
      "properties": {
        "id": 5912489624,
        "osm_type": "node",
        "name": "Hôtel-Restaurant de la Gare",
        "phone": "+41 32 426 72 22",
        "website": "https://www.hotel-glovelier.ch/",
        "cuisine": "regional"
      }
    },
    {
      "type": "Feature",
      "geometry": {
        "type": "Point",
        "coordinates": [
          7.133836,
          47.3461861
        ]
      },
      "properties": {
        "id": 6094876285,
        "osm_type": "node",
        "name": "Chez-le-Baron",
        "phone": "+41 32 461 35 41"
      }
    },
    {
      "type": "Feature",
      "geometry": {
        "type": "Point",
        "coordinates": [
          7.3173716,
          47.342241
        ]
      },
      "properties": {
        "id": 6471868686,
        "osm_type": "node",
        "name": "Il Pulcinella",
        "phone": "+41 32 422 21 21",
        "cuisine": "pizza"
      }
    },
    {
      "type": "Feature",
      "geometry": {
        "type": "Point",
        "coordinates": [
          7.1541485,
          47.4513199
        ]
      },
      "properties": {
        "id": 6621422206,
        "osm_type": "node",
        "name": "Le Lion d'Or"
      }
    },
    {
      "type": "Feature",
      "geometry": {
        "type": "Point",
        "coordinates": [
          6.9521074,
          47.2100688
        ]
      },
      "properties": {
        "id": 6695561015,
        "osm_type": "node",
        "name": "Auberge Du Peu-Péquignot",
        "outdoor_seating": "yes"
      }
    },
    {
      "type": "Feature",
      "geometry": {
        "type": "Point",
        "coordinates": [
          7.0348254,
          47.2119017
        ]
      },
      "properties": {
        "id": 6695579040,
        "osm_type": "node",
        "name": "OASIS",
        "cuisine": "regional",
        "outdoor_seating": "yes"
      }
    },
    {
      "type": "Feature",
      "geometry": {
        "type": "Point",
        "coordinates": [
          7.3724219,
          47.2789137
        ]
      },
      "properties": {
        "id": 6703441113,
        "osm_type": "node",
        "name": "Joshi Pizza Kebab",
        "website": "https://www.joshipizzakebab.ch/"
      }
    },
    {
      "type": "Feature",
      "geometry": {
        "type": "Point",
        "coordinates": [
          7.3707802,
          47.2789022
        ]
      },
      "properties": {
        "id": 6703441115,
        "osm_type": "node",
        "name": "Le Soleil",
        "phone": "+41 32 493 40 90"
      }
    },
    {
      "type": "Feature",
      "geometry": {
        "type": "Point",
        "coordinates": [
          7.3709122,
          47.2793387
        ]
      },
      "properties": {
        "id": 6703441117,
        "osm_type": "node",
        "name": "Bistrot Hong Kong",
        "cuisine": "chinese",
        "check_date": "2025-05-03"
      }
    },
    {
      "type": "Feature",
      "geometry": {
        "type": "Point",
        "coordinates": [
          7.3709571,
          47.279663
        ]
      },
      "properties": {
        "id": 6703441118,
        "osm_type": "node",
        "name": "Café restaurant de l'ours",
        "phone": "+41 32 495 11 33"
      }
    },
    {
      "type": "Feature",
      "geometry": {
        "type": "Point",
        "coordinates": [
          7.3719693,
          47.2785878
        ]
      },
      "properties": {
        "id": 6705180228,
        "osm_type": "node",
        "name": "CK Indian Take Away",
        "cuisine": "indian"
      }
    },
    {
      "type": "Feature",
      "geometry": {
        "type": "Point",
        "coordinates": [
          7.3712336,
          47.2793594
        ]
      },
      "properties": {
        "id": 6705180238,
        "osm_type": "node",
        "name": "Don Don",
        "phone": "+41 32 493 30 20",
        "cuisine": "chinese",
        "check_date": "2025-05-03"
      }
    },
    {
      "type": "Feature",
      "geometry": {
        "type": "Point",
        "coordinates": [
          7.3726644,
          47.2794948
        ]
      },
      "properties": {
        "id": 6709530859,
        "osm_type": "node",
        "name": "Vivaldi",
        "phone": "+41 32 341 18 19"
      }
    },
    {
      "type": "Feature",
      "geometry": {
        "type": "Point",
        "coordinates": [
          7.3703873,
          47.2792677
        ]
      },
      "properties": {
        "id": 6710042183,
        "osm_type": "node"
      }
    },
    {
      "type": "Feature",
      "geometry": {
        "type": "Point",
        "coordinates": [
          7.3682264,
          47.2773604
        ]
      },
      "properties": {
        "id": 6712081351,
        "osm_type": "node",
        "name": "L'Entracte",
        "phone": "+41 32 493 38 52"
      }
    },
    {
      "type": "Feature",
      "geometry": {
        "type": "Point",
        "coordinates": [
          7.3713295,
          47.2786593
        ]
      },
      "properties": {
        "id": 6724004493,
        "osm_type": "node",
        "name": "Bar & Restaurant Le Tabou",
        "phone": "+41 32 493 61 71",
        "cuisine": "italian;pizza",
        "outdoor_seating": "yes",
        "check_date": "2025-05-03"
      }
    },
    {
      "type": "Feature",
      "geometry": {
        "type": "Point",
        "coordinates": [
          7.0761879,
          47.4150662
        ]
      },
      "properties": {
        "id": 6780976374,
        "osm_type": "node",
        "name": "Auberge du Mouton",
        "website": "https://www.dumouton.ch/de/restaurant/restaurant",
        "outdoor_seating": "yes"
      }
    },
    {
      "type": "Feature",
      "geometry": {
        "type": "Point",
        "coordinates": [
          7.1267809,
          47.4024759
        ]
      },
      "properties": {
        "id": 6781518294,
        "osm_type": "node",
        "name": "Restaurant du Boeuf"
      }
    },
    {
      "type": "Feature",
      "geometry": {
        "type": "Point",
        "coordinates": [
          7.1240504,
          47.404795
        ]
      },
      "properties": {
        "id": 6781518302,
        "osm_type": "node",
        "name": "Hôtel-Restaurant de La Petite Gilberte",
        "website": "https://www.lapetitegilberte.ch/restaurant/"
      }
    },
    {
      "type": "Feature",
      "geometry": {
        "type": "Point",
        "coordinates": [
          7.0737423,
          47.4191053
        ]
      },
      "properties": {
        "id": 6781518307,
        "osm_type": "node",
        "name": "Restaurant du Moulin"
      }
    },
    {
      "type": "Feature",
      "geometry": {
        "type": "Point",
        "coordinates": [
          7.0737048,
          47.4173288
        ]
      },
      "properties": {
        "id": 6781518310,
        "osm_type": "node",
        "name": "Lion d'Or"
      }
    },
    {
      "type": "Feature",
      "geometry": {
        "type": "Point",
        "coordinates": [
          7.0750249,
          47.4167901
        ]
      },
      "properties": {
        "id": 6788845364,
        "osm_type": "node",
        "name": "La Croix Fédérale"
      }
    },
    {
      "type": "Feature",
      "geometry": {
        "type": "Point",
        "coordinates": [
          7.073973,
          47.4175351
        ]
      },
      "properties": {
        "id": 6788847202,
        "osm_type": "node",
        "name": "Le Camillo",
        "opening_hours": "Mo-Th 11:00-14:00,17:30-23:00; Fr,Sa 11:00-14:00,17:30-23:00; Su 17:30-22:00",
        "cuisine": "pizza"
      }
    },
    {
      "type": "Feature",
      "geometry": {
        "type": "Point",
        "coordinates": [
          7.0743699,
          47.4175897
        ]
      },
      "properties": {
        "id": 6788847203,
        "osm_type": "node",
        "name": "Asia Takeaway",
        "opening_hours": "Mo-Fr 11:00-14:00,17:30-21:00; Sa 17:30-21:00",
        "cuisine": "asian"
      }
    },
    {
      "type": "Feature",
      "geometry": {
        "type": "Point",
        "coordinates": [
          6.9793047,
          47.2476149
        ]
      },
      "properties": {
        "id": 6939197755,
        "osm_type": "node",
        "name": "Hôtel National",
        "phone": "+4132 951 13 70"
      }
    },
    {
      "type": "Feature",
      "geometry": {
        "type": "Point",
        "coordinates": [
          6.978961,
          47.2473504
        ]
      },
      "properties": {
        "id": 6939234038,
        "osm_type": "node",
        "name": "Restaurant de la Croix Fédérale",
        "phone": "+41325354253"
      }
    },
    {
      "type": "Feature",
      "geometry": {
        "type": "Point",
        "coordinates": [
          7.2228137,
          47.3279468
        ]
      },
      "properties": {
        "id": 7123021689,
        "osm_type": "node",
        "name": "La Croix-Blanche",
        "cuisine": "regional"
      }
    },
    {
      "type": "Feature",
      "geometry": {
        "type": "Point",
        "coordinates": [
          7.0792728,
          47.4202283
        ]
      },
      "properties": {
        "id": 7566956185,
        "osm_type": "node",
        "name": "Café de la Gare"
      }
    },
    {
      "type": "Feature",
      "geometry": {
        "type": "Point",
        "coordinates": [
          7.3489331,
          47.3647593
        ]
      },
      "properties": {
        "id": 7669455119,
        "osm_type": "node",
        "name": "Siam",
        "opening_hours": "Tu-Sa 11:30-14:30, 17:30-21:00",
        "phone": "+41 32 422 08 05"
      }
    },
    {
      "type": "Feature",
      "geometry": {
        "type": "Point",
        "coordinates": [
          7.3496479,
          47.3637204
        ]
      },
      "properties": {
        "id": 7738082237,
        "osm_type": "node",
        "name": "Istanbul Grill",
        "cuisine": "turkish",
        "outdoor_seating": "yes",
        "takeaway": "yes"
      }
    },
    {
      "type": "Feature",
      "geometry": {
        "type": "Point",
        "coordinates": [
          7.1668524,
          47.3656555
        ]
      },
      "properties": {
        "id": 7776631926,
        "osm_type": "node",
        "name": "La Semeuse",
        "cuisine": "italian"
      }
    },
    {
      "type": "Feature",
      "geometry": {
        "type": "Point",
        "coordinates": [
          7.3729067,
          47.3393975
        ]
      },
      "properties": {
        "id": 8138093860,
        "osm_type": "node",
        "name": "La Couronne"
      }
    },
    {
      "type": "Feature",
      "geometry": {
        "type": "Point",
        "coordinates": [
          7.0515703,
          47.2821448
        ]
      },
      "properties": {
        "id": 8180604598,
        "osm_type": "node",
        "name": "Couleurs du Terroir",
        "opening_hours": "Mo-Fr 06:00-18:30; Sa 07:00-17:30; Su 08:00-17:30",
        "phone": "+41 32 955 11 03",
        "website": "https://couleursduterroir.ch/",
        "cuisine": "cafe;regional;sweets"
      }
    },
    {
      "type": "Feature",
      "geometry": {
        "type": "Point",
        "coordinates": [
          7.3172745,
          47.4090253
        ]
      },
      "properties": {
        "id": 8454987570,
        "osm_type": "node",
        "name": "Restaurant du Soleil",
        "cuisine": "regional"
      }
    },
    {
      "type": "Feature",
      "geometry": {
        "type": "Point",
        "coordinates": [
          7.0791677,
          47.4198323
        ]
      },
      "properties": {
        "id": 8588100132,
        "osm_type": "node",
        "name": "Terminus"
      }
    },
    {
      "type": "Feature",
      "geometry": {
        "type": "Point",
        "coordinates": [
          7.046559,
          47.2797835
        ]
      },
      "properties": {
        "id": 8853048244,
        "osm_type": "node"
      }
    },
    {
      "type": "Feature",
      "geometry": {
        "type": "Point",
        "coordinates": [
          7.07359,
          47.4182792
        ]
      },
      "properties": {
        "id": 8862898412,
        "osm_type": "node",
        "name": "Colonie Italienne",
        "website": "https://local-de-la-colonie-italienne-de-porrentruy-societe.business.site/",
        "cuisine": "pizza;italian",
        "outdoor_seating": "yes"
      }
    },
    {
      "type": "Feature",
      "geometry": {
        "type": "Point",
        "coordinates": [
          7.475618,
          47.3462099
        ]
      },
      "properties": {
        "id": 8939232886,
        "osm_type": "node",
        "name": "La Croix Fédérale",
        "outdoor_seating": "yes"
      }
    },
    {
      "type": "Feature",
      "geometry": {
        "type": "Point",
        "coordinates": [
          7.0531157,
          47.3709322
        ]
      },
      "properties": {
        "id": 9421229440,
        "osm_type": "node",
        "name": "La Cabane de Montvoie",
        "website": "http://lacabanedemontvoie.com/",
        "cuisine": "regional"
      }
    },
    {
      "type": "Feature",
      "geometry": {
        "type": "Point",
        "coordinates": [
          6.8943172,
          47.1771988
        ]
      },
      "properties": {
        "id": 9937522000,
        "osm_type": "node",
        "name": "Maison Rouge",
        "opening_hours": "Mo-Su 09:00-17:00",
        "phone": "+41 32 962 50 62",
        "website": "https://www.philippos.ch/de/besuchen-sie-uns/maison-rouge/restaurant-maison-rouge"
      }
    },
    {
      "type": "Feature",
      "geometry": {
        "type": "Point",
        "coordinates": [
          6.9229305,
          47.1939385
        ]
      },
      "properties": {
        "id": 11246291025,
        "osm_type": "node",
        "name": "Le Paysan Horloger",
        "phone": "+41 32 961 22 22",
        "website": "https://www.paysan-horloger.ch/fr/page/restaurant"
      }
    },
    {
      "type": "Feature",
      "geometry": {
        "type": "Point",
        "coordinates": [
          7.0741351,
          47.4184504
        ]
      },
      "properties": {
        "id": 11293831386,
        "osm_type": "node",
        "name": "de l'Inter"
      }
    },
    {
      "type": "Feature",
      "geometry": {
        "type": "Point",
        "coordinates": [
          7.3535536,
          47.3755129
        ]
      },
      "properties": {
        "id": 11589879036,
        "osm_type": "node",
        "name": "Le Mexique"
      }
    },
    {
      "type": "Feature",
      "geometry": {
        "type": "Point",
        "coordinates": [
          7.3739658,
          47.3375147
        ]
      },
      "properties": {
        "id": 12004006137,
        "osm_type": "node",
        "name": "Cheval-Blanc",
        "website": "https://www.chevalblanc-courrendlin.ch/"
      }
    },
    {
      "type": "Feature",
      "geometry": {
        "type": "Point",
        "coordinates": [
          7.15488,
          47.3654966
        ]
      },
      "properties": {
        "id": 12081650371,
        "osm_type": "node",
        "name": "Peanut Medieval Pastaverne",
        "cuisine": "italian"
      }
    },
    {
      "type": "Feature",
      "geometry": {
        "type": "Point",
        "coordinates": [
          7.079461,
          47.4037552
        ]
      },
      "properties": {
        "id": 12174799068,
        "osm_type": "node",
        "name": "L'Imprimerie",
        "opening_hours": "Su-Mo 09:00-23:00; Th 09:00-00:00; Fr-Sa 09:00-01:00",
        "phone": "+41 32 466 62 62",
        "website": "https://www.brasserie-l-imprimerie.ch",
        "cuisine": "regional"
      }
    },
    {
      "type": "Feature",
      "geometry": {
        "type": "Point",
        "coordinates": [
          7.3434823,
          47.3658996
        ]
      },
      "properties": {
        "id": 12229567410,
        "osm_type": "node",
        "name": "Asmara restaurant erythréen",
        "cuisine": "african"
      }
    },
    {
      "type": "Feature",
      "geometry": {
        "type": "Point",
        "coordinates": [
          7.3445344,
          47.3595793
        ]
      },
      "properties": {
        "id": 12628688778,
        "osm_type": "node",
        "name": "Restaurant La Vallée",
        "website": "https://www.resval.ch/"
      }
    },
    {
      "type": "Feature",
      "geometry": {
        "type": "Point",
        "coordinates": [
          7.0488752,
          47.3079825
        ]
      },
      "properties": {
        "id": 12803703913,
        "osm_type": "node",
        "name": "Restaurant du Cerf",
        "phone": "+41 32 955 12 52",
        "website": "https://hotelducerf.ch/",
        "cuisine": "regional"
      }
    },
    {
      "type": "Feature",
      "geometry": {
        "type": "Point",
        "coordinates": [
          7.3714244,
          47.2790387
        ]
      },
      "properties": {
        "id": 12806717378,
        "osm_type": "node",
        "name": "Creperie",
        "opening_hours": "We-Th 11:00-14:00,17:30-21:00; Fr 11:00-14:00,17:30-22:00; Sa 12:00-22:00",
        "phone": "+41 32 493 39 39",
        "cuisine": "crepes",
        "check_date": "2025-05-04"
      }
    },
    {
      "type": "Feature",
      "geometry": {
        "type": "Point",
        "coordinates": [
          7.3628976,
          47.361832
        ]
      },
      "properties": {
        "id": 12871588601,
        "osm_type": "node",
        "name": "Soy Asian Kitchen",
        "cuisine": "sushi"
      }
    },
    {
      "type": "Feature",
      "geometry": {
        "type": "Point",
        "coordinates": [
          7.0744186,
          47.4175172
        ]
      },
      "properties": {
        "id": 12921632249,
        "osm_type": "node",
        "name": "Happy Bowl",
        "opening_hours": "Mo-Su 10:00-14:00,18:00-21:00"
      }
    },
    {
      "type": "Feature",
      "geometry": {
        "type": "Point",
        "coordinates": [
          7.0749892,
          47.4164738
        ]
      },
      "properties": {
        "id": 12921633039,
        "osm_type": "node",
        "name": "Lanta Thaï",
        "opening_hours": "Tu-Sa 11:30-14:00,18:00-21:30",
        "cuisine": "thai"
      }
    },
    {
      "type": "Feature",
      "geometry": {
        "type": "Point",
        "coordinates": [
          7.0756537,
          47.4156375
        ]
      },
      "properties": {
        "id": 12923686566,
        "osm_type": "node",
        "name": "Le Damasson"
      }
    },
    {
      "type": "Feature",
      "geometry": {
        "type": "Point",
        "coordinates": [
          7.414721,
          47.3248422
        ]
      },
      "properties": {
        "id": 13027092368,
        "osm_type": "node",
        "name": "La Croix-Blanche",
        "phone": "+41324351575",
        "website": "https://www.lacroixblanche.ch/",
        "cuisine": "regional",
        "outdoor_seating": "yes"
      }
    },
    {
      "type": "Feature",
      "geometry": {
        "type": "Point",
        "coordinates": [
          6.9518724,
          47.2616969
        ]
      },
      "properties": {
        "id": 13087302144,
        "osm_type": "node",
        "name": "du Doubs",
        "phone": "+41 32 951 13 23",
        "website": "https://www.hoteldudoubs.ch/",
        "cuisine": "regional",
        "outdoor_seating": "yes"
      }
    },
    {
      "type": "Feature",
      "geometry": {
        "type": "Point",
        "coordinates": [
          7.1380012,
          47.2790551
        ]
      },
      "properties": {
        "id": 13744829447,
        "osm_type": "node"
      }
    },
    {
      "type": "Feature",
      "geometry": {
        "type": "Point",
        "coordinates": [
          6.9571492,
          47.223818
        ]
      },
      "properties": {
        "id": 13825955032,
        "osm_type": "node",
        "name": "Maison Wenger",
        "opening_hours": "We-Su",
        "phone": "+41 32 957 66 33",
        "website": "https://maisonwenger.ch/de/restaurant.html",
        "cuisine": "french;regional"
      }
    },
    {
      "type": "Feature",
      "geometry": {
        "type": "Point",
        "coordinates": [
          7.101433,
          47.2860327
        ]
      },
      "properties": {
        "id": 78417768,
        "osm_type": "way",
        "name": "La Combe"
      }
    },
    {
      "type": "Feature",
      "geometry": {
        "type": "Point",
        "coordinates": [
          6.9040296,
          47.1765077
        ]
      },
      "properties": {
        "id": 82629752,
        "osm_type": "way",
        "name": "L'Ours"
      }
    },
    {
      "type": "Feature",
      "geometry": {
        "type": "Point",
        "coordinates": [
          6.9518213,
          47.2710857
        ]
      },
      "properties": {
        "id": 84011860,
        "osm_type": "way",
        "name": "Restaurant de La Verte Herbe",
        "phone": "+41 32 951 13 27",
        "website": "https://www.verteherbe.ch/",
        "cuisine": "regional"
      }
    },
    {
      "type": "Feature",
      "geometry": {
        "type": "Point",
        "coordinates": [
          7.03489,
          47.2544993
        ]
      },
      "properties": {
        "id": 85865218,
        "osm_type": "way",
        "name": "Le Sapin",
        "check_date": "2024-03-24"
      }
    },
    {
      "type": "Feature",
      "geometry": {
        "type": "Point",
        "coordinates": [
          7.0388634,
          47.241091
        ]
      },
      "properties": {
        "id": 85876403,
        "osm_type": "way"
      }
    },
    {
      "type": "Feature",
      "geometry": {
        "type": "Point",
        "coordinates": [
          7.008507,
          47.3014428
        ]
      },
      "properties": {
        "id": 85944330,
        "osm_type": "way",
        "name": "Clairbief"
      }
    },
    {
      "type": "Feature",
      "geometry": {
        "type": "Point",
        "coordinates": [
          7.0505465,
          47.2818329
        ]
      },
      "properties": {
        "id": 86150749,
        "osm_type": "way",
        "name": "Hôtel garni de la Poste",
        "phone": "+41 32 955 11 60"
      }
    },
    {
      "type": "Feature",
      "geometry": {
        "type": "Point",
        "coordinates": [
          7.0485191,
          47.2899671
        ]
      },
      "properties": {
        "id": 86150893,
        "osm_type": "way",
        "name": "Café de la Poste",
        "cuisine": "regional"
      }
    },
    {
      "type": "Feature",
      "geometry": {
        "type": "Point",
        "coordinates": [
          7.0580501,
          47.2772349
        ]
      },
      "properties": {
        "id": 98362347,
        "osm_type": "way",
        "name": "Auberge de la Gare",
        "phone": "+41 32 955 13 18",
        "website": "https://www.aubergedelagare.ch/"
      }
    },
    {
      "type": "Feature",
      "geometry": {
        "type": "Point",
        "coordinates": [
          7.1293881,
          47.2557522
        ]
      },
      "properties": {
        "id": 101085630,
        "osm_type": "way",
        "name": "Le Chat Bleu"
      }
    },
    {
      "type": "Feature",
      "geometry": {
        "type": "Point",
        "coordinates": [
          7.1405147,
          47.3342118
        ]
      },
      "properties": {
        "id": 101605924,
        "osm_type": "way",
        "name": "Tariche",
        "cuisine": "regional"
      }
    },
    {
      "type": "Feature",
      "geometry": {
        "type": "Point",
        "coordinates": [
          7.1964049,
          47.313728
        ]
      },
      "properties": {
        "id": 102993917,
        "osm_type": "way",
        "name": "Auberge de Jolimont"
      }
    },
    {
      "type": "Feature",
      "geometry": {
        "type": "Point",
        "coordinates": [
          7.243241,
          47.3373052
        ]
      },
      "properties": {
        "id": 104787124,
        "osm_type": "way",
        "name": "Bar le p'tit Caf",
        "opening_hours": "Tu,We 11:00-19:00; Th 11:00-23:00; Fr 11:00-01:00; Sa 15:00-01:00",
        "outdoor_seating": "yes"
      }
    },
    {
      "type": "Feature",
      "geometry": {
        "type": "Point",
        "coordinates": [
          7.2425489,
          47.3387455
        ]
      },
      "properties": {
        "id": 104787160,
        "osm_type": "way",
        "name": "La Croix Blanche",
        "opening_hours": "Mo-Fr 08:00-23:30; Sa 09:00-23:30; Su 09:00-23:00"
      }
    },
    {
      "type": "Feature",
      "geometry": {
        "type": "Point",
        "coordinates": [
          7.2436517,
          47.3375352
        ]
      },
      "properties": {
        "id": 104920615,
        "osm_type": "way",
        "name": "La Corona",
        "opening_hours": "09:30-14:00,17:00-23:45; Tu off",
        "cuisine": "italian"
      }
    },
    {
      "type": "Feature",
      "geometry": {
        "type": "Point",
        "coordinates": [
          7.2461169,
          47.3387403
        ]
      },
      "properties": {
        "id": 104922169,
        "osm_type": "way"
      }
    },
    {
      "type": "Feature",
      "geometry": {
        "type": "Point",
        "coordinates": [
          7.3432708,
          47.3285147
        ]
      },
      "properties": {
        "id": 107457905,
        "osm_type": "way",
        "name": "Le Soleil",
        "cuisine": "regional",
        "takeaway": "no"
      }
    },
    {
      "type": "Feature",
      "geometry": {
        "type": "Point",
        "coordinates": [
          7.3742696,
          47.3368627
        ]
      },
      "properties": {
        "id": 108651104,
        "osm_type": "way",
        "name": "Bel-Air"
      }
    },
    {
      "type": "Feature",
      "geometry": {
        "type": "Point",
        "coordinates": [
          7.4082347,
          47.3198871
        ]
      },
      "properties": {
        "id": 108733548,
        "osm_type": "way",
        "name": "Restaurant du Moulin",
        "phone": "+41 32 435 52 34",
        "website": "https://www.restaurantdumoulin.ch/",
        "cuisine": "regional",
        "outdoor_seating": "yes"
      }
    },
    {
      "type": "Feature",
      "geometry": {
        "type": "Point",
        "coordinates": [
          7.3920058,
          47.3424891
        ]
      },
      "properties": {
        "id": 112232270,
        "osm_type": "way",
        "name": "Le Violat"
      }
    },
    {
      "type": "Feature",
      "geometry": {
        "type": "Point",
        "coordinates": [
          7.4419382,
          47.3792282
        ]
      },
      "properties": {
        "id": 114576338,
        "osm_type": "way",
        "name": "Naturfreundehaus"
      }
    },
    {
      "type": "Feature",
      "geometry": {
        "type": "Point",
        "coordinates": [
          6.9151615,
          47.3584782
        ]
      },
      "properties": {
        "id": 128396540,
        "osm_type": "way",
        "name": "Hôtel-Restaurant \"Les Grottes\"",
        "website": "https://camping-restaurant-les-grottes.ch",
        "outdoor_seating": "yes",
        "check_date": "2023-07-22"
      }
    },
    {
      "type": "Feature",
      "geometry": {
        "type": "Point",
        "coordinates": [
          7.1761782,
          47.4274992
        ]
      },
      "properties": {
        "id": 135960212,
        "osm_type": "way",
        "name": "Hôtel-Restaurant de la Cigogne",
        "opening_hours": "Mo 9:30-14:00; Tu-Fr 09:30-14:00,18:00-21:30; Sa 09:30-14:00, 18:00-22:30; Su 9:30-15:00, 18:00-21:30",
        "phone": "+41 32 462 24 24",
        "website": "https://www.cigogne-miecourt.ch/"
      }
    },
    {
      "type": "Feature",
      "geometry": {
        "type": "Point",
        "coordinates": [
          7.1981365,
          47.4129143
        ]
      },
      "properties": {
        "id": 136197751,
        "osm_type": "way",
        "name": "La Baroche"
      }
    },
    {
      "type": "Feature",
      "geometry": {
        "type": "Point",
        "coordinates": [
          7.2679953,
          47.3759001
        ]
      },
      "properties": {
        "id": 138470508,
        "osm_type": "way",
        "name": "La Claude Chappuis"
      }
    },
    {
      "type": "Feature",
      "geometry": {
        "type": "Point",
        "coordinates": [
          6.8950781,
          47.3726121
        ]
      },
      "properties": {
        "id": 141581632,
        "osm_type": "way",
        "name": "de la Poste"
      }
    },
    {
      "type": "Feature",
      "geometry": {
        "type": "Point",
        "coordinates": [
          6.9518232,
          47.3662353
        ]
      },
      "properties": {
        "id": 142544929,
        "osm_type": "way",
        "name": "Auberge Bellevue"
      }
    },
    {
      "type": "Feature",
      "geometry": {
        "type": "Point",
        "coordinates": [
          6.9991902,
          47.3916247
        ]
      },
      "properties": {
        "id": 149204941,
        "osm_type": "way",
        "name": "Cheval-blanc"
      }
    },
    {
      "type": "Feature",
      "geometry": {
        "type": "Point",
        "coordinates": [
          7.1190901,
          47.405983
        ]
      },
      "properties": {
        "id": 151754525,
        "osm_type": "way",
        "name": "La Pierre Percée",
        "website": "https://www.restaurant-pierre-percee.ch/"
      }
    },
    {
      "type": "Feature",
      "geometry": {
        "type": "Point",
        "coordinates": [
          7.1607224,
          47.4075628
        ]
      },
      "properties": {
        "id": 151934903,
        "osm_type": "way",
        "name": "Cheval Blanc"
      }
    },
    {
      "type": "Feature",
      "geometry": {
        "type": "Point",
        "coordinates": [
          7.1655185,
          47.4053576
        ]
      },
      "properties": {
        "id": 151942621,
        "osm_type": "way",
        "name": "Lion d'Or"
      }
    },
    {
      "type": "Feature",
      "geometry": {
        "type": "Point",
        "coordinates": [
          7.1642222,
          47.4083118
        ]
      },
      "properties": {
        "id": 151943232,
        "osm_type": "way",
        "name": "Les Rochets"
      }
    },
    {
      "type": "Feature",
      "geometry": {
        "type": "Point",
        "coordinates": [
          7.1278958,
          47.425586
        ]
      },
      "properties": {
        "id": 152367431,
        "osm_type": "way",
        "name": "L'Helvétia",
        "phone": "+41 32 471 13 12",
        "website": "https://www.facebook.com/chinoisalle",
        "cuisine": "chinese",
        "takeaway": "yes"
      }
    },
    {
      "type": "Feature",
      "geometry": {
        "type": "Point",
        "coordinates": [
          7.1279505,
          47.4250176
        ]
      },
      "properties": {
        "id": 152373012,
        "osm_type": "way",
        "name": "Le Régional",
        "phone": "+41 32 471 13 10",
        "takeaway": "yes"
      }
    },
    {
      "type": "Feature",
      "geometry": {
        "type": "Point",
        "coordinates": [
          7.1292885,
          47.4268388
        ]
      },
      "properties": {
        "id": 152435455,
        "osm_type": "way",
        "name": "Le raisin",
        "phone": "+41 32 471 12 40",
        "website": "https://www.juragourmand.ch/toutes-les-tables/restaurant/raisin-alle"
      }
    },
    {
      "type": "Feature",
      "geometry": {
        "type": "Point",
        "coordinates": [
          7.0503025,
          47.4087927
        ]
      },
      "properties": {
        "id": 154299093,
        "osm_type": "way",
        "name": "Restaurant de l'Aérodrome"
      }
    },
    {
      "type": "Feature",
      "geometry": {
        "type": "Point",
        "coordinates": [
          7.0783943,
          47.4168604
        ]
      },
      "properties": {
        "id": 154527171,
        "osm_type": "way",
        "name": "Gambrinus",
        "phone": "+41 32 466 12 51",
        "cuisine": "european;pizza;hamburger"
      }
    },
    {
      "type": "Feature",
      "geometry": {
        "type": "Point",
        "coordinates": [
          7.0779973,
          47.4242397
        ]
      },
      "properties": {
        "id": 157997546,
        "osm_type": "way"
      }
    },
    {
      "type": "Feature",
      "geometry": {
        "type": "Point",
        "coordinates": [
          7.0339316,
          47.4373322
        ]
      },
      "properties": {
        "id": 158030686,
        "osm_type": "way",
        "name": "Auberge Saint-Hubert"
      }
    },
    {
      "type": "Feature",
      "geometry": {
        "type": "Point",
        "coordinates": [
          7.0301616,
          47.4812835
        ]
      },
      "properties": {
        "id": 158623357,
        "osm_type": "way",
        "name": "Restaurant Helvétia",
        "website": "http://www.resto-helvetia.ch/"
      }
    },
    {
      "type": "Feature",
      "geometry": {
        "type": "Point",
        "coordinates": [
          7.3607121,
          47.2727521
        ]
      },
      "properties": {
        "id": 166120675,
        "osm_type": "way",
        "name": "Le Derby",
        "opening_hours": "Mo-Fr 08:00-23:00; Sa 09:00-23:00; Su 09:00-22:30",
        "website": "https://lederby.ch/"
      }
    },
    {
      "type": "Feature",
      "geometry": {
        "type": "Point",
        "coordinates": [
          7.3819784,
          47.2828021
        ]
      },
      "properties": {
        "id": 208487119,
        "osm_type": "way",
        "name": "Hôtel des Gorges",
        "opening_hours": "Tu-Su 11:00-14:30,18:00+; Th 11:00-14:30; Su 11:00-15:00",
        "phone": "+41 32 493 16 69",
        "website": "https://www.juragourmand.ch/gorges.htm",
        "cuisine": "italian",
        "check_date": "2025-05-04"
      }
    },
    {
      "type": "Feature",
      "geometry": {
        "type": "Point",
        "coordinates": [
          7.3105515,
          47.3685894
        ]
      },
      "properties": {
        "id": 236802898,
        "osm_type": "way",
        "name": "Restaurant du Château de Domont"
      }
    },
    {
      "type": "Feature",
      "geometry": {
        "type": "Point",
        "coordinates": [
          7.3362212,
          47.3560387
        ]
      },
      "properties": {
        "id": 238014743,
        "osm_type": "way",
        "name": "Clair-de-Lune"
      }
    },
    {
      "type": "Feature",
      "geometry": {
        "type": "Point",
        "coordinates": [
          7.0326185,
          47.3940937
        ]
      },
      "properties": {
        "id": 299675106,
        "osm_type": "way",
        "name": "Le Cockpit",
        "website": "https://www.aerojura.ch/"
      }
    },
    {
      "type": "Feature",
      "geometry": {
        "type": "Point",
        "coordinates": [
          7.1570779,
          47.4516591
        ]
      },
      "properties": {
        "id": 371182403,
        "osm_type": "way",
        "name": "De la Gare"
      }
    },
    {
      "type": "Feature",
      "geometry": {
        "type": "Point",
        "coordinates": [
          7.1487988,
          47.4514321
        ]
      },
      "properties": {
        "id": 409869742,
        "osm_type": "way",
        "name": "Auberge de l'Ours"
      }
    },
    {
      "type": "Feature",
      "geometry": {
        "type": "Point",
        "coordinates": [
          6.9254729,
          47.2233272
        ]
      },
      "properties": {
        "id": 440610498,
        "osm_type": "way",
        "name": "Restaurant De La Goule",
        "phone": "+41 32 953 11 18",
        "website": "http://www.restaurandelagoule.com/",
        "cuisine": "regional"
      }
    },
    {
      "type": "Feature",
      "geometry": {
        "type": "Point",
        "coordinates": [
          7.1518763,
          47.4772328
        ]
      },
      "properties": {
        "id": 617825234,
        "osm_type": "way",
        "name": "Le Grütli"
      }
    },
    {
      "type": "Feature",
      "geometry": {
        "type": "Point",
        "coordinates": [
          7.0759182,
          47.4149189
        ]
      },
      "properties": {
        "id": 15771494,
        "osm_type": "relation",
        "name": "La Cygogne",
        "opening_hours": "Mo-Th: 10:00 - 22:30; Sa: 17:00 - 00:00; Su: 17:00 - 22:00",
        "phone": "+41 32 467 19 36",
        "website": "https://la-cigogne.ch/",
        "cuisine": "regional",
        "outdoor_seating": "yes"
      }
    }
  ]
}