{
  "type": "FeatureCollection",
  "features": [
    {
      "type": "Feature",
      "geometry": {
        "type": "Point",
        "coordinates": [
          6.9562212,
          47.2235039
        ]
      },
      "properties": {
        "id": 9028882156,
        "osm_type": "node",
        "name": "Coop",
        "brand": "Coop",
        "opening_hours": "Mo-Fr 07:30-18:30; Sa 07:30-17:00"
      }
    },
    {
      "type": "Feature",
      "geometry": {
        "type": "Point",
        "coordinates": [
          6.9998959,
          47.2096404
        ]
      },
      "properties": {
        "id": 859708798,
        "osm_type": "node",
        "name": "Coop"
      }
    },
    {
      "type": "Feature",
      "geometry": {
        "type": "Point",
        "coordinates": [
          7.0006861,
          47.2544734
        ]
      },
      "properties": {
        "id": 859708799,
        "osm_type": "node",
        "name": "Migros",
        "brand": "Migros",
        "opening_hours": "Mo-Th 08:00-18:30; Fr 08:00-20:00; Sa 07:30-17:00"
      }
    },
    {
      "type": "Feature",
      "geometry": {
        "type": "Point",
        "coordinates": [
          6.9975232,
          47.2552425
        ]
      },
      "properties": {
        "id": 4973913994,
        "osm_type": "node",
        "name": "Denner",
        "brand": "Denner"
      }
    },
    {
      "type": "Feature",
      "geometry": {
        "type": "Point",
        "coordinates": [
          6.9993287,
          47.2569212
        ]
      },
      "properties": {
        "id": 997576717,
        "osm_type": "node",
        "name": "Coop"
      }
    },
    {
      "type": "Feature",
      "geometry": {
        "type": "Point",
        "coordinates": [
          6.9997635,
          47.256976
        ]
      },
      "properties": {
        "id": 7788629626,
        "osm_type": "node",
        "name": "Coop",
        "brand": "Coop",
        "opening_hours": "Mo-Th 08:00-18:30; Fr 08:00-20:00; Sa 07:30-17:00"
      }
    },
    {
      "type": "Feature",
      "geometry": {
        "type": "Point",
        "coordinates": [
          7.1551713,
          47.3654237
        ]
      },
      "properties": {
        "id": 842943819,
        "osm_type": "node",
        "name": "Coop",
        "brand": "Coop",
        "opening_hours": "Mo-Fr 07:30-18:30; Sa 07:30-17:00"
      }
    },
    {
      "type": "Feature",
      "geometry": {
        "type": "Point",
        "coordinates": [
          7.1389144,
          47.3963848
        ]
      },
      "properties": {
        "id": 10309566575,
        "osm_type": "node",
        "name": "Jardins des martinets, Dépôt Courtemautruy"
      }
    },
    {
      "type": "Feature",
      "geometry": {
        "type": "Point",
        "coordinates": [
          7.1392775,
          47.3968012
        ]
      },
      "properties": {
        "id": 10309644456,
        "osm_type": "node",
        "name": "asdcaca"
      }
    },
    {
      "type": "Feature",
      "geometry": {
        "type": "Point",
        "coordinates": [
          7.2458656,
          47.3368536
        ]
      },
      "properties": {
        "id": 5707236223,
        "osm_type": "node",
        "name": "Denner Partenaire",
        "brand": "Denner",
        "opening_hours": "Mo-Fr 07:00-18:30; Sa 07:00-17:00"
      }
    },
    {
      "type": "Feature",
      "geometry": {
        "type": "Point",
        "coordinates": [
          7.3176577,
          47.3424357
        ]
      },
      "properties": {
        "id": 3340396491,
        "osm_type": "node",
        "name": "Volg",
        "brand": "Volg",
        "opening_hours": "Mo-Fr 06:00-18:30; Sa 06:00-17:00"
      }
    },
    {
      "type": "Feature",
      "geometry": {
        "type": "Point",
        "coordinates": [
          7.366099,
          47.2762187
        ]
      },
      "properties": {
        "id": 5655953831,
        "osm_type": "node",
        "name": "Lidl",
        "brand": "Lidl"
      }
    },
    {
      "type": "Feature",
      "geometry": {
        "type": "Point",
        "coordinates": [
          7.3702299,
          47.2767141
        ]
      },
      "properties": {
        "id": 5203847172,
        "osm_type": "node",
        "name": "Denner",
        "brand": "Denner",
        "opening_hours": "Mo-Fr 08:00-18:30, Sa 07:30-17:00"
      }
    },
    {
      "type": "Feature",
      "geometry": {
        "type": "Point",
        "coordinates": [
          7.3681204,
          47.2772549
        ]
      },
      "properties": {
        "id": 6712081350,
        "osm_type": "node",
        "name": "Coop",
        "brand": "Coop"
      }
    },
    {
      "type": "Feature",
      "geometry": {
        "type": "Point",
        "coordinates": [
          7.3701198,
          47.276806
        ]
      },
      "properties": {
        "id": 6712081355,
        "osm_type": "node",
        "name": "Migros",
        "brand": "Migros",
        "opening_hours": "Mo-Th 08:00-19:00, Fr 08:00-20:00, Sa 08:00-17:00; PH off"
      }
    },
    {
      "type": "Feature",
      "geometry": {
        "type": "Point",
        "coordinates": [
          7.3697993,
          47.3437554
        ]
      },
      "properties": {
        "id": 8138209295,
        "osm_type": "node",
        "name": "Denner",
        "brand": "Denner"
      }
    },
    {
      "type": "Feature",
      "geometry": {
        "type": "Point",
        "coordinates": [
          7.4103964,
          47.3486868
        ]
      },
      "properties": {
        "id": 4977477227,
        "osm_type": "node"
      }
    },
    {
      "type": "Feature",
      "geometry": {
        "type": "Point",
        "coordinates": [
          7.4175214,
          47.3490788
        ]
      },
      "properties": {
        "id": 4370048022,
        "osm_type": "node",
        "name": "Volg",
        "brand": "Volg",
        "opening_hours": "Mo-Fr 06:00-18:30; Sa 06:00-17:00"
      }
    },
    {
      "type": "Feature",
      "geometry": {
        "type": "Point",
        "coordinates": [
          7.3454574,
          47.3636262
        ]
      },
      "properties": {
        "id": 2765365312,
        "osm_type": "node",
        "name": "ALDI",
        "brand": "ALDI"
      }
    },
    {
      "type": "Feature",
      "geometry": {
        "type": "Point",
        "coordinates": [
          7.3463411,
          47.363513
        ]
      },
      "properties": {
        "id": 2765365353,
        "osm_type": "node",
        "name": "Denner",
        "brand": "Denner"
      }
    },
    {
      "type": "Feature",
      "geometry": {
        "type": "Point",
        "coordinates": [
          7.346629,
          47.363496
        ]
      },
      "properties": {
        "id": 598706341,
        "osm_type": "node",
        "name": "Migros",
        "brand": "Migros",
        "opening_hours": "Mo-Fr 08:00-18:30; Th 08:00-20:00; Sa 07:30-17:00; PH off"
      }
    },
    {
      "type": "Feature",
      "geometry": {
        "type": "Point",
        "coordinates": [
          7.3471684,
          47.3646073
        ]
      },
      "properties": {
        "id": 598706342,
        "osm_type": "node",
        "name": "Coop",
        "brand": "Coop"
      }
    },
    {
      "type": "Feature",
      "geometry": {
        "type": "Point",
        "coordinates": [
          7.3510701,
          47.3627951
        ]
      },
      "properties": {
        "id": 2765456730,
        "osm_type": "node",
        "name": "Lidl",
        "brand": "Lidl"
      }
    },
    {
      "type": "Feature",
      "geometry": {
        "type": "Point",
        "coordinates": [
          7.3490537,
          47.364362
        ]
      },
      "properties": {
        "id": 4057133977,
        "osm_type": "node",
        "name": "WOEZON",
        "opening_hours": "Mo-Sa 10:00-18:30"
      }
    },
    {
      "type": "Feature",
      "geometry": {
        "type": "Point",
        "coordinates": [
          7.3501821,
          47.364335
        ]
      },
      "properties": {
        "id": 5638170239,
        "osm_type": "node",
        "name": "Manor Food"
      }
    },
    {
      "type": "Feature",
      "geometry": {
        "type": "Point",
        "coordinates": [
          7.3431714,
          47.3662318
        ]
      },
      "properties": {
        "id": 4195551911,
        "osm_type": "node",
        "name": "Primo",
        "opening_hours": "Mo-Fr 07:00-12:15,14:00-18:30; Sa 07:00-17:00"
      }
    },
    {
      "type": "Feature",
      "geometry": {
        "type": "Point",
        "coordinates": [
          7.3475617,
          47.3664354
        ]
      },
      "properties": {
        "id": 13065601399,
        "osm_type": "node",
        "name": "Coop",
        "brand": "Coop"
      }
    },
    {
      "type": "Feature",
      "geometry": {
        "type": "Point",
        "coordinates": [
          7.3723152,
          47.36209
        ]
      },
      "properties": {
        "id": 4977491622,
        "osm_type": "node",
        "name": "Kiosque"
      }
    },
    {
      "type": "Feature",
      "geometry": {
        "type": "Point",
        "coordinates": [
          7.3735975,
          47.3616673
        ]
      },
      "properties": {
        "id": 4973579524,
        "osm_type": "node",
        "name": "Denner",
        "brand": "Denner"
      }
    },
    {
      "type": "Feature",
      "geometry": {
        "type": "Point",
        "coordinates": [
          7.3916376,
          47.3623828
        ]
      },
      "properties": {
        "id": 4973579521,
        "osm_type": "node",
        "name": "Laiterie, petit mag."
      }
    },
    {
      "type": "Feature",
      "geometry": {
        "type": "Point",
        "coordinates": [
          7.0148473,
          47.4951343
        ]
      },
      "properties": {
        "id": 1297534861,
        "osm_type": "node",
        "name": "Coop",
        "brand": "Coop"
      }
    },
    {
      "type": "Feature",
      "geometry": {
        "type": "Point",
        "coordinates": [
          7.077382,
          47.4163437
        ]
      },
      "properties": {
        "id": 7233507113,
        "osm_type": "node",
        "name": "Denner",
        "brand": "Denner"
      }
    },
    {
      "type": "Feature",
      "geometry": {
        "type": "Point",
        "coordinates": [
          7.0781001,
          47.4162539
        ]
      },
      "properties": {
        "id": 6423742298,
        "osm_type": "node",
        "name": "Migros",
        "brand": "Migros",
        "opening_hours": "Mo-Fr 08:00-18:30; Th 08:00-20:00; Sa 08:00-17:00; PH off"
      }
    },
    {
      "type": "Feature",
      "geometry": {
        "type": "Point",
        "coordinates": [
          7.0779797,
          47.4162249
        ]
      },
      "properties": {
        "id": 7233507130,
        "osm_type": "node",
        "name": "ALDI",
        "brand": "ALDI"
      }
    },
    {
      "type": "Feature",
      "geometry": {
        "type": "Point",
        "coordinates": [
          7.1267366,
          47.4245238
        ]
      },
      "properties": {
        "id": 9978766657,
        "osm_type": "node",
        "name": "Denner",
        "brand": "Denner",
        "opening_hours": "Mo-Fr 09:00-19:00; Sa,Su 09:00-17:00; PH off"
      }
    },
    {
      "type": "Feature",
      "geometry": {
        "type": "Point",
        "coordinates": [
          7.1508046,
          47.477521
        ]
      },
      "properties": {
        "id": 6620989547,
        "osm_type": "node",
        "name": "Volg",
        "brand": "Volg",
        "opening_hours": "Mo-Fr 06:00-18:30,; Sa 06:00-17:00"
      }
    },
    {
      "type": "Feature",
      "geometry": {
        "type": "Point",
        "coordinates": [
          6.9041887,
          47.1759599
        ]
      },
      "properties": {
        "id": 82629728,
        "osm_type": "way",
        "name": "Denner",
        "brand": "Denner",
        "opening_hours": "Mo-Fr 08:00-12:15,13:30-18:30; Sa 08:00-12:15,13:30-17:00; Su 08:00-12:00"
      }
    },
    {
      "type": "Feature",
      "geometry": {
        "type": "Point",
        "coordinates": [
          7.051036,
          47.2821816
        ]
      },
      "properties": {
        "id": 86150678,
        "osm_type": "way",
        "name": "Volg Montfaucon",
        "brand": "Volg",
        "opening_hours": "Mo-Fr 06:00-18:30; Sa 06:00-17:00; Su 08:00-12:00; Aug 01 off"
      }
    },
    {
      "type": "Feature",
      "geometry": {
        "type": "Point",
        "coordinates": [
          7.252627,
          47.3387687
        ]
      },
      "properties": {
        "id": 263785783,
        "osm_type": "way",
        "name": "Jura Centre"
      }
    },
    {
      "type": "Feature",
      "geometry": {
        "type": "Point",
        "coordinates": [
          7.3683293,
          47.277302
        ]
      },
      "properties": {
        "id": 537477397,
        "osm_type": "way",
        "name": "Coop",
        "brand": "Coop"
      }
    },
    {
      "type": "Feature",
      "geometry": {
        "type": "Point",
        "coordinates": [
          7.3828834,
          47.3601058
        ]
      },
      "properties": {
        "id": 1196698941,
        "osm_type": "way",
        "name": "Coop",
        "brand": "Coop",
        "opening_hours": "Mo-Fr 07:30-18:30; Sa 07:30-17:00; PH off"
      }
    },
    {
      "type": "Feature",
      "geometry": {
        "type": "Point",
        "coordinates": [
          7.0776598,
          47.4171393
        ]
      },
      "properties": {
        "id": 156944311,
        "osm_type": "way",
        "name": "Coop",
        "brand": "Coop",
        "opening_hours": "Mo-Fr 08:00-18:30; Th 08:00-20:00; Sa 08:00-17:00"
      }
    },
    {
      "type": "Feature",
      "geometry": {
        "type": "Point",
        "coordinates": [
          7.0715837,
          47.4154417
        ]
      },
      "properties": {
        "id": 685415916,
        "osm_type": "way",
        "name": "Denner",
        "brand": "Denner",
        "opening_hours": "Mo-Fr 08:00-18:30; Th 08:00-20:00; Sa 08:00-17:00"
      }
    },
    {
      "type": "Feature",
      "geometry": {
        "type": "Point",
        "coordinates": [
          7.1161596,
          47.4220129
        ]
      },
      "properties": {
        "id": 786466314,
        "osm_type": "way",
        "name": "Landi",
        "brand": "Landi"
      }
    },
    {
      "type": "Feature",
      "geometry": {
        "type": "Point",
        "coordinates": [
          7.1241936,
          47.4258267
        ]
      },
      "properties": {
        "id": 959178682,
        "osm_type": "way"
      }
    }
  ]
}