{
  "type": "FeatureCollection",
  "features": [
    {
      "type": "Feature",
      "geometry": {
        "type": "Point",
        "coordinates": [
          30.4055903,
          40.6752635
        ]
      },
      "properties": {
        "id": 2275089809,
        "osm_type": "node"
      }
    },
    {
      "type": "Feature",
      "geometry": {
        "type": "Point",
        "coordinates": [
          30.3947448,
          40.775662
        ]
      },
      "properties": {
        "id": 4803945991,
        "osm_type": "node",
        "name": "Çetin Ticaret"
      }
    },
    {
      "type": "Feature",
      "geometry": {
        "type": "Point",
        "coordinates": [
          30.4026145,
          40.7757091
        ]
      },
      "properties": {
        "id": 4814626921,
        "osm_type": "node"
      }
    },
    {
      "type": "Feature",
      "geometry": {
        "type": "Point",
        "coordinates": [
          30.7470772,
          40.796397
        ]
      },
      "properties": {
        "id": 4880424588,
        "osm_type": "node",
        "name": "Tutkunlar Market"
      }
    },
    {
      "type": "Feature",
      "geometry": {
        "type": "Point",
        "coordinates": [
          30.6929149,
          41.1054942
        ]
      },
      "properties": {
        "id": 4917006723,
        "osm_type": "node",
        "name": "Çarşı Tekel Shop 3"
      }
    },
    {
      "type": "Feature",
      "geometry": {
        "type": "Point",
        "coordinates": [
          30.3972891,
          40.7843812
        ]
      },
      "properties": {
        "id": 4919790521,
        "osm_type": "node"
      }
    },
    {
      "type": "Feature",
      "geometry": {
        "type": "Point",
        "coordinates": [
          30.4082407,
          40.776535
        ]
      },
      "properties": {
        "id": 5296290990,
        "osm_type": "node",
        "name": "Seyfi Kuruyemiş"
      }
    },
    {
      "type": "Feature",
      "geometry": {
        "type": "Point",
        "coordinates": [
          30.408044,
          40.7766808
        ]
      },
      "properties": {
        "id": 5328927606,
        "osm_type": "node",
        "name": "Abaza Bakkal"
      }
    },
    {
      "type": "Feature",
      "geometry": {
        "type": "Point",
        "coordinates": [
          30.4629493,
          40.8805108
        ]
      },
      "properties": {
        "id": 5426911403,
        "osm_type": "node",
        "name": "Belinler Market"
      }
    },
    {
      "type": "Feature",
      "geometry": {
        "type": "Point",
        "coordinates": [
          30.4014496,
          40.775859
        ]
      },
      "properties": {
        "id": 5718364479,
        "osm_type": "node"
      }
    },
    {
      "type": "Feature",
      "geometry": {
        "type": "Point",
        "coordinates": [
          30.4769868,
          41.1329407
        ]
      },
      "properties": {
        "id": 5777648955,
        "osm_type": "node"
      }
    },
    {
      "type": "Feature",
      "geometry": {
        "type": "Point",
        "coordinates": [
          30.696404,
          40.7530952
        ]
      },
      "properties": {
        "id": 5860888387,
        "osm_type": "node",
        "name": "Market Office"
      }
    },
    {
      "type": "Feature",
      "geometry": {
        "type": "Point",
        "coordinates": [
          30.7000786,
          40.7512552
        ]
      },
      "properties": {
        "id": 5985454085,
        "osm_type": "node",
        "opening_hours": "24/7"
      }
    },
    {
      "type": "Feature",
      "geometry": {
        "type": "Point",
        "coordinates": [
          30.3831522,
          40.7553983
        ]
      },
      "properties": {
        "id": 6004819426,
        "osm_type": "node",
        "name": "Vagon Market"
      }
    },
    {
      "type": "Feature",
      "geometry": {
        "type": "Point",
        "coordinates": [
          30.3852658,
          40.7560255
        ]
      },
      "properties": {
        "id": 6005574742,
        "osm_type": "node",
        "name": "Palmiye Büfe"
      }
    },
    {
      "type": "Feature",
      "geometry": {
        "type": "Point",
        "coordinates": [
          30.3832486,
          40.7537337
        ]
      },
      "properties": {
        "id": 6005574748,
        "osm_type": "node",
        "name": "Yeşilyurt Market & Manav"
      }
    },
    {
      "type": "Feature",
      "geometry": {
        "type": "Point",
        "coordinates": [
          30.3832783,
          40.7536617
        ]
      },
      "properties": {
        "id": 6005574749,
        "osm_type": "node",
        "name": "Demirkol Gıda"
      }
    },
    {
      "type": "Feature",
      "geometry": {
        "type": "Point",
        "coordinates": [
          30.2379774,
          40.6890391
        ]
      },
      "properties": {
        "id": 6326842323,
        "osm_type": "node",
        "name": "Migros Jet",
        "brand": "Migros Jet",
        "opening_hours": "Mo-Su 10:00-22:00"
      }
    },
    {
      "type": "Feature",
      "geometry": {
        "type": "Point",
        "coordinates": [
          30.2325819,
          40.5128652
        ]
      },
      "properties": {
        "id": 6720463018,
        "osm_type": "node",
        "name": "İçim Market"
      }
    },
    {
      "type": "Feature",
      "geometry": {
        "type": "Point",
        "coordinates": [
          30.3549992,
          40.77598
        ]
      },
      "properties": {
        "id": 7087540460,
        "osm_type": "node",
        "name": "Ada Market"
      }
    },
    {
      "type": "Feature",
      "geometry": {
        "type": "Point",
        "coordinates": [
          30.70086,
          41.1072394
        ]
      },
      "properties": {
        "id": 7594497694,
        "osm_type": "node",
        "name": "35'lik Tekel Shop"
      }
    },
    {
      "type": "Feature",
      "geometry": {
        "type": "Point",
        "coordinates": [
          30.7229954,
          41.0987637
        ]
      },
      "properties": {
        "id": 7594497699,
        "osm_type": "node",
        "name": "Tedi"
      }
    },
    {
      "type": "Feature",
      "geometry": {
        "type": "Point",
        "coordinates": [
          30.6999497,
          41.1075867
        ]
      },
      "properties": {
        "id": 7594497701,
        "osm_type": "node",
        "name": "Enfes Büfe"
      }
    },
    {
      "type": "Feature",
      "geometry": {
        "type": "Point",
        "coordinates": [
          30.6980052,
          41.1082833
        ]
      },
      "properties": {
        "id": 7594497712,
        "osm_type": "node",
        "name": "Show 34 Tekel"
      }
    },
    {
      "type": "Feature",
      "geometry": {
        "type": "Point",
        "coordinates": [
          30.692664,
          41.0974335
        ]
      },
      "properties": {
        "id": 7594814586,
        "osm_type": "node",
        "name": "Oz-Den Tekel Shop"
      }
    },
    {
      "type": "Feature",
      "geometry": {
        "type": "Point",
        "coordinates": [
          30.3938,
          40.7772308
        ]
      },
      "properties": {
        "id": 8937457325,
        "osm_type": "node",
        "name": "Nazar Kuruyemiş"
      }
    },
    {
      "type": "Feature",
      "geometry": {
        "type": "Point",
        "coordinates": [
          30.3837715,
          40.775063
        ]
      },
      "properties": {
        "id": 8937480328,
        "osm_type": "node",
        "name": "Çelik Büfe"
      }
    },
    {
      "type": "Feature",
      "geometry": {
        "type": "Point",
        "coordinates": [
          30.3908664,
          40.7763805
        ]
      },
      "properties": {
        "id": 8937480507,
        "osm_type": "node",
        "name": "Yeşiller Kuruyemiş"
      }
    },
    {
      "type": "Feature",
      "geometry": {
        "type": "Point",
        "coordinates": [
          30.3921188,
          40.7766535
        ]
      },
      "properties": {
        "id": 8937484965,
        "osm_type": "node",
        "name": "Çolak Kuruyemiş"
      }
    },
    {
      "type": "Feature",
      "geometry": {
        "type": "Point",
        "coordinates": [
          30.3881281,
          40.7762888
        ]
      },
      "properties": {
        "id": 8937485470,
        "osm_type": "node",
        "name": "Şans Büfe"
      }
    },
    {
      "type": "Feature",
      "geometry": {
        "type": "Point",
        "coordinates": [
          30.3757325,
          40.781942
        ]
      },
      "properties": {
        "id": 9033794984,
        "osm_type": "node",
        "name": "Cio Market"
      }
    },
    {
      "type": "Feature",
      "geometry": {
        "type": "Point",
        "coordinates": [
          30.7362004,
          41.0933352
        ]
      },
      "properties": {
        "id": 9056358830,
        "osm_type": "node",
        "name": "Son Çare Tekel"
      }
    },
    {
      "type": "Feature",
      "geometry": {
        "type": "Point",
        "coordinates": [
          30.4031735,
          40.7582109
        ]
      },
      "properties": {
        "id": 9075412868,
        "osm_type": "node",
        "name": "Adalılar Kuruyemiş"
      }
    },
    {
      "type": "Feature",
      "geometry": {
        "type": "Point",
        "coordinates": [
          30.6242015,
          40.6813316
        ]
      },
      "properties": {
        "id": 9075613179,
        "osm_type": "node",
        "name": "Mevsim Kuruyemiş"
      }
    },
    {
      "type": "Feature",
      "geometry": {
        "type": "Point",
        "coordinates": [
          30.624754,
          40.6829795
        ]
      },
      "properties": {
        "id": 9075636901,
        "osm_type": "node",
        "name": "Park Büfe Gazete Bayii"
      }
    },
    {
      "type": "Feature",
      "geometry": {
        "type": "Point",
        "coordinates": [
          30.3941789,
          40.7781394
        ]
      },
      "properties": {
        "id": 9086647861,
        "osm_type": "node",
        "name": "Beer Shop"
      }
    },
    {
      "type": "Feature",
      "geometry": {
        "type": "Point",
        "coordinates": [
          30.4056737,
          40.8005803
        ]
      },
      "properties": {
        "id": 9087853845,
        "osm_type": "node",
        "name": "Kuzey Kuruyemiş"
      }
    },
    {
      "type": "Feature",
      "geometry": {
        "type": "Point",
        "coordinates": [
          30.3632076,
          40.7351976
        ]
      },
      "properties": {
        "id": 9358382567,
        "osm_type": "node",
        "name": "Hakikat Market"
      }
    },
    {
      "type": "Feature",
      "geometry": {
        "type": "Point",
        "coordinates": [
          30.4067901,
          40.7892427
        ]
      },
      "properties": {
        "id": 9663617896,
        "osm_type": "node",
        "name": "Civelek Gıda"
      }
    },
    {
      "type": "Feature",
      "geometry": {
        "type": "Point",
        "coordinates": [
          30.4025662,
          40.7791435
        ]
      },
      "properties": {
        "id": 9707047570,
        "osm_type": "node",
        "name": "Çarşı Büfe"
      }
    },
    {
      "type": "Feature",
      "geometry": {
        "type": "Point",
        "coordinates": [
          30.4045111,
          40.781057
        ]
      },
      "properties": {
        "id": 9707283716,
        "osm_type": "node",
        "name": "Melek Market"
      }
    },
    {
      "type": "Feature",
      "geometry": {
        "type": "Point",
        "coordinates": [
          30.395947,
          40.7776321
        ]
      },
      "properties": {
        "id": 9751927872,
        "osm_type": "node",
        "name": "Büfe Ekizceli"
      }
    },
    {
      "type": "Feature",
      "geometry": {
        "type": "Point",
        "coordinates": [
          30.3974453,
          40.7777756
        ]
      },
      "properties": {
        "id": 9751969067,
        "osm_type": "node",
        "name": "Ak Büfe"
      }
    },
    {
      "type": "Feature",
      "geometry": {
        "type": "Point",
        "coordinates": [
          30.3957963,
          40.7776326
        ]
      },
      "properties": {
        "id": 9751969830,
        "osm_type": "node",
        "name": "Şerefiye Bakkaliyesi"
      }
    },
    {
      "type": "Feature",
      "geometry": {
        "type": "Point",
        "coordinates": [
          30.3930273,
          40.7767403
        ]
      },
      "properties": {
        "id": 9751978217,
        "osm_type": "node",
        "name": "Çark Büfe"
      }
    },
    {
      "type": "Feature",
      "geometry": {
        "type": "Point",
        "coordinates": [
          30.409067,
          40.7725285
        ]
      },
      "properties": {
        "id": 9774748923,
        "osm_type": "node"
      }
    },
    {
      "type": "Feature",
      "geometry": {
        "type": "Point",
        "coordinates": [
          30.3981462,
          40.7778733
        ]
      },
      "properties": {
        "id": 9805770331,
        "osm_type": "node",
        "name": "Yavuz's Büfe"
      }
    },
    {
      "type": "Feature",
      "geometry": {
        "type": "Point",
        "coordinates": [
          30.3959188,
          40.7775253
        ]
      },
      "properties": {
        "id": 9805770342,
        "osm_type": "node",
        "name": "Gökmen Büfe"
      }
    },
    {
      "type": "Feature",
      "geometry": {
        "type": "Point",
        "coordinates": [
          30.4085005,
          40.7733216
        ]
      },
      "properties": {
        "id": 9854697924,
        "osm_type": "node",
        "name": "Palmiye"
      }
    },
    {
      "type": "Feature",
      "geometry": {
        "type": "Point",
        "coordinates": [
          30.2601198,
          40.6900342
        ]
      },
      "properties": {
        "id": 9915862895,
        "osm_type": "node",
        "name": "Migros Jet",
        "brand": "Migros Jet",
        "opening_hours": "Mo-Su 09:00-22:00"
      }
    },
    {
      "type": "Feature",
      "geometry": {
        "type": "Point",
        "coordinates": [
          30.2722856,
          40.6892622
        ]
      },
      "properties": {
        "id": 9933852880,
        "osm_type": "node",
        "name": "Migros Jet",
        "brand": "Migros Jet",
        "opening_hours": "24/7"
      }
    },
    {
      "type": "Feature",
      "geometry": {
        "type": "Point",
        "coordinates": [
          30.2352603,
          40.6893367
        ]
      },
      "properties": {
        "id": 9943456151,
        "osm_type": "node",
        "name": "Carrefour",
        "brand": "Carrefour",
        "opening_hours": "Mo-Su 08:00-22:00"
      }
    },
    {
      "type": "Feature",
      "geometry": {
        "type": "Point",
        "coordinates": [
          30.2621794,
          40.6893308
        ]
      },
      "properties": {
        "id": 10695303779,
        "osm_type": "node",
        "name": "Mapa Kuruyemiş",
        "opening_hours": "Mo-Su 09:00-21:00; PH unknown"
      }
    },
    {
      "type": "Feature",
      "geometry": {
        "type": "Point",
        "coordinates": [
          30.335672,
          40.8597297
        ]
      },
      "properties": {
        "id": 10778072815,
        "osm_type": "node",
        "name": "Ekomini",
        "brand": "Ekomini",
        "opening_hours": "Mo-Su 08:00-22:00"
      }
    },
    {
      "type": "Feature",
      "geometry": {
        "type": "Point",
        "coordinates": [
          30.3412578,
          40.6462875
        ]
      },
      "properties": {
        "id": 10858792844,
        "osm_type": "node",
        "name": "Terzioğlu Gıda & Tekel"
      }
    },
    {
      "type": "Feature",
      "geometry": {
        "type": "Point",
        "coordinates": [
          30.083884,
          40.4927081
        ]
      },
      "properties": {
        "id": 10858813624,
        "osm_type": "node",
        "name": "Önal Büfe"
      }
    },
    {
      "type": "Feature",
      "geometry": {
        "type": "Point",
        "coordinates": [
          30.2924571,
          40.5345477
        ]
      },
      "properties": {
        "id": 10858818305,
        "osm_type": "node",
        "name": "Sakarya Büfe"
      }
    },
    {
      "type": "Feature",
      "geometry": {
        "type": "Point",
        "coordinates": [
          30.309225,
          40.5036069
        ]
      },
      "properties": {
        "id": 10923879308,
        "osm_type": "node",
        "name": "Bayram Bakkal"
      }
    },
    {
      "type": "Feature",
      "geometry": {
        "type": "Point",
        "coordinates": [
          30.6386795,
          40.6217539
        ]
      },
      "properties": {
        "id": 11002114703,
        "osm_type": "node",
        "name": "Sarılar Market"
      }
    },
    {
      "type": "Feature",
      "geometry": {
        "type": "Point",
        "coordinates": [
          30.4498517,
          40.6845156
        ]
      },
      "properties": {
        "id": 11343188194,
        "osm_type": "node"
      }
    },
    {
      "type": "Feature",
      "geometry": {
        "type": "Point",
        "coordinates": [
          30.7387628,
          40.7925153
        ]
      },
      "properties": {
        "id": 11780088893,
        "osm_type": "node",
        "name": "Migros"
      }
    },
    {
      "type": "Feature",
      "geometry": {
        "type": "Point",
        "coordinates": [
          30.2612616,
          40.6866427
        ]
      },
      "properties": {
        "id": 11812475733,
        "osm_type": "node",
        "name": "Erdem Market"
      }
    },
    {
      "type": "Feature",
      "geometry": {
        "type": "Point",
        "coordinates": [
          30.2577617,
          40.6847492
        ]
      },
      "properties": {
        "id": 11812475734,
        "osm_type": "node",
        "name": "Dede Market"
      }
    },
    {
      "type": "Feature",
      "geometry": {
        "type": "Point",
        "coordinates": [
          30.2603043,
          40.6857848
        ]
      },
      "properties": {
        "id": 11812475745,
        "osm_type": "node"
      }
    },
    {
      "type": "Feature",
      "geometry": {
        "type": "Point",
        "coordinates": [
          30.3616063,
          40.7602058
        ]
      },
      "properties": {
        "id": 12091745078,
        "osm_type": "node",
        "name": "Ekomini",
        "brand": "Ekomini"
      }
    },
    {
      "type": "Feature",
      "geometry": {
        "type": "Point",
        "coordinates": [
          30.3893532,
          40.7563788
        ]
      },
      "properties": {
        "id": 12091745159,
        "osm_type": "node",
        "name": "SEAH KANTİN",
        "opening_hours": "24/7"
      }
    },
    {
      "type": "Feature",
      "geometry": {
        "type": "Point",
        "coordinates": [
          30.5090097,
          40.9419439
        ]
      },
      "properties": {
        "id": 12091749039,
        "osm_type": "node",
        "name": "Ürdem Bakkal"
      }
    },
    {
      "type": "Feature",
      "geometry": {
        "type": "Point",
        "coordinates": [
          30.6552154,
          40.626805
        ]
      },
      "properties": {
        "id": 12830854474,
        "osm_type": "node",
        "name": "Vitamin Yavuz Büfe"
      }
    },
    {
      "type": "Feature",
      "geometry": {
        "type": "Point",
        "coordinates": [
          30.6552516,
          40.6268342
        ]
      },
      "properties": {
        "id": 12830854475,
        "osm_type": "node",
        "name": "Antep Büfe"
      }
    },
    {
      "type": "Feature",
      "geometry": {
        "type": "Point",
        "coordinates": [
          30.4037916,
          40.7593097
        ]
      },
      "properties": {
        "id": 13316631356,
        "osm_type": "node",
        "name": "Migros Jet",
        "brand": "Migros Jet"
      }
    },
    {
      "type": "Feature",
      "geometry": {
        "type": "Point",
        "coordinates": [
          30.2192872,
          40.6951582
        ]
      },
      "properties": {
        "id": 13321897148,
        "osm_type": "node",
        "name": "Migros Jet",
        "brand": "Migros Jet"
      }
    },
    {
      "type": "Feature",
      "geometry": {
        "type": "Point",
        "coordinates": [
          30.3640745,
          40.762553
        ]
      },
      "properties": {
        "id": 13440440011,
        "osm_type": "node",
        "name": "Nisa Market"
      }
    },
    {
      "type": "Feature",
      "geometry": {
        "type": "Point",
        "coordinates": [
          30.5185544,
          41.0520996
        ]
      },
      "properties": {
        "id": 263566094,
        "osm_type": "way",
        "name": "Market"
      }
    },
    {
      "type": "Feature",
      "geometry": {
        "type": "Point",
        "coordinates": [
          30.3362235,
          40.6408738
        ]
      },
      "properties": {
        "id": 322226775,
        "osm_type": "way",
        "name": "Mini Market"
      }
    },
    {
      "type": "Feature",
      "geometry": {
        "type": "Point",
        "coordinates": [
          30.3438498,
          40.7378592
        ]
      },
      "properties": {
        "id": 443175326,
        "osm_type": "way",
        "name": "Aydoğan Süper Market"
      }
    },
    {
      "type": "Feature",
      "geometry": {
        "type": "Point",
        "coordinates": [
          30.3825467,
          40.762334
        ]
      },
      "properties": {
        "id": 991807377,
        "osm_type": "way",
        "name": "Yılmaz Market",
        "opening_hours": "08:00-22:00"
      }
    },
    {
      "type": "Feature",
      "geometry": {
        "type": "Point",
        "coordinates": [
          30.3279164,
          40.8663916
        ]
      },
      "properties": {
        "id": 1125662256,
        "osm_type": "way",
        "name": "Yağmur Market"
      }
    },
    {
      "type": "Feature",
      "geometry": {
        "type": "Point",
        "coordinates": [
          30.313877,
          40.8680406
        ]
      },
      "properties": {
        "id": 1127876554,
        "osm_type": "way",
        "name": "Öz Market"
      }
    },
    {
      "type": "Feature",
      "geometry": {
        "type": "Point",
        "coordinates": [
          30.2638639,
          40.6880946
        ]
      },
      "properties": {
        "id": 1149694222,
        "osm_type": "way"
      }
    },
    {
      "type": "Feature",
      "geometry": {
        "type": "Point",
        "coordinates": [
          30.3191659,
          40.864448
        ]
      },
      "properties": {
        "id": 1158944411,
        "osm_type": "way",
        "name": "Enes Büfe",
        "opening_hours": "Mo-Su 09:00-21:00"
      }
    },
    {
      "type": "Feature",
      "geometry": {
        "type": "Point",
        "coordinates": [
          30.3205704,
          40.8626704
        ]
      },
      "properties": {
        "id": 1158944412,
        "osm_type": "way",
        "opening_hours": "Mo-Su 08:00-22:00"
      }
    },
    {
      "type": "Feature",
      "geometry": {
        "type": "Point",
        "coordinates": [
          30.4013946,
          40.8037363
        ]
      },
      "properties": {
        "id": 1234246112,
        "osm_type": "way"
      }
    }
  ]
}