{
  "type": "FeatureCollection",
  "features": [
    {
      "type": "Feature",
      "geometry": {
        "type": "Point",
        "coordinates": [
          25.9626769,
          43.8990484
        ]
      },
      "properties": {
        "id": 12774665068,
        "osm_type": "node",
        "name": "McDonald's",
        "brand": "McDonald's",
        "opening_hours": "Mo-Su 07:00-24:00",
        "operator": "McDonald's",
        "brand:wikidata": "Q38076",
        "chain": "mcdonalds"
      }
    }
  ]
}