{
  "type": "FeatureCollection",
  "features": [
    {
      "type": "Feature",
      "geometry": {
        "type": "Point",
        "coordinates": [
          -8.4296382,
          40.2075806
        ]
      },
      "properties": {
        "id": 9646682225,
        "osm_type": "node",
        "name": "Loja Coral",
        "opening_hours": "24/7",
        "vending": "drinks"
      }
    },
    {
      "type": "Feature",
      "geometry": {
        "type": "Point",
        "coordinates": [
          -8.427788,
          40.2086331
        ]
      },
      "properties": {
        "id": 9664654205,
        "osm_type": "node",
        "name": "KomeAki",
        "vending": "coffee;drinks;food;sweets;water"
      }
    },
    {
      "type": "Feature",
      "geometry": {
        "type": "Point",
        "coordinates": [
          -8.411679,
          40.2112215
        ]
      },
      "properties": {
        "id": 9767694573,
        "osm_type": "node",
        "name": "Snack O'clock",
        "vending": "coffee;drinks;food;sweets;water",
        "check_date": "2026-03-09"
      }
    },
    {
      "type": "Feature",
      "geometry": {
        "type": "Point",
        "coordinates": [
          -8.419692,
          40.2000827
        ]
      },
      "properties": {
        "id": 9800461291,
        "osm_type": "node",
        "name": "Grab & Go",
        "vending": "coffee;drinks;food;water"
      }
    },
    {
      "type": "Feature",
      "geometry": {
        "type": "Point",
        "coordinates": [
          -8.4314199,
          40.2136208
        ]
      },
      "properties": {
        "id": 9934229821,
        "osm_type": "node",
        "name": "KomeAki",
        "vending": "coffee;drinks;food;sweets;water"
      }
    },
    {
      "type": "Feature",
      "geometry": {
        "type": "Point",
        "coordinates": [
          -8.4321739,
          40.2087674
        ]
      },
      "properties": {
        "id": 10279094428,
        "osm_type": "node",
        "vending": "coffee;drinks;food;sweets;water"
      }
    },
    {
      "type": "Feature",
      "geometry": {
        "type": "Point",
        "coordinates": [
          -8.4306585,
          40.2097075
        ]
      },
      "properties": {
        "id": 10720294267,
        "osm_type": "node",
        "name": "KomeAki",
        "vending": "coffee;drinks;food;sweets;water"
      }
    },
    {
      "type": "Feature",
      "geometry": {
        "type": "Point",
        "coordinates": [
          -8.196863,
          40.156908
        ]
      },
      "properties": {
        "id": 12139543245,
        "osm_type": "node",
        "vending": "drinks",
        "check_date": "2024-08-24"
      }
    }
  ]
}