{
  "type": "FeatureCollection",
  "features": [
    {
      "type": "Feature",
      "geometry": {
        "type": "Point",
        "coordinates": [
          24.0189196,
          35.5182757
        ]
      },
      "properties": {
        "id": 250689752,
        "osm_type": "node"
      }
    },
    {
      "type": "Feature",
      "geometry": {
        "type": "Point",
        "coordinates": [
          23.5670845,
          35.4775141
        ]
      },
      "properties": {
        "id": 302062486,
        "osm_type": "node"
      }
    },
    {
      "type": "Feature",
      "geometry": {
        "type": "Point",
        "coordinates": [
          23.6374998,
          35.518313
        ]
      },
      "properties": {
        "id": 304076830,
        "osm_type": "node"
      }
    },
    {
      "type": "Feature",
      "geometry": {
        "type": "Point",
        "coordinates": [
          23.6821126,
          35.4110189
        ]
      },
      "properties": {
        "id": 304556535,
        "osm_type": "node"
      }
    },
    {
      "type": "Feature",
      "geometry": {
        "type": "Point",
        "coordinates": [
          23.6398269,
          35.5052382
        ]
      },
      "properties": {
        "id": 304588412,
        "osm_type": "node"
      }
    },
    {
      "type": "Feature",
      "geometry": {
        "type": "Point",
        "coordinates": [
          23.7346761,
          35.4357221
        ]
      },
      "properties": {
        "id": 305077471,
        "osm_type": "node"
      }
    },
    {
      "type": "Feature",
      "geometry": {
        "type": "Point",
        "coordinates": [
          23.6797609,
          35.2306836
        ]
      },
      "properties": {
        "id": 340226574,
        "osm_type": "node",
        "access": "yes"
      }
    },
    {
      "type": "Feature",
      "geometry": {
        "type": "Point",
        "coordinates": [
          25.7399946,
          35.007641
        ]
      },
      "properties": {
        "id": 684182032,
        "osm_type": "node"
      }
    },
    {
      "type": "Feature",
      "geometry": {
        "type": "Point",
        "coordinates": [
          23.5424588,
          35.2716454
        ]
      },
      "properties": {
        "id": 794795796,
        "osm_type": "node",
        "access": "yes"
      }
    },
    {
      "type": "Feature",
      "geometry": {
        "type": "Point",
        "coordinates": [
          23.5337958,
          35.3108703
        ]
      },
      "properties": {
        "id": 959833513,
        "osm_type": "node"
      }
    },
    {
      "type": "Feature",
      "geometry": {
        "type": "Point",
        "coordinates": [
          25.4918589,
          35.2928861
        ]
      },
      "properties": {
        "id": 981478825,
        "osm_type": "node"
      }
    },
    {
      "type": "Feature",
      "geometry": {
        "type": "Point",
        "coordinates": [
          25.6443602,
          35.1572439
        ]
      },
      "properties": {
        "id": 1004220959,
        "osm_type": "node"
      }
    },
    {
      "type": "Feature",
      "geometry": {
        "type": "Point",
        "coordinates": [
          25.2205173,
          35.2378952
        ]
      },
      "properties": {
        "id": 1152780816,
        "osm_type": "node"
      }
    },
    {
      "type": "Feature",
      "geometry": {
        "type": "Point",
        "coordinates": [
          23.7210323,
          35.23833
        ]
      },
      "properties": {
        "id": 1270318756,
        "osm_type": "node"
      }
    },
    {
      "type": "Feature",
      "geometry": {
        "type": "Point",
        "coordinates": [
          24.1343943,
          35.5609029
        ]
      },
      "properties": {
        "id": 1270340698,
        "osm_type": "node",
        "access": "yes"
      }
    },
    {
      "type": "Feature",
      "geometry": {
        "type": "Point",
        "coordinates": [
          24.6283552,
          35.3101546
        ]
      },
      "properties": {
        "id": 1285430685,
        "osm_type": "node",
        "access": "yes"
      }
    },
    {
      "type": "Feature",
      "geometry": {
        "type": "Point",
        "coordinates": [
          24.4719612,
          35.3715417
        ]
      },
      "properties": {
        "id": 1476957552,
        "osm_type": "node"
      }
    },
    {
      "type": "Feature",
      "geometry": {
        "type": "Point",
        "coordinates": [
          24.0679551,
          35.531289
        ]
      },
      "properties": {
        "id": 1679541493,
        "osm_type": "node"
      }
    },
    {
      "type": "Feature",
      "geometry": {
        "type": "Point",
        "coordinates": [
          24.0683202,
          35.5327776
        ]
      },
      "properties": {
        "id": 1679542947,
        "osm_type": "node"
      }
    },
    {
      "type": "Feature",
      "geometry": {
        "type": "Point",
        "coordinates": [
          24.0689425,
          35.5327907
        ]
      },
      "properties": {
        "id": 1679543582,
        "osm_type": "node"
      }
    },
    {
      "type": "Feature",
      "geometry": {
        "type": "Point",
        "coordinates": [
          24.0697039,
          35.5317561
        ]
      },
      "properties": {
        "id": 1679614020,
        "osm_type": "node"
      }
    },
    {
      "type": "Feature",
      "geometry": {
        "type": "Point",
        "coordinates": [
          24.0699507,
          35.531516
        ]
      },
      "properties": {
        "id": 1679614050,
        "osm_type": "node"
      }
    },
    {
      "type": "Feature",
      "geometry": {
        "type": "Point",
        "coordinates": [
          24.1725512,
          35.453383
        ]
      },
      "properties": {
        "id": 1826450180,
        "osm_type": "node"
      }
    },
    {
      "type": "Feature",
      "geometry": {
        "type": "Point",
        "coordinates": [
          24.1790931,
          35.4521419
        ]
      },
      "properties": {
        "id": 1826469552,
        "osm_type": "node"
      }
    },
    {
      "type": "Feature",
      "geometry": {
        "type": "Point",
        "coordinates": [
          25.7090393,
          35.1773642
        ]
      },
      "properties": {
        "id": 1912990033,
        "osm_type": "node"
      }
    },
    {
      "type": "Feature",
      "geometry": {
        "type": "Point",
        "coordinates": [
          25.9559717,
          35.174021
        ]
      },
      "properties": {
        "id": 1913919895,
        "osm_type": "node"
      }
    },
    {
      "type": "Feature",
      "geometry": {
        "type": "Point",
        "coordinates": [
          24.4689471,
          35.3715052
        ]
      },
      "properties": {
        "id": 1923877048,
        "osm_type": "node"
      }
    },
    {
      "type": "Feature",
      "geometry": {
        "type": "Point",
        "coordinates": [
          26.052102,
          35.0205127
        ]
      },
      "properties": {
        "id": 2322255192,
        "osm_type": "node"
      }
    },
    {
      "type": "Feature",
      "geometry": {
        "type": "Point",
        "coordinates": [
          25.8372568,
          35.011255
        ]
      },
      "properties": {
        "id": 2324631254,
        "osm_type": "node"
      }
    },
    {
      "type": "Feature",
      "geometry": {
        "type": "Point",
        "coordinates": [
          25.7302893,
          35.2581871
        ]
      },
      "properties": {
        "id": 2358844836,
        "osm_type": "node"
      }
    },
    {
      "type": "Feature",
      "geometry": {
        "type": "Point",
        "coordinates": [
          25.7219143,
          35.2638626
        ]
      },
      "properties": {
        "id": 2358844837,
        "osm_type": "node"
      }
    },
    {
      "type": "Feature",
      "geometry": {
        "type": "Point",
        "coordinates": [
          24.813443,
          35.0519379
        ]
      },
      "properties": {
        "id": 2390298103,
        "osm_type": "node"
      }
    },
    {
      "type": "Feature",
      "geometry": {
        "type": "Point",
        "coordinates": [
          24.3307566,
          35.2878187
        ]
      },
      "properties": {
        "id": 2418772625,
        "osm_type": "node"
      }
    },
    {
      "type": "Feature",
      "geometry": {
        "type": "Point",
        "coordinates": [
          24.1398996,
          35.5398164
        ]
      },
      "properties": {
        "id": 2425454109,
        "osm_type": "node"
      }
    },
    {
      "type": "Feature",
      "geometry": {
        "type": "Point",
        "coordinates": [
          24.0138805,
          35.5188317
        ]
      },
      "properties": {
        "id": 2467981867,
        "osm_type": "node",
        "access": "yes"
      }
    },
    {
      "type": "Feature",
      "geometry": {
        "type": "Point",
        "coordinates": [
          24.1373206,
          35.2010949
        ]
      },
      "properties": {
        "id": 2505045770,
        "osm_type": "node"
      }
    },
    {
      "type": "Feature",
      "geometry": {
        "type": "Point",
        "coordinates": [
          25.133898,
          35.3430557
        ]
      },
      "properties": {
        "id": 2819464286,
        "osm_type": "node"
      }
    },
    {
      "type": "Feature",
      "geometry": {
        "type": "Point",
        "coordinates": [
          23.8362113,
          35.3074731
        ]
      },
      "properties": {
        "id": 2869096787,
        "osm_type": "node"
      }
    },
    {
      "type": "Feature",
      "geometry": {
        "type": "Point",
        "coordinates": [
          25.3576064,
          35.3366065
        ]
      },
      "properties": {
        "id": 2904111157,
        "osm_type": "node"
      }
    },
    {
      "type": "Feature",
      "geometry": {
        "type": "Point",
        "coordinates": [
          25.3584911,
          35.3369232
        ]
      },
      "properties": {
        "id": 2904111166,
        "osm_type": "node"
      }
    },
    {
      "type": "Feature",
      "geometry": {
        "type": "Point",
        "coordinates": [
          24.8392001,
          35.2984292
        ]
      },
      "properties": {
        "id": 2943426934,
        "osm_type": "node"
      }
    },
    {
      "type": "Feature",
      "geometry": {
        "type": "Point",
        "coordinates": [
          24.0175527,
          35.5131205
        ]
      },
      "properties": {
        "id": 2967780415,
        "osm_type": "node"
      }
    },
    {
      "type": "Feature",
      "geometry": {
        "type": "Point",
        "coordinates": [
          24.6880831,
          35.0957379
        ]
      },
      "properties": {
        "id": 2984723657,
        "osm_type": "node"
      }
    },
    {
      "type": "Feature",
      "geometry": {
        "type": "Point",
        "coordinates": [
          24.8703942,
          35.0501227
        ]
      },
      "properties": {
        "id": 2986003340,
        "osm_type": "node"
      }
    },
    {
      "type": "Feature",
      "geometry": {
        "type": "Point",
        "coordinates": [
          25.1334811,
          35.3401979
        ]
      },
      "properties": {
        "id": 2997998436,
        "osm_type": "node"
      }
    },
    {
      "type": "Feature",
      "geometry": {
        "type": "Point",
        "coordinates": [
          24.0671374,
          35.5278995
        ]
      },
      "properties": {
        "id": 3114522072,
        "osm_type": "node"
      }
    },
    {
      "type": "Feature",
      "geometry": {
        "type": "Point",
        "coordinates": [
          23.7221732,
          35.2698198
        ]
      },
      "properties": {
        "id": 3116311645,
        "osm_type": "node"
      }
    },
    {
      "type": "Feature",
      "geometry": {
        "type": "Point",
        "coordinates": [
          25.4204082,
          35.30518
        ]
      },
      "properties": {
        "id": 3116711511,
        "osm_type": "node",
        "access": "yes"
      }
    },
    {
      "type": "Feature",
      "geometry": {
        "type": "Point",
        "coordinates": [
          25.738619,
          35.2961322
        ]
      },
      "properties": {
        "id": 3164157058,
        "osm_type": "node"
      }
    },
    {
      "type": "Feature",
      "geometry": {
        "type": "Point",
        "coordinates": [
          24.1407896,
          35.5399226
        ]
      },
      "properties": {
        "id": 3541822496,
        "osm_type": "node"
      }
    },
    {
      "type": "Feature",
      "geometry": {
        "type": "Point",
        "coordinates": [
          23.9635744,
          35.2292463
        ]
      },
      "properties": {
        "id": 3554940719,
        "osm_type": "node",
        "access": "yes"
      }
    },
    {
      "type": "Feature",
      "geometry": {
        "type": "Point",
        "coordinates": [
          23.7770769,
          35.5504752
        ]
      },
      "properties": {
        "id": 3581085397,
        "osm_type": "node"
      }
    },
    {
      "type": "Feature",
      "geometry": {
        "type": "Point",
        "coordinates": [
          24.017512,
          35.5160814
        ]
      },
      "properties": {
        "id": 3605345383,
        "osm_type": "node",
        "access": "yes"
      }
    },
    {
      "type": "Feature",
      "geometry": {
        "type": "Point",
        "coordinates": [
          23.9393064,
          35.5162105
        ]
      },
      "properties": {
        "id": 3676036181,
        "osm_type": "node",
        "access": "customers"
      }
    },
    {
      "type": "Feature",
      "geometry": {
        "type": "Point",
        "coordinates": [
          24.2798674,
          35.3326793
        ]
      },
      "properties": {
        "id": 3683843611,
        "osm_type": "node",
        "access": "customers"
      }
    },
    {
      "type": "Feature",
      "geometry": {
        "type": "Point",
        "coordinates": [
          25.3573507,
          35.2945631
        ]
      },
      "properties": {
        "id": 3683881086,
        "osm_type": "node",
        "access": "customers"
      }
    },
    {
      "type": "Feature",
      "geometry": {
        "type": "Point",
        "coordinates": [
          23.8392668,
          35.3141001
        ]
      },
      "properties": {
        "id": 3762467156,
        "osm_type": "node"
      }
    },
    {
      "type": "Feature",
      "geometry": {
        "type": "Point",
        "coordinates": [
          24.5348362,
          35.2173963
        ]
      },
      "properties": {
        "id": 3765120275,
        "osm_type": "node"
      }
    },
    {
      "type": "Feature",
      "geometry": {
        "type": "Point",
        "coordinates": [
          25.3813306,
          35.3370766
        ]
      },
      "properties": {
        "id": 3810082416,
        "osm_type": "node",
        "access": "customers"
      }
    },
    {
      "type": "Feature",
      "geometry": {
        "type": "Point",
        "coordinates": [
          25.1613443,
          35.2985675
        ]
      },
      "properties": {
        "id": 3824464563,
        "osm_type": "node"
      }
    },
    {
      "type": "Feature",
      "geometry": {
        "type": "Point",
        "coordinates": [
          23.6374337,
          35.3617116
        ]
      },
      "properties": {
        "id": 4184151192,
        "osm_type": "node"
      }
    },
    {
      "type": "Feature",
      "geometry": {
        "type": "Point",
        "coordinates": [
          24.1622106,
          35.5529395
        ]
      },
      "properties": {
        "id": 4207895146,
        "osm_type": "node"
      }
    },
    {
      "type": "Feature",
      "geometry": {
        "type": "Point",
        "coordinates": [
          25.1275557,
          35.3349542
        ]
      },
      "properties": {
        "id": 4363729942,
        "osm_type": "node"
      }
    },
    {
      "type": "Feature",
      "geometry": {
        "type": "Point",
        "coordinates": [
          25.4189135,
          35.3011088
        ]
      },
      "properties": {
        "id": 4411409067,
        "osm_type": "node",
        "access": "customers"
      }
    },
    {
      "type": "Feature",
      "geometry": {
        "type": "Point",
        "coordinates": [
          25.4192505,
          35.3017614
        ]
      },
      "properties": {
        "id": 4411409071,
        "osm_type": "node",
        "access": "customers"
      }
    },
    {
      "type": "Feature",
      "geometry": {
        "type": "Point",
        "coordinates": [
          24.6481571,
          35.4159049
        ]
      },
      "properties": {
        "id": 4416568090,
        "osm_type": "node",
        "access": "customers"
      }
    },
    {
      "type": "Feature",
      "geometry": {
        "type": "Point",
        "coordinates": [
          24.6487719,
          35.4158231
        ]
      },
      "properties": {
        "id": 4417145644,
        "osm_type": "node"
      }
    },
    {
      "type": "Feature",
      "geometry": {
        "type": "Point",
        "coordinates": [
          24.6476964,
          35.4164618
        ]
      },
      "properties": {
        "id": 4417995801,
        "osm_type": "node"
      }
    },
    {
      "type": "Feature",
      "geometry": {
        "type": "Point",
        "coordinates": [
          24.6481379,
          35.4170657
        ]
      },
      "properties": {
        "id": 4420594709,
        "osm_type": "node",
        "access": "customers"
      }
    },
    {
      "type": "Feature",
      "geometry": {
        "type": "Point",
        "coordinates": [
          24.6483149,
          35.4174515
        ]
      },
      "properties": {
        "id": 4420594717,
        "osm_type": "node",
        "access": "customers"
      }
    },
    {
      "type": "Feature",
      "geometry": {
        "type": "Point",
        "coordinates": [
          26.1082836,
          35.2061119
        ]
      },
      "properties": {
        "id": 4422548967,
        "osm_type": "node"
      }
    },
    {
      "type": "Feature",
      "geometry": {
        "type": "Point",
        "coordinates": [
          24.6483582,
          35.4183625
        ]
      },
      "properties": {
        "id": 4424144731,
        "osm_type": "node"
      }
    },
    {
      "type": "Feature",
      "geometry": {
        "type": "Point",
        "coordinates": [
          23.9833901,
          35.5137933
        ]
      },
      "properties": {
        "id": 4429763904,
        "osm_type": "node"
      }
    },
    {
      "type": "Feature",
      "geometry": {
        "type": "Point",
        "coordinates": [
          24.6387896,
          35.4094178
        ]
      },
      "properties": {
        "id": 4450401393,
        "osm_type": "node",
        "access": "yes"
      }
    },
    {
      "type": "Feature",
      "geometry": {
        "type": "Point",
        "coordinates": [
          25.7166002,
          35.1898442
        ]
      },
      "properties": {
        "id": 4453490779,
        "osm_type": "node",
        "access": "yes"
      }
    },
    {
      "type": "Feature",
      "geometry": {
        "type": "Point",
        "coordinates": [
          24.0619066,
          35.2231126
        ]
      },
      "properties": {
        "id": 4469463521,
        "osm_type": "node"
      }
    },
    {
      "type": "Feature",
      "geometry": {
        "type": "Point",
        "coordinates": [
          24.7607007,
          35.0115565
        ]
      },
      "properties": {
        "id": 4756266825,
        "osm_type": "node"
      }
    },
    {
      "type": "Feature",
      "geometry": {
        "type": "Point",
        "coordinates": [
          24.1758986,
          35.4517404
        ]
      },
      "properties": {
        "id": 4770212723,
        "osm_type": "node"
      }
    },
    {
      "type": "Feature",
      "geometry": {
        "type": "Point",
        "coordinates": [
          24.5049361,
          35.3372019
        ]
      },
      "properties": {
        "id": 4911220922,
        "osm_type": "node"
      }
    },
    {
      "type": "Feature",
      "geometry": {
        "type": "Point",
        "coordinates": [
          25.044024,
          35.3903345
        ]
      },
      "properties": {
        "id": 5091959228,
        "osm_type": "node",
        "access": "key"
      }
    },
    {
      "type": "Feature",
      "geometry": {
        "type": "Point",
        "coordinates": [
          24.6924053,
          35.0982082
        ]
      },
      "properties": {
        "id": 5111476344,
        "osm_type": "node"
      }
    },
    {
      "type": "Feature",
      "geometry": {
        "type": "Point",
        "coordinates": [
          25.3010177,
          35.3348192
        ]
      },
      "properties": {
        "id": 5121349622,
        "osm_type": "node"
      }
    },
    {
      "type": "Feature",
      "geometry": {
        "type": "Point",
        "coordinates": [
          25.1392428,
          35.3467786
        ]
      },
      "properties": {
        "id": 5126751032,
        "osm_type": "node",
        "opening_hours": "24/7"
      }
    },
    {
      "type": "Feature",
      "geometry": {
        "type": "Point",
        "coordinates": [
          24.4831446,
          35.3669143
        ]
      },
      "properties": {
        "id": 5140013865,
        "osm_type": "node"
      }
    },
    {
      "type": "Feature",
      "geometry": {
        "type": "Point",
        "coordinates": [
          24.474063,
          35.3666565
        ]
      },
      "properties": {
        "id": 5140281821,
        "osm_type": "node"
      }
    },
    {
      "type": "Feature",
      "geometry": {
        "type": "Point",
        "coordinates": [
          25.3408105,
          35.3105288
        ]
      },
      "properties": {
        "id": 5140920890,
        "osm_type": "node"
      }
    },
    {
      "type": "Feature",
      "geometry": {
        "type": "Point",
        "coordinates": [
          25.3506241,
          35.2855486
        ]
      },
      "properties": {
        "id": 5141641874,
        "osm_type": "node"
      }
    },
    {
      "type": "Feature",
      "geometry": {
        "type": "Point",
        "coordinates": [
          24.6513497,
          35.2266556
        ]
      },
      "properties": {
        "id": 5180563622,
        "osm_type": "node"
      }
    },
    {
      "type": "Feature",
      "geometry": {
        "type": "Point",
        "coordinates": [
          25.3162989,
          35.3347185
        ]
      },
      "properties": {
        "id": 5186695314,
        "osm_type": "node"
      }
    },
    {
      "type": "Feature",
      "geometry": {
        "type": "Point",
        "coordinates": [
          25.721205,
          35.1916639
        ]
      },
      "properties": {
        "id": 5196071822,
        "osm_type": "node",
        "access": "yes"
      }
    },
    {
      "type": "Feature",
      "geometry": {
        "type": "Point",
        "coordinates": [
          23.9885545,
          35.5137971
        ]
      },
      "properties": {
        "id": 5200384321,
        "osm_type": "node",
        "access": "yes"
      }
    },
    {
      "type": "Feature",
      "geometry": {
        "type": "Point",
        "coordinates": [
          23.720074,
          35.2372548
        ]
      },
      "properties": {
        "id": 5261527136,
        "osm_type": "node",
        "access": "yes"
      }
    },
    {
      "type": "Feature",
      "geometry": {
        "type": "Point",
        "coordinates": [
          25.3573804,
          35.3364787
        ]
      },
      "properties": {
        "id": 5318281257,
        "osm_type": "node",
        "access": "customers"
      }
    },
    {
      "type": "Feature",
      "geometry": {
        "type": "Point",
        "coordinates": [
          25.3584341,
          35.334809
        ]
      },
      "properties": {
        "id": 5370161269,
        "osm_type": "node"
      }
    },
    {
      "type": "Feature",
      "geometry": {
        "type": "Point",
        "coordinates": [
          25.4875969,
          35.1617134
        ]
      },
      "properties": {
        "id": 5597840222,
        "osm_type": "node",
        "opening_hours": "Mo-Su 09:00-18:00"
      }
    },
    {
      "type": "Feature",
      "geometry": {
        "type": "Point",
        "coordinates": [
          25.7129582,
          35.2178925
        ]
      },
      "properties": {
        "id": 5827920837,
        "osm_type": "node"
      }
    },
    {
      "type": "Feature",
      "geometry": {
        "type": "Point",
        "coordinates": [
          26.2606207,
          35.0970717
        ]
      },
      "properties": {
        "id": 5844126884,
        "osm_type": "node"
      }
    },
    {
      "type": "Feature",
      "geometry": {
        "type": "Point",
        "coordinates": [
          25.2005273,
          35.3314492
        ]
      },
      "properties": {
        "id": 5916381696,
        "osm_type": "node"
      }
    },
    {
      "type": "Feature",
      "geometry": {
        "type": "Point",
        "coordinates": [
          25.4234682,
          35.2631318
        ]
      },
      "properties": {
        "id": 5932698486,
        "osm_type": "node"
      }
    },
    {
      "type": "Feature",
      "geometry": {
        "type": "Point",
        "coordinates": [
          25.3885154,
          35.3237039
        ]
      },
      "properties": {
        "id": 6002470231,
        "osm_type": "node"
      }
    },
    {
      "type": "Feature",
      "geometry": {
        "type": "Point",
        "coordinates": [
          25.6559129,
          35.1562777
        ]
      },
      "properties": {
        "id": 6047090152,
        "osm_type": "node"
      }
    },
    {
      "type": "Feature",
      "geometry": {
        "type": "Point",
        "coordinates": [
          25.4224453,
          35.3034282
        ]
      },
      "properties": {
        "id": 6467645146,
        "osm_type": "node",
        "access": "guests"
      }
    },
    {
      "type": "Feature",
      "geometry": {
        "type": "Point",
        "coordinates": [
          25.4217199,
          35.3046968
        ]
      },
      "properties": {
        "id": 6467645148,
        "osm_type": "node"
      }
    },
    {
      "type": "Feature",
      "geometry": {
        "type": "Point",
        "coordinates": [
          25.4233709,
          35.3030502
        ]
      },
      "properties": {
        "id": 6467645522,
        "osm_type": "node"
      }
    },
    {
      "type": "Feature",
      "geometry": {
        "type": "Point",
        "coordinates": [
          26.1095158,
          35.2107477
        ]
      },
      "properties": {
        "id": 6537252143,
        "osm_type": "node"
      }
    },
    {
      "type": "Feature",
      "geometry": {
        "type": "Point",
        "coordinates": [
          24.0229895,
          35.5119349
        ]
      },
      "properties": {
        "id": 6594248901,
        "osm_type": "node"
      }
    },
    {
      "type": "Feature",
      "geometry": {
        "type": "Point",
        "coordinates": [
          25.3508127,
          35.3358862
        ]
      },
      "properties": {
        "id": 6749938406,
        "osm_type": "node"
      }
    },
    {
      "type": "Feature",
      "geometry": {
        "type": "Point",
        "coordinates": [
          25.3524461,
          35.3364343
        ]
      },
      "properties": {
        "id": 6749938407,
        "osm_type": "node"
      }
    },
    {
      "type": "Feature",
      "geometry": {
        "type": "Point",
        "coordinates": [
          25.3520116,
          35.3362155
        ]
      },
      "properties": {
        "id": 6749938408,
        "osm_type": "node"
      }
    },
    {
      "type": "Feature",
      "geometry": {
        "type": "Point",
        "coordinates": [
          25.1730653,
          35.3370636
        ]
      },
      "properties": {
        "id": 6780438430,
        "osm_type": "node",
        "access": "yes"
      }
    },
    {
      "type": "Feature",
      "geometry": {
        "type": "Point",
        "coordinates": [
          25.3715971,
          35.3322965
        ]
      },
      "properties": {
        "id": 6787477589,
        "osm_type": "node",
        "access": "customers"
      }
    },
    {
      "type": "Feature",
      "geometry": {
        "type": "Point",
        "coordinates": [
          25.3782984,
          35.3378119
        ]
      },
      "properties": {
        "id": 6788427887,
        "osm_type": "node"
      }
    },
    {
      "type": "Feature",
      "geometry": {
        "type": "Point",
        "coordinates": [
          23.729936,
          35.420475
        ]
      },
      "properties": {
        "id": 6805091913,
        "osm_type": "node"
      }
    },
    {
      "type": "Feature",
      "geometry": {
        "type": "Point",
        "coordinates": [
          24.1457028,
          35.4073941
        ]
      },
      "properties": {
        "id": 6813949810,
        "osm_type": "node",
        "access": "customers"
      }
    },
    {
      "type": "Feature",
      "geometry": {
        "type": "Point",
        "coordinates": [
          24.4734524,
          35.3676932
        ]
      },
      "properties": {
        "id": 6822105185,
        "osm_type": "node"
      }
    },
    {
      "type": "Feature",
      "geometry": {
        "type": "Point",
        "coordinates": [
          25.1320812,
          35.3391567
        ]
      },
      "properties": {
        "id": 6855040685,
        "osm_type": "node"
      }
    },
    {
      "type": "Feature",
      "geometry": {
        "type": "Point",
        "coordinates": [
          24.4686462,
          35.3665004
        ]
      },
      "properties": {
        "id": 6855473184,
        "osm_type": "node"
      }
    },
    {
      "type": "Feature",
      "geometry": {
        "type": "Point",
        "coordinates": [
          24.260663,
          35.3618058
        ]
      },
      "properties": {
        "id": 6855639486,
        "osm_type": "node"
      }
    },
    {
      "type": "Feature",
      "geometry": {
        "type": "Point",
        "coordinates": [
          24.4565577,
          35.1576186
        ]
      },
      "properties": {
        "id": 6897681535,
        "osm_type": "node"
      }
    },
    {
      "type": "Feature",
      "geometry": {
        "type": "Point",
        "coordinates": [
          24.5681773,
          35.3783636
        ]
      },
      "properties": {
        "id": 6904959458,
        "osm_type": "node"
      }
    },
    {
      "type": "Feature",
      "geometry": {
        "type": "Point",
        "coordinates": [
          24.1059775,
          35.2009024
        ]
      },
      "properties": {
        "id": 6910309046,
        "osm_type": "node",
        "access": "yes"
      }
    },
    {
      "type": "Feature",
      "geometry": {
        "type": "Point",
        "coordinates": [
          26.1143706,
          35.1976378
        ]
      },
      "properties": {
        "id": 7042072356,
        "osm_type": "node"
      }
    },
    {
      "type": "Feature",
      "geometry": {
        "type": "Point",
        "coordinates": [
          25.2644061,
          35.3318584
        ]
      },
      "properties": {
        "id": 7151285720,
        "osm_type": "node"
      }
    },
    {
      "type": "Feature",
      "geometry": {
        "type": "Point",
        "coordinates": [
          25.2632581,
          35.3314493
        ]
      },
      "properties": {
        "id": 7151285725,
        "osm_type": "node"
      }
    },
    {
      "type": "Feature",
      "geometry": {
        "type": "Point",
        "coordinates": [
          25.13336,
          35.3364616
        ]
      },
      "properties": {
        "id": 7253224469,
        "osm_type": "node",
        "access": "yes"
      }
    },
    {
      "type": "Feature",
      "geometry": {
        "type": "Point",
        "coordinates": [
          23.9900458,
          35.5114904
        ]
      },
      "properties": {
        "id": 7731095777,
        "osm_type": "node",
        "access": "yes"
      }
    },
    {
      "type": "Feature",
      "geometry": {
        "type": "Point",
        "coordinates": [
          24.9144842,
          35.164507
        ]
      },
      "properties": {
        "id": 7882130317,
        "osm_type": "node",
        "access": "yes"
      }
    },
    {
      "type": "Feature",
      "geometry": {
        "type": "Point",
        "coordinates": [
          24.7936136,
          35.0591339
        ]
      },
      "properties": {
        "id": 8118879662,
        "osm_type": "node"
      }
    },
    {
      "type": "Feature",
      "geometry": {
        "type": "Point",
        "coordinates": [
          24.0181243,
          35.2308241
        ]
      },
      "properties": {
        "id": 8182715312,
        "osm_type": "node"
      }
    },
    {
      "type": "Feature",
      "geometry": {
        "type": "Point",
        "coordinates": [
          25.4859322,
          35.2959661
        ]
      },
      "properties": {
        "id": 8357734417,
        "osm_type": "node"
      }
    },
    {
      "type": "Feature",
      "geometry": {
        "type": "Point",
        "coordinates": [
          26.1700479,
          35.1330423
        ]
      },
      "properties": {
        "id": 9008049163,
        "osm_type": "node"
      }
    },
    {
      "type": "Feature",
      "geometry": {
        "type": "Point",
        "coordinates": [
          25.4111688,
          35.3062869
        ]
      },
      "properties": {
        "id": 9070060751,
        "osm_type": "node"
      }
    },
    {
      "type": "Feature",
      "geometry": {
        "type": "Point",
        "coordinates": [
          24.0198287,
          35.5113383
        ]
      },
      "properties": {
        "id": 9077185348,
        "osm_type": "node"
      }
    },
    {
      "type": "Feature",
      "geometry": {
        "type": "Point",
        "coordinates": [
          24.2033297,
          35.4495691
        ]
      },
      "properties": {
        "id": 9126921317,
        "osm_type": "node"
      }
    },
    {
      "type": "Feature",
      "geometry": {
        "type": "Point",
        "coordinates": [
          24.6843784,
          35.4168171
        ]
      },
      "properties": {
        "id": 9131987060,
        "osm_type": "node",
        "access": "customers"
      }
    },
    {
      "type": "Feature",
      "geometry": {
        "type": "Point",
        "coordinates": [
          24.68616,
          35.4184656
        ]
      },
      "properties": {
        "id": 9135765522,
        "osm_type": "node",
        "access": "customers"
      }
    },
    {
      "type": "Feature",
      "geometry": {
        "type": "Point",
        "coordinates": [
          24.6847632,
          35.417239
        ]
      },
      "properties": {
        "id": 9135765523,
        "osm_type": "node",
        "access": "customers"
      }
    },
    {
      "type": "Feature",
      "geometry": {
        "type": "Point",
        "coordinates": [
          24.6871814,
          35.4185703
        ]
      },
      "properties": {
        "id": 9135765524,
        "osm_type": "node",
        "access": "customers"
      }
    },
    {
      "type": "Feature",
      "geometry": {
        "type": "Point",
        "coordinates": [
          25.1459107,
          35.3491082
        ]
      },
      "properties": {
        "id": 9282711274,
        "osm_type": "node"
      }
    },
    {
      "type": "Feature",
      "geometry": {
        "type": "Point",
        "coordinates": [
          23.6528396,
          35.497081
        ]
      },
      "properties": {
        "id": 9282711453,
        "osm_type": "node"
      }
    },
    {
      "type": "Feature",
      "geometry": {
        "type": "Point",
        "coordinates": [
          25.4228234,
          35.2633589
        ]
      },
      "properties": {
        "id": 9956722079,
        "osm_type": "node"
      }
    },
    {
      "type": "Feature",
      "geometry": {
        "type": "Point",
        "coordinates": [
          25.7169106,
          35.1870539
        ]
      },
      "properties": {
        "id": 10024541617,
        "osm_type": "node"
      }
    },
    {
      "type": "Feature",
      "geometry": {
        "type": "Point",
        "coordinates": [
          25.7119926,
          35.1821257
        ]
      },
      "properties": {
        "id": 10026396613,
        "osm_type": "node"
      }
    },
    {
      "type": "Feature",
      "geometry": {
        "type": "Point",
        "coordinates": [
          24.072226,
          35.490631
        ]
      },
      "properties": {
        "id": 10111987120,
        "osm_type": "node"
      }
    },
    {
      "type": "Feature",
      "geometry": {
        "type": "Point",
        "coordinates": [
          26.0971604,
          35.216912
        ]
      },
      "properties": {
        "id": 10688276605,
        "osm_type": "node",
        "opening_hours": "24/7"
      }
    },
    {
      "type": "Feature",
      "geometry": {
        "type": "Point",
        "coordinates": [
          26.0977132,
          35.2173915
        ]
      },
      "properties": {
        "id": 10689407205,
        "osm_type": "node",
        "opening_hours": "24/7"
      }
    },
    {
      "type": "Feature",
      "geometry": {
        "type": "Point",
        "coordinates": [
          25.7344541,
          35.126549
        ]
      },
      "properties": {
        "id": 10799100310,
        "osm_type": "node"
      }
    },
    {
      "type": "Feature",
      "geometry": {
        "type": "Point",
        "coordinates": [
          24.2770047,
          35.3350684
        ]
      },
      "properties": {
        "id": 10839465609,
        "osm_type": "node",
        "access": "yes"
      }
    },
    {
      "type": "Feature",
      "geometry": {
        "type": "Point",
        "coordinates": [
          24.0164982,
          35.5116895
        ]
      },
      "properties": {
        "id": 10845320404,
        "osm_type": "node",
        "access": "yes"
      }
    },
    {
      "type": "Feature",
      "geometry": {
        "type": "Point",
        "coordinates": [
          23.9398119,
          35.4184482
        ]
      },
      "properties": {
        "id": 10885949752,
        "osm_type": "node"
      }
    },
    {
      "type": "Feature",
      "geometry": {
        "type": "Point",
        "coordinates": [
          25.8137778,
          35.0003911
        ]
      },
      "properties": {
        "id": 10935061572,
        "osm_type": "node",
        "access": "customers"
      }
    },
    {
      "type": "Feature",
      "geometry": {
        "type": "Point",
        "coordinates": [
          25.8143321,
          35.0013696
        ]
      },
      "properties": {
        "id": 10935061582,
        "osm_type": "node",
        "access": "customers"
      }
    },
    {
      "type": "Feature",
      "geometry": {
        "type": "Point",
        "coordinates": [
          26.2718044,
          35.2161097
        ]
      },
      "properties": {
        "id": 10973985604,
        "osm_type": "node",
        "access": "yes"
      }
    },
    {
      "type": "Feature",
      "geometry": {
        "type": "Point",
        "coordinates": [
          23.6520682,
          35.4548553
        ]
      },
      "properties": {
        "id": 11080813043,
        "osm_type": "node"
      }
    },
    {
      "type": "Feature",
      "geometry": {
        "type": "Point",
        "coordinates": [
          25.1728015,
          35.3373741
        ]
      },
      "properties": {
        "id": 11099263219,
        "osm_type": "node"
      }
    },
    {
      "type": "Feature",
      "geometry": {
        "type": "Point",
        "coordinates": [
          24.0944204,
          35.5912452
        ]
      },
      "properties": {
        "id": 11178769337,
        "osm_type": "node"
      }
    },
    {
      "type": "Feature",
      "geometry": {
        "type": "Point",
        "coordinates": [
          25.2508368,
          35.3118824
        ]
      },
      "properties": {
        "id": 11246223732,
        "osm_type": "node",
        "access": "customers"
      }
    },
    {
      "type": "Feature",
      "geometry": {
        "type": "Point",
        "coordinates": [
          24.658819,
          35.4156451
        ]
      },
      "properties": {
        "id": 11291745127,
        "osm_type": "node"
      }
    },
    {
      "type": "Feature",
      "geometry": {
        "type": "Point",
        "coordinates": [
          24.6586849,
          35.4160518
        ]
      },
      "properties": {
        "id": 11291859389,
        "osm_type": "node"
      }
    },
    {
      "type": "Feature",
      "geometry": {
        "type": "Point",
        "coordinates": [
          24.6586956,
          35.4163972
        ]
      },
      "properties": {
        "id": 11291895261,
        "osm_type": "node"
      }
    },
    {
      "type": "Feature",
      "geometry": {
        "type": "Point",
        "coordinates": [
          24.6591969,
          35.4166208
        ]
      },
      "properties": {
        "id": 11293959826,
        "osm_type": "node"
      }
    },
    {
      "type": "Feature",
      "geometry": {
        "type": "Point",
        "coordinates": [
          24.6125333,
          35.3924362
        ]
      },
      "properties": {
        "id": 11294041910,
        "osm_type": "node"
      }
    },
    {
      "type": "Feature",
      "geometry": {
        "type": "Point",
        "coordinates": [
          25.2880837,
          35.3267721
        ]
      },
      "properties": {
        "id": 11303375195,
        "osm_type": "node"
      }
    },
    {
      "type": "Feature",
      "geometry": {
        "type": "Point",
        "coordinates": [
          25.387017,
          35.3246254
        ]
      },
      "properties": {
        "id": 11303448003,
        "osm_type": "node"
      }
    },
    {
      "type": "Feature",
      "geometry": {
        "type": "Point",
        "coordinates": [
          24.6280231,
          35.3107073
        ]
      },
      "properties": {
        "id": 11347224540,
        "osm_type": "node",
        "access": "yes"
      }
    },
    {
      "type": "Feature",
      "geometry": {
        "type": "Point",
        "coordinates": [
          23.5960352,
          35.2367183
        ]
      },
      "properties": {
        "id": 11355603579,
        "osm_type": "node"
      }
    },
    {
      "type": "Feature",
      "geometry": {
        "type": "Point",
        "coordinates": [
          25.3044661,
          35.3343238
        ]
      },
      "properties": {
        "id": 11576583075,
        "osm_type": "node"
      }
    },
    {
      "type": "Feature",
      "geometry": {
        "type": "Point",
        "coordinates": [
          23.5415528,
          35.272395
        ]
      },
      "properties": {
        "id": 11850240669,
        "osm_type": "node"
      }
    },
    {
      "type": "Feature",
      "geometry": {
        "type": "Point",
        "coordinates": [
          23.6525443,
          35.4946519
        ]
      },
      "properties": {
        "id": 11873494746,
        "osm_type": "node"
      }
    },
    {
      "type": "Feature",
      "geometry": {
        "type": "Point",
        "coordinates": [
          23.9062488,
          35.5167074
        ]
      },
      "properties": {
        "id": 11913886662,
        "osm_type": "node"
      }
    },
    {
      "type": "Feature",
      "geometry": {
        "type": "Point",
        "coordinates": [
          25.5788389,
          35.0476058
        ]
      },
      "properties": {
        "id": 11918224179,
        "osm_type": "node",
        "access": "customers"
      }
    },
    {
      "type": "Feature",
      "geometry": {
        "type": "Point",
        "coordinates": [
          24.5184433,
          35.3697734
        ]
      },
      "properties": {
        "id": 11985667789,
        "osm_type": "node",
        "access": "customers"
      }
    },
    {
      "type": "Feature",
      "geometry": {
        "type": "Point",
        "coordinates": [
          25.8350325,
          35.0107751
        ]
      },
      "properties": {
        "id": 11991749227,
        "osm_type": "node",
        "access": "customers"
      }
    },
    {
      "type": "Feature",
      "geometry": {
        "type": "Point",
        "coordinates": [
          25.834598,
          35.0108547
        ]
      },
      "properties": {
        "id": 11991749228,
        "osm_type": "node",
        "access": "customers"
      }
    },
    {
      "type": "Feature",
      "geometry": {
        "type": "Point",
        "coordinates": [
          25.8346812,
          35.0118636
        ]
      },
      "properties": {
        "id": 11991749233,
        "osm_type": "node",
        "access": "customers"
      }
    },
    {
      "type": "Feature",
      "geometry": {
        "type": "Point",
        "coordinates": [
          25.8350433,
          35.0104184
        ]
      },
      "properties": {
        "id": 11991889130,
        "osm_type": "node",
        "access": "customers"
      }
    },
    {
      "type": "Feature",
      "geometry": {
        "type": "Point",
        "coordinates": [
          25.3520094,
          35.3353518
        ]
      },
      "properties": {
        "id": 11998831662,
        "osm_type": "node",
        "access": "customers"
      }
    },
    {
      "type": "Feature",
      "geometry": {
        "type": "Point",
        "coordinates": [
          25.352424,
          35.3350119
        ]
      },
      "properties": {
        "id": 11998831666,
        "osm_type": "node",
        "access": "customers"
      }
    },
    {
      "type": "Feature",
      "geometry": {
        "type": "Point",
        "coordinates": [
          25.3505198,
          35.3351238
        ]
      },
      "properties": {
        "id": 11998845070,
        "osm_type": "node",
        "access": "customers"
      }
    },
    {
      "type": "Feature",
      "geometry": {
        "type": "Point",
        "coordinates": [
          25.3508265,
          35.3342815
        ]
      },
      "properties": {
        "id": 11999176931,
        "osm_type": "node",
        "access": "customers"
      }
    },
    {
      "type": "Feature",
      "geometry": {
        "type": "Point",
        "coordinates": [
          25.3519644,
          35.3348278
        ]
      },
      "properties": {
        "id": 12000323280,
        "osm_type": "node",
        "access": "customers"
      }
    },
    {
      "type": "Feature",
      "geometry": {
        "type": "Point",
        "coordinates": [
          25.352171,
          35.3344063
        ]
      },
      "properties": {
        "id": 12003256402,
        "osm_type": "node",
        "access": "customers"
      }
    },
    {
      "type": "Feature",
      "geometry": {
        "type": "Point",
        "coordinates": [
          25.3521629,
          35.3339373
        ]
      },
      "properties": {
        "id": 12009383168,
        "osm_type": "node",
        "access": "customers"
      }
    },
    {
      "type": "Feature",
      "geometry": {
        "type": "Point",
        "coordinates": [
          25.1725673,
          35.3369376
        ]
      },
      "properties": {
        "id": 12066036850,
        "osm_type": "node"
      }
    },
    {
      "type": "Feature",
      "geometry": {
        "type": "Point",
        "coordinates": [
          25.3781063,
          35.3375624
        ]
      },
      "properties": {
        "id": 12164116965,
        "osm_type": "node",
        "access": "permit"
      }
    },
    {
      "type": "Feature",
      "geometry": {
        "type": "Point",
        "coordinates": [
          25.3920819,
          35.3227569
        ]
      },
      "properties": {
        "id": 12164152123,
        "osm_type": "node",
        "access": "yes"
      }
    },
    {
      "type": "Feature",
      "geometry": {
        "type": "Point",
        "coordinates": [
          24.1393852,
          35.540041
        ]
      },
      "properties": {
        "id": 12176463539,
        "osm_type": "node"
      }
    },
    {
      "type": "Feature",
      "geometry": {
        "type": "Point",
        "coordinates": [
          23.8256396,
          35.4870662
        ]
      },
      "properties": {
        "id": 12248134613,
        "osm_type": "node"
      }
    },
    {
      "type": "Feature",
      "geometry": {
        "type": "Point",
        "coordinates": [
          23.8487492,
          35.5225854
        ]
      },
      "properties": {
        "id": 12248134614,
        "osm_type": "node"
      }
    },
    {
      "type": "Feature",
      "geometry": {
        "type": "Point",
        "coordinates": [
          24.0177993,
          35.5150452
        ]
      },
      "properties": {
        "id": 12250190873,
        "osm_type": "node"
      }
    },
    {
      "type": "Feature",
      "geometry": {
        "type": "Point",
        "coordinates": [
          25.3958655,
          35.3041961
        ]
      },
      "properties": {
        "id": 12783393159,
        "osm_type": "node"
      }
    },
    {
      "type": "Feature",
      "geometry": {
        "type": "Point",
        "coordinates": [
          25.3949614,
          35.3038067
        ]
      },
      "properties": {
        "id": 12783393160,
        "osm_type": "node"
      }
    },
    {
      "type": "Feature",
      "geometry": {
        "type": "Point",
        "coordinates": [
          25.723725,
          35.2820163
        ]
      },
      "properties": {
        "id": 12797204863,
        "osm_type": "node"
      }
    },
    {
      "type": "Feature",
      "geometry": {
        "type": "Point",
        "coordinates": [
          24.0874228,
          35.554356
        ]
      },
      "properties": {
        "id": 13152630895,
        "osm_type": "node"
      }
    },
    {
      "type": "Feature",
      "geometry": {
        "type": "Point",
        "coordinates": [
          24.6891548,
          35.3400687
        ]
      },
      "properties": {
        "id": 13227471218,
        "osm_type": "node"
      }
    },
    {
      "type": "Feature",
      "geometry": {
        "type": "Point",
        "coordinates": [
          25.7321873,
          35.2488372
        ]
      },
      "properties": {
        "id": 13227491331,
        "osm_type": "node"
      }
    },
    {
      "type": "Feature",
      "geometry": {
        "type": "Point",
        "coordinates": [
          25.7303044,
          35.2485222
        ]
      },
      "properties": {
        "id": 13233956579,
        "osm_type": "node"
      }
    },
    {
      "type": "Feature",
      "geometry": {
        "type": "Point",
        "coordinates": [
          24.8856392,
          34.9778301
        ]
      },
      "properties": {
        "id": 13472864602,
        "osm_type": "node"
      }
    },
    {
      "type": "Feature",
      "geometry": {
        "type": "Point",
        "coordinates": [
          23.7031199,
          35.5017036
        ]
      },
      "properties": {
        "id": 47218087,
        "osm_type": "way"
      }
    },
    {
      "type": "Feature",
      "geometry": {
        "type": "Point",
        "coordinates": [
          24.0577947,
          35.1960513
        ]
      },
      "properties": {
        "id": 122224924,
        "osm_type": "way"
      }
    },
    {
      "type": "Feature",
      "geometry": {
        "type": "Point",
        "coordinates": [
          24.7289262,
          35.3844643
        ]
      },
      "properties": {
        "id": 180852005,
        "osm_type": "way"
      }
    },
    {
      "type": "Feature",
      "geometry": {
        "type": "Point",
        "coordinates": [
          26.2642218,
          35.2528848
        ]
      },
      "properties": {
        "id": 180929676,
        "osm_type": "way"
      }
    },
    {
      "type": "Feature",
      "geometry": {
        "type": "Point",
        "coordinates": [
          24.7506175,
          34.9940072
        ]
      },
      "properties": {
        "id": 292700339,
        "osm_type": "way",
        "access": "yes"
      }
    },
    {
      "type": "Feature",
      "geometry": {
        "type": "Point",
        "coordinates": [
          23.5924532,
          35.5827995
        ]
      },
      "properties": {
        "id": 296144209,
        "osm_type": "way",
        "access": "yes"
      }
    },
    {
      "type": "Feature",
      "geometry": {
        "type": "Point",
        "coordinates": [
          24.4727778,
          35.1525579
        ]
      },
      "properties": {
        "id": 356666177,
        "osm_type": "way"
      }
    },
    {
      "type": "Feature",
      "geometry": {
        "type": "Point",
        "coordinates": [
          23.9588806,
          35.2909046
        ]
      },
      "properties": {
        "id": 368006413,
        "osm_type": "way",
        "access": "customers"
      }
    },
    {
      "type": "Feature",
      "geometry": {
        "type": "Point",
        "coordinates": [
          23.9242262,
          35.3076459
        ]
      },
      "properties": {
        "id": 371931550,
        "osm_type": "way",
        "access": "customers"
      }
    },
    {
      "type": "Feature",
      "geometry": {
        "type": "Point",
        "coordinates": [
          23.9357049,
          35.3069395
        ]
      },
      "properties": {
        "id": 371934323,
        "osm_type": "way",
        "access": "customers"
      }
    },
    {
      "type": "Feature",
      "geometry": {
        "type": "Point",
        "coordinates": [
          23.9658291,
          35.245965
        ]
      },
      "properties": {
        "id": 377528300,
        "osm_type": "way",
        "access": "customers"
      }
    },
    {
      "type": "Feature",
      "geometry": {
        "type": "Point",
        "coordinates": [
          26.216363,
          35.2217597
        ]
      },
      "properties": {
        "id": 442768339,
        "osm_type": "way",
        "access": "customers"
      }
    },
    {
      "type": "Feature",
      "geometry": {
        "type": "Point",
        "coordinates": [
          23.5952568,
          35.2367221
        ]
      },
      "properties": {
        "id": 444005257,
        "osm_type": "way"
      }
    },
    {
      "type": "Feature",
      "geometry": {
        "type": "Point",
        "coordinates": [
          24.6471437,
          35.4149497
        ]
      },
      "properties": {
        "id": 444151197,
        "osm_type": "way"
      }
    },
    {
      "type": "Feature",
      "geometry": {
        "type": "Point",
        "coordinates": [
          24.7844644,
          35.4073268
        ]
      },
      "properties": {
        "id": 492824924,
        "osm_type": "way"
      }
    },
    {
      "type": "Feature",
      "geometry": {
        "type": "Point",
        "coordinates": [
          24.2865691,
          35.3543039
        ]
      },
      "properties": {
        "id": 569723310,
        "osm_type": "way"
      }
    },
    {
      "type": "Feature",
      "geometry": {
        "type": "Point",
        "coordinates": [
          25.0348172,
          35.4000762
        ]
      },
      "properties": {
        "id": 608357945,
        "osm_type": "way"
      }
    },
    {
      "type": "Feature",
      "geometry": {
        "type": "Point",
        "coordinates": [
          24.2818881,
          35.3554936
        ]
      },
      "properties": {
        "id": 631055204,
        "osm_type": "way"
      }
    },
    {
      "type": "Feature",
      "geometry": {
        "type": "Point",
        "coordinates": [
          25.1376687,
          35.3365691
        ]
      },
      "properties": {
        "id": 639768005,
        "osm_type": "way"
      }
    },
    {
      "type": "Feature",
      "geometry": {
        "type": "Point",
        "coordinates": [
          25.1415821,
          35.341694
        ]
      },
      "properties": {
        "id": 993605031,
        "osm_type": "way"
      }
    },
    {
      "type": "Feature",
      "geometry": {
        "type": "Point",
        "coordinates": [
          23.967257,
          35.2584389
        ]
      },
      "properties": {
        "id": 1083436510,
        "osm_type": "way",
        "access": "customers"
      }
    },
    {
      "type": "Feature",
      "geometry": {
        "type": "Point",
        "coordinates": [
          24.4197683,
          35.1723752
        ]
      },
      "properties": {
        "id": 1139170802,
        "osm_type": "way"
      }
    },
    {
      "type": "Feature",
      "geometry": {
        "type": "Point",
        "coordinates": [
          23.7907329,
          35.5020099
        ]
      },
      "properties": {
        "id": 1172227433,
        "osm_type": "way",
        "access": "customers"
      }
    },
    {
      "type": "Feature",
      "geometry": {
        "type": "Point",
        "coordinates": [
          26.2717968,
          35.2160962
        ]
      },
      "properties": {
        "id": 1181781183,
        "osm_type": "way",
        "access": "yes"
      }
    },
    {
      "type": "Feature",
      "geometry": {
        "type": "Point",
        "coordinates": [
          24.2343032,
          35.1826068
        ]
      },
      "properties": {
        "id": 1291815154,
        "osm_type": "way",
        "access": "yes"
      }
    },
    {
      "type": "Feature",
      "geometry": {
        "type": "Point",
        "coordinates": [
          23.5812684,
          35.4920391
        ]
      },
      "properties": {
        "id": 1314840364,
        "osm_type": "way",
        "access": "yes"
      }
    },
    {
      "type": "Feature",
      "geometry": {
        "type": "Point",
        "coordinates": [
          25.7304132,
          35.2517471
        ]
      },
      "properties": {
        "id": 1437097961,
        "osm_type": "way",
        "access": "customers"
      }
    },
    {
      "type": "Feature",
      "geometry": {
        "type": "Point",
        "coordinates": [
          25.5733429,
          35.0377572
        ]
      },
      "properties": {
        "id": 1443076318,
        "osm_type": "way",
        "access": "yes"
      }
    },
    {
      "type": "Feature",
      "geometry": {
        "type": "Point",
        "coordinates": [
          25.1535344,
          35.3241965
        ]
      },
      "properties": {
        "id": 1469493941,
        "osm_type": "way"
      }
    }
  ]
}