{
  "type": "FeatureCollection",
  "features": [
    {
      "type": "Feature",
      "geometry": {
        "type": "Point",
        "coordinates": [
          17.6362392,
          59.8579985
        ]
      },
      "properties": {
        "id": 255878599,
        "osm_type": "node",
        "name": "Hostel Fyristorg",
        "tourism": "hostel"
      }
    },
    {
      "type": "Feature",
      "geometry": {
        "type": "Point",
        "coordinates": [
          17.6366483,
          59.8739223
        ]
      },
      "properties": {
        "id": 270908002,
        "osm_type": "node",
        "name": "Svartbäckens vandrarhem",
        "tourism": "hostel",
        "website": "https://svartbackensvandrarhem.se/"
      }
    },
    {
      "type": "Feature",
      "geometry": {
        "type": "Point",
        "coordinates": [
          17.6148759,
          59.871466
        ]
      },
      "properties": {
        "id": 271957520,
        "osm_type": "node",
        "name": "Fyrishovs stugby",
        "tourism": "chalet"
      }
    },
    {
      "type": "Feature",
      "geometry": {
        "type": "Point",
        "coordinates": [
          17.6376995,
          59.8617284
        ]
      },
      "properties": {
        "id": 313717244,
        "osm_type": "node",
        "name": "Hotel Uppsala",
        "tourism": "hotel",
        "website": "http://www.profilhotels.se/hoteluppsala/"
      }
    },
    {
      "type": "Feature",
      "geometry": {
        "type": "Point",
        "coordinates": [
          16.7947821,
          60.1723478
        ]
      },
      "properties": {
        "id": 336765749,
        "osm_type": "node",
        "name": "Östa Stugby",
        "tourism": "chalet"
      }
    },
    {
      "type": "Feature",
      "geometry": {
        "type": "Point",
        "coordinates": [
          17.6487914,
          59.8665872
        ]
      },
      "properties": {
        "id": 390510720,
        "osm_type": "node",
        "name": "Kvarntorget Hotell & Hostel",
        "tourism": "hostel",
        "website": "https://kvarntorgethotell.se/",
        "check_date": "2024-07-18"
      }
    },
    {
      "type": "Feature",
      "geometry": {
        "type": "Point",
        "coordinates": [
          17.6333393,
          59.862661
        ]
      },
      "properties": {
        "id": 412160467,
        "osm_type": "node",
        "name": "Hotell Botanika",
        "tourism": "hotel",
        "phone": "+46(0)18-8880600",
        "website": "https://hotellbotanika.se/",
        "check_date": "2025-03-22"
      }
    },
    {
      "type": "Feature",
      "geometry": {
        "type": "Point",
        "coordinates": [
          18.45087,
          60.3216
        ]
      },
      "properties": {
        "id": 431824690,
        "osm_type": "node",
        "name": "Sunnanö Camping",
        "tourism": "camp_site",
        "website": "https://www.sunnanocamping.com/"
      }
    },
    {
      "type": "Feature",
      "geometry": {
        "type": "Point",
        "coordinates": [
          18.38013,
          60.26302
        ]
      },
      "properties": {
        "id": 431824691,
        "osm_type": "node",
        "name": "Klackskärs Camping",
        "tourism": "camp_site"
      }
    },
    {
      "type": "Feature",
      "geometry": {
        "type": "Point",
        "coordinates": [
          18.0691835,
          60.482241
        ]
      },
      "properties": {
        "id": 431824710,
        "osm_type": "node",
        "name": "Ängskärs HavsCamping",
        "tourism": "camp_site"
      }
    },
    {
      "type": "Feature",
      "geometry": {
        "type": "Point",
        "coordinates": [
          17.6441088,
          59.8580904
        ]
      },
      "properties": {
        "id": 469342664,
        "osm_type": "node",
        "name": "Best Western Hotel Svava",
        "tourism": "hotel",
        "check_date": "2024-10-15"
      }
    },
    {
      "type": "Feature",
      "geometry": {
        "type": "Point",
        "coordinates": [
          17.6405822,
          59.8564206
        ]
      },
      "properties": {
        "id": 469342969,
        "osm_type": "node",
        "name": "Grand Hotel Hörnan",
        "tourism": "hotel",
        "phone": "+46 18 139380",
        "website": "https://www.grandhotellhornan.com/"
      }
    },
    {
      "type": "Feature",
      "geometry": {
        "type": "Point",
        "coordinates": [
          17.0803451,
          59.6372778
        ]
      },
      "properties": {
        "id": 485107656,
        "osm_type": "node",
        "name": "First Hotel Park Astoria",
        "tourism": "hotel",
        "website": "https://www.firsthotels.com/en/Our-hotels/Sweden/Enkoping/First-Hotel-Park-Astoria/"
      }
    },
    {
      "type": "Feature",
      "geometry": {
        "type": "Point",
        "coordinates": [
          18.4393514,
          60.3409509
        ]
      },
      "properties": {
        "id": 842662085,
        "osm_type": "node",
        "name": "Strandhotellet",
        "tourism": "hotel",
        "contact:phone": "+46173-316 00",
        "contact:website": "http://www.strandhotellet.nu/",
        "check_date": "2025-10-18"
      }
    },
    {
      "type": "Feature",
      "geometry": {
        "type": "Point",
        "coordinates": [
          18.4398517,
          60.3402559
        ]
      },
      "properties": {
        "id": 860271876,
        "osm_type": "node",
        "name": "Ankargården i Öregrund AB",
        "tourism": "hostel",
        "website": "https://www.ankargarden.se",
        "check_date": "2025-10-18"
      }
    },
    {
      "type": "Feature",
      "geometry": {
        "type": "Point",
        "coordinates": [
          17.8153708,
          59.7398482
        ]
      },
      "properties": {
        "id": 888396907,
        "osm_type": "node",
        "name": "Nova Park",
        "tourism": "hotel",
        "phone": "+46 18 349000",
        "website": "http://www.novaparkkonferens.se/"
      }
    },
    {
      "type": "Feature",
      "geometry": {
        "type": "Point",
        "coordinates": [
          17.791397,
          59.7234808
        ]
      },
      "properties": {
        "id": 888420561,
        "osm_type": "node",
        "name": "Särsta Wärdshus",
        "tourism": "hotel"
      }
    },
    {
      "type": "Feature",
      "geometry": {
        "type": "Point",
        "coordinates": [
          17.6450423,
          59.7352142
        ]
      },
      "properties": {
        "id": 888504635,
        "osm_type": "node",
        "name": "Krusenberg herrgård",
        "tourism": "hotel"
      }
    },
    {
      "type": "Feature",
      "geometry": {
        "type": "Point",
        "coordinates": [
          17.5012187,
          59.7395918
        ]
      },
      "properties": {
        "id": 893911170,
        "osm_type": "node",
        "name": "Björkdala gård",
        "tourism": "guest_house"
      }
    },
    {
      "type": "Feature",
      "geometry": {
        "type": "Point",
        "coordinates": [
          17.6386759,
          59.8604129
        ]
      },
      "properties": {
        "id": 928056537,
        "osm_type": "node",
        "name": "Scandic Uplandia",
        "tourism": "hotel",
        "check_date": "2025-07-17"
      }
    },
    {
      "type": "Feature",
      "geometry": {
        "type": "Point",
        "coordinates": [
          17.6375627,
          59.8605797
        ]
      },
      "properties": {
        "id": 937737988,
        "osm_type": "node",
        "name": "Clarion Hotel Gillet",
        "tourism": "hotel",
        "check_date": "2025-03-22"
      }
    },
    {
      "type": "Feature",
      "geometry": {
        "type": "Point",
        "coordinates": [
          17.6937281,
          59.8515045
        ]
      },
      "properties": {
        "id": 983772280,
        "osm_type": "node",
        "name": "Hotell Fyrislund",
        "tourism": "hotel"
      }
    },
    {
      "type": "Feature",
      "geometry": {
        "type": "Point",
        "coordinates": [
          17.083561,
          59.6358939
        ]
      },
      "properties": {
        "id": 1347707828,
        "osm_type": "node",
        "name": "Anno 1799",
        "tourism": "guest_house",
        "phone": "+46-732-145901",
        "website": "http://anno1799.se/"
      }
    },
    {
      "type": "Feature",
      "geometry": {
        "type": "Point",
        "coordinates": [
          17.0908052,
          59.627649
        ]
      },
      "properties": {
        "id": 1350781027,
        "osm_type": "node",
        "name": "Enköpings Vandrarhem Bredsand",
        "tourism": "hostel",
        "website": "http://bredsand.com/bredsand-vandrarhem-i-enkoping/"
      }
    },
    {
      "type": "Feature",
      "geometry": {
        "type": "Point",
        "coordinates": [
          17.4862707,
          59.66306
        ]
      },
      "properties": {
        "id": 1350781035,
        "osm_type": "node",
        "name": "Biskops-Arnö Vandrarhem",
        "tourism": "hostel",
        "website": "https://www.biskopsarno.se/"
      }
    },
    {
      "type": "Feature",
      "geometry": {
        "type": "Point",
        "coordinates": [
          18.3310531,
          60.3134223
        ]
      },
      "properties": {
        "id": 1373269898,
        "osm_type": "node",
        "name": "Caravan Club Granfjärden",
        "tourism": "camp_site",
        "contact:phone": "+46 173 13323",
        "contact:website": "http://caravanclub.se/"
      }
    },
    {
      "type": "Feature",
      "geometry": {
        "type": "Point",
        "coordinates": [
          17.417102,
          60.4862114
        ]
      },
      "properties": {
        "id": 1446180166,
        "osm_type": "node",
        "name": "Marma Caravan park",
        "tourism": "caravan_site"
      }
    },
    {
      "type": "Feature",
      "geometry": {
        "type": "Point",
        "coordinates": [
          17.0497998,
          59.6042185
        ]
      },
      "properties": {
        "id": 1450164530,
        "osm_type": "node",
        "name": "Haga Slott",
        "tourism": "hotel",
        "website": "https://www.sejour.se/hagaslott"
      }
    },
    {
      "type": "Feature",
      "geometry": {
        "type": "Point",
        "coordinates": [
          17.0689155,
          59.5861307
        ]
      },
      "properties": {
        "id": 1682456820,
        "osm_type": "node",
        "name": "Fagerudd Hotell & Konferans",
        "tourism": "hotel",
        "website": "https://www.fagerudd.se/",
        "check_date": "2026-03-29"
      }
    },
    {
      "type": "Feature",
      "geometry": {
        "type": "Point",
        "coordinates": [
          17.6394717,
          59.8604525
        ]
      },
      "properties": {
        "id": 1828100271,
        "osm_type": "node",
        "name": "Uppsala City Hostel",
        "tourism": "hostel",
        "website": "https://uppsalacityhostel.se/",
        "check_date": "2025-06-04"
      }
    },
    {
      "type": "Feature",
      "geometry": {
        "type": "Point",
        "coordinates": [
          17.4156763,
          60.4630344
        ]
      },
      "properties": {
        "id": 1996799795,
        "osm_type": "node",
        "name": "Dragon Gate",
        "tourism": "hotel",
        "website": "https://www.dragongate.nu"
      }
    },
    {
      "type": "Feature",
      "geometry": {
        "type": "Point",
        "coordinates": [
          17.643914,
          59.857716
        ]
      },
      "properties": {
        "id": 2039090088,
        "osm_type": "node",
        "name": "Hotell & Vandrarhem Centralstationen",
        "tourism": "hostel",
        "opening_hours": "24/7",
        "phone": "+46-184442010",
        "website": "https://hotellcentralstation.se/",
        "check_date": "2024-10-15"
      }
    },
    {
      "type": "Feature",
      "geometry": {
        "type": "Point",
        "coordinates": [
          17.5020356,
          59.6995225
        ]
      },
      "properties": {
        "id": 2278117303,
        "osm_type": "node",
        "name": "Friiberghs Herrgård",
        "tourism": "hotel",
        "website": "https://friibergh.se/"
      }
    },
    {
      "type": "Feature",
      "geometry": {
        "type": "Point",
        "coordinates": [
          18.40194,
          59.98017
        ]
      },
      "properties": {
        "id": 2356198792,
        "osm_type": "node",
        "name": "Fyrvapplingen Fiskecamp",
        "tourism": "camp_site"
      }
    },
    {
      "type": "Feature",
      "geometry": {
        "type": "Point",
        "coordinates": [
          17.0141645,
          60.197172
        ]
      },
      "properties": {
        "id": 2380043571,
        "osm_type": "node",
        "tourism": "guest_house"
      }
    },
    {
      "type": "Feature",
      "geometry": {
        "type": "Point",
        "coordinates": [
          17.4362895,
          60.5632218
        ]
      },
      "properties": {
        "id": 2431396646,
        "osm_type": "node",
        "name": "Älvkarleby Vandrarhem",
        "tourism": "hostel",
        "check_date": "2025-07-11"
      }
    },
    {
      "type": "Feature",
      "geometry": {
        "type": "Point",
        "coordinates": [
          17.6486,
          59.85539
        ]
      },
      "properties": {
        "id": 2605333378,
        "osm_type": "node",
        "name": "Gästhem Samariten",
        "tourism": "guest_house"
      }
    },
    {
      "type": "Feature",
      "geometry": {
        "type": "Point",
        "coordinates": [
          17.6476613,
          59.8549067
        ]
      },
      "properties": {
        "id": 2947433390,
        "osm_type": "node",
        "name": "Hotell & Vandrarhem Kungsängstorg",
        "tourism": "hotel",
        "phone": "+46 18 - 444 20 10",
        "website": "http://www.hotellkungsangstorg.se",
        "check_date": "2026-03-17"
      }
    },
    {
      "type": "Feature",
      "geometry": {
        "type": "Point",
        "coordinates": [
          17.6356913,
          59.8569073
        ]
      },
      "properties": {
        "id": 3177843761,
        "osm_type": "node",
        "name": "Best Western Uppsala",
        "tourism": "hotel",
        "website": "https://bestwesternuppsala.se/",
        "check_date": "2025-12-03"
      }
    },
    {
      "type": "Feature",
      "geometry": {
        "type": "Point",
        "coordinates": [
          17.6139385,
          59.8610945
        ]
      },
      "properties": {
        "id": 3639344312,
        "osm_type": "node",
        "name": "Stay by George.se",
        "tourism": "hotel",
        "phone": "+46 18 550008",
        "website": "http://staybygeorge.com/"
      }
    },
    {
      "type": "Feature",
      "geometry": {
        "type": "Point",
        "coordinates": [
          17.6470615,
          59.8554167
        ]
      },
      "properties": {
        "id": 4339474262,
        "osm_type": "node",
        "name": "Duvan Hotel",
        "tourism": "hotel",
        "website": "https://duvanhotell.se/"
      }
    },
    {
      "type": "Feature",
      "geometry": {
        "type": "Point",
        "coordinates": [
          17.6353452,
          59.8482787
        ]
      },
      "properties": {
        "id": 4340227858,
        "osm_type": "node",
        "name": "Hotel Von Kraemer",
        "tourism": "hotel",
        "check_date": "2025-06-15"
      }
    },
    {
      "type": "Feature",
      "geometry": {
        "type": "Point",
        "coordinates": [
          17.4983425,
          59.8124538
        ]
      },
      "properties": {
        "id": 4345418580,
        "osm_type": "node",
        "name": "Golf Uppsala",
        "tourism": "hotel",
        "phone": "+46-184301970"
      }
    },
    {
      "type": "Feature",
      "geometry": {
        "type": "Point",
        "coordinates": [
          17.2375186,
          60.383283
        ]
      },
      "properties": {
        "id": 4573278439,
        "osm_type": "node",
        "name": "Söderfors Herrgård",
        "tourism": "hotel",
        "phone": "+46 293 314 00",
        "website": "https://www.soderforsherrgard.se/"
      }
    },
    {
      "type": "Feature",
      "geometry": {
        "type": "Point",
        "coordinates": [
          17.1057557,
          59.6467262
        ]
      },
      "properties": {
        "id": 5735113358,
        "osm_type": "node",
        "name": "Marieberg",
        "tourism": "hotel"
      }
    },
    {
      "type": "Feature",
      "geometry": {
        "type": "Point",
        "coordinates": [
          17.6276566,
          59.858916
        ]
      },
      "properties": {
        "id": 5942420454,
        "osm_type": "node",
        "tourism": "apartment"
      }
    },
    {
      "type": "Feature",
      "geometry": {
        "type": "Point",
        "coordinates": [
          17.8776279,
          60.4110265
        ]
      },
      "properties": {
        "id": 6637437500,
        "osm_type": "node",
        "name": "Gamla Brukshandeln",
        "tourism": "guest_house",
        "website": "http://www.leufstabruk.com"
      }
    },
    {
      "type": "Feature",
      "geometry": {
        "type": "Point",
        "coordinates": [
          17.1331036,
          59.5330968
        ]
      },
      "properties": {
        "id": 7684809142,
        "osm_type": "node",
        "name": "Bryggholmens gård",
        "tourism": "hostel",
        "website": "https://www.bryggholmen.se/"
      }
    },
    {
      "type": "Feature",
      "geometry": {
        "type": "Point",
        "coordinates": [
          17.3224376,
          59.6614298
        ]
      },
      "properties": {
        "id": 8949528650,
        "osm_type": "node",
        "name": "Chiefland",
        "tourism": "motel"
      }
    },
    {
      "type": "Feature",
      "geometry": {
        "type": "Point",
        "coordinates": [
          17.646731,
          59.8601344
        ]
      },
      "properties": {
        "id": 9330468477,
        "osm_type": "node",
        "name": "Home Hotel Uppsala",
        "tourism": "hotel",
        "check_date": "2024-07-23"
      }
    },
    {
      "type": "Feature",
      "geometry": {
        "type": "Point",
        "coordinates": [
          18.4676796,
          60.3454498
        ]
      },
      "properties": {
        "id": 9851869974,
        "osm_type": "node",
        "name": "Gräsö Gårds Vandrarhem",
        "tourism": "hostel",
        "website": "http://grasogard.se/"
      }
    },
    {
      "type": "Feature",
      "geometry": {
        "type": "Point",
        "coordinates": [
          17.647143,
          59.8553316
        ]
      },
      "properties": {
        "id": 10100423917,
        "osm_type": "node",
        "name": "Duvan Hotel",
        "tourism": "hotel",
        "check_date": "2025-02-28"
      }
    },
    {
      "type": "Feature",
      "geometry": {
        "type": "Point",
        "coordinates": [
          18.6032943,
          60.3155838
        ]
      },
      "properties": {
        "id": 12115832532,
        "osm_type": "node",
        "tourism": "camp_site",
        "tents": "yes"
      }
    },
    {
      "type": "Feature",
      "geometry": {
        "type": "Point",
        "coordinates": [
          16.9592388,
          59.5287931
        ]
      },
      "properties": {
        "id": 12809421458,
        "osm_type": "node",
        "tourism": "camp_site",
        "tents": "yes"
      }
    },
    {
      "type": "Feature",
      "geometry": {
        "type": "Point",
        "coordinates": [
          17.1134806,
          59.5682892
        ]
      },
      "properties": {
        "id": 13050068866,
        "osm_type": "node",
        "name": "Sycklinge Rum och Frukost",
        "tourism": "guest_house"
      }
    },
    {
      "type": "Feature",
      "geometry": {
        "type": "Point",
        "coordinates": [
          16.9462963,
          59.8807104
        ]
      },
      "properties": {
        "id": 13357242301,
        "osm_type": "node",
        "name": "Elsas koja",
        "tourism": "hostel"
      }
    },
    {
      "type": "Feature",
      "geometry": {
        "type": "Point",
        "coordinates": [
          17.6524422,
          59.8282439
        ]
      },
      "properties": {
        "id": 13673670312,
        "osm_type": "node",
        "name": "Ewa Lagerwalls korttidsboende",
        "tourism": "motel"
      }
    },
    {
      "type": "Feature",
      "geometry": {
        "type": "Point",
        "coordinates": [
          17.6607804,
          59.8013702
        ]
      },
      "properties": {
        "id": 25213697,
        "osm_type": "way",
        "name": "Sunnersta Herrgård",
        "tourism": "hotel"
      }
    },
    {
      "type": "Feature",
      "geometry": {
        "type": "Point",
        "coordinates": [
          17.6197473,
          59.8559673
        ]
      },
      "properties": {
        "id": 27652382,
        "osm_type": "way",
        "name": "Hotell Stella",
        "tourism": "hotel",
        "website": "https://www.hotellstella.se/",
        "check_date": "2025-11-02"
      }
    },
    {
      "type": "Feature",
      "geometry": {
        "type": "Point",
        "coordinates": [
          17.8151224,
          59.739721
        ]
      },
      "properties": {
        "id": 28228899,
        "osm_type": "way",
        "tourism": "hotel"
      }
    },
    {
      "type": "Feature",
      "geometry": {
        "type": "Point",
        "coordinates": [
          17.6485048,
          59.8568095
        ]
      },
      "properties": {
        "id": 71127111,
        "osm_type": "way",
        "name": "Elite Hotel Academia",
        "tourism": "hotel",
        "phone": "+46 771-788 789",
        "website": "https://www.elite.se/sv/hotell/uppsala/hotel-academia/",
        "check_date": "2024-07-19"
      }
    },
    {
      "type": "Feature",
      "geometry": {
        "type": "Point",
        "coordinates": [
          17.5370675,
          59.705699
        ]
      },
      "properties": {
        "id": 79359900,
        "osm_type": "way",
        "name": "Skokloster Camping",
        "tourism": "camp_site",
        "tents": "yes"
      }
    },
    {
      "type": "Feature",
      "geometry": {
        "type": "Point",
        "coordinates": [
          17.6306475,
          59.8563856
        ]
      },
      "properties": {
        "id": 91921249,
        "osm_type": "way",
        "name": "Akademihotellet",
        "tourism": "hotel",
        "phone": "+46 18 155190",
        "website": "https://www.akademihotellet.se/",
        "check_date": "2024-07-04"
      }
    },
    {
      "type": "Feature",
      "geometry": {
        "type": "Point",
        "coordinates": [
          17.6059578,
          59.806509
        ]
      },
      "properties": {
        "id": 94016996,
        "osm_type": "way",
        "name": "Hågadalens Hostel & Vandrarhem",
        "tourism": "hostel",
        "website": "https://hagadalensvandrarhem.se/"
      }
    },
    {
      "type": "Feature",
      "geometry": {
        "type": "Point",
        "coordinates": [
          17.6401238,
          59.8757635
        ]
      },
      "properties": {
        "id": 98942854,
        "osm_type": "way",
        "name": "Scandic Hotel",
        "tourism": "hotel"
      }
    },
    {
      "type": "Feature",
      "geometry": {
        "type": "Point",
        "coordinates": [
          17.6366174,
          59.8680897
        ]
      },
      "properties": {
        "id": 98950311,
        "osm_type": "way",
        "tourism": "motel"
      }
    },
    {
      "type": "Feature",
      "geometry": {
        "type": "Point",
        "coordinates": [
          17.6314882,
          59.8568546
        ]
      },
      "properties": {
        "id": 159585305,
        "osm_type": "way",
        "name": "Villa Anna",
        "tourism": "hotel",
        "phone": "+46 18 5802000",
        "website": "https://www.villaanna.se/"
      }
    },
    {
      "type": "Feature",
      "geometry": {
        "type": "Point",
        "coordinates": [
          17.9172255,
          59.8356854
        ]
      },
      "properties": {
        "id": 170247177,
        "osm_type": "way",
        "tourism": "caravan_site",
        "tents": "yes"
      }
    },
    {
      "type": "Feature",
      "geometry": {
        "type": "Point",
        "coordinates": [
          16.7925549,
          60.1727742
        ]
      },
      "properties": {
        "id": 204032955,
        "osm_type": "way",
        "name": "Östa Camping",
        "tourism": "camp_site",
        "tents": "yes",
        "phone": "+46 292 43004",
        "website": "https://www.ostacamping.se"
      }
    },
    {
      "type": "Feature",
      "geometry": {
        "type": "Point",
        "coordinates": [
          17.6477772,
          59.8591406
        ]
      },
      "properties": {
        "id": 207791526,
        "osm_type": "way",
        "name": "Radisson Blu Hotel, Uppsala",
        "tourism": "hotel",
        "phone": "+46 18 4747900",
        "website": "http://www.radissonblu.se/hotell-uppsala",
        "check_date": "2025-08-01"
      }
    },
    {
      "type": "Feature",
      "geometry": {
        "type": "Point",
        "coordinates": [
          17.6207919,
          59.7068465
        ]
      },
      "properties": {
        "id": 212713465,
        "osm_type": "way",
        "name": "Sejour Skokloster Wärdshus",
        "tourism": "hotel",
        "phone": "+46-18-38 61 00",
        "website": "https://www.sejour.se/"
      }
    },
    {
      "type": "Feature",
      "geometry": {
        "type": "Point",
        "coordinates": [
          17.0570473,
          59.6713176
        ]
      },
      "properties": {
        "id": 218949177,
        "osm_type": "way",
        "name": "Jädra Gårdshotel",
        "tourism": "hotel"
      }
    },
    {
      "type": "Feature",
      "geometry": {
        "type": "Point",
        "coordinates": [
          18.1734902,
          60.1791269
        ]
      },
      "properties": {
        "id": 220590023,
        "osm_type": "way",
        "name": "Gimo herrgård",
        "tourism": "hotel",
        "phone": "+46 173 88900",
        "website": "https://www.gimoherrgard.se/"
      }
    },
    {
      "type": "Feature",
      "geometry": {
        "type": "Point",
        "coordinates": [
          17.1543894,
          59.9794854
        ]
      },
      "properties": {
        "id": 229260669,
        "osm_type": "way",
        "name": "Siggefora Camping",
        "tourism": "camp_site",
        "contact:phone": "+46 18 393032",
        "website": "https://www.siggeforacamping.se/"
      }
    },
    {
      "type": "Feature",
      "geometry": {
        "type": "Point",
        "coordinates": [
          18.3777285,
          60.2646118
        ]
      },
      "properties": {
        "id": 237814062,
        "osm_type": "way",
        "tourism": "camp_site"
      }
    },
    {
      "type": "Feature",
      "geometry": {
        "type": "Point",
        "coordinates": [
          18.4508688,
          60.3222637
        ]
      },
      "properties": {
        "id": 240403243,
        "osm_type": "way",
        "tourism": "camp_site"
      }
    },
    {
      "type": "Feature",
      "geometry": {
        "type": "Point",
        "coordinates": [
          17.6995381,
          60.2036607
        ]
      },
      "properties": {
        "id": 254615285,
        "osm_type": "way",
        "tourism": "hotel"
      }
    },
    {
      "type": "Feature",
      "geometry": {
        "type": "Point",
        "coordinates": [
          17.6168842,
          59.8715092
        ]
      },
      "properties": {
        "id": 296746219,
        "osm_type": "way",
        "name": "Fyrishov Stugby & Camping",
        "tourism": "camp_site",
        "tents": "yes",
        "phone": "+46 18 7274960",
        "website": "https://fyrishov.se/"
      }
    },
    {
      "type": "Feature",
      "geometry": {
        "type": "Point",
        "coordinates": [
          17.4789217,
          59.6336574
        ]
      },
      "properties": {
        "id": 321306917,
        "osm_type": "way",
        "name": "Woodstock B&B",
        "tourism": "guest_house"
      }
    },
    {
      "type": "Feature",
      "geometry": {
        "type": "Point",
        "coordinates": [
          16.8668113,
          59.9362047
        ]
      },
      "properties": {
        "id": 393372446,
        "osm_type": "way",
        "name": "Heby Wärdshus",
        "tourism": "motel",
        "website": "http://www.hebywardshus.se/"
      }
    },
    {
      "type": "Feature",
      "geometry": {
        "type": "Point",
        "coordinates": [
          16.8669681,
          59.9360398
        ]
      },
      "properties": {
        "id": 393372517,
        "osm_type": "way",
        "name": "Heby Wärdshus",
        "tourism": "motel",
        "website": "http://www.hebywardshus.se/"
      }
    },
    {
      "type": "Feature",
      "geometry": {
        "type": "Point",
        "coordinates": [
          18.3734343,
          60.5256429
        ]
      },
      "properties": {
        "id": 436449655,
        "osm_type": "way",
        "tourism": "hostel"
      }
    },
    {
      "type": "Feature",
      "geometry": {
        "type": "Point",
        "coordinates": [
          18.3735939,
          60.5253406
        ]
      },
      "properties": {
        "id": 436449656,
        "osm_type": "way",
        "tourism": "hostel"
      }
    },
    {
      "type": "Feature",
      "geometry": {
        "type": "Point",
        "coordinates": [
          18.3740418,
          60.5256409
        ]
      },
      "properties": {
        "id": 436449657,
        "osm_type": "way",
        "tourism": "hostel"
      }
    },
    {
      "type": "Feature",
      "geometry": {
        "type": "Point",
        "coordinates": [
          18.3738835,
          60.5251433
        ]
      },
      "properties": {
        "id": 436449658,
        "osm_type": "way",
        "tourism": "hostel"
      }
    },
    {
      "type": "Feature",
      "geometry": {
        "type": "Point",
        "coordinates": [
          18.447579,
          60.3527248
        ]
      },
      "properties": {
        "id": 437216806,
        "osm_type": "way",
        "name": "Gräsöbadens familjecamping",
        "tourism": "caravan_site",
        "website": "http://grasobadenscamping.se/"
      }
    },
    {
      "type": "Feature",
      "geometry": {
        "type": "Point",
        "coordinates": [
          18.606077,
          60.3116467
        ]
      },
      "properties": {
        "id": 504537477,
        "osm_type": "way",
        "tourism": "chalet"
      }
    },
    {
      "type": "Feature",
      "geometry": {
        "type": "Point",
        "coordinates": [
          18.6029082,
          60.311496
        ]
      },
      "properties": {
        "id": 504537480,
        "osm_type": "way",
        "name": "Rävstens stugby",
        "tourism": "camp_site",
        "tents": "yes"
      }
    },
    {
      "type": "Feature",
      "geometry": {
        "type": "Point",
        "coordinates": [
          17.4068417,
          60.535012
        ]
      },
      "properties": {
        "id": 520850671,
        "osm_type": "way",
        "name": "Älvkarlebö Herrgård",
        "tourism": "hotel"
      }
    },
    {
      "type": "Feature",
      "geometry": {
        "type": "Point",
        "coordinates": [
          17.5729111,
          60.0259459
        ]
      },
      "properties": {
        "id": 544251462,
        "osm_type": "way",
        "name": "Sandviksbadets camping",
        "tourism": "camp_site",
        "tents": "yes"
      }
    },
    {
      "type": "Feature",
      "geometry": {
        "type": "Point",
        "coordinates": [
          17.6595946,
          59.8840903
        ]
      },
      "properties": {
        "id": 583989367,
        "osm_type": "way",
        "name": "Arenahotellet",
        "tourism": "hotel",
        "phone": "+4618350025",
        "website": "https://www.arenahotellet.se/",
        "check_date": "2025-04-19"
      }
    },
    {
      "type": "Feature",
      "geometry": {
        "type": "Point",
        "coordinates": [
          17.0836376,
          59.6317088
        ]
      },
      "properties": {
        "id": 692372938,
        "osm_type": "way",
        "name": "Kompassen",
        "tourism": "hotel",
        "phone": "+46171153390",
        "website": "https://kompassenkonferens.se/"
      }
    },
    {
      "type": "Feature",
      "geometry": {
        "type": "Point",
        "coordinates": [
          17.9189433,
          59.8351196
        ]
      },
      "properties": {
        "id": 711280508,
        "osm_type": "way",
        "name": "Käppbacken",
        "tourism": "camp_site",
        "tents": "yes"
      }
    },
    {
      "type": "Feature",
      "geometry": {
        "type": "Point",
        "coordinates": [
          17.2331511,
          60.3825421
        ]
      },
      "properties": {
        "id": 760910099,
        "osm_type": "way",
        "name": "Rörholmsbadet Camping",
        "tourism": "camp_site",
        "website": "https://rorholmsbadet.se/"
      }
    },
    {
      "type": "Feature",
      "geometry": {
        "type": "Point",
        "coordinates": [
          17.4488361,
          60.5757855
        ]
      },
      "properties": {
        "id": 762927905,
        "osm_type": "way",
        "name": "Quick stop",
        "tourism": "caravan_site"
      }
    },
    {
      "type": "Feature",
      "geometry": {
        "type": "Point",
        "coordinates": [
          17.4514352,
          60.5780176
        ]
      },
      "properties": {
        "id": 783639373,
        "osm_type": "way",
        "name": "Älvkarleby Fiskecamping",
        "tourism": "camp_site",
        "tents": "yes",
        "website": "https://www.alvkarlebycamping.se/"
      }
    },
    {
      "type": "Feature",
      "geometry": {
        "type": "Point",
        "coordinates": [
          18.066949,
          60.4964335
        ]
      },
      "properties": {
        "id": 807676956,
        "osm_type": "way",
        "tourism": "caravan_site"
      }
    },
    {
      "type": "Feature",
      "geometry": {
        "type": "Point",
        "coordinates": [
          17.8740161,
          60.180306
        ]
      },
      "properties": {
        "id": 814055396,
        "osm_type": "way",
        "tourism": "chalet"
      }
    },
    {
      "type": "Feature",
      "geometry": {
        "type": "Point",
        "coordinates": [
          16.9096828,
          59.8842824
        ]
      },
      "properties": {
        "id": 830896027,
        "osm_type": "way",
        "name": "Hårsbäcks Bed & Breakfast",
        "tourism": "guest_house",
        "phone": "0706-20 14 30",
        "website": "https://www.fjardhundraland.se/plats/harsbacks-bed-breakfast/"
      }
    },
    {
      "type": "Feature",
      "geometry": {
        "type": "Point",
        "coordinates": [
          17.5250447,
          60.3483421
        ]
      },
      "properties": {
        "id": 835359167,
        "osm_type": "way",
        "name": "Åskarbygården",
        "tourism": "guest_house"
      }
    },
    {
      "type": "Feature",
      "geometry": {
        "type": "Point",
        "coordinates": [
          18.4647356,
          60.1719007
        ]
      },
      "properties": {
        "id": 841972317,
        "osm_type": "way",
        "name": "Hargshamns Camping",
        "tourism": "camp_site",
        "website": "https://hargshamnscamping.se/"
      }
    },
    {
      "type": "Feature",
      "geometry": {
        "type": "Point",
        "coordinates": [
          17.1584632,
          59.8620188
        ]
      },
      "properties": {
        "id": 852467487,
        "osm_type": "way",
        "tourism": "guest_house"
      }
    },
    {
      "type": "Feature",
      "geometry": {
        "type": "Point",
        "coordinates": [
          17.8508053,
          60.1787169
        ]
      },
      "properties": {
        "id": 896184505,
        "osm_type": "way",
        "tourism": "chalet"
      }
    },
    {
      "type": "Feature",
      "geometry": {
        "type": "Point",
        "coordinates": [
          17.8506194,
          60.1785519
        ]
      },
      "properties": {
        "id": 896184506,
        "osm_type": "way",
        "tourism": "chalet"
      }
    },
    {
      "type": "Feature",
      "geometry": {
        "type": "Point",
        "coordinates": [
          17.8382588,
          60.1785896
        ]
      },
      "properties": {
        "id": 896247265,
        "osm_type": "way",
        "tourism": "chalet"
      }
    },
    {
      "type": "Feature",
      "geometry": {
        "type": "Point",
        "coordinates": [
          17.7843948,
          60.139059
        ]
      },
      "properties": {
        "id": 896330638,
        "osm_type": "way",
        "tourism": "chalet"
      }
    },
    {
      "type": "Feature",
      "geometry": {
        "type": "Point",
        "coordinates": [
          17.7835116,
          60.1380401
        ]
      },
      "properties": {
        "id": 896330639,
        "osm_type": "way",
        "tourism": "chalet"
      }
    },
    {
      "type": "Feature",
      "geometry": {
        "type": "Point",
        "coordinates": [
          17.7848406,
          60.1368518
        ]
      },
      "properties": {
        "id": 896330643,
        "osm_type": "way",
        "tourism": "chalet"
      }
    },
    {
      "type": "Feature",
      "geometry": {
        "type": "Point",
        "coordinates": [
          17.9717028,
          59.9894906
        ]
      },
      "properties": {
        "id": 906594843,
        "osm_type": "way",
        "name": "Gammel-Gränome vandrarhem och hembygdsgård",
        "tourism": "hostel"
      }
    },
    {
      "type": "Feature",
      "geometry": {
        "type": "Point",
        "coordinates": [
          18.1781168,
          60.1748278
        ]
      },
      "properties": {
        "id": 1184167468,
        "osm_type": "way",
        "name": "Gimo vandrarhem",
        "tourism": "hostel"
      }
    },
    {
      "type": "Feature",
      "geometry": {
        "type": "Point",
        "coordinates": [
          17.4688758,
          60.6405742
        ]
      },
      "properties": {
        "id": 1185684570,
        "osm_type": "way",
        "tourism": "camp_site",
        "tents": "yes"
      }
    },
    {
      "type": "Feature",
      "geometry": {
        "type": "Point",
        "coordinates": [
          17.4225895,
          60.2851044
        ]
      },
      "properties": {
        "id": 1190397074,
        "osm_type": "way",
        "tourism": "caravan_site"
      }
    },
    {
      "type": "Feature",
      "geometry": {
        "type": "Point",
        "coordinates": [
          18.6049298,
          60.313184
        ]
      },
      "properties": {
        "id": 1308320604,
        "osm_type": "way",
        "tourism": "chalet"
      }
    },
    {
      "type": "Feature",
      "geometry": {
        "type": "Point",
        "coordinates": [
          18.6068673,
          60.3126466
        ]
      },
      "properties": {
        "id": 1308320605,
        "osm_type": "way",
        "tourism": "chalet"
      }
    },
    {
      "type": "Feature",
      "geometry": {
        "type": "Point",
        "coordinates": [
          18.605585,
          60.3126192
        ]
      },
      "properties": {
        "id": 1308320606,
        "osm_type": "way",
        "tourism": "chalet"
      }
    },
    {
      "type": "Feature",
      "geometry": {
        "type": "Point",
        "coordinates": [
          18.6050503,
          60.3136055
        ]
      },
      "properties": {
        "id": 1308338289,
        "osm_type": "way",
        "tourism": "chalet"
      }
    },
    {
      "type": "Feature",
      "geometry": {
        "type": "Point",
        "coordinates": [
          17.9122666,
          60.196618
        ]
      },
      "properties": {
        "id": 1365043591,
        "osm_type": "way",
        "name": "Simbadets Camping",
        "tourism": "camp_site",
        "tents": "yes"
      }
    },
    {
      "type": "Feature",
      "geometry": {
        "type": "Point",
        "coordinates": [
          17.9512209,
          60.2114855
        ]
      },
      "properties": {
        "id": 1368845298,
        "osm_type": "way",
        "tourism": "camp_site",
        "tents": "yes"
      }
    },
    {
      "type": "Feature",
      "geometry": {
        "type": "Point",
        "coordinates": [
          18.0321172,
          60.3512636
        ]
      },
      "properties": {
        "id": 1385165590,
        "osm_type": "way",
        "tourism": "camp_site",
        "tents": "yes",
        "phone": "+4672-007 32 16",
        "website": "https://www.berkinge.se/camping"
      }
    },
    {
      "type": "Feature",
      "geometry": {
        "type": "Point",
        "coordinates": [
          17.6232545,
          59.7061655
        ]
      },
      "properties": {
        "id": 1448687143,
        "osm_type": "way",
        "tourism": "caravan_site"
      }
    },
    {
      "type": "Feature",
      "geometry": {
        "type": "Point",
        "coordinates": [
          17.24262,
          60.386025
        ]
      },
      "properties": {
        "id": 1480577045,
        "osm_type": "way",
        "name": "Villa Granvik",
        "tourism": "guest_house"
      }
    },
    {
      "type": "Feature",
      "geometry": {
        "type": "Point",
        "coordinates": [
          17.0705987,
          59.5926432
        ]
      },
      "properties": {
        "id": 9644309,
        "osm_type": "relation",
        "name": "Bredsands Camping",
        "tourism": "camp_site",
        "website": "https://www.nordiccamping.se/vara-anlaggningar/nordic-camping-bredsand/"
      }
    },
    {
      "type": "Feature",
      "geometry": {
        "type": "Point",
        "coordinates": [
          17.4725177,
          60.6394667
        ]
      },
      "properties": {
        "id": 16027523,
        "osm_type": "relation",
        "name": "Rullsands Havsbad och Camping",
        "tourism": "camp_site",
        "tents": "yes",
        "phone": "+46 26 86220",
        "website": "https://www.rullsand.se/"
      }
    },
    {
      "type": "Feature",
      "geometry": {
        "type": "Point",
        "coordinates": [
          17.4680765,
          60.6391434
        ]
      },
      "properties": {
        "id": 16030387,
        "osm_type": "relation",
        "name": "Brämcampingen",
        "tourism": "camp_site",
        "tents": "yes"
      }
    },
    {
      "type": "Feature",
      "geometry": {
        "type": "Point",
        "coordinates": [
          17.4762985,
          60.6392436
        ]
      },
      "properties": {
        "id": 17218807,
        "osm_type": "relation",
        "name": "Rullcampingen",
        "tourism": "camp_site"
      }
    },
    {
      "type": "Feature",
      "geometry": {
        "type": "Point",
        "coordinates": [
          17.4787179,
          60.6401904
        ]
      },
      "properties": {
        "id": 17218808,
        "osm_type": "relation",
        "tourism": "chalet"
      }
    }
  ]
}