{
  "type": "FeatureCollection",
  "features": [
    {
      "type": "Feature",
      "geometry": {
        "type": "Point",
        "coordinates": [
          29.7723437,
          62.6187855
        ]
      },
      "properties": {
        "id": 1395211071,
        "osm_type": "node",
        "name": "McDonald's",
        "brand": "McDonald's",
        "opening_hours": "24/7",
        "phone": "+358 10 2390557",
        "brand:wikidata": "Q38076",
        "chain": "mcdonalds"
      }
    },
    {
      "type": "Feature",
      "geometry": {
        "type": "Point",
        "coordinates": [
          29.7630483,
          62.6013516
        ]
      },
      "properties": {
        "id": 5426622922,
        "osm_type": "node",
        "name": "Burger King",
        "brand": "Burger King",
        "opening_hours": "Mo-Th 10:00-22:00, Fr,Sa 10:00-05:00, Su 11:00-22:00",
        "brand:wikidata": "Q177054",
        "chain": "burger_king"
      }
    },
    {
      "type": "Feature",
      "geometry": {
        "type": "Point",
        "coordinates": [
          29.5431778,
          62.6141185
        ]
      },
      "properties": {
        "id": 5830398373,
        "osm_type": "node",
        "name": "Burger King",
        "brand": "Burger King",
        "opening_hours": "24/7",
        "operator": "Burger King",
        "brand:wikidata": "Q177054",
        "chain": "burger_king"
      }
    }
  ]
}