{
  "type": "FeatureCollection",
  "features": [
    {
      "type": "Feature",
      "geometry": {
        "type": "Point",
        "coordinates": [
          29.7597683,
          62.5982066
        ]
      },
      "properties": {
        "id": 260251156,
        "osm_type": "node",
        "name": "K-Citymarket",
        "brand": "K-Citymarket",
        "opening_hours": "Mo-Sa 08:00-23:00; Su 11:00-23:00"
      }
    },
    {
      "type": "Feature",
      "geometry": {
        "type": "Point",
        "coordinates": [
          29.7893607,
          62.5893093
        ]
      },
      "properties": {
        "id": 262191524,
        "osm_type": "node",
        "name": "S-market",
        "brand": "S-market",
        "opening_hours": "24/7"
      }
    },
    {
      "type": "Feature",
      "geometry": {
        "type": "Point",
        "coordinates": [
          29.1046681,
          63.5562934
        ]
      },
      "properties": {
        "id": 397833877,
        "osm_type": "node",
        "name": "S-market",
        "brand": "S-market",
        "opening_hours": "Mo-Sa 07:00-22:00; Su 09:00-22:00"
      }
    },
    {
      "type": "Feature",
      "geometry": {
        "type": "Point",
        "coordinates": [
          30.1425876,
          62.0969097
        ]
      },
      "properties": {
        "id": 455046236,
        "osm_type": "node",
        "name": "K-Supermarket",
        "brand": "K-Supermarket",
        "opening_hours": "Mo-Sa 07:00-22:00; Su 09:00-22:00",
        "check_date": "2023-07-01"
      }
    },
    {
      "type": "Feature",
      "geometry": {
        "type": "Point",
        "coordinates": [
          29.2325514,
          62.6447099
        ]
      },
      "properties": {
        "id": 459850149,
        "osm_type": "node",
        "name": "S-market",
        "brand": "S-market",
        "opening_hours": "Mo-Sa 07:00-21:00; Su 09:00-21:00"
      }
    },
    {
      "type": "Feature",
      "geometry": {
        "type": "Point",
        "coordinates": [
          29.7934989,
          62.5852004
        ]
      },
      "properties": {
        "id": 492485484,
        "osm_type": "node",
        "name": "K-Supermarket",
        "brand": "K-Supermarket",
        "opening_hours": "Mo-Sa 06:30-22:00; Su 09:00-22:00"
      }
    },
    {
      "type": "Feature",
      "geometry": {
        "type": "Point",
        "coordinates": [
          29.1416419,
          63.5418318
        ]
      },
      "properties": {
        "id": 565568636,
        "osm_type": "node",
        "name": "S-market",
        "brand": "S-market",
        "opening_hours": "Mo-Sa 07:00-22:00; Su 09:00-22:00"
      }
    },
    {
      "type": "Feature",
      "geometry": {
        "type": "Point",
        "coordinates": [
          29.7653217,
          62.6014253
        ]
      },
      "properties": {
        "id": 944896503,
        "osm_type": "node",
        "name": "S-market",
        "brand": "S-market",
        "opening_hours": "Mo-Sa 07:00-22:00; Su 09:00-22:00"
      }
    },
    {
      "type": "Feature",
      "geometry": {
        "type": "Point",
        "coordinates": [
          29.7483747,
          62.5962296
        ]
      },
      "properties": {
        "id": 945003028,
        "osm_type": "node",
        "name": "S-market",
        "brand": "S-market",
        "opening_hours": "Mo-Su 07:00-23:00"
      }
    },
    {
      "type": "Feature",
      "geometry": {
        "type": "Point",
        "coordinates": [
          30.3354536,
          62.2258995
        ]
      },
      "properties": {
        "id": 1156280066,
        "osm_type": "node",
        "name": "S-market",
        "brand": "S-market",
        "opening_hours": "Mo-Sa 07:00-22:00; Su 09:00-22:00",
        "check_date": "2025-06-23"
      }
    },
    {
      "type": "Feature",
      "geometry": {
        "type": "Point",
        "coordinates": [
          29.8120742,
          62.6568927
        ]
      },
      "properties": {
        "id": 1294590220,
        "osm_type": "node",
        "name": "K-Supermarket Lehmo",
        "opening_hours": "Mo-Sa 06:30-21:00; Su 09:00-21:00"
      }
    },
    {
      "type": "Feature",
      "geometry": {
        "type": "Point",
        "coordinates": [
          29.0124744,
          62.7268823
        ]
      },
      "properties": {
        "id": 1395171033,
        "osm_type": "node",
        "name": "S-market",
        "brand": "S-market",
        "opening_hours": "Mo-Sa 07:00-22:00; Su 09:00-22:00",
        "check_date": "2024-05-19"
      }
    },
    {
      "type": "Feature",
      "geometry": {
        "type": "Point",
        "coordinates": [
          29.3681305,
          62.8531547
        ]
      },
      "properties": {
        "id": 1505661935,
        "osm_type": "node",
        "name": "S-market",
        "brand": "S-market",
        "opening_hours": "Mo-Sa 07:00-21:00; Su 09:00-21:00"
      }
    },
    {
      "type": "Feature",
      "geometry": {
        "type": "Point",
        "coordinates": [
          28.8162602,
          63.6779455
        ]
      },
      "properties": {
        "id": 2197916977,
        "osm_type": "node",
        "name": "S-market",
        "brand": "S-market",
        "opening_hours": "Mo-Sa 07:00-21:00; Su 09:00-21:00"
      }
    },
    {
      "type": "Feature",
      "geometry": {
        "type": "Point",
        "coordinates": [
          29.5492673,
          62.6142218
        ]
      },
      "properties": {
        "id": 2841444992,
        "osm_type": "node",
        "name": "S-market",
        "brand": "S-market",
        "opening_hours": "Mo-Sa 07:00-22:00; Su 09:00-21:00"
      }
    },
    {
      "type": "Feature",
      "geometry": {
        "type": "Point",
        "coordinates": [
          29.7330015,
          62.6149404
        ]
      },
      "properties": {
        "id": 3181329325,
        "osm_type": "node",
        "name": "S-market Siilainen",
        "brand": "S-market",
        "opening_hours": "Mo-Fr 07:00-22:00; Sa 07:00-21:00; Su 09:00-21:00"
      }
    },
    {
      "type": "Feature",
      "geometry": {
        "type": "Point",
        "coordinates": [
          29.2649477,
          63.2474507
        ]
      },
      "properties": {
        "id": 5894265754,
        "osm_type": "node",
        "name": "S-market",
        "brand": "S-market",
        "opening_hours": "Mo-Sa 06:00-22:00; Su 08:00-22:00"
      }
    },
    {
      "type": "Feature",
      "geometry": {
        "type": "Point",
        "coordinates": [
          29.8263683,
          61.8924592
        ]
      },
      "properties": {
        "id": 8515539813,
        "osm_type": "node",
        "name": "S-market",
        "brand": "S-market",
        "opening_hours": "Mo-Sa 07:00-21:00; Su 09:00-21:00"
      }
    },
    {
      "type": "Feature",
      "geometry": {
        "type": "Point",
        "coordinates": [
          29.704114,
          62.6277367
        ]
      },
      "properties": {
        "id": 10253710161,
        "osm_type": "node",
        "name": "K-Citymarket",
        "brand": "K-Citymarket",
        "opening_hours": "Mo-Su 08:00-22:00"
      }
    },
    {
      "type": "Feature",
      "geometry": {
        "type": "Point",
        "coordinates": [
          29.7519784,
          62.6000149
        ]
      },
      "properties": {
        "id": 12350664534,
        "osm_type": "node",
        "name": "S-market",
        "brand": "S-market",
        "opening_hours": "Mo-Sa 07:00-23:00; Su 09:00-23:00"
      }
    },
    {
      "type": "Feature",
      "geometry": {
        "type": "Point",
        "coordinates": [
          30.0234088,
          63.3185701
        ]
      },
      "properties": {
        "id": 24288108,
        "osm_type": "way",
        "name": "K-Citymarket",
        "brand": "K-Citymarket",
        "opening_hours": "Mo-Fr 07:00-21:00; Sa 08:00-20:00; Su 10:00-20:00"
      }
    },
    {
      "type": "Feature",
      "geometry": {
        "type": "Point",
        "coordinates": [
          30.0287756,
          63.3185309
        ]
      },
      "properties": {
        "id": 24288295,
        "osm_type": "way",
        "name": "S-market",
        "brand": "S-market",
        "opening_hours": "Mo-Fr 07:00-22:00; Sa 07:00-22:00; Su 09:00-22:00"
      }
    },
    {
      "type": "Feature",
      "geometry": {
        "type": "Point",
        "coordinates": [
          30.0240275,
          63.3172959
        ]
      },
      "properties": {
        "id": 24300653,
        "osm_type": "way",
        "name": "Lidl",
        "brand": "Lidl",
        "opening_hours": "Mo-Fr 09:00-21:00; Sa 09:00-18:00; Su 12:00-18:00"
      }
    },
    {
      "type": "Feature",
      "geometry": {
        "type": "Point",
        "coordinates": [
          29.773358,
          62.6295313
        ]
      },
      "properties": {
        "id": 39094917,
        "osm_type": "way",
        "name": "Tokmanni",
        "brand": "Tokmanni",
        "opening_hours": "Mo-Fr 07:00-21:00; Sa 07:00-20:00; Su 10:00-20:00"
      }
    },
    {
      "type": "Feature",
      "geometry": {
        "type": "Point",
        "coordinates": [
          29.8206925,
          62.6158434
        ]
      },
      "properties": {
        "id": 53754460,
        "osm_type": "way",
        "name": "S-market",
        "brand": "S-market",
        "opening_hours": "Mo-Sa 07:00-23:00; Su 09:00-23:00"
      }
    },
    {
      "type": "Feature",
      "geometry": {
        "type": "Point",
        "coordinates": [
          29.8570901,
          62.6192006
        ]
      },
      "properties": {
        "id": 54173504,
        "osm_type": "way",
        "name": "S-market",
        "brand": "S-market",
        "opening_hours": "Mo-Sa 07:00-22:00; Su 09:00-22:00"
      }
    },
    {
      "type": "Feature",
      "geometry": {
        "type": "Point",
        "coordinates": [
          29.8162078,
          62.6148108
        ]
      },
      "properties": {
        "id": 55447872,
        "osm_type": "way",
        "name": "K-Supermarket",
        "brand": "K-Supermarket",
        "opening_hours": "Mo-Fr 07:00-22:00; Sa 08:00-22:00; Su 11:00-22:00"
      }
    },
    {
      "type": "Feature",
      "geometry": {
        "type": "Point",
        "coordinates": [
          29.7688951,
          62.61856
        ]
      },
      "properties": {
        "id": 87964342,
        "osm_type": "way",
        "name": "Lidl",
        "brand": "Lidl",
        "opening_hours": "Mo-Fr 08:00-22:00; Sa 08:00-21:00; Su 09:00-21:00"
      }
    },
    {
      "type": "Feature",
      "geometry": {
        "type": "Point",
        "coordinates": [
          29.6946698,
          62.628342
        ]
      },
      "properties": {
        "id": 88127142,
        "osm_type": "way",
        "name": "S-market",
        "brand": "S-market",
        "opening_hours": "Mo-Sa 07:00-23:00; Su 09:00-23:00"
      }
    },
    {
      "type": "Feature",
      "geometry": {
        "type": "Point",
        "coordinates": [
          29.7768418,
          62.6166314
        ]
      },
      "properties": {
        "id": 131566223,
        "osm_type": "way",
        "name": "Prisma",
        "brand": "Prisma",
        "opening_hours": "Mo-Sa 08:00-22:00; Su 09:00-22:00"
      }
    },
    {
      "type": "Feature",
      "geometry": {
        "type": "Point",
        "coordinates": [
          29.9684354,
          62.4338982
        ]
      },
      "properties": {
        "id": 260465520,
        "osm_type": "way",
        "name": "S-market",
        "brand": "S-market",
        "opening_hours": "Mo-Sa 07:00-22:00; Su 09:00-22:00",
        "check_date": "2023-06-30"
      }
    },
    {
      "type": "Feature",
      "geometry": {
        "type": "Point",
        "coordinates": [
          29.7701948,
          62.5812355
        ]
      },
      "properties": {
        "id": 266301165,
        "osm_type": "way",
        "name": "S-market",
        "brand": "S-market",
        "opening_hours": "Mo-Sa 07:00-22:00; Su 09:00-22:00"
      }
    },
    {
      "type": "Feature",
      "geometry": {
        "type": "Point",
        "coordinates": [
          30.1554891,
          62.798274
        ]
      },
      "properties": {
        "id": 325906591,
        "osm_type": "way",
        "name": "S-market",
        "brand": "S-market",
        "opening_hours": "Mo-Sa 07:00-21:00; Su 09:00-21:00"
      }
    },
    {
      "type": "Feature",
      "geometry": {
        "type": "Point",
        "coordinates": [
          30.2522983,
          62.9148718
        ]
      },
      "properties": {
        "id": 344201628,
        "osm_type": "way",
        "name": "S-market",
        "brand": "S-market",
        "opening_hours": "Mo-Sa 07:00-21:00; Su 09:00-21:00"
      }
    },
    {
      "type": "Feature",
      "geometry": {
        "type": "Point",
        "coordinates": [
          29.8371498,
          62.5997536
        ]
      },
      "properties": {
        "id": 376092484,
        "osm_type": "way",
        "name": "S-market",
        "brand": "S-market",
        "opening_hours": "Mo-Sa 07:00-22:00; Su 09:00-22:00; PH off"
      }
    },
    {
      "type": "Feature",
      "geometry": {
        "type": "Point",
        "coordinates": [
          30.1464882,
          62.096836
        ]
      },
      "properties": {
        "id": 382854157,
        "osm_type": "way",
        "name": "S-market",
        "brand": "S-market",
        "opening_hours": "Mo-Sa 07:00-22:00; Su 09:00-22:00",
        "check_date": "2023-07-01"
      }
    },
    {
      "type": "Feature",
      "geometry": {
        "type": "Point",
        "coordinates": [
          29.383953,
          62.5282744
        ]
      },
      "properties": {
        "id": 421349893,
        "osm_type": "way",
        "name": "S-market",
        "brand": "S-market",
        "opening_hours": "Mo-Sa 07:00-21:00; Su 09:00-21:00"
      }
    },
    {
      "type": "Feature",
      "geometry": {
        "type": "Point",
        "coordinates": [
          29.8396557,
          62.544066
        ]
      },
      "properties": {
        "id": 429753245,
        "osm_type": "way",
        "name": "S-market",
        "brand": "S-market",
        "opening_hours": "Mo-Sa 07:00-22:00; Su 09:00-22:90"
      }
    },
    {
      "type": "Feature",
      "geometry": {
        "type": "Point",
        "coordinates": [
          29.7066572,
          62.6295553
        ]
      },
      "properties": {
        "id": 452425803,
        "osm_type": "way",
        "name": "Lidl",
        "brand": "Lidl",
        "opening_hours": "Mo-Sa 08:00-22:00; Sa 08:00-21:00; Su 09:00-21:00"
      }
    },
    {
      "type": "Feature",
      "geometry": {
        "type": "Point",
        "coordinates": [
          30.9354598,
          62.6717888
        ]
      },
      "properties": {
        "id": 454344517,
        "osm_type": "way",
        "name": "S-market",
        "brand": "S-market",
        "opening_hours": "Mo-Sa 07:00-21:00; Su 09:00-21:00"
      }
    },
    {
      "type": "Feature",
      "geometry": {
        "type": "Point",
        "coordinates": [
          29.6236826,
          62.3147285
        ]
      },
      "properties": {
        "id": 463230202,
        "osm_type": "way",
        "name": "S-market",
        "brand": "S-market",
        "opening_hours": "Mo-Sa 07:00-21:00; Su 09:00-21:00"
      }
    },
    {
      "type": "Feature",
      "geometry": {
        "type": "Point",
        "coordinates": [
          29.8468709,
          62.7655947
        ]
      },
      "properties": {
        "id": 544709631,
        "osm_type": "way",
        "name": "S-market",
        "brand": "S-market",
        "opening_hours": "Mo-Sa 07:00-22:00; Su 09:00-22:00"
      }
    },
    {
      "type": "Feature",
      "geometry": {
        "type": "Point",
        "coordinates": [
          29.767841,
          62.5947381
        ]
      },
      "properties": {
        "id": 597073635,
        "osm_type": "way",
        "name": "S-market",
        "brand": "S-market",
        "opening_hours": "Mo-Fr 07:00-22:00; Sa 07:00-22:00; Su 10:00-22:00"
      }
    },
    {
      "type": "Feature",
      "geometry": {
        "type": "Point",
        "coordinates": [
          28.6304071,
          62.4254157
        ]
      },
      "properties": {
        "id": 625359516,
        "osm_type": "way",
        "name": "S-market",
        "brand": "S-market",
        "opening_hours": "Mo-Sa 07:00-21:00; Su 09:00-21:00"
      }
    },
    {
      "type": "Feature",
      "geometry": {
        "type": "Point",
        "coordinates": [
          29.7935536,
          62.6748695
        ]
      },
      "properties": {
        "id": 684599898,
        "osm_type": "way",
        "name": "S-market",
        "brand": "S-market",
        "opening_hours": "Mo-Sa 07:00-22:00; Su 10:00-22:00"
      }
    },
    {
      "type": "Feature",
      "geometry": {
        "type": "Point",
        "coordinates": [
          29.7945402,
          62.6270915
        ]
      },
      "properties": {
        "id": 713910448,
        "osm_type": "way",
        "name": "S-market",
        "brand": "S-market",
        "opening_hours": "Mo-Fr 07:00-22:00; Sa 07:00-22:00; Su 09:00-22:00"
      }
    },
    {
      "type": "Feature",
      "geometry": {
        "type": "Point",
        "coordinates": [
          29.76218,
          62.6031787
        ]
      },
      "properties": {
        "id": 1206941485,
        "osm_type": "way",
        "name": "S-market",
        "brand": "S-market",
        "opening_hours": "Mo-Fr 07:00-22:00; Sa 07:00-22:00; Su 09:00-22:00"
      }
    },
    {
      "type": "Feature",
      "geometry": {
        "type": "Point",
        "coordinates": [
          29.8135798,
          62.5902776
        ]
      },
      "properties": {
        "id": 1485815195,
        "osm_type": "way",
        "name": "Lidl",
        "brand": "Lidl",
        "opening_hours": "Mo-Fr 08:00-22:00; Sa 08:00-21:00; Su 09:00-21:00"
      }
    }
  ]
}