{
  "type": "FeatureCollection",
  "features": [
    {
      "type": "Feature",
      "geometry": {
        "type": "Point",
        "coordinates": [
          21.9219008,
          46.1711614
        ]
      },
      "properties": {
        "id": 1170944663,
        "osm_type": "way",
        "name": "Fostul Refugiu Stranașa",
        "access": "no",
        "capacity": "13",
        "operator": "Serviciul de voluntariat montan Arad"
      }
    },
    {
      "type": "Feature",
      "geometry": {
        "type": "Point",
        "coordinates": [
          22.3168346,
          46.1594518
        ]
      },
      "properties": {
        "id": 1236401443,
        "osm_type": "way",
        "name": "Cabana Sasa"
      }
    }
  ]
}