{
  "type": "FeatureCollection",
  "features": [
    {
      "type": "Feature",
      "geometry": {
        "type": "Point",
        "coordinates": [
          16.5499055,
          59.610713
        ]
      },
      "properties": {
        "id": 78457210,
        "osm_type": "node",
        "name": "McDonald's",
        "brand": "McDonald's",
        "opening_hours": "Mo-Th,Su 09:00-24:00; Fr-Sa 09:00-04:00",
        "operator": "McDonald's",
        "brand:wikidata": "Q38076",
        "chain": "mcdonalds"
      }
    },
    {
      "type": "Feature",
      "geometry": {
        "type": "Point",
        "coordinates": [
          16.5822244,
          59.632471
        ]
      },
      "properties": {
        "id": 1675872801,
        "osm_type": "node",
        "name": "Burger King",
        "brand": "Burger King",
        "operator": "Burger King",
        "brand:wikidata": "Q177054",
        "chain": "burger_king"
      }
    },
    {
      "type": "Feature",
      "geometry": {
        "type": "Point",
        "coordinates": [
          16.5636421,
          59.6362998
        ]
      },
      "properties": {
        "id": 96211579,
        "osm_type": "way",
        "name": "McDonald's",
        "brand": "McDonald's",
        "brand:wikidata": "Q38076",
        "chain": "mcdonalds"
      }
    },
    {
      "type": "Feature",
      "geometry": {
        "type": "Point",
        "coordinates": [
          16.4699767,
          59.6130672
        ]
      },
      "properties": {
        "id": 115015438,
        "osm_type": "way",
        "name": "McDonald's",
        "brand": "McDonald's",
        "opening_hours": "24/7",
        "operator": "McDonald's",
        "brand:wikidata": "Q38076",
        "chain": "mcdonalds"
      }
    },
    {
      "type": "Feature",
      "geometry": {
        "type": "Point",
        "coordinates": [
          16.6250206,
          59.6092243
        ]
      },
      "properties": {
        "id": 159080599,
        "osm_type": "way",
        "name": "McDonald's",
        "brand": "McDonald's",
        "operator": "McDonalds",
        "brand:wikidata": "Q38076",
        "chain": "mcdonalds"
      }
    },
    {
      "type": "Feature",
      "geometry": {
        "type": "Point",
        "coordinates": [
          15.8276871,
          59.4257803
        ]
      },
      "properties": {
        "id": 297487523,
        "osm_type": "way",
        "name": "McDonald's",
        "brand": "McDonald's",
        "opening_hours": "24/7",
        "operator": "McDonald's",
        "brand:wikidata": "Q38076",
        "chain": "mcdonalds"
      }
    },
    {
      "type": "Feature",
      "geometry": {
        "type": "Point",
        "coordinates": [
          15.9682586,
          59.5189775
        ]
      },
      "properties": {
        "id": 527349177,
        "osm_type": "way",
        "name": "McDonald's",
        "brand": "McDonald's",
        "brand:wikidata": "Q38076",
        "chain": "mcdonalds"
      }
    }
  ]
}