{
  "type": "FeatureCollection",
  "features": [
    {
      "type": "Feature",
      "geometry": {
        "type": "Point",
        "coordinates": [
          10.8621541,
          59.7857391
        ]
      },
      "properties": {
        "id": 1767277329,
        "osm_type": "node"
      }
    },
    {
      "type": "Feature",
      "geometry": {
        "type": "Point",
        "coordinates": [
          10.9887242,
          59.8809967
        ]
      },
      "properties": {
        "id": 2140575626,
        "osm_type": "node",
        "name": "Vannpost",
        "operator": "Nedre Romerike Vannverk"
      }
    },
    {
      "type": "Feature",
      "geometry": {
        "type": "Point",
        "coordinates": [
          10.4960972,
          59.4840027
        ]
      },
      "properties": {
        "id": 2390922293,
        "osm_type": "node"
      }
    },
    {
      "type": "Feature",
      "geometry": {
        "type": "Point",
        "coordinates": [
          10.6044494,
          59.6763197
        ]
      },
      "properties": {
        "id": 2984199668,
        "osm_type": "node"
      }
    },
    {
      "type": "Feature",
      "geometry": {
        "type": "Point",
        "coordinates": [
          10.5317364,
          59.8861971
        ]
      },
      "properties": {
        "id": 3673516571,
        "osm_type": "node"
      }
    },
    {
      "type": "Feature",
      "geometry": {
        "type": "Point",
        "coordinates": [
          10.5104017,
          59.7428453
        ]
      },
      "properties": {
        "id": 4280214561,
        "osm_type": "node"
      }
    },
    {
      "type": "Feature",
      "geometry": {
        "type": "Point",
        "coordinates": [
          10.4429829,
          59.8350851
        ]
      },
      "properties": {
        "id": 4575047463,
        "osm_type": "node",
        "name": "Circle K Asker"
      }
    },
    {
      "type": "Feature",
      "geometry": {
        "type": "Point",
        "coordinates": [
          11.4488373,
          60.1622551
        ]
      },
      "properties": {
        "id": 4825381680,
        "osm_type": "node"
      }
    },
    {
      "type": "Feature",
      "geometry": {
        "type": "Point",
        "coordinates": [
          11.4498666,
          60.1623852
        ]
      },
      "properties": {
        "id": 4825381681,
        "osm_type": "node"
      }
    },
    {
      "type": "Feature",
      "geometry": {
        "type": "Point",
        "coordinates": [
          11.4501509,
          60.1619705
        ]
      },
      "properties": {
        "id": 4825381684,
        "osm_type": "node"
      }
    },
    {
      "type": "Feature",
      "geometry": {
        "type": "Point",
        "coordinates": [
          11.4496262,
          60.1617605
        ]
      },
      "properties": {
        "id": 4825381687,
        "osm_type": "node"
      }
    },
    {
      "type": "Feature",
      "geometry": {
        "type": "Point",
        "coordinates": [
          11.4504166,
          60.1614872
        ]
      },
      "properties": {
        "id": 4825381688,
        "osm_type": "node"
      }
    },
    {
      "type": "Feature",
      "geometry": {
        "type": "Point",
        "coordinates": [
          11.4499141,
          60.1613599
        ]
      },
      "properties": {
        "id": 4825381689,
        "osm_type": "node"
      }
    },
    {
      "type": "Feature",
      "geometry": {
        "type": "Point",
        "coordinates": [
          11.049165,
          60.1454364
        ]
      },
      "properties": {
        "id": 4882147283,
        "osm_type": "node"
      }
    },
    {
      "type": "Feature",
      "geometry": {
        "type": "Point",
        "coordinates": [
          11.0501746,
          60.1459459
        ]
      },
      "properties": {
        "id": 4882154652,
        "osm_type": "node"
      }
    },
    {
      "type": "Feature",
      "geometry": {
        "type": "Point",
        "coordinates": [
          11.0491518,
          60.1459833
        ]
      },
      "properties": {
        "id": 4882154656,
        "osm_type": "node"
      }
    },
    {
      "type": "Feature",
      "geometry": {
        "type": "Point",
        "coordinates": [
          11.0703555,
          60.12486
        ]
      },
      "properties": {
        "id": 4904890935,
        "osm_type": "node"
      }
    },
    {
      "type": "Feature",
      "geometry": {
        "type": "Point",
        "coordinates": [
          11.1837214,
          60.1458791
        ]
      },
      "properties": {
        "id": 4906606705,
        "osm_type": "node"
      }
    },
    {
      "type": "Feature",
      "geometry": {
        "type": "Point",
        "coordinates": [
          11.2445576,
          60.3237151
        ]
      },
      "properties": {
        "id": 4922798291,
        "osm_type": "node"
      }
    },
    {
      "type": "Feature",
      "geometry": {
        "type": "Point",
        "coordinates": [
          11.244875,
          60.3234187
        ]
      },
      "properties": {
        "id": 4922798293,
        "osm_type": "node"
      }
    },
    {
      "type": "Feature",
      "geometry": {
        "type": "Point",
        "coordinates": [
          11.2444607,
          60.3230528
        ]
      },
      "properties": {
        "id": 4922798308,
        "osm_type": "node"
      }
    },
    {
      "type": "Feature",
      "geometry": {
        "type": "Point",
        "coordinates": [
          11.2438527,
          60.3231109
        ]
      },
      "properties": {
        "id": 4922798309,
        "osm_type": "node"
      }
    },
    {
      "type": "Feature",
      "geometry": {
        "type": "Point",
        "coordinates": [
          11.2429383,
          60.3219988
        ]
      },
      "properties": {
        "id": 4922798373,
        "osm_type": "node"
      }
    },
    {
      "type": "Feature",
      "geometry": {
        "type": "Point",
        "coordinates": [
          11.2421297,
          60.3220846
        ]
      },
      "properties": {
        "id": 4922798376,
        "osm_type": "node"
      }
    },
    {
      "type": "Feature",
      "geometry": {
        "type": "Point",
        "coordinates": [
          11.2434713,
          60.3222153
        ]
      },
      "properties": {
        "id": 4922798388,
        "osm_type": "node"
      }
    },
    {
      "type": "Feature",
      "geometry": {
        "type": "Point",
        "coordinates": [
          11.2443171,
          60.3215913
        ]
      },
      "properties": {
        "id": 4922798409,
        "osm_type": "node"
      }
    },
    {
      "type": "Feature",
      "geometry": {
        "type": "Point",
        "coordinates": [
          11.2444148,
          60.3218551
        ]
      },
      "properties": {
        "id": 4922798410,
        "osm_type": "node"
      }
    },
    {
      "type": "Feature",
      "geometry": {
        "type": "Point",
        "coordinates": [
          11.2447136,
          60.32235
        ]
      },
      "properties": {
        "id": 4922798412,
        "osm_type": "node"
      }
    },
    {
      "type": "Feature",
      "geometry": {
        "type": "Point",
        "coordinates": [
          11.2434527,
          60.3219237
        ]
      },
      "properties": {
        "id": 4922798416,
        "osm_type": "node"
      }
    },
    {
      "type": "Feature",
      "geometry": {
        "type": "Point",
        "coordinates": [
          11.0992261,
          60.1942519
        ]
      },
      "properties": {
        "id": 4954658461,
        "osm_type": "node"
      }
    },
    {
      "type": "Feature",
      "geometry": {
        "type": "Point",
        "coordinates": [
          11.1036381,
          60.1938875
        ]
      },
      "properties": {
        "id": 4971161627,
        "osm_type": "node"
      }
    },
    {
      "type": "Feature",
      "geometry": {
        "type": "Point",
        "coordinates": [
          11.100344,
          60.1959869
        ]
      },
      "properties": {
        "id": 4971161884,
        "osm_type": "node",
        "indoor": "yes",
        "check_date": "2025-06-04"
      }
    },
    {
      "type": "Feature",
      "geometry": {
        "type": "Point",
        "coordinates": [
          11.103568,
          60.1937123
        ]
      },
      "properties": {
        "id": 4971162017,
        "osm_type": "node"
      }
    },
    {
      "type": "Feature",
      "geometry": {
        "type": "Point",
        "coordinates": [
          11.0747621,
          59.9558224
        ]
      },
      "properties": {
        "id": 4976996242,
        "osm_type": "node"
      }
    },
    {
      "type": "Feature",
      "geometry": {
        "type": "Point",
        "coordinates": [
          11.2185157,
          60.0208587
        ]
      },
      "properties": {
        "id": 5154958539,
        "osm_type": "node"
      }
    },
    {
      "type": "Feature",
      "geometry": {
        "type": "Point",
        "coordinates": [
          11.2348496,
          60.0064206
        ]
      },
      "properties": {
        "id": 5156909196,
        "osm_type": "node"
      }
    },
    {
      "type": "Feature",
      "geometry": {
        "type": "Point",
        "coordinates": [
          11.234125,
          60.0076898
        ]
      },
      "properties": {
        "id": 5156909218,
        "osm_type": "node"
      }
    },
    {
      "type": "Feature",
      "geometry": {
        "type": "Point",
        "coordinates": [
          11.2348401,
          60.0068636
        ]
      },
      "properties": {
        "id": 5156910449,
        "osm_type": "node"
      }
    },
    {
      "type": "Feature",
      "geometry": {
        "type": "Point",
        "coordinates": [
          11.2352142,
          60.0077055
        ]
      },
      "properties": {
        "id": 5156910482,
        "osm_type": "node"
      }
    },
    {
      "type": "Feature",
      "geometry": {
        "type": "Point",
        "coordinates": [
          11.2352979,
          60.0086677
        ]
      },
      "properties": {
        "id": 5156910539,
        "osm_type": "node"
      }
    },
    {
      "type": "Feature",
      "geometry": {
        "type": "Point",
        "coordinates": [
          11.2345659,
          60.0081737
        ]
      },
      "properties": {
        "id": 5156910550,
        "osm_type": "node"
      }
    },
    {
      "type": "Feature",
      "geometry": {
        "type": "Point",
        "coordinates": [
          11.2344838,
          60.008529
        ]
      },
      "properties": {
        "id": 5156910555,
        "osm_type": "node"
      }
    },
    {
      "type": "Feature",
      "geometry": {
        "type": "Point",
        "coordinates": [
          10.6856221,
          59.521515
        ]
      },
      "properties": {
        "id": 6033098481,
        "osm_type": "node"
      }
    },
    {
      "type": "Feature",
      "geometry": {
        "type": "Point",
        "coordinates": [
          11.2889886,
          60.3411949
        ]
      },
      "properties": {
        "id": 6131059419,
        "osm_type": "node"
      }
    },
    {
      "type": "Feature",
      "geometry": {
        "type": "Point",
        "coordinates": [
          10.9625961,
          59.9314842
        ]
      },
      "properties": {
        "id": 6299832579,
        "osm_type": "node"
      }
    },
    {
      "type": "Feature",
      "geometry": {
        "type": "Point",
        "coordinates": [
          10.3815158,
          60.2382383
        ]
      },
      "properties": {
        "id": 6551400413,
        "osm_type": "node"
      }
    },
    {
      "type": "Feature",
      "geometry": {
        "type": "Point",
        "coordinates": [
          10.6431035,
          59.6713086
        ]
      },
      "properties": {
        "id": 6634389559,
        "osm_type": "node"
      }
    },
    {
      "type": "Feature",
      "geometry": {
        "type": "Point",
        "coordinates": [
          11.1015478,
          60.1940199
        ]
      },
      "properties": {
        "id": 6864784212,
        "osm_type": "node",
        "access": "yes",
        "fee": "no"
      }
    },
    {
      "type": "Feature",
      "geometry": {
        "type": "Point",
        "coordinates": [
          11.0366853,
          59.953903
        ]
      },
      "properties": {
        "id": 7542181641,
        "osm_type": "node"
      }
    },
    {
      "type": "Feature",
      "geometry": {
        "type": "Point",
        "coordinates": [
          10.4947405,
          59.8539252
        ]
      },
      "properties": {
        "id": 7618694283,
        "osm_type": "node"
      }
    },
    {
      "type": "Feature",
      "geometry": {
        "type": "Point",
        "coordinates": [
          10.9893412,
          59.876677
        ]
      },
      "properties": {
        "id": 7656860897,
        "osm_type": "node"
      }
    },
    {
      "type": "Feature",
      "geometry": {
        "type": "Point",
        "coordinates": [
          10.5335297,
          59.8880921
        ]
      },
      "properties": {
        "id": 7938053805,
        "osm_type": "node"
      }
    },
    {
      "type": "Feature",
      "geometry": {
        "type": "Point",
        "coordinates": [
          10.5327946,
          59.8876694
        ]
      },
      "properties": {
        "id": 7938053808,
        "osm_type": "node"
      }
    },
    {
      "type": "Feature",
      "geometry": {
        "type": "Point",
        "coordinates": [
          10.739157,
          59.6487988
        ]
      },
      "properties": {
        "id": 7996697379,
        "osm_type": "node",
        "name": "Drikkekran utvendig"
      }
    },
    {
      "type": "Feature",
      "geometry": {
        "type": "Point",
        "coordinates": [
          10.5302306,
          59.8889431
        ]
      },
      "properties": {
        "id": 8707436829,
        "osm_type": "node"
      }
    },
    {
      "type": "Feature",
      "geometry": {
        "type": "Point",
        "coordinates": [
          10.5296829,
          59.889178
        ]
      },
      "properties": {
        "id": 8707436830,
        "osm_type": "node"
      }
    },
    {
      "type": "Feature",
      "geometry": {
        "type": "Point",
        "coordinates": [
          10.5282863,
          59.8880317
        ]
      },
      "properties": {
        "id": 8707436831,
        "osm_type": "node"
      }
    },
    {
      "type": "Feature",
      "geometry": {
        "type": "Point",
        "coordinates": [
          10.528746,
          59.8877915
        ]
      },
      "properties": {
        "id": 8707436832,
        "osm_type": "node"
      }
    },
    {
      "type": "Feature",
      "geometry": {
        "type": "Point",
        "coordinates": [
          10.5292831,
          59.8875033
        ]
      },
      "properties": {
        "id": 8707436833,
        "osm_type": "node"
      }
    },
    {
      "type": "Feature",
      "geometry": {
        "type": "Point",
        "coordinates": [
          10.5298234,
          59.8872184
        ]
      },
      "properties": {
        "id": 8707436834,
        "osm_type": "node"
      }
    },
    {
      "type": "Feature",
      "geometry": {
        "type": "Point",
        "coordinates": [
          10.5307486,
          59.8867196
        ]
      },
      "properties": {
        "id": 8707436837,
        "osm_type": "node"
      }
    },
    {
      "type": "Feature",
      "geometry": {
        "type": "Point",
        "coordinates": [
          10.5302665,
          59.8869799
        ]
      },
      "properties": {
        "id": 8707436838,
        "osm_type": "node"
      }
    },
    {
      "type": "Feature",
      "geometry": {
        "type": "Point",
        "coordinates": [
          10.5312424,
          59.8864589
        ]
      },
      "properties": {
        "id": 8707436839,
        "osm_type": "node"
      }
    },
    {
      "type": "Feature",
      "geometry": {
        "type": "Point",
        "coordinates": [
          10.8368618,
          59.7195878
        ]
      },
      "properties": {
        "id": 8953903964,
        "osm_type": "node"
      }
    },
    {
      "type": "Feature",
      "geometry": {
        "type": "Point",
        "coordinates": [
          11.037892,
          59.9540586
        ]
      },
      "properties": {
        "id": 9422196684,
        "osm_type": "node",
        "access": "yes",
        "fee": "no",
        "operator": "Lillestrøm kommune"
      }
    },
    {
      "type": "Feature",
      "geometry": {
        "type": "Point",
        "coordinates": [
          10.5690647,
          59.9235373
        ]
      },
      "properties": {
        "id": 9817399709,
        "osm_type": "node"
      }
    },
    {
      "type": "Feature",
      "geometry": {
        "type": "Point",
        "coordinates": [
          10.5665933,
          59.9241139
        ]
      },
      "properties": {
        "id": 9817404790,
        "osm_type": "node"
      }
    },
    {
      "type": "Feature",
      "geometry": {
        "type": "Point",
        "coordinates": [
          10.5673869,
          59.9236709
        ]
      },
      "properties": {
        "id": 9817439836,
        "osm_type": "node"
      }
    },
    {
      "type": "Feature",
      "geometry": {
        "type": "Point",
        "coordinates": [
          11.0948938,
          60.1949246
        ]
      },
      "properties": {
        "id": 9965250256,
        "osm_type": "node"
      }
    },
    {
      "type": "Feature",
      "geometry": {
        "type": "Point",
        "coordinates": [
          10.4349015,
          59.7866211
        ]
      },
      "properties": {
        "id": 9983269823,
        "osm_type": "node"
      }
    },
    {
      "type": "Feature",
      "geometry": {
        "type": "Point",
        "coordinates": [
          10.5843059,
          59.9334704
        ]
      },
      "properties": {
        "id": 9989403824,
        "osm_type": "node"
      }
    },
    {
      "type": "Feature",
      "geometry": {
        "type": "Point",
        "coordinates": [
          10.4347517,
          59.8349401
        ]
      },
      "properties": {
        "id": 10140068716,
        "osm_type": "node",
        "fee": "no"
      }
    },
    {
      "type": "Feature",
      "geometry": {
        "type": "Point",
        "coordinates": [
          10.4324637,
          59.8358283
        ]
      },
      "properties": {
        "id": 10140083117,
        "osm_type": "node",
        "fee": "no"
      }
    },
    {
      "type": "Feature",
      "geometry": {
        "type": "Point",
        "coordinates": [
          10.986969,
          59.8949768
        ]
      },
      "properties": {
        "id": 10915576207,
        "osm_type": "node"
      }
    },
    {
      "type": "Feature",
      "geometry": {
        "type": "Point",
        "coordinates": [
          10.5853313,
          59.918093
        ]
      },
      "properties": {
        "id": 10958032637,
        "osm_type": "node"
      }
    },
    {
      "type": "Feature",
      "geometry": {
        "type": "Point",
        "coordinates": [
          11.142303,
          60.1468439
        ]
      },
      "properties": {
        "id": 11015713263,
        "osm_type": "node"
      }
    },
    {
      "type": "Feature",
      "geometry": {
        "type": "Point",
        "coordinates": [
          10.5096615,
          60.2100989
        ]
      },
      "properties": {
        "id": 11035671723,
        "osm_type": "node"
      }
    },
    {
      "type": "Feature",
      "geometry": {
        "type": "Point",
        "coordinates": [
          10.5322455,
          59.8878275
        ]
      },
      "properties": {
        "id": 12102836211,
        "osm_type": "node",
        "access": "yes",
        "fee": "no"
      }
    },
    {
      "type": "Feature",
      "geometry": {
        "type": "Point",
        "coordinates": [
          11.0993423,
          60.1942382
        ]
      },
      "properties": {
        "id": 12752848744,
        "osm_type": "node",
        "access": "customers",
        "fee": "no"
      }
    },
    {
      "type": "Feature",
      "geometry": {
        "type": "Point",
        "coordinates": [
          10.5319307,
          59.8884849
        ]
      },
      "properties": {
        "id": 12989593903,
        "osm_type": "node"
      }
    },
    {
      "type": "Feature",
      "geometry": {
        "type": "Point",
        "coordinates": [
          11.0979696,
          60.1942119
        ]
      },
      "properties": {
        "id": 12997242364,
        "osm_type": "node"
      }
    },
    {
      "type": "Feature",
      "geometry": {
        "type": "Point",
        "coordinates": [
          10.7174216,
          59.8712557
        ]
      },
      "properties": {
        "id": 13020734600,
        "osm_type": "node"
      }
    },
    {
      "type": "Feature",
      "geometry": {
        "type": "Point",
        "coordinates": [
          10.7193644,
          59.8698068
        ]
      },
      "properties": {
        "id": 13020769686,
        "osm_type": "node"
      }
    },
    {
      "type": "Feature",
      "geometry": {
        "type": "Point",
        "coordinates": [
          10.7174982,
          59.8713242
        ]
      },
      "properties": {
        "id": 13020792002,
        "osm_type": "node"
      }
    },
    {
      "type": "Feature",
      "geometry": {
        "type": "Point",
        "coordinates": [
          11.2609227,
          60.3270771
        ]
      },
      "properties": {
        "id": 13104216923,
        "osm_type": "node",
        "access": "yes",
        "fee": "no"
      }
    },
    {
      "type": "Feature",
      "geometry": {
        "type": "Point",
        "coordinates": [
          10.5136315,
          59.8933513
        ]
      },
      "properties": {
        "id": 13340920101,
        "osm_type": "node"
      }
    },
    {
      "type": "Feature",
      "geometry": {
        "type": "Point",
        "coordinates": [
          10.7348099,
          59.6942159
        ]
      },
      "properties": {
        "id": 1189997664,
        "osm_type": "way",
        "name": "Vannkiosk",
        "operator": "Ås kommune"
      }
    }
  ]
}