{
  "type": "FeatureCollection",
  "features": [
    {
      "type": "Feature",
      "geometry": {
        "type": "Point",
        "coordinates": [
          11.4684805,
          60.1240644
        ]
      },
      "properties": {
        "id": 247784843,
        "osm_type": "node",
        "name": "La Perla"
      }
    },
    {
      "type": "Feature",
      "geometry": {
        "type": "Point",
        "coordinates": [
          11.4663381,
          60.120049
        ]
      },
      "properties": {
        "id": 251710911,
        "osm_type": "node",
        "name": "Papa Joes"
      }
    },
    {
      "type": "Feature",
      "geometry": {
        "type": "Point",
        "coordinates": [
          11.4687622,
          60.1243022
        ]
      },
      "properties": {
        "id": 251711044,
        "osm_type": "node",
        "name": "Peking Palace"
      }
    },
    {
      "type": "Feature",
      "geometry": {
        "type": "Point",
        "coordinates": [
          11.0071381,
          59.9464062
        ]
      },
      "properties": {
        "id": 268311618,
        "osm_type": "node",
        "name": "Peppes Pizza",
        "brand": "Peppes Pizza",
        "opening_hours": "Mo-Th 11:00-23:00; Fr-Sa 11:00-24:00; Su 13:00-23:00",
        "phone": "+47 22225555",
        "website": "http://www.peppes.no/",
        "cuisine": "pizza"
      }
    },
    {
      "type": "Feature",
      "geometry": {
        "type": "Point",
        "coordinates": [
          10.6585857,
          59.8495984
        ]
      },
      "properties": {
        "id": 292965965,
        "osm_type": "node",
        "name": "Bistroen",
        "cuisine": "chinese"
      }
    },
    {
      "type": "Feature",
      "geometry": {
        "type": "Point",
        "coordinates": [
          10.4322023,
          59.8362206
        ]
      },
      "properties": {
        "id": 308128380,
        "osm_type": "node",
        "name": "Big Horn Steakhouse"
      }
    },
    {
      "type": "Feature",
      "geometry": {
        "type": "Point",
        "coordinates": [
          10.4861225,
          59.809544
        ]
      },
      "properties": {
        "id": 355614091,
        "osm_type": "node",
        "cuisine": "italian"
      }
    },
    {
      "type": "Feature",
      "geometry": {
        "type": "Point",
        "coordinates": [
          10.952787,
          59.918774
        ]
      },
      "properties": {
        "id": 410784280,
        "osm_type": "node",
        "name": "Egon Lørenskog",
        "brand": "Egon",
        "opening_hours": "Mo-Th 10:00-23:00; Fr-Sa 10:00-24:00; Su 11:00-23:00",
        "phone": "+4767907044",
        "website": "https://www.egon.no/restauranter/egon+restaurant+lorenskog",
        "cuisine": "pizza;burger;meat;pasta"
      }
    },
    {
      "type": "Feature",
      "geometry": {
        "type": "Point",
        "coordinates": [
          10.8443216,
          59.7546981
        ]
      },
      "properties": {
        "id": 433516255,
        "osm_type": "node",
        "name": "Ararat",
        "opening_hours": "Mo-Sa 10:00-23:00; Su 12:00-23:00",
        "phone": "+47 64857200"
      }
    },
    {
      "type": "Feature",
      "geometry": {
        "type": "Point",
        "coordinates": [
          10.952587,
          59.98554
        ]
      },
      "properties": {
        "id": 443820651,
        "osm_type": "node",
        "name": "Mortens Kro",
        "phone": "+47 67 067790",
        "website": "https://www.mortenskro.no/",
        "cuisine": "norwegian"
      }
    },
    {
      "type": "Feature",
      "geometry": {
        "type": "Point",
        "coordinates": [
          11.047612,
          59.9559211
        ]
      },
      "properties": {
        "id": 456856929,
        "osm_type": "node",
        "name": "Olivia",
        "check_date": "2025-01-09"
      }
    },
    {
      "type": "Feature",
      "geometry": {
        "type": "Point",
        "coordinates": [
          10.5208618,
          59.8870805
        ]
      },
      "properties": {
        "id": 470664908,
        "osm_type": "node",
        "name": "Peppes Pizza",
        "brand": "Peppes Pizza",
        "cuisine": "pizza",
        "takeaway": "yes"
      }
    },
    {
      "type": "Feature",
      "geometry": {
        "type": "Point",
        "coordinates": [
          10.5053487,
          59.8795638
        ]
      },
      "properties": {
        "id": 470664933,
        "osm_type": "node",
        "name": "Sjøengen House"
      }
    },
    {
      "type": "Feature",
      "geometry": {
        "type": "Point",
        "coordinates": [
          10.5820357,
          59.9613662
        ]
      },
      "properties": {
        "id": 598203826,
        "osm_type": "node"
      }
    },
    {
      "type": "Feature",
      "geometry": {
        "type": "Point",
        "coordinates": [
          10.814056,
          59.765392
        ]
      },
      "properties": {
        "id": 603971362,
        "osm_type": "node"
      }
    },
    {
      "type": "Feature",
      "geometry": {
        "type": "Point",
        "coordinates": [
          10.8365183,
          59.7186178
        ]
      },
      "properties": {
        "id": 603972241,
        "osm_type": "node",
        "name": "Egon Ski",
        "brand": "Egon",
        "opening_hours": "Mo-Th 10:00-23:00; Fr-Sa 10:00-24:00; Su 11:00-22:00",
        "phone": "+47 64870770",
        "website": "https://www.egon.no/restauranter/viken/ski.html",
        "cuisine": "pizza;burger;meat;pasta",
        "outdoor_seating": "yes",
        "takeaway": "yes"
      }
    },
    {
      "type": "Feature",
      "geometry": {
        "type": "Point",
        "coordinates": [
          10.7731403,
          59.7893532
        ]
      },
      "properties": {
        "id": 603973559,
        "osm_type": "node",
        "name": "Villa Sandvigen"
      }
    },
    {
      "type": "Feature",
      "geometry": {
        "type": "Point",
        "coordinates": [
          10.6374665,
          59.9135679
        ]
      },
      "properties": {
        "id": 681304680,
        "osm_type": "node",
        "name": "Tintin"
      }
    },
    {
      "type": "Feature",
      "geometry": {
        "type": "Point",
        "coordinates": [
          10.5119957,
          59.7418231
        ]
      },
      "properties": {
        "id": 705477721,
        "osm_type": "node",
        "name": "Ramton brygge"
      }
    },
    {
      "type": "Feature",
      "geometry": {
        "type": "Point",
        "coordinates": [
          11.0480656,
          59.9518465
        ]
      },
      "properties": {
        "id": 706705282,
        "osm_type": "node",
        "name": "Big Horn Steak House Lillestrøm",
        "opening_hours": "Mo-Th 15:00-22:00; Fr-Sa 15:00-23:00; Su 14:00-22:00",
        "phone": "+47 63 80 07 10",
        "website": "https://bighorn.no/Vaare-restauranter-og-bordbestilling/Lillestroem",
        "cuisine": "steak_house",
        "check_date": "2024-01-29"
      }
    },
    {
      "type": "Feature",
      "geometry": {
        "type": "Point",
        "coordinates": [
          11.047415,
          59.952027
        ]
      },
      "properties": {
        "id": 706705285,
        "osm_type": "node",
        "name": "Mirchi",
        "cuisine": "indian",
        "check_date": "2024-01-29"
      }
    },
    {
      "type": "Feature",
      "geometry": {
        "type": "Point",
        "coordinates": [
          11.047367,
          59.9543419
        ]
      },
      "properties": {
        "id": 710534966,
        "osm_type": "node",
        "name": "Casa Mia",
        "opening_hours": "Mo-Fr 15:00-22:00; Sa 14:00-22:00; Su 13:00-21:00",
        "outdoor_seating": "yes",
        "check_date": "2025-01-29"
      }
    },
    {
      "type": "Feature",
      "geometry": {
        "type": "Point",
        "coordinates": [
          11.0493414,
          59.9556835
        ]
      },
      "properties": {
        "id": 710534974,
        "osm_type": "node",
        "name": "Seasons",
        "check_date": "2025-02-16"
      }
    },
    {
      "type": "Feature",
      "geometry": {
        "type": "Point",
        "coordinates": [
          11.048715,
          59.95745
        ]
      },
      "properties": {
        "id": 710534980,
        "osm_type": "node",
        "name": "Egon Lillestrøm",
        "brand": "Egon",
        "opening_hours": "Mo-Th 10:00-23:00; Fr 10:00-24:00; Sa 11:00-24:00; Su 11:00-23:00",
        "phone": "+47 66 93 63 35",
        "website": "https://egon.no/restauranter/viken/lillestrom.html",
        "cuisine": "pizza;burger;meat;pasta",
        "outdoor_seating": "yes",
        "check_date": "2025-05-02"
      }
    },
    {
      "type": "Feature",
      "geometry": {
        "type": "Point",
        "coordinates": [
          11.0488431,
          59.9577228
        ]
      },
      "properties": {
        "id": 710534981,
        "osm_type": "node",
        "name": "Lillethai",
        "opening_hours": "Mo-Th 14:00-22:00; Fr,Sa 14:00-23:00; PH,Su 14:00-22:00",
        "outdoor_seating": "yes",
        "check_date": "2025-05-02"
      }
    },
    {
      "type": "Feature",
      "geometry": {
        "type": "Point",
        "coordinates": [
          11.049129,
          59.958054
        ]
      },
      "properties": {
        "id": 710551054,
        "osm_type": "node",
        "name": "Chi Restaurant & Bar",
        "opening_hours": "Mo-Tu off; We-Th 16:00-22:00; Fr-Sa 16:00-23:00; Su 15:00-21:00",
        "phone": "+47 63 81 81 88",
        "website": "http://www.chi-restaurant.no/",
        "cuisine": "chinese",
        "outdoor_seating": "no",
        "check_date": "2025-01-08"
      }
    },
    {
      "type": "Feature",
      "geometry": {
        "type": "Point",
        "coordinates": [
          11.042334,
          59.95523
        ]
      },
      "properties": {
        "id": 716797037,
        "osm_type": "node",
        "name": "Domo sushi",
        "phone": "+47 23 23 31 45",
        "cuisine": "sushi",
        "outdoor_seating": "no",
        "check_date": "2025-03-22"
      }
    },
    {
      "type": "Feature",
      "geometry": {
        "type": "Point",
        "coordinates": [
          11.003013,
          59.942451
        ]
      },
      "properties": {
        "id": 716797042,
        "osm_type": "node",
        "name": "Sakura Strømmen",
        "opening_hours": "Tu-Su 13:00-21:00",
        "phone": "+47 63 80 02 90",
        "website": "https://sakurarestaurant.no/",
        "cuisine": "sushi",
        "takeaway": "yes"
      }
    },
    {
      "type": "Feature",
      "geometry": {
        "type": "Point",
        "coordinates": [
          10.4271219,
          59.5596959
        ]
      },
      "properties": {
        "id": 726798368,
        "osm_type": "node",
        "name": "Schulestedet Restaurant & Bar",
        "opening_hours": "Mo-Su 12:00-22:00",
        "phone": "+47 90 74 53 31",
        "website": "https://www.schulestedet.no/",
        "outdoor_seating": "yes"
      }
    },
    {
      "type": "Feature",
      "geometry": {
        "type": "Point",
        "coordinates": [
          10.8008237,
          59.8097984
        ]
      },
      "properties": {
        "id": 861714101,
        "osm_type": "node",
        "name": "China House"
      }
    },
    {
      "type": "Feature",
      "geometry": {
        "type": "Point",
        "coordinates": [
          10.9300495,
          60.0070096
        ]
      },
      "properties": {
        "id": 944180012,
        "osm_type": "node",
        "name": "Li Cafe og Bar"
      }
    },
    {
      "type": "Feature",
      "geometry": {
        "type": "Point",
        "coordinates": [
          10.4363105,
          59.8338747
        ]
      },
      "properties": {
        "id": 1071716362,
        "osm_type": "node",
        "name": "Pizzastua",
        "cuisine": "pizza"
      }
    },
    {
      "type": "Feature",
      "geometry": {
        "type": "Point",
        "coordinates": [
          10.522481,
          59.890104
        ]
      },
      "properties": {
        "id": 1149988406,
        "osm_type": "node",
        "name": "Egon Sandvika",
        "brand": "Egon",
        "opening_hours": "Mo-Sa 10:00-23:00; Su 11:00-23:00",
        "phone": "+4767569106",
        "website": "https://www.egon.no/index.asp?MenuID=2806&DocID=5308",
        "operator": "Egon",
        "cuisine": "pizza;burger;meat;pasta",
        "takeaway": "yes"
      }
    },
    {
      "type": "Feature",
      "geometry": {
        "type": "Point",
        "coordinates": [
          10.4854002,
          59.7930331
        ]
      },
      "properties": {
        "id": 1225126208,
        "osm_type": "node",
        "name": "Kebab Bjerkås"
      }
    },
    {
      "type": "Feature",
      "geometry": {
        "type": "Point",
        "coordinates": [
          11.152077,
          59.829423
        ]
      },
      "properties": {
        "id": 1246009126,
        "osm_type": "node",
        "name": "Antonio's",
        "cuisine": "indian"
      }
    },
    {
      "type": "Feature",
      "geometry": {
        "type": "Point",
        "coordinates": [
          10.6657503,
          59.8602863
        ]
      },
      "properties": {
        "id": 1485578755,
        "osm_type": "node",
        "name": "O' Sole Mio",
        "opening_hours": "We-Su 15:30-21:30",
        "phone": "+47 93 92 61 41",
        "website": "https://www.facebook.com/Osolemionesodden",
        "cuisine": "pizza"
      }
    },
    {
      "type": "Feature",
      "geometry": {
        "type": "Point",
        "coordinates": [
          10.6586415,
          59.849685
        ]
      },
      "properties": {
        "id": 1485579604,
        "osm_type": "node",
        "name": "Flasken"
      }
    },
    {
      "type": "Feature",
      "geometry": {
        "type": "Point",
        "coordinates": [
          11.0374156,
          60.0699215
        ]
      },
      "properties": {
        "id": 1599900474,
        "osm_type": "node"
      }
    },
    {
      "type": "Feature",
      "geometry": {
        "type": "Point",
        "coordinates": [
          11.0372248,
          60.0701233
        ]
      },
      "properties": {
        "id": 1599901749,
        "osm_type": "node"
      }
    },
    {
      "type": "Feature",
      "geometry": {
        "type": "Point",
        "coordinates": [
          10.5597,
          59.917257
        ]
      },
      "properties": {
        "id": 1652242718,
        "osm_type": "node",
        "name": "Spice Rootz",
        "phone": "+47 67 59 15 50",
        "website": "https://www.spicerootz.no/",
        "cuisine": "indian"
      }
    },
    {
      "type": "Feature",
      "geometry": {
        "type": "Point",
        "coordinates": [
          10.8801319,
          60.0466989
        ]
      },
      "properties": {
        "id": 1771460929,
        "osm_type": "node",
        "name": "Babis Pizza",
        "website": "http://www.babis.no/",
        "cuisine": "pizza",
        "takeaway": "only"
      }
    },
    {
      "type": "Feature",
      "geometry": {
        "type": "Point",
        "coordinates": [
          10.9608892,
          59.9280162
        ]
      },
      "properties": {
        "id": 1844700226,
        "osm_type": "node",
        "name": "Uno Mas",
        "opening_hours": "Mo-We 16:00-21:00; Th 16:00-23:00; Fr 16:00-24:00; Sa 12:00-24:00; Su 15:00-21:00",
        "phone": "+47 67 97 24 00",
        "website": "https://www.unomas.no/",
        "cuisine": "tapas",
        "takeaway": "yes"
      }
    },
    {
      "type": "Feature",
      "geometry": {
        "type": "Point",
        "coordinates": [
          10.434023,
          59.834116
        ]
      },
      "properties": {
        "id": 1910691572,
        "osm_type": "node",
        "name": "Peppes Pizza",
        "brand": "Peppes Pizza",
        "opening_hours": "Mo-Su 14:00-21:00",
        "cuisine": "pizza",
        "takeaway": "yes"
      }
    },
    {
      "type": "Feature",
      "geometry": {
        "type": "Point",
        "coordinates": [
          10.9616612,
          59.9276691
        ]
      },
      "properties": {
        "id": 1935662595,
        "osm_type": "node",
        "name": "Buen",
        "phone": "+47 67 97 75 67",
        "website": "https://www.lorenskogcatering.no/",
        "cuisine": "asian;european;szechuan"
      }
    },
    {
      "type": "Feature",
      "geometry": {
        "type": "Point",
        "coordinates": [
          10.9769818,
          59.9200083
        ]
      },
      "properties": {
        "id": 1937377777,
        "osm_type": "node",
        "name": "Sørlikroa"
      }
    },
    {
      "type": "Feature",
      "geometry": {
        "type": "Point",
        "coordinates": [
          10.616395,
          59.888031
        ]
      },
      "properties": {
        "id": 1945332855,
        "osm_type": "node",
        "name": "Jonoe",
        "opening_hours": "Tu-Su 16:00-22:00",
        "website": "https://www.jonoe.no/",
        "cuisine": "sushi",
        "outdoor_seating": "yes",
        "takeaway": "yes"
      }
    },
    {
      "type": "Feature",
      "geometry": {
        "type": "Point",
        "coordinates": [
          10.5866781,
          59.9181331
        ]
      },
      "properties": {
        "id": 2260253822,
        "osm_type": "node",
        "name": "Hunan Restaurant",
        "opening_hours": "Mo 15:00-21:00; Tu-Sa 11:30-22:00; Sa 00:00-22:00",
        "website": "https://www.hunanrestaurant.no",
        "cuisine": "chinese"
      }
    },
    {
      "type": "Feature",
      "geometry": {
        "type": "Point",
        "coordinates": [
          10.5865762,
          59.9165601
        ]
      },
      "properties": {
        "id": 2260263296,
        "osm_type": "node",
        "name": "Bekkestuene bar og restaurant"
      }
    },
    {
      "type": "Feature",
      "geometry": {
        "type": "Point",
        "coordinates": [
          10.586603,
          59.9164176
        ]
      },
      "properties": {
        "id": 2260263651,
        "osm_type": "node",
        "name": "Pizzanini"
      }
    },
    {
      "type": "Feature",
      "geometry": {
        "type": "Point",
        "coordinates": [
          10.5256451,
          59.8920728
        ]
      },
      "properties": {
        "id": 2260306150,
        "osm_type": "node"
      }
    },
    {
      "type": "Feature",
      "geometry": {
        "type": "Point",
        "coordinates": [
          10.5244743,
          59.8909554
        ]
      },
      "properties": {
        "id": 2260308582,
        "osm_type": "node"
      }
    },
    {
      "type": "Feature",
      "geometry": {
        "type": "Point",
        "coordinates": [
          10.523692,
          59.891023
        ]
      },
      "properties": {
        "id": 2260311072,
        "osm_type": "node",
        "name": "Big Horn",
        "opening_hours": "Mo-Th 16:00-22:00; Fr-Sa 15:00-23:00; Su 15:00-22:00",
        "phone": "+47 67547800",
        "cuisine": "steak_house"
      }
    },
    {
      "type": "Feature",
      "geometry": {
        "type": "Point",
        "coordinates": [
          10.5223192,
          59.8893656
        ]
      },
      "properties": {
        "id": 2260318280,
        "osm_type": "node"
      }
    },
    {
      "type": "Feature",
      "geometry": {
        "type": "Point",
        "coordinates": [
          10.5226303,
          59.8892687
        ]
      },
      "properties": {
        "id": 2260318703,
        "osm_type": "node",
        "name": "Bambus sushi"
      }
    },
    {
      "type": "Feature",
      "geometry": {
        "type": "Point",
        "coordinates": [
          10.580722,
          59.8688074
        ]
      },
      "properties": {
        "id": 2260347620,
        "osm_type": "node",
        "name": "Ostøya golfclub"
      }
    },
    {
      "type": "Feature",
      "geometry": {
        "type": "Point",
        "coordinates": [
          10.6862973,
          59.522638
        ]
      },
      "properties": {
        "id": 2285449946,
        "osm_type": "node",
        "name": "Son Kro"
      }
    },
    {
      "type": "Feature",
      "geometry": {
        "type": "Point",
        "coordinates": [
          10.525253,
          59.890434
        ]
      },
      "properties": {
        "id": 2353875636,
        "osm_type": "node",
        "name": "Restaurant Caspar"
      }
    },
    {
      "type": "Feature",
      "geometry": {
        "type": "Point",
        "coordinates": [
          11.0478709,
          59.9743393
        ]
      },
      "properties": {
        "id": 2759418796,
        "osm_type": "node",
        "name": "ISS Kunnskapsbyens hus"
      }
    },
    {
      "type": "Feature",
      "geometry": {
        "type": "Point",
        "coordinates": [
          11.0528706,
          59.9753136
        ]
      },
      "properties": {
        "id": 2759418967,
        "osm_type": "node",
        "name": "ISS IFE/NILU"
      }
    },
    {
      "type": "Feature",
      "geometry": {
        "type": "Point",
        "coordinates": [
          11.445597,
          59.926988
        ]
      },
      "properties": {
        "id": 2848843054,
        "osm_type": "node",
        "cuisine": "thai"
      }
    },
    {
      "type": "Feature",
      "geometry": {
        "type": "Point",
        "coordinates": [
          10.6146042,
          60.2901442
        ]
      },
      "properties": {
        "id": 2919760055,
        "osm_type": "node",
        "name": "Roa Pizza & Grill",
        "phone": "+47 61 32 27 22",
        "website": "https://www.roapizza.no/",
        "cuisine": "pizza;kebab"
      }
    },
    {
      "type": "Feature",
      "geometry": {
        "type": "Point",
        "coordinates": [
          10.6280466,
          59.662523
        ]
      },
      "properties": {
        "id": 2955576271,
        "osm_type": "node",
        "name": "Skipperstuen",
        "website": "http://www.skipperstuen.no",
        "check_date": "2023-04-07"
      }
    },
    {
      "type": "Feature",
      "geometry": {
        "type": "Point",
        "coordinates": [
          10.985224,
          59.940355
        ]
      },
      "properties": {
        "id": 2961887320,
        "osm_type": "node",
        "name": "Fjellhamar Bistro",
        "opening_hours": "Tu-Th 14:00-24:00; Fr-Sa 13:00-01:00; Su 13:00-24:00",
        "phone": "+47 67 902209",
        "cuisine": "chinese",
        "takeaway": "yes"
      }
    },
    {
      "type": "Feature",
      "geometry": {
        "type": "Point",
        "coordinates": [
          10.954789,
          59.926057
        ]
      },
      "properties": {
        "id": 2962602248,
        "osm_type": "node",
        "name": "Bippat Garden",
        "opening_hours": "Mo-Su 14:00-23:00",
        "phone": "+47 67 97 40 80",
        "website": "https://www.bippat.no/",
        "cuisine": "chinese",
        "takeaway": "yes"
      }
    },
    {
      "type": "Feature",
      "geometry": {
        "type": "Point",
        "coordinates": [
          10.981793,
          59.941447
        ]
      },
      "properties": {
        "id": 2963299382,
        "osm_type": "node",
        "name": "Fjellhamar Sushi & Wok",
        "phone": "+47 67 901840",
        "cuisine": "sushi"
      }
    },
    {
      "type": "Feature",
      "geometry": {
        "type": "Point",
        "coordinates": [
          11.007602,
          59.946178
        ]
      },
      "properties": {
        "id": 2972003558,
        "osm_type": "node",
        "name": "new Ambassadør",
        "opening_hours": "Mo-Th 15:00-22:00; Fr 15:00-23:00; Sa 14:00-23:00; Su 14:00-22:00",
        "phone": "+47 66 77 89 00",
        "website": "https://amtr.no/",
        "cuisine": "indian"
      }
    },
    {
      "type": "Feature",
      "geometry": {
        "type": "Point",
        "coordinates": [
          11.007843,
          59.9459944
        ]
      },
      "properties": {
        "id": 3012892755,
        "osm_type": "node",
        "name": "Taco Pizzeria",
        "cuisine": "pizza"
      }
    },
    {
      "type": "Feature",
      "geometry": {
        "type": "Point",
        "coordinates": [
          10.9576327,
          59.9274366
        ]
      },
      "properties": {
        "id": 3029825458,
        "osm_type": "node",
        "name": "Chopstix",
        "cuisine": "chinese"
      }
    },
    {
      "type": "Feature",
      "geometry": {
        "type": "Point",
        "coordinates": [
          10.4753905,
          59.9084396
        ]
      },
      "properties": {
        "id": 3065253711,
        "osm_type": "node",
        "name": "Vøyenenga Pub & Pizza",
        "opening_hours": "Mo-Th 10:00-22:00; Fr-Sa 11:00-22:00; Su 12:00-22:00",
        "cuisine": "pizza"
      }
    },
    {
      "type": "Feature",
      "geometry": {
        "type": "Point",
        "coordinates": [
          10.3927854,
          59.7473772
        ]
      },
      "properties": {
        "id": 3065633011,
        "osm_type": "node",
        "name": "Fushan Restaurant",
        "cuisine": "chinese"
      }
    },
    {
      "type": "Feature",
      "geometry": {
        "type": "Point",
        "coordinates": [
          10.9606083,
          59.9277994
        ]
      },
      "properties": {
        "id": 3096073500,
        "osm_type": "node",
        "name": "Peppes Pizza",
        "brand": "Peppes Pizza",
        "cuisine": "pizza"
      }
    },
    {
      "type": "Feature",
      "geometry": {
        "type": "Point",
        "coordinates": [
          11.171665,
          60.152696
        ]
      },
      "properties": {
        "id": 3110597949,
        "osm_type": "node",
        "name": "Jessheim pizzeria",
        "opening_hours": "Mo-Th 11:00-22:00; Fr,Sa 11:00-23:00; Su 12:00-22:00",
        "phone": "+47 63 01 10 40"
      }
    },
    {
      "type": "Feature",
      "geometry": {
        "type": "Point",
        "coordinates": [
          11.049818,
          59.955141
        ]
      },
      "properties": {
        "id": 3126919837,
        "osm_type": "node",
        "name": "Ichi Sushi",
        "phone": "+47 63 80 09 00",
        "website": "http://www.ichi-sushi.com/",
        "cuisine": "japanese",
        "check_date": "2026-03-15"
      }
    },
    {
      "type": "Feature",
      "geometry": {
        "type": "Point",
        "coordinates": [
          10.5279154,
          59.6820616
        ]
      },
      "properties": {
        "id": 3130612273,
        "osm_type": "node",
        "name": "Spiseriet Sætre gård",
        "website": "https://www.saetregaard.no",
        "check_date": "2023-04-07"
      }
    },
    {
      "type": "Feature",
      "geometry": {
        "type": "Point",
        "coordinates": [
          10.529796,
          59.682396
        ]
      },
      "properties": {
        "id": 3130612281,
        "osm_type": "node",
        "name": "Losen"
      }
    },
    {
      "type": "Feature",
      "geometry": {
        "type": "Point",
        "coordinates": [
          11.3511799,
          60.0339798
        ]
      },
      "properties": {
        "id": 3150668097,
        "osm_type": "node",
        "name": "Auli Pizza & Grill",
        "cuisine": "pizza;burger",
        "takeaway": "yes"
      }
    },
    {
      "type": "Feature",
      "geometry": {
        "type": "Point",
        "coordinates": [
          10.9561992,
          59.9272792
        ]
      },
      "properties": {
        "id": 3163001944,
        "osm_type": "node",
        "name": "Millies Burgerbar",
        "website": "https://www.amami.no/",
        "cuisine": "burger",
        "takeaway": "yes"
      }
    },
    {
      "type": "Feature",
      "geometry": {
        "type": "Point",
        "coordinates": [
          10.5883113,
          59.9164073
        ]
      },
      "properties": {
        "id": 3176736037,
        "osm_type": "node",
        "name": "Maki & Sushi"
      }
    },
    {
      "type": "Feature",
      "geometry": {
        "type": "Point",
        "coordinates": [
          10.4375867,
          60.2591765
        ]
      },
      "properties": {
        "id": 3211497283,
        "osm_type": "node",
        "name": "Oldemors Karjol"
      }
    },
    {
      "type": "Feature",
      "geometry": {
        "type": "Point",
        "coordinates": [
          10.3682234,
          59.7168865
        ]
      },
      "properties": {
        "id": 3476232346,
        "osm_type": "node"
      }
    },
    {
      "type": "Feature",
      "geometry": {
        "type": "Point",
        "coordinates": [
          11.0509699,
          59.9564219
        ]
      },
      "properties": {
        "id": 3513589253,
        "osm_type": "node",
        "name": "Solheimshagen kina restaurant",
        "opening_hours": "Tu-Su 14:00-22:00",
        "phone": "+47 63 81 73 77",
        "website": "http://www.solheimshagenrestaurant.no/",
        "cuisine": "chinese",
        "check_date": "2025-02-25"
      }
    },
    {
      "type": "Feature",
      "geometry": {
        "type": "Point",
        "coordinates": [
          11.0131529,
          59.9533313
        ]
      },
      "properties": {
        "id": 3562003267,
        "osm_type": "node",
        "name": "LAN sushi",
        "phone": "+47 97 00 22 24",
        "cuisine": "sushi"
      }
    },
    {
      "type": "Feature",
      "geometry": {
        "type": "Point",
        "coordinates": [
          11.1044213,
          60.193766
        ]
      },
      "properties": {
        "id": 3651392801,
        "osm_type": "node",
        "name": "Pizza Hut",
        "brand": "Pizza Hut",
        "cuisine": "pizza"
      }
    },
    {
      "type": "Feature",
      "geometry": {
        "type": "Point",
        "coordinates": [
          11.1021664,
          60.1940543
        ]
      },
      "properties": {
        "id": 3651399150,
        "osm_type": "node",
        "name": "O'Learys"
      }
    },
    {
      "type": "Feature",
      "geometry": {
        "type": "Point",
        "coordinates": [
          11.46673,
          60.121962
        ]
      },
      "properties": {
        "id": 3658051025,
        "osm_type": "node",
        "cuisine": "sushi",
        "takeaway": "yes"
      }
    },
    {
      "type": "Feature",
      "geometry": {
        "type": "Point",
        "coordinates": [
          11.009252,
          59.946775
        ]
      },
      "properties": {
        "id": 3679328234,
        "osm_type": "node",
        "name": "Pizzeria da Italia",
        "cuisine": "pizza"
      }
    },
    {
      "type": "Feature",
      "geometry": {
        "type": "Point",
        "coordinates": [
          10.950318,
          59.944243
        ]
      },
      "properties": {
        "id": 4075212710,
        "osm_type": "node",
        "name": "Pizzabakern",
        "phone": "+47 67 90 17 00",
        "website": "https://www.pizzabakeren.no/",
        "cuisine": "pizza",
        "outdoor_seating": "yes",
        "takeaway": "yes"
      }
    },
    {
      "type": "Feature",
      "geometry": {
        "type": "Point",
        "coordinates": [
          10.9905825,
          59.9778935
        ]
      },
      "properties": {
        "id": 4075301441,
        "osm_type": "node",
        "name": "Marché"
      }
    },
    {
      "type": "Feature",
      "geometry": {
        "type": "Point",
        "coordinates": [
          10.5872719,
          59.9174832
        ]
      },
      "properties": {
        "id": 4198323011,
        "osm_type": "node",
        "name": "W.B. Samson",
        "opening_hours": "Mo,Tu 08:00-21:00, We-Fr 08:00-22:00, Sa 09:00-22:00, Su 10:00-21:00"
      }
    },
    {
      "type": "Feature",
      "geometry": {
        "type": "Point",
        "coordinates": [
          11.2187418,
          59.8612727
        ]
      },
      "properties": {
        "id": 4303444333,
        "osm_type": "node"
      }
    },
    {
      "type": "Feature",
      "geometry": {
        "type": "Point",
        "coordinates": [
          11.0193924,
          60.2199018
        ]
      },
      "properties": {
        "id": 4365995444,
        "osm_type": "node",
        "name": "Nannestad restaurant",
        "phone": "+4797081777",
        "website": "http://www.nannestad.vgs.no/om-oss/om-skolen/nannestad-restaurant/"
      }
    },
    {
      "type": "Feature",
      "geometry": {
        "type": "Point",
        "coordinates": [
          11.015488,
          60.219419
        ]
      },
      "properties": {
        "id": 4365995471,
        "osm_type": "node",
        "name": "SAIGON MAT & SUSHI",
        "opening_hours": "Tu-Fr 11:00-21:00; Sa-Su 13:00-21:00",
        "phone": "+4763999661",
        "website": "http://www.saigonms.no/",
        "cuisine": "japanese;sushi",
        "check_date": "2026-02-28"
      }
    },
    {
      "type": "Feature",
      "geometry": {
        "type": "Point",
        "coordinates": [
          11.047589,
          59.951987
        ]
      },
      "properties": {
        "id": 4384130703,
        "osm_type": "node",
        "name": "Fusion Taste",
        "phone": "+47 488 55 355",
        "website": "https://www.fusiontaste.no",
        "check_date": "2024-01-29"
      }
    },
    {
      "type": "Feature",
      "geometry": {
        "type": "Point",
        "coordinates": [
          11.0986869,
          60.1943137
        ]
      },
      "properties": {
        "id": 4395967079,
        "osm_type": "node",
        "name": "Bølgen & Moi",
        "opening_hours": "Su-Fr 06:00-21:00; Sa 07:00-20:00"
      }
    },
    {
      "type": "Feature",
      "geometry": {
        "type": "Point",
        "coordinates": [
          11.0988677,
          60.194326
        ]
      },
      "properties": {
        "id": 4395967080,
        "osm_type": "node",
        "name": "TGI Fridays",
        "brand": "TGI Fridays",
        "cuisine": "american"
      }
    },
    {
      "type": "Feature",
      "geometry": {
        "type": "Point",
        "coordinates": [
          11.1019529,
          60.1940887
        ]
      },
      "properties": {
        "id": 4396025255,
        "osm_type": "node",
        "name": "Foodmarket"
      }
    },
    {
      "type": "Feature",
      "geometry": {
        "type": "Point",
        "coordinates": [
          11.1041076,
          60.1938005
        ]
      },
      "properties": {
        "id": 4396025256,
        "osm_type": "node",
        "name": "Seafood bar"
      }
    },
    {
      "type": "Feature",
      "geometry": {
        "type": "Point",
        "coordinates": [
          10.561466,
          59.915367
        ]
      },
      "properties": {
        "id": 4714728521,
        "osm_type": "node",
        "name": "Fresh Sushi AS",
        "opening_hours": "13:00-21:00",
        "phone": "+47 67 10 67 67",
        "cuisine": "sushi",
        "outdoor_seating": "no",
        "takeaway": "yes"
      }
    },
    {
      "type": "Feature",
      "geometry": {
        "type": "Point",
        "coordinates": [
          10.629593,
          59.664737
        ]
      },
      "properties": {
        "id": 4895012021,
        "osm_type": "node",
        "name": "Kumlegaarden restaurant",
        "website": "https://www.kumlegaarden.no"
      }
    },
    {
      "type": "Feature",
      "geometry": {
        "type": "Point",
        "coordinates": [
          11.1001703,
          60.1950508
        ]
      },
      "properties": {
        "id": 4960277970,
        "osm_type": "node",
        "name": "Pizza Hut",
        "brand": "Pizza Hut",
        "cuisine": "pizza"
      }
    },
    {
      "type": "Feature",
      "geometry": {
        "type": "Point",
        "coordinates": [
          10.6298557,
          59.6631353
        ]
      },
      "properties": {
        "id": 5235594824,
        "osm_type": "node",
        "brand": "Peppes Pizza",
        "cuisine": "pizza",
        "takeaway": "yes",
        "check_date": "2023-04-07"
      }
    },
    {
      "type": "Feature",
      "geometry": {
        "type": "Point",
        "coordinates": [
          10.7745615,
          59.7456999
        ]
      },
      "properties": {
        "id": 5612421046,
        "osm_type": "node",
        "name": "Morgan Kane-Saloonen",
        "cuisine": "mexican"
      }
    },
    {
      "type": "Feature",
      "geometry": {
        "type": "Point",
        "coordinates": [
          10.7784772,
          59.7494867
        ]
      },
      "properties": {
        "id": 5612421047,
        "osm_type": "node",
        "name": "Rockburger",
        "cuisine": "burger"
      }
    },
    {
      "type": "Feature",
      "geometry": {
        "type": "Point",
        "coordinates": [
          10.7744088,
          59.7466587
        ]
      },
      "properties": {
        "id": 5612421048,
        "osm_type": "node",
        "name": "Fryds Favoritter"
      }
    },
    {
      "type": "Feature",
      "geometry": {
        "type": "Point",
        "coordinates": [
          10.7785136,
          59.7453263
        ]
      },
      "properties": {
        "id": 5612421068,
        "osm_type": "node",
        "name": "MidgardsOrmen Asiatiske Favoritter",
        "cuisine": "asian"
      }
    },
    {
      "type": "Feature",
      "geometry": {
        "type": "Point",
        "coordinates": [
          10.7999175,
          59.8108884
        ]
      },
      "properties": {
        "id": 5648123546,
        "osm_type": "node",
        "name": "Kullebunden Spiseri"
      }
    },
    {
      "type": "Feature",
      "geometry": {
        "type": "Point",
        "coordinates": [
          10.8031816,
          59.8103028
        ]
      },
      "properties": {
        "id": 5649066509,
        "osm_type": "node",
        "name": "Fiskehuset"
      }
    },
    {
      "type": "Feature",
      "geometry": {
        "type": "Point",
        "coordinates": [
          11.173233,
          60.280918
        ]
      },
      "properties": {
        "id": 5701625433,
        "osm_type": "node",
        "phone": "+47 63 95 10 44",
        "cuisine": "italian;mexican"
      }
    },
    {
      "type": "Feature",
      "geometry": {
        "type": "Point",
        "coordinates": [
          10.686181,
          59.523979
        ]
      },
      "properties": {
        "id": 5798539784,
        "osm_type": "node",
        "name": "Sjøboden",
        "outdoor_seating": "yes"
      }
    },
    {
      "type": "Feature",
      "geometry": {
        "type": "Point",
        "coordinates": [
          11.015632,
          60.219526
        ]
      },
      "properties": {
        "id": 5840523587,
        "osm_type": "node",
        "name": "Nannestad pizzabar",
        "opening_hours": "Mo-Th 11:00-22:00; Fr 11:00-23:00; Sa 01:00-23:00; Su 13:00-22:00",
        "phone": "+47 63 99 85 50",
        "website": "https://www.nannestadpizza.no/",
        "cuisine": "pizza;international",
        "outdoor_seating": "yes",
        "takeaway": "yes"
      }
    },
    {
      "type": "Feature",
      "geometry": {
        "type": "Point",
        "coordinates": [
          10.83662,
          59.718304
        ]
      },
      "properties": {
        "id": 5999988499,
        "osm_type": "node",
        "name": "Peppes Pizza",
        "brand": "Peppes Pizza",
        "opening_hours": "Mo-Th 11:00-22:00; Fr 11:00-23:00; Sa 13:00-23:00; Su 13:00-22:00",
        "cuisine": "pizza"
      }
    },
    {
      "type": "Feature",
      "geometry": {
        "type": "Point",
        "coordinates": [
          10.83742,
          59.719853
        ]
      },
      "properties": {
        "id": 6001189516,
        "osm_type": "node",
        "name": "Tandoori Palace",
        "opening_hours": "Tu-Th 15:00-22:00; Fr-Sa 15:00-23:00; Su 15:00-22:00",
        "phone": "+47 64873707",
        "website": "https://tandooripalace.no/",
        "cuisine": "indian"
      }
    },
    {
      "type": "Feature",
      "geometry": {
        "type": "Point",
        "coordinates": [
          10.8367845,
          59.7200435
        ]
      },
      "properties": {
        "id": 6001194155,
        "osm_type": "node",
        "name": "Lotus House",
        "opening_hours": "Tu-Th 14:00-22:00; Fr 14:00-23:00; Sa 13:00-23:00; Su 13:00-22:00",
        "phone": "+47 64 87 15 01",
        "cuisine": "chinese"
      }
    },
    {
      "type": "Feature",
      "geometry": {
        "type": "Point",
        "coordinates": [
          10.836724,
          59.71905
        ]
      },
      "properties": {
        "id": 6003345437,
        "osm_type": "node",
        "name": "Tataki",
        "opening_hours": "Mo-Th 15:00-21:00; Fr-Su 13:00-21:00",
        "phone": "+47 64 87 45 54",
        "website": "https://tatakirestaurant.no/",
        "cuisine": "asian"
      }
    },
    {
      "type": "Feature",
      "geometry": {
        "type": "Point",
        "coordinates": [
          10.687054,
          59.52376
        ]
      },
      "properties": {
        "id": 6034798998,
        "osm_type": "node",
        "name": "Café Oliven",
        "outdoor_seating": "yes"
      }
    },
    {
      "type": "Feature",
      "geometry": {
        "type": "Point",
        "coordinates": [
          10.6867121,
          59.5235563
        ]
      },
      "properties": {
        "id": 6034798999,
        "osm_type": "node",
        "name": "La Paz",
        "cuisine": "spanish",
        "outdoor_seating": "yes"
      }
    },
    {
      "type": "Feature",
      "geometry": {
        "type": "Point",
        "coordinates": [
          10.687484,
          59.5239814
        ]
      },
      "properties": {
        "id": 6034799026,
        "osm_type": "node",
        "name": "Ristorante 24",
        "cuisine": "italian",
        "outdoor_seating": "yes"
      }
    },
    {
      "type": "Feature",
      "geometry": {
        "type": "Point",
        "coordinates": [
          10.71651,
          60.207041
        ]
      },
      "properties": {
        "id": 6475920348,
        "osm_type": "node",
        "name": "Gamle Oppland",
        "phone": "+4790095488",
        "cuisine": "regional"
      }
    },
    {
      "type": "Feature",
      "geometry": {
        "type": "Point",
        "coordinates": [
          11.0487109,
          59.9593141
        ]
      },
      "properties": {
        "id": 6693513056,
        "osm_type": "node",
        "name": "Feniqia",
        "opening_hours": "Mo-Th 16:00-22:00; Fr 16:00-23:00; Sa 14:00-23:00; Su 14:00-21:00",
        "cuisine": "lebanese;mediterranean",
        "outdoor_seating": "yes",
        "check_date": "2025-01-26"
      }
    },
    {
      "type": "Feature",
      "geometry": {
        "type": "Point",
        "coordinates": [
          11.0473828,
          59.9554105
        ]
      },
      "properties": {
        "id": 6693513071,
        "osm_type": "node",
        "name": "Mirabel",
        "outdoor_seating": "yes",
        "check_date": "2025-01-29"
      }
    },
    {
      "type": "Feature",
      "geometry": {
        "type": "Point",
        "coordinates": [
          10.9495422,
          59.9190375
        ]
      },
      "properties": {
        "id": 6761599937,
        "osm_type": "node",
        "name": "Kakudai Sushi AS",
        "opening_hours": "Tu-Su 15:00-20:30",
        "phone": "+47 67 97 08 88",
        "website": "https://www.kakudai.no/",
        "cuisine": "sushi;asian",
        "takeaway": "yes"
      }
    },
    {
      "type": "Feature",
      "geometry": {
        "type": "Point",
        "coordinates": [
          11.0492776,
          59.9597105
        ]
      },
      "properties": {
        "id": 6806589839,
        "osm_type": "node",
        "name": "Americana grill & bar",
        "opening_hours": "Mo-Th 11:00-23:00; Fr,Sa 11:00-03:00, Su 12:00-22:00",
        "website": "https://americana.no/lillestrom/",
        "cuisine": "american;burger;grill",
        "outdoor_seating": "no",
        "check_date": "2025-01-26"
      }
    },
    {
      "type": "Feature",
      "geometry": {
        "type": "Point",
        "coordinates": [
          11.0483191,
          59.9565011
        ]
      },
      "properties": {
        "id": 6874391724,
        "osm_type": "node",
        "name": "Taste of Asia",
        "website": "https://tasteofasia.no",
        "check_date": "2025-01-29"
      }
    },
    {
      "type": "Feature",
      "geometry": {
        "type": "Point",
        "coordinates": [
          11.0477474,
          59.9568749
        ]
      },
      "properties": {
        "id": 6928756416,
        "osm_type": "node",
        "name": "Zabb Thai",
        "opening_hours": "Mo-Th 15:00-23:00; Fr,Sa 15:00-02:00, Su 16:00-23:00",
        "phone": "+47 479 49 698",
        "takeaway": "yes",
        "check_date": "2024-01-24"
      }
    },
    {
      "type": "Feature",
      "geometry": {
        "type": "Point",
        "coordinates": [
          11.0526041,
          59.955965
        ]
      },
      "properties": {
        "id": 7070302523,
        "osm_type": "node",
        "name": "Laari Adda",
        "opening_hours": "Mo off; Tu-Th,Su 15:00-22:00; Fr-Sa 15:00-23:00",
        "cuisine": "indian",
        "check_date": "2025-01-28"
      }
    },
    {
      "type": "Feature",
      "geometry": {
        "type": "Point",
        "coordinates": [
          11.0491244,
          59.9578069
        ]
      },
      "properties": {
        "id": 7073178333,
        "osm_type": "node",
        "name": "Moshi Moshi",
        "opening_hours": "Mo-Fr 12:00-21:00; Sa-Su 13:00-21:00",
        "website": "https://www.moshimoshi.no/",
        "cuisine": "sushi",
        "check_date": "2024-04-06"
      }
    },
    {
      "type": "Feature",
      "geometry": {
        "type": "Point",
        "coordinates": [
          11.0460319,
          59.9524147
        ]
      },
      "properties": {
        "id": 7660948196,
        "osm_type": "node",
        "name": "Bruket",
        "opening_hours": "Mo-Sa 12:00-22:00; Su off",
        "phone": "+47 23 00 23 31",
        "outdoor_seating": "yes",
        "check_date": "2024-11-22"
      }
    },
    {
      "type": "Feature",
      "geometry": {
        "type": "Point",
        "coordinates": [
          11.0106665,
          59.9487429
        ]
      },
      "properties": {
        "id": 7745550487,
        "osm_type": "node",
        "name": "Masala Library",
        "check_date": "2024-01-27"
      }
    },
    {
      "type": "Feature",
      "geometry": {
        "type": "Point",
        "coordinates": [
          11.0106464,
          59.9486697
        ]
      },
      "properties": {
        "id": 7745550489,
        "osm_type": "node",
        "name": "Pho Hien",
        "outdoor_seating": "no",
        "check_date": "2024-01-27"
      }
    },
    {
      "type": "Feature",
      "geometry": {
        "type": "Point",
        "coordinates": [
          10.3860509,
          60.2409757
        ]
      },
      "properties": {
        "id": 7754343910,
        "osm_type": "node",
        "name": "Corner'n"
      }
    },
    {
      "type": "Feature",
      "geometry": {
        "type": "Point",
        "coordinates": [
          10.835623,
          59.718318
        ]
      },
      "properties": {
        "id": 7768160919,
        "osm_type": "node",
        "name": "Sushi Søstre Restaurant",
        "opening_hours": "Mo-Su 13:00-21:00",
        "phone": "+47 672 10 167",
        "website": "https://www.sushisostre.com/",
        "cuisine": "thai;sushi",
        "takeaway": "yes"
      }
    },
    {
      "type": "Feature",
      "geometry": {
        "type": "Point",
        "coordinates": [
          10.621769,
          59.9469042
        ]
      },
      "properties": {
        "id": 7783715587,
        "osm_type": "node",
        "name": "Sabi sushi",
        "opening_hours": "Mo-Su 14:00-21:00"
      }
    },
    {
      "type": "Feature",
      "geometry": {
        "type": "Point",
        "coordinates": [
          10.433726,
          59.8337617
        ]
      },
      "properties": {
        "id": 7940382394,
        "osm_type": "node",
        "name": "Lancelot"
      }
    },
    {
      "type": "Feature",
      "geometry": {
        "type": "Point",
        "coordinates": [
          10.435615,
          59.834777
        ]
      },
      "properties": {
        "id": 7964121643,
        "osm_type": "node",
        "name": "Egon Asker",
        "brand": "Egon",
        "opening_hours": "Mo-Th 10:00-23:00; Fr-Sa 10:00-23:30; Su 11:00-23:00",
        "phone": "+47 66 79 17 67",
        "website": "https://egon.no/",
        "operator": "Egon",
        "cuisine": "pizza;burger;meat;pasta",
        "takeaway": "yes"
      }
    },
    {
      "type": "Feature",
      "geometry": {
        "type": "Point",
        "coordinates": [
          11.0485074,
          59.956894
        ]
      },
      "properties": {
        "id": 7964121645,
        "osm_type": "node",
        "name": "Peppe's Pizza",
        "brand": "Peppes Pizza",
        "opening_hours": "Mo 11:00-20:30; Tu-Sa 11:00-21:30; Su 13:00-21:30",
        "cuisine": "pizza",
        "takeaway": "yes",
        "check_date": "2025-03-08"
      }
    },
    {
      "type": "Feature",
      "geometry": {
        "type": "Point",
        "coordinates": [
          10.516438,
          59.889448
        ]
      },
      "properties": {
        "id": 8004332015,
        "osm_type": "node",
        "name": "Sandvika Sushi",
        "opening_hours": "Mo-Su 12:00-21:00",
        "phone": "+47 67 55 99 99",
        "website": "https://www.sandvikasushi.no/",
        "cuisine": "sushi"
      }
    },
    {
      "type": "Feature",
      "geometry": {
        "type": "Point",
        "coordinates": [
          10.872272,
          60.0891924
        ]
      },
      "properties": {
        "id": 8275468396,
        "osm_type": "node",
        "name": "Puls Kafe & Kjøkken",
        "phone": "+47 923 10 838"
      }
    },
    {
      "type": "Feature",
      "geometry": {
        "type": "Point",
        "coordinates": [
          11.049175,
          59.959449
        ]
      },
      "properties": {
        "id": 8328660383,
        "osm_type": "node",
        "name": "Dalat",
        "cuisine": "sushi;thai;pizza;kebab",
        "check_date": "2025-01-26"
      }
    },
    {
      "type": "Feature",
      "geometry": {
        "type": "Point",
        "coordinates": [
          11.173289,
          60.141911
        ]
      },
      "properties": {
        "id": 8379173891,
        "osm_type": "node",
        "name": "Pizza&Grill Torget",
        "phone": "+47 461 51 000",
        "website": "https://torgetgrill.no/",
        "cuisine": "pizza"
      }
    },
    {
      "type": "Feature",
      "geometry": {
        "type": "Point",
        "coordinates": [
          11.0337354,
          60.0714652
        ]
      },
      "properties": {
        "id": 8404348991,
        "osm_type": "node",
        "name": "Nordvæst"
      }
    },
    {
      "type": "Feature",
      "geometry": {
        "type": "Point",
        "coordinates": [
          11.171664,
          60.141266
        ]
      },
      "properties": {
        "id": 8417782032,
        "osm_type": "node",
        "name": "Hot Pizza",
        "phone": "+47 63 93 60 90",
        "website": "https://www.hotpizza.no/",
        "cuisine": "pizza"
      }
    },
    {
      "type": "Feature",
      "geometry": {
        "type": "Point",
        "coordinates": [
          11.0080607,
          59.9464621
        ]
      },
      "properties": {
        "id": 8893227544,
        "osm_type": "node",
        "name": "ABC Restaurant - Asian Dining"
      }
    },
    {
      "type": "Feature",
      "geometry": {
        "type": "Point",
        "coordinates": [
          10.413729,
          59.541142
        ]
      },
      "properties": {
        "id": 8958333307,
        "osm_type": "node",
        "name": "Holmsbu Resort",
        "phone": "+47 45 87 89 40",
        "website": "https://holmsburesort.no/opplevelser/servering/",
        "cuisine": "seafood;regional"
      }
    },
    {
      "type": "Feature",
      "geometry": {
        "type": "Point",
        "coordinates": [
          10.6294548,
          59.6621571
        ]
      },
      "properties": {
        "id": 8975093898,
        "osm_type": "node",
        "name": "Pavels Spiseri",
        "phone": "+47 48505021",
        "cuisine": "pizza"
      }
    },
    {
      "type": "Feature",
      "geometry": {
        "type": "Point",
        "coordinates": [
          10.6289053,
          59.6632194
        ]
      },
      "properties": {
        "id": 8975147444,
        "osm_type": "node",
        "name": "Det Gamle Bageri",
        "phone": "+47 64932105",
        "website": "https://www.detgamlebageri.no/",
        "check_date": "2023-04-07"
      }
    },
    {
      "type": "Feature",
      "geometry": {
        "type": "Point",
        "coordinates": [
          11.173203,
          60.143246
        ]
      },
      "properties": {
        "id": 9015303631,
        "osm_type": "node",
        "name": "Egon Jessheim",
        "brand": "Egon",
        "opening_hours": "Mo-Th 10:00-23:00; Fr-Sa 10:00-24:00; Su 11:00-23:00",
        "phone": "+4763982728",
        "cuisine": "pizza;burger;meat;pasta",
        "takeaway": "yes"
      }
    },
    {
      "type": "Feature",
      "geometry": {
        "type": "Point",
        "coordinates": [
          11.009121,
          59.9485
        ]
      },
      "properties": {
        "id": 9015303632,
        "osm_type": "node",
        "name": "Egon Strømmen",
        "brand": "Egon",
        "opening_hours": "Mo-Th 10:00-23:00; Fr-Sa 10:00-24:00; Su 12:00-23:00",
        "phone": "+4763815322",
        "cuisine": "pizza;burger;meat;pasta",
        "outdoor_seating": "yes"
      }
    },
    {
      "type": "Feature",
      "geometry": {
        "type": "Point",
        "coordinates": [
          10.837163,
          59.719446
        ]
      },
      "properties": {
        "id": 9037668011,
        "osm_type": "node",
        "name": "Zoom Lunch & Dinner",
        "opening_hours": "Mo-Fr 08:00-16:00",
        "phone": "+47 21646416",
        "website": "https://len-ot.wixsite.com/zoom-lunch-og-dinner",
        "cuisine": "sushi"
      }
    },
    {
      "type": "Feature",
      "geometry": {
        "type": "Point",
        "coordinates": [
          10.621429,
          59.9467571
        ]
      },
      "properties": {
        "id": 9152686318,
        "osm_type": "node",
        "name": "La Pinsa"
      }
    },
    {
      "type": "Feature",
      "geometry": {
        "type": "Point",
        "coordinates": [
          10.6246586,
          59.9400653
        ]
      },
      "properties": {
        "id": 9178261499,
        "osm_type": "node",
        "name": "Pizza & kina expressen",
        "website": "https://22222222.no/"
      }
    },
    {
      "type": "Feature",
      "geometry": {
        "type": "Point",
        "coordinates": [
          11.0105438,
          59.9484964
        ]
      },
      "properties": {
        "id": 9291378603,
        "osm_type": "node",
        "name": "Arcadian",
        "check_date": "2024-01-27"
      }
    },
    {
      "type": "Feature",
      "geometry": {
        "type": "Point",
        "coordinates": [
          10.522441,
          59.889094
        ]
      },
      "properties": {
        "id": 9341921173,
        "osm_type": "node",
        "name": "Tuk Tuk Sandvika",
        "opening_hours": "Mo-Fr 15:00-22:00; Sa-Su 13:00-22:00",
        "phone": "+47 900 30 014",
        "website": "https://www.tuk-tuk.no/",
        "cuisine": "thai"
      }
    },
    {
      "type": "Feature",
      "geometry": {
        "type": "Point",
        "coordinates": [
          11.0514207,
          59.9689683
        ]
      },
      "properties": {
        "id": 9348440132,
        "osm_type": "node",
        "name": "Sushi Jentene",
        "opening_hours": "Tu-Su 13:00-21:00",
        "phone": "+47 46 37 55 99",
        "website": "https://www.sushi-jentene.no/",
        "cuisine": "sushi",
        "check_date": "2025-02-15"
      }
    },
    {
      "type": "Feature",
      "geometry": {
        "type": "Point",
        "coordinates": [
          11.0492567,
          59.9596247
        ]
      },
      "properties": {
        "id": 9493710647,
        "osm_type": "node",
        "name": "Seoul Fried",
        "outdoor_seating": "no",
        "check_date": "2025-01-26"
      }
    },
    {
      "type": "Feature",
      "geometry": {
        "type": "Point",
        "coordinates": [
          10.8376722,
          59.7194565
        ]
      },
      "properties": {
        "id": 9724344894,
        "osm_type": "node",
        "name": "Don Pablos Pizza",
        "opening_hours": "Mo-Th 15:00-21:00; Fr-Sa 15:00-22:00; Su 14:00-22:00",
        "phone": "+47 64873602",
        "website": "http://www.donpablos.no/",
        "cuisine": "pizza"
      }
    },
    {
      "type": "Feature",
      "geometry": {
        "type": "Point",
        "coordinates": [
          10.8362629,
          59.7196336
        ]
      },
      "properties": {
        "id": 9734186220,
        "osm_type": "node",
        "name": "No4 Restaurant & Bar",
        "opening_hours": "Mo-Th 15:00-23:00; Fr 15:00-24:00; Sa 13:00-24:00; Su 15:00-21:00",
        "phone": "+47 41350404",
        "website": "https://nr4.no/"
      }
    },
    {
      "type": "Feature",
      "geometry": {
        "type": "Point",
        "coordinates": [
          10.8364472,
          59.7189839
        ]
      },
      "properties": {
        "id": 9734351871,
        "osm_type": "node",
        "name": "Sultan Tandoori",
        "opening_hours": "Mo-Th 16:00-21:00; Fr-Sa 16:00-22:00; Sa 16:00-21:00",
        "phone": "+47 64868902",
        "website": "https://sultantandoori.no/",
        "cuisine": "indian"
      }
    },
    {
      "type": "Feature",
      "geometry": {
        "type": "Point",
        "coordinates": [
          10.836134,
          59.7181467
        ]
      },
      "properties": {
        "id": 9740051828,
        "osm_type": "node",
        "name": "Thai City",
        "opening_hours": "Mo-Fr 10:00-21:00; Sa 10:00-19:00",
        "phone": "+47 46 62 42 42",
        "website": "https://thaicity.no/thaicityski/meny.html",
        "cuisine": "thai"
      }
    },
    {
      "type": "Feature",
      "geometry": {
        "type": "Point",
        "coordinates": [
          10.8354849,
          59.7178013
        ]
      },
      "properties": {
        "id": 9740075253,
        "osm_type": "node",
        "name": "Jams",
        "opening_hours": "Mo-Th 10:00-22:00; Fr 10:00-23:00; Sa 10:00-02:30; Su 12:00-22:00",
        "phone": "+47 47673280",
        "website": "https://jams.no/"
      }
    },
    {
      "type": "Feature",
      "geometry": {
        "type": "Point",
        "coordinates": [
          10.588111,
          59.917409
        ]
      },
      "properties": {
        "id": 9797710201,
        "osm_type": "node",
        "name": "Bekkestua Sushi & Wok",
        "opening_hours": "Mo-Su 12:00-21:00",
        "phone": "+4767110888",
        "website": "https://www.bekkestuasushiwok.com/",
        "cuisine": "asian"
      }
    },
    {
      "type": "Feature",
      "geometry": {
        "type": "Point",
        "coordinates": [
          10.7890413,
          59.6646187
        ]
      },
      "properties": {
        "id": 9811979793,
        "osm_type": "node",
        "name": "Charlie's Diner",
        "opening_hours": "Mo-Fr 11:00-22:00; Fr-Sa 11:00-24:00; Su 12:00-22:00",
        "phone": "+47 97308278",
        "cuisine": "pizza",
        "check_date": "2026-04-20"
      }
    },
    {
      "type": "Feature",
      "geometry": {
        "type": "Point",
        "coordinates": [
          10.7934481,
          59.6633832
        ]
      },
      "properties": {
        "id": 9811997142,
        "osm_type": "node",
        "name": "Aas Bistro",
        "opening_hours": "Tu-Th 16:00-21:00; Fr-Sa 16:00-22:00; Su 16:00-21:00",
        "phone": "+47 41509235",
        "website": "https://www.aasbistro.no/",
        "check_date": "2026-04-23"
      }
    },
    {
      "type": "Feature",
      "geometry": {
        "type": "Point",
        "coordinates": [
          11.0069212,
          59.9453445
        ]
      },
      "properties": {
        "id": 9848836112,
        "osm_type": "node",
        "name": "Keebab House",
        "cuisine": "kebab"
      }
    },
    {
      "type": "Feature",
      "geometry": {
        "type": "Point",
        "coordinates": [
          10.9494025,
          59.9203636
        ]
      },
      "properties": {
        "id": 9848847803,
        "osm_type": "node",
        "name": "Pizza Ricetta",
        "opening_hours": "Su-Th 14:00-22:00, Fr,Sa 14:00-24:00",
        "phone": "+47 67411160",
        "website": "https://pizzaricetta.no/",
        "cuisine": "pizza"
      }
    },
    {
      "type": "Feature",
      "geometry": {
        "type": "Point",
        "coordinates": [
          11.1741995,
          60.2813441
        ]
      },
      "properties": {
        "id": 9869192463,
        "osm_type": "node",
        "name": "Sushi Asia Giang",
        "phone": "+47 901 83 333",
        "website": "https://www.sushiasiagiang.no/",
        "cuisine": "asian"
      }
    },
    {
      "type": "Feature",
      "geometry": {
        "type": "Point",
        "coordinates": [
          11.0495704,
          59.9559068
        ]
      },
      "properties": {
        "id": 9876414391,
        "osm_type": "node",
        "name": "Solsiden by night",
        "website": "https://www.solsidenbar.no",
        "cuisine": "tapas",
        "outdoor_seating": "yes",
        "check_date": "2025-01-30"
      }
    },
    {
      "type": "Feature",
      "geometry": {
        "type": "Point",
        "coordinates": [
          10.4334567,
          59.8335202
        ]
      },
      "properties": {
        "id": 10013811965,
        "osm_type": "node",
        "name": "Sushi Senter Asker",
        "phone": "+47 66760033",
        "website": "https://www.sushisenterasker.no",
        "cuisine": "sushi"
      }
    },
    {
      "type": "Feature",
      "geometry": {
        "type": "Point",
        "coordinates": [
          11.1021989,
          60.0242561
        ]
      },
      "properties": {
        "id": 10220117604,
        "osm_type": "node",
        "name": "Frauna"
      }
    },
    {
      "type": "Feature",
      "geometry": {
        "type": "Point",
        "coordinates": [
          11.0645939,
          59.9237694
        ]
      },
      "properties": {
        "id": 10247015390,
        "osm_type": "node",
        "name": "Bosu Boba & Sushi",
        "cuisine": "sushi;bubble_tea"
      }
    },
    {
      "type": "Feature",
      "geometry": {
        "type": "Point",
        "coordinates": [
          11.0453001,
          59.9564348
        ]
      },
      "properties": {
        "id": 10253147291,
        "osm_type": "node",
        "name": "Den indiske flamme",
        "opening_hours": "Mo-Th 16:00-22:00; Fr-Sa 16:00-23:00; Su 14:00-21:00",
        "check_date": "2024-04-12"
      }
    },
    {
      "type": "Feature",
      "geometry": {
        "type": "Point",
        "coordinates": [
          10.436494,
          59.83297
        ]
      },
      "properties": {
        "id": 10267835644,
        "osm_type": "node",
        "name": "Fuji Sushi",
        "phone": "+47 66 79 50 00",
        "website": "https://shop.fujisushi.no",
        "cuisine": "sushi"
      }
    },
    {
      "type": "Feature",
      "geometry": {
        "type": "Point",
        "coordinates": [
          10.4354428,
          59.8344593
        ]
      },
      "properties": {
        "id": 10732269229,
        "osm_type": "node",
        "name": "Glorioso",
        "website": "https://glorioso.no/",
        "cuisine": "italian"
      }
    },
    {
      "type": "Feature",
      "geometry": {
        "type": "Point",
        "coordinates": [
          10.5292104,
          59.6821509
        ]
      },
      "properties": {
        "id": 10792784591,
        "osm_type": "node",
        "name": "Sætre Sushi & Wok",
        "cuisine": "sushi",
        "check_date": "2023-04-07"
      }
    },
    {
      "type": "Feature",
      "geometry": {
        "type": "Point",
        "coordinates": [
          10.6294115,
          59.6635472
        ]
      },
      "properties": {
        "id": 10793096455,
        "osm_type": "node",
        "name": "Fra Bangkok til Tokyo",
        "website": "https://bangkoktiltokyo.no",
        "cuisine": "thai;sushi",
        "check_date": "2023-04-07"
      }
    },
    {
      "type": "Feature",
      "geometry": {
        "type": "Point",
        "coordinates": [
          10.410099,
          59.8593893
        ]
      },
      "properties": {
        "id": 10887477306,
        "osm_type": "node",
        "name": "Bryggerhuset",
        "operator": "Stiftelsen Nakuhel Asker - Lokalt Senter for Natur Kultur og Helse"
      }
    },
    {
      "type": "Feature",
      "geometry": {
        "type": "Point",
        "coordinates": [
          11.1550238,
          60.1652844
        ]
      },
      "properties": {
        "id": 11071390905,
        "osm_type": "node",
        "phone": "+47 63 92 94 00",
        "website": "https://brasseriebassit.no/"
      }
    },
    {
      "type": "Feature",
      "geometry": {
        "type": "Point",
        "coordinates": [
          11.1616448,
          60.1640151
        ]
      },
      "properties": {
        "id": 11071399405,
        "osm_type": "node"
      }
    },
    {
      "type": "Feature",
      "geometry": {
        "type": "Point",
        "coordinates": [
          11.0684725,
          60.1916683
        ]
      },
      "properties": {
        "id": 11110182928,
        "osm_type": "node",
        "name": "Beno Restaurant & Pub"
      }
    },
    {
      "type": "Feature",
      "geometry": {
        "type": "Point",
        "coordinates": [
          10.4858655,
          59.9239876
        ]
      },
      "properties": {
        "id": 11164810252,
        "osm_type": "node",
        "name": "Pizza Mile",
        "opening_hours": "Mo-Sa 11:00-23:00; Su 12:00-23:00",
        "phone": "+47 67565050",
        "cuisine": "pizza",
        "takeaway": "yes"
      }
    },
    {
      "type": "Feature",
      "geometry": {
        "type": "Point",
        "coordinates": [
          10.4854323,
          59.9237994
        ]
      },
      "properties": {
        "id": 11164810254,
        "osm_type": "node",
        "name": "Jonathan Sushi",
        "opening_hours": "Mo-We 12:00-20:00; Th-Fr 11:00-21:00; Sa 11:00-20:00; Su 14:00-20:00",
        "phone": "+47 40799777",
        "cuisine": "sushi",
        "takeaway": "yes"
      }
    },
    {
      "type": "Feature",
      "geometry": {
        "type": "Point",
        "coordinates": [
          10.5215743,
          59.8897583
        ]
      },
      "properties": {
        "id": 11286172585,
        "osm_type": "node",
        "name": "Bambus Sushi",
        "phone": "+4790990888",
        "website": "https://bambussushi.no/",
        "cuisine": "sushi"
      }
    },
    {
      "type": "Feature",
      "geometry": {
        "type": "Point",
        "coordinates": [
          11.050218,
          59.9554113
        ]
      },
      "properties": {
        "id": 11487448340,
        "osm_type": "node",
        "name": "Mamma Pizza",
        "opening_hours": "Mo-Fr 11:00-22:00; Sa-Su 12:00-22:00",
        "check_date": "2026-03-15"
      }
    },
    {
      "type": "Feature",
      "geometry": {
        "type": "Point",
        "coordinates": [
          11.05093,
          59.9555716
        ]
      },
      "properties": {
        "id": 11487448341,
        "osm_type": "node",
        "name": "Sabrura",
        "opening_hours": "Mo-Th 11:00-21:00; Fr 11:00-22:00; Sa 12:00-22:00; Su 13:00-21:00",
        "cuisine": "sushi",
        "check_date": "2026-05-06"
      }
    },
    {
      "type": "Feature",
      "geometry": {
        "type": "Point",
        "coordinates": [
          11.0113083,
          59.9503237
        ]
      },
      "properties": {
        "id": 11557221771,
        "osm_type": "node",
        "name": "Gahn",
        "check_date": "2024-01-27"
      }
    },
    {
      "type": "Feature",
      "geometry": {
        "type": "Point",
        "coordinates": [
          11.0111327,
          59.9498756
        ]
      },
      "properties": {
        "id": 11557221778,
        "osm_type": "node",
        "name": "Wok & Sushi",
        "check_date": "2024-01-27"
      }
    },
    {
      "type": "Feature",
      "geometry": {
        "type": "Point",
        "coordinates": [
          11.1741316,
          60.2816137
        ]
      },
      "properties": {
        "id": 11988007269,
        "osm_type": "node",
        "name": "Nio Restaurant&Bar",
        "opening_hours": "Tu-Th 15:00-22:00, Fr,Sa 15:00-03:00, Su 15:00-21:00; Mo off"
      }
    },
    {
      "type": "Feature",
      "geometry": {
        "type": "Point",
        "coordinates": [
          10.5259624,
          59.890679
        ]
      },
      "properties": {
        "id": 12102836213,
        "osm_type": "node",
        "name": "Zouo"
      }
    },
    {
      "type": "Feature",
      "geometry": {
        "type": "Point",
        "coordinates": [
          11.240266,
          59.9858988
        ]
      },
      "properties": {
        "id": 12104336001,
        "osm_type": "node",
        "name": "Mix Grill",
        "opening_hours": "Mo-Fr 11:00-22:00; Sa-Su 12:00-22:00",
        "phone": "+4763822700",
        "cuisine": "burger;kebab;pizza"
      }
    },
    {
      "type": "Feature",
      "geometry": {
        "type": "Point",
        "coordinates": [
          10.6872286,
          59.842132
        ]
      },
      "properties": {
        "id": 12501197894,
        "osm_type": "node",
        "name": "Pio pio",
        "opening_hours": "Mo-Su 15:00-21:00",
        "cuisine": "pizza",
        "check_date": "2025-01-14"
      }
    },
    {
      "type": "Feature",
      "geometry": {
        "type": "Point",
        "coordinates": [
          11.0505528,
          59.9557809
        ]
      },
      "properties": {
        "id": 12539428772,
        "osm_type": "node",
        "name": "Solheim Brasserie",
        "website": "https://solheimbrasserie.no",
        "check_date": "2026-05-06"
      }
    },
    {
      "type": "Feature",
      "geometry": {
        "type": "Point",
        "coordinates": [
          11.0509793,
          59.9559096
        ]
      },
      "properties": {
        "id": 12539428773,
        "osm_type": "node",
        "name": "Badmash",
        "check_date": "2025-01-28"
      }
    },
    {
      "type": "Feature",
      "geometry": {
        "type": "Point",
        "coordinates": [
          11.0528421,
          59.9555156
        ]
      },
      "properties": {
        "id": 12539428777,
        "osm_type": "node",
        "name": "Carmen",
        "check_date": "2025-01-28"
      }
    },
    {
      "type": "Feature",
      "geometry": {
        "type": "Point",
        "coordinates": [
          11.0681382,
          60.1881722
        ]
      },
      "properties": {
        "id": 12782017050,
        "osm_type": "node",
        "name": "Restaurant Cockpit",
        "opening_hours": "Mo-Su 17:00-22:00",
        "phone": "+4763949500",
        "website": "https://www.radissonhotels.com/en-us/hotels/park-inn-oslo-airport-west/restaurant-bar",
        "check_date": "2025-07-21"
      }
    },
    {
      "type": "Feature",
      "geometry": {
        "type": "Point",
        "coordinates": [
          10.6448161,
          59.839491
        ]
      },
      "properties": {
        "id": 12973792797,
        "osm_type": "node",
        "name": "View by Taste",
        "website": "https://viewbytaste.no"
      }
    },
    {
      "type": "Feature",
      "geometry": {
        "type": "Point",
        "coordinates": [
          10.7992943,
          59.810646
        ]
      },
      "properties": {
        "id": 12978307792,
        "osm_type": "node",
        "name": "Herman Husmann Kolbotn"
      }
    },
    {
      "type": "Feature",
      "geometry": {
        "type": "Point",
        "coordinates": [
          11.1599121,
          59.9267029
        ]
      },
      "properties": {
        "id": 12978321170,
        "osm_type": "node",
        "name": "Made in India by Aahar",
        "cuisine": "indian"
      }
    },
    {
      "type": "Feature",
      "geometry": {
        "type": "Point",
        "coordinates": [
          10.8367989,
          59.7203181
        ]
      },
      "properties": {
        "id": 12978321292,
        "osm_type": "node",
        "name": "Krunsj Ski"
      }
    },
    {
      "type": "Feature",
      "geometry": {
        "type": "Point",
        "coordinates": [
          11.0950264,
          60.1949478
        ]
      },
      "properties": {
        "id": 12978479664,
        "osm_type": "node",
        "name": "O'Learys Oslo Airport Domestic Terminal"
      }
    },
    {
      "type": "Feature",
      "geometry": {
        "type": "Point",
        "coordinates": [
          11.1712547,
          60.1429537
        ]
      },
      "properties": {
        "id": 12978512933,
        "osm_type": "node",
        "name": "Castello Restaurant & Bar"
      }
    },
    {
      "type": "Feature",
      "geometry": {
        "type": "Point",
        "coordinates": [
          10.6216142,
          59.8982692
        ]
      },
      "properties": {
        "id": 12980590270,
        "osm_type": "node",
        "name": "Seeds Fornebu"
      }
    },
    {
      "type": "Feature",
      "geometry": {
        "type": "Point",
        "coordinates": [
          11.1378064,
          60.0758425
        ]
      },
      "properties": {
        "id": 13181996965,
        "osm_type": "node",
        "name": "Mr Chef Restaurant",
        "opening_hours": "su-sa 12:00-22:00",
        "phone": "+4798684681",
        "website": "https://mrchef.no",
        "cuisine": "pizza;kebab;burger;pasta",
        "outdoor_seating": "yes",
        "takeaway": "yes"
      }
    },
    {
      "type": "Feature",
      "geometry": {
        "type": "Point",
        "coordinates": [
          10.5247739,
          59.8904529
        ]
      },
      "properties": {
        "id": 13234606465,
        "osm_type": "node",
        "name": "Folkebadet",
        "opening_hours": "Mo off; Tu-Th 11:00-24:00; Fr-Sa 11:00-02:00; Su 15:00-23:00",
        "cuisine": "french;pizza",
        "outdoor_seating": "yes",
        "check_date": "2025-10-15"
      }
    },
    {
      "type": "Feature",
      "geometry": {
        "type": "Point",
        "coordinates": [
          11.1761268,
          60.2809483
        ]
      },
      "properties": {
        "id": 13311232806,
        "osm_type": "node",
        "name": "Råholt Sushi"
      }
    },
    {
      "type": "Feature",
      "geometry": {
        "type": "Point",
        "coordinates": [
          10.6018209,
          59.9087818
        ]
      },
      "properties": {
        "id": 13334174878,
        "osm_type": "node"
      }
    },
    {
      "type": "Feature",
      "geometry": {
        "type": "Point",
        "coordinates": [
          10.6017993,
          59.9088421
        ]
      },
      "properties": {
        "id": 13334174879,
        "osm_type": "node",
        "name": "Den Sultne Mave",
        "opening_hours": "Tu-Sa 16:00-22:00; Su 16:00-21:00; Mo off",
        "website": "https://www.densultnemave.no",
        "cuisine": "indian"
      }
    },
    {
      "type": "Feature",
      "geometry": {
        "type": "Point",
        "coordinates": [
          10.6017478,
          59.908516
        ]
      },
      "properties": {
        "id": 13334271809,
        "osm_type": "node",
        "name": "Sabi Sushi Stabekk",
        "opening_hours": "Mo-Su 14:00-21:00",
        "website": "https://nettbutikk.sabi.no/places/r12-sabi-stabekk",
        "cuisine": "sushi",
        "check_date": "2025-11-26"
      }
    },
    {
      "type": "Feature",
      "geometry": {
        "type": "Point",
        "coordinates": [
          10.5973431,
          59.9353895
        ]
      },
      "properties": {
        "id": 13359703359,
        "osm_type": "node",
        "name": "Pizza Mamma Mia",
        "opening_hours": "Mo-Fr 14:00-22:00; Sa-Su 12:00-22:00",
        "phone": "+47 92 92 96 10",
        "website": "https://pizzamammamia.no/",
        "cuisine": "pizza;italian",
        "takeaway": "only"
      }
    },
    {
      "type": "Feature",
      "geometry": {
        "type": "Point",
        "coordinates": [
          10.5027419,
          59.8736325
        ]
      },
      "properties": {
        "id": 13374272763,
        "osm_type": "node",
        "name": "Sabi Sushi",
        "opening_hours": "Mo-Fr 10:00-21:00; Sa 10:00-19:00; Su, PH off",
        "phone": "+47 40 40 64 58",
        "cuisine": "sushi"
      }
    },
    {
      "type": "Feature",
      "geometry": {
        "type": "Point",
        "coordinates": [
          11.5698142,
          59.8838448
        ]
      },
      "properties": {
        "id": 13418730614,
        "osm_type": "node",
        "name": "Shanghai house",
        "cuisine": "chinese"
      }
    },
    {
      "type": "Feature",
      "geometry": {
        "type": "Point",
        "coordinates": [
          11.5692294,
          59.8839916
        ]
      },
      "properties": {
        "id": 13418730655,
        "osm_type": "node"
      }
    },
    {
      "type": "Feature",
      "geometry": {
        "type": "Point",
        "coordinates": [
          10.4772746,
          59.9087531
        ]
      },
      "properties": {
        "id": 13444753160,
        "osm_type": "node",
        "name": "Mr. Fish",
        "opening_hours": "Mo off; Tu-Sa 12:00-20:00; Su 13:00-20:00",
        "website": "https://www.mrfish.no/",
        "cuisine": "sushi",
        "check_date": "2026-01-10"
      }
    },
    {
      "type": "Feature",
      "geometry": {
        "type": "Point",
        "coordinates": [
          11.4356411,
          59.9369945
        ]
      },
      "properties": {
        "id": 13516970501,
        "osm_type": "node",
        "name": "Fjøset",
        "website": "https://fjoset-restaurant.no"
      }
    },
    {
      "type": "Feature",
      "geometry": {
        "type": "Point",
        "coordinates": [
          10.5835252,
          59.9001967
        ]
      },
      "properties": {
        "id": 13522182015,
        "osm_type": "node",
        "name": "Sushi Huset",
        "cuisine": "sushi",
        "check_date": "2026-02-03"
      }
    },
    {
      "type": "Feature",
      "geometry": {
        "type": "Point",
        "coordinates": [
          10.5857272,
          59.7654735
        ]
      },
      "properties": {
        "id": 13564239987,
        "osm_type": "node",
        "name": "Primitivo Ristorante"
      }
    },
    {
      "type": "Feature",
      "geometry": {
        "type": "Point",
        "coordinates": [
          10.5006577,
          59.916458
        ]
      },
      "properties": {
        "id": 13588159608,
        "osm_type": "node",
        "name": "Kolsås Sushi",
        "opening_hours": "Mo-Sa 11:00-21:00; Su 15:00-20:00",
        "phone": "+47 46 58 54 42",
        "website": "https://kolsassushi.winorder.no/",
        "cuisine": "sushi",
        "check_date": "2026-02-21"
      }
    },
    {
      "type": "Feature",
      "geometry": {
        "type": "Point",
        "coordinates": [
          10.6612216,
          59.8563654
        ]
      },
      "properties": {
        "id": 13615622034,
        "osm_type": "node",
        "name": "Taste Tangen",
        "opening_hours": "Mo-Th 11:00-21:00; Fr-Sa 11:00-22:00; Su 14:00-21:00",
        "phone": "+47 47784947"
      }
    },
    {
      "type": "Feature",
      "geometry": {
        "type": "Point",
        "coordinates": [
          10.6607012,
          59.8552952
        ]
      },
      "properties": {
        "id": 13615622035,
        "osm_type": "node",
        "name": "Jonathan Sushi",
        "opening_hours": "Mo-Sa 12:00-20:00; Su 14:00-20:00",
        "cuisine": "sushi"
      }
    },
    {
      "type": "Feature",
      "geometry": {
        "type": "Point",
        "coordinates": [
          11.1790194,
          60.142264
        ]
      },
      "properties": {
        "id": 13729773001,
        "osm_type": "node",
        "name": "Che Restaurant & Bar",
        "opening_hours": "Tu-Fr 11:00-20:00; Sa-Su 13:00-20:00",
        "phone": "+47 45 72 24 90",
        "website": "https://che-restaurant.no/"
      }
    },
    {
      "type": "Feature",
      "geometry": {
        "type": "Point",
        "coordinates": [
          10.5249868,
          59.8917841
        ]
      },
      "properties": {
        "id": 13788913460,
        "osm_type": "node",
        "name": "Villa Paradiso",
        "opening_hours": "Mo-Th 11:00-21:00; Fr 11:00-22:00; Sa 12:00-22:00; Su 12:00-20:00",
        "phone": "+47 22354060",
        "website": "https://www.villaparadiso.no/restauranter/sandvika"
      }
    },
    {
      "type": "Feature",
      "geometry": {
        "type": "Point",
        "coordinates": [
          10.9185369,
          59.9972167
        ]
      },
      "properties": {
        "id": 13812236526,
        "osm_type": "node",
        "name": "Piccola Napoli",
        "opening_hours": "Mo-Su 11:00-22:00",
        "phone": "+4767075000",
        "website": "https://www.piccolanapoli.no/hagan",
        "cuisine": "pizza;kebab;italian_pizza;hamburger"
      }
    },
    {
      "type": "Feature",
      "geometry": {
        "type": "Point",
        "coordinates": [
          10.6330451,
          59.8937543
        ]
      },
      "properties": {
        "id": 52726104,
        "osm_type": "way",
        "name": "Sjøflyhavna Kro",
        "opening_hours": "Mo-Su 11:00-00:00",
        "phone": "+47 95494916",
        "website": "http://www.sjoflyhavna.no/"
      }
    },
    {
      "type": "Feature",
      "geometry": {
        "type": "Point",
        "coordinates": [
          10.490635,
          59.8428755
        ]
      },
      "properties": {
        "id": 59586581,
        "osm_type": "way",
        "name": "Hvalstrand Bad",
        "website": "https://hvalstrandbad.no"
      }
    },
    {
      "type": "Feature",
      "geometry": {
        "type": "Point",
        "coordinates": [
          10.432261,
          59.8361815
        ]
      },
      "properties": {
        "id": 87780006,
        "osm_type": "way",
        "name": "Baracoa"
      }
    },
    {
      "type": "Feature",
      "geometry": {
        "type": "Point",
        "coordinates": [
          10.748367,
          59.8167145
        ]
      },
      "properties": {
        "id": 89719057,
        "osm_type": "way",
        "name": "The White Elephant"
      }
    },
    {
      "type": "Feature",
      "geometry": {
        "type": "Point",
        "coordinates": [
          10.4370747,
          59.8336164
        ]
      },
      "properties": {
        "id": 92350482,
        "osm_type": "way",
        "name": "Texas Barbecue Cafe Asker",
        "phone": "+47 67 10 50 00",
        "website": "https://www.texasbarbecuecafe.com/",
        "cuisine": "barbecue"
      }
    },
    {
      "type": "Feature",
      "geometry": {
        "type": "Point",
        "coordinates": [
          10.5227771,
          59.892227
        ]
      },
      "properties": {
        "id": 103116440,
        "osm_type": "way",
        "cuisine": "indian"
      }
    },
    {
      "type": "Feature",
      "geometry": {
        "type": "Point",
        "coordinates": [
          10.775864,
          59.7481345
        ]
      },
      "properties": {
        "id": 121195264,
        "osm_type": "way",
        "name": "Vertshuset",
        "opening_hours": "Mo-Su 12:00-17:30",
        "cuisine": "italian",
        "outdoor_seating": "yes"
      }
    },
    {
      "type": "Feature",
      "geometry": {
        "type": "Point",
        "coordinates": [
          10.7770935,
          59.7462895
        ]
      },
      "properties": {
        "id": 121195300,
        "osm_type": "way",
        "name": "Pizzaverkstedet",
        "cuisine": "pizza"
      }
    },
    {
      "type": "Feature",
      "geometry": {
        "type": "Point",
        "coordinates": [
          10.9528327,
          59.92851
        ]
      },
      "properties": {
        "id": 127478763,
        "osm_type": "way",
        "name": "Peppes Pizza",
        "brand": "Peppes Pizza",
        "phone": "+47 22 22 55 55",
        "website": "http://peppes.no/",
        "cuisine": "pizza",
        "takeaway": "yes"
      }
    },
    {
      "type": "Feature",
      "geometry": {
        "type": "Point",
        "coordinates": [
          10.4799507,
          59.9053651
        ]
      },
      "properties": {
        "id": 130912124,
        "osm_type": "way",
        "name": "BSK"
      }
    },
    {
      "type": "Feature",
      "geometry": {
        "type": "Point",
        "coordinates": [
          10.5034184,
          59.9428749
        ]
      },
      "properties": {
        "id": 133148030,
        "osm_type": "way",
        "name": "Vertshuset"
      }
    },
    {
      "type": "Feature",
      "geometry": {
        "type": "Point",
        "coordinates": [
          10.6079606,
          59.9087469
        ]
      },
      "properties": {
        "id": 181344678,
        "osm_type": "way",
        "name": "Pinerolo",
        "opening_hours": "Tu-Fr 16:30-22:00; Sa 13:00-22:00; Su 13:00-21:00",
        "phone": "+47 67 53 00 47",
        "website": "https://www.pinerolo.no/",
        "cuisine": "pizza;italian",
        "outdoor_seating": "yes",
        "takeaway": "yes"
      }
    },
    {
      "type": "Feature",
      "geometry": {
        "type": "Point",
        "coordinates": [
          10.3405043,
          59.745511
        ]
      },
      "properties": {
        "id": 187805887,
        "osm_type": "way",
        "name": "Hovedsporet"
      }
    },
    {
      "type": "Feature",
      "geometry": {
        "type": "Point",
        "coordinates": [
          11.1663428,
          60.3019502
        ]
      },
      "properties": {
        "id": 217555735,
        "osm_type": "way",
        "name": "Five Rivers",
        "phone": "+47 40484058",
        "website": "https://www.fiverivers.no/"
      }
    },
    {
      "type": "Feature",
      "geometry": {
        "type": "Point",
        "coordinates": [
          10.7986971,
          59.8108893
        ]
      },
      "properties": {
        "id": 239272829,
        "osm_type": "way",
        "name": "Tårnhuset"
      }
    },
    {
      "type": "Feature",
      "geometry": {
        "type": "Point",
        "coordinates": [
          11.1456689,
          60.3121134
        ]
      },
      "properties": {
        "id": 246474828,
        "osm_type": "way",
        "name": "Nebbenes Kro Nord",
        "opening_hours": "Mo-Fr,Su 10:00-22:00; Sa 10:00-19:00",
        "phone": "+47 63954135",
        "website": "https://www.nebbenes.no/nebbenes-kroer-nord",
        "cuisine": "european"
      }
    },
    {
      "type": "Feature",
      "geometry": {
        "type": "Point",
        "coordinates": [
          11.1463944,
          60.3154419
        ]
      },
      "properties": {
        "id": 246474830,
        "osm_type": "way",
        "name": "Nebbenes Kro Syd",
        "opening_hours": "Mo-Sa 10:00-19:00; Su 10:00-20:00",
        "phone": "+47 94866343",
        "website": "https://www.nebbenes.no/nebbenes-kroer-syd",
        "cuisine": "european"
      }
    },
    {
      "type": "Feature",
      "geometry": {
        "type": "Point",
        "coordinates": [
          10.5018475,
          59.9402195
        ]
      },
      "properties": {
        "id": 255050221,
        "osm_type": "way",
        "name": "Melboden",
        "cuisine": "pizza"
      }
    },
    {
      "type": "Feature",
      "geometry": {
        "type": "Point",
        "coordinates": [
          10.5951727,
          59.8996612
        ]
      },
      "properties": {
        "id": 289019426,
        "osm_type": "way",
        "name": "Strand Selskapslokale",
        "phone": "+4722703400",
        "website": "https://www.strandrestaurant.no/",
        "outdoor_seating": "yes"
      }
    },
    {
      "type": "Feature",
      "geometry": {
        "type": "Point",
        "coordinates": [
          10.4375637,
          60.2590826
        ]
      },
      "properties": {
        "id": 315061529,
        "osm_type": "way"
      }
    },
    {
      "type": "Feature",
      "geometry": {
        "type": "Point",
        "coordinates": [
          11.043407,
          59.9558065
        ]
      },
      "properties": {
        "id": 319271470,
        "osm_type": "way",
        "name": "Asian Dinner",
        "opening_hours": "Mo-Th 13:00-21:00; Fr 11:00-22:00; Sa 13:00-22:00; Su 13:00-21:00",
        "website": "https://www.asiandinner.no",
        "cuisine": "sushi",
        "check_date": "2025-10-05"
      }
    },
    {
      "type": "Feature",
      "geometry": {
        "type": "Point",
        "coordinates": [
          10.8450683,
          59.7195471
        ]
      },
      "properties": {
        "id": 435654914,
        "osm_type": "way",
        "name": "Odd Fellow",
        "website": "http://www.logehusene.no/",
        "takeaway": "no"
      }
    },
    {
      "type": "Feature",
      "geometry": {
        "type": "Point",
        "coordinates": [
          11.2102192,
          60.1412351
        ]
      },
      "properties": {
        "id": 444290981,
        "osm_type": "way",
        "name": "Pizza Gamle Nabo",
        "opening_hours": "Mo-Th 12:00-23:00, Fr,Sa 12:00-24:00, Su 12:00-23:00",
        "phone": "+4763 98 01 98",
        "website": "https://gamlenabo-jessheim.no/",
        "cuisine": "pizza"
      }
    },
    {
      "type": "Feature",
      "geometry": {
        "type": "Point",
        "coordinates": [
          11.0421612,
          60.1379841
        ]
      },
      "properties": {
        "id": 496702135,
        "osm_type": "way",
        "name": "Oscar's Pizzeria",
        "opening_hours": "11:00-22:00",
        "phone": "+47 47737347"
      }
    },
    {
      "type": "Feature",
      "geometry": {
        "type": "Point",
        "coordinates": [
          11.0978081,
          60.194161
        ]
      },
      "properties": {
        "id": 661360273,
        "osm_type": "way",
        "name": "Asia Street Cooking Ltd",
        "brand": "Wagamama",
        "opening_hours": "Mo-Fr 11:00-20:00; Su 11:00-20:00",
        "cuisine": "asian",
        "check_date": "2025-07-13"
      }
    },
    {
      "type": "Feature",
      "geometry": {
        "type": "Point",
        "coordinates": [
          10.4101123,
          60.240716
        ]
      },
      "properties": {
        "id": 698335751,
        "osm_type": "way",
        "name": "Ta Shun Restaurant",
        "phone": "+47 61 31 51 89"
      }
    },
    {
      "type": "Feature",
      "geometry": {
        "type": "Point",
        "coordinates": [
          10.6357185,
          59.7510007
        ]
      },
      "properties": {
        "id": 748937611,
        "osm_type": "way"
      }
    },
    {
      "type": "Feature",
      "geometry": {
        "type": "Point",
        "coordinates": [
          11.1691599,
          60.1428029
        ]
      },
      "properties": {
        "id": 760843056,
        "osm_type": "way",
        "name": "Amraj",
        "phone": "+47 6400 7900",
        "website": "https://www.amraj.no/",
        "cuisine": "indian"
      }
    },
    {
      "type": "Feature",
      "geometry": {
        "type": "Point",
        "coordinates": [
          10.6557608,
          59.870696
        ]
      },
      "properties": {
        "id": 986355613,
        "osm_type": "way",
        "name": "Signalen Sjøbad",
        "opening_hours": "Mo,Tu 16:00-21:00; We-Fr 16:00-21:30; Sa 13:00-21:30; Su 13:00-20:00",
        "website": "https://signal1.no",
        "cuisine": "pizza;italian",
        "outdoor_seating": "yes"
      }
    },
    {
      "type": "Feature",
      "geometry": {
        "type": "Point",
        "coordinates": [
          11.2573868,
          60.3303496
        ]
      },
      "properties": {
        "id": 1006266979,
        "osm_type": "way",
        "cuisine": "pizza"
      }
    },
    {
      "type": "Feature",
      "geometry": {
        "type": "Point",
        "coordinates": [
          10.425638,
          59.559402
        ]
      },
      "properties": {
        "id": 1013811384,
        "osm_type": "way",
        "name": "Café Privaten",
        "opening_hours": "Mo-Sa 12:00-22:00; Su 12:00-20:00",
        "phone": "+47 97 28 40 64",
        "website": "https://www.privatencafe.no/",
        "outdoor_seating": "yes"
      }
    },
    {
      "type": "Feature",
      "geometry": {
        "type": "Point",
        "coordinates": [
          10.5869758,
          59.9180971
        ]
      },
      "properties": {
        "id": 1478674174,
        "osm_type": "way",
        "name": "Mo's Ember grill og vinhus",
        "opening_hours": "Tu-Su 14:00-22:00",
        "phone": "+47 41 58 68 30",
        "website": "https://mosember.no/meny",
        "cuisine": "barbecue",
        "takeaway": "yes"
      }
    },
    {
      "type": "Feature",
      "geometry": {
        "type": "Point",
        "coordinates": [
          10.62185,
          59.9004355
        ]
      },
      "properties": {
        "id": 1500996975,
        "osm_type": "way",
        "name": "Café Caravelle",
        "opening_hours": "We-Sa 11:30-19:00; Su 12:00-18:00",
        "phone": "+4791918524",
        "website": "https://www.cafecaravelle.no"
      }
    }
  ]
}