{
  "type": "FeatureCollection",
  "features": [
    {
      "type": "Feature",
      "geometry": {
        "type": "Point",
        "coordinates": [
          -6.7744854,
          41.7866454
        ]
      },
      "properties": {
        "id": 251492444,
        "osm_type": "node",
        "name": "Galp",
        "brand": "Galp"
      }
    },
    {
      "type": "Feature",
      "geometry": {
        "type": "Point",
        "coordinates": [
          -6.7106041,
          41.3426604
        ]
      },
      "properties": {
        "id": 1308387199,
        "osm_type": "node",
        "name": "Galp",
        "brand": "Galp",
        "opening_hours": "07:00-24:00"
      }
    },
    {
      "type": "Feature",
      "geometry": {
        "type": "Point",
        "coordinates": [
          -7.2053508,
          41.4793815
        ]
      },
      "properties": {
        "id": 1917679426,
        "osm_type": "node",
        "name": "Tuacar",
        "brand": "Tuacar",
        "opening_hours": "Mo-Su 07:00-21:00",
        "check_date": "2025-08-24"
      }
    },
    {
      "type": "Feature",
      "geometry": {
        "type": "Point",
        "coordinates": [
          -7.176166,
          41.4931639
        ]
      },
      "properties": {
        "id": 1917712381,
        "osm_type": "node",
        "name": "Repsol",
        "brand": "Repsol",
        "opening_hours": "24/7"
      }
    },
    {
      "type": "Feature",
      "geometry": {
        "type": "Point",
        "coordinates": [
          -7.1879235,
          41.485967
        ]
      },
      "properties": {
        "id": 1917712412,
        "osm_type": "node",
        "name": "Galp",
        "brand": "Galp",
        "opening_hours": "07:00-23:00",
        "check_date": "2023-07-21"
      }
    },
    {
      "type": "Feature",
      "geometry": {
        "type": "Point",
        "coordinates": [
          -7.169652,
          41.4920565
        ]
      },
      "properties": {
        "id": 1917712417,
        "osm_type": "node",
        "name": "Cepsa",
        "brand": "Cepsa",
        "opening_hours": "07:00-24:00"
      }
    },
    {
      "type": "Feature",
      "geometry": {
        "type": "Point",
        "coordinates": [
          -7.3033333,
          41.4429033
        ]
      },
      "properties": {
        "id": 1917719534,
        "osm_type": "node",
        "name": "BP",
        "brand": "BP"
      }
    },
    {
      "type": "Feature",
      "geometry": {
        "type": "Point",
        "coordinates": [
          -7.303168,
          41.4422052
        ]
      },
      "properties": {
        "id": 1917719547,
        "osm_type": "node",
        "name": "BP",
        "brand": "BP"
      }
    },
    {
      "type": "Feature",
      "geometry": {
        "type": "Point",
        "coordinates": [
          -6.4248177,
          41.392163
        ]
      },
      "properties": {
        "id": 2159973464,
        "osm_type": "node",
        "name": "Galp",
        "brand": "Galp"
      }
    },
    {
      "type": "Feature",
      "geometry": {
        "type": "Point",
        "coordinates": [
          -7.0550466,
          41.1756822
        ]
      },
      "properties": {
        "id": 2196715643,
        "osm_type": "node",
        "name": "Gaspe",
        "brand": "Gaspe;Galp"
      }
    },
    {
      "type": "Feature",
      "geometry": {
        "type": "Point",
        "coordinates": [
          -7.0382261,
          41.1787642
        ]
      },
      "properties": {
        "id": 2197495443,
        "osm_type": "node",
        "name": "Prio",
        "brand": "Prio"
      }
    },
    {
      "type": "Feature",
      "geometry": {
        "type": "Point",
        "coordinates": [
          -7.1769476,
          41.4917672
        ]
      },
      "properties": {
        "id": 2542334106,
        "osm_type": "node",
        "name": "Galp",
        "brand": "Galp",
        "opening_hours": "07:00-23:00"
      }
    },
    {
      "type": "Feature",
      "geometry": {
        "type": "Point",
        "coordinates": [
          -7.1942639,
          41.4827015
        ]
      },
      "properties": {
        "id": 2594527669,
        "osm_type": "node",
        "name": "Intermarché",
        "brand": "Intermarché",
        "opening_hours": "24/7"
      }
    },
    {
      "type": "Feature",
      "geometry": {
        "type": "Point",
        "coordinates": [
          -7.3069052,
          41.2417369
        ]
      },
      "properties": {
        "id": 2645560217,
        "osm_type": "node",
        "name": "Cepsa",
        "brand": "Moeve"
      }
    },
    {
      "type": "Feature",
      "geometry": {
        "type": "Point",
        "coordinates": [
          -7.1738002,
          41.3150868
        ]
      },
      "properties": {
        "id": 2714313792,
        "osm_type": "node",
        "name": "BP",
        "brand": "BP"
      }
    },
    {
      "type": "Feature",
      "geometry": {
        "type": "Point",
        "coordinates": [
          -6.9689369,
          41.3321441
        ]
      },
      "properties": {
        "id": 2714533720,
        "osm_type": "node",
        "name": "Alves Bandeira",
        "brand": "Alves Bandeira",
        "opening_hours": "Mo-Su 06:00-23:00"
      }
    },
    {
      "type": "Feature",
      "geometry": {
        "type": "Point",
        "coordinates": [
          -6.9636817,
          41.336072
        ]
      },
      "properties": {
        "id": 2714533733,
        "osm_type": "node",
        "name": "Tuacar",
        "brand": "Tuacar;Repsol;OZ Energia",
        "opening_hours": "07:00-21:00"
      }
    },
    {
      "type": "Feature",
      "geometry": {
        "type": "Point",
        "coordinates": [
          -6.960393,
          41.3492687
        ]
      },
      "properties": {
        "id": 2714533786,
        "osm_type": "node",
        "name": "Gaspe",
        "brand": "Gaspe;Galp"
      }
    },
    {
      "type": "Feature",
      "geometry": {
        "type": "Point",
        "coordinates": [
          -6.6042792,
          41.6534911
        ]
      },
      "properties": {
        "id": 2716205127,
        "osm_type": "node",
        "name": "Gaspe",
        "brand": "Gaspe;Galp"
      }
    },
    {
      "type": "Feature",
      "geometry": {
        "type": "Point",
        "coordinates": [
          -6.6028995,
          41.6347423
        ]
      },
      "properties": {
        "id": 2716205138,
        "osm_type": "node",
        "name": "Machado e Veiga",
        "brand": "Machado e Veiga;BP",
        "opening_hours": "07:00-02:00"
      }
    },
    {
      "type": "Feature",
      "geometry": {
        "type": "Point",
        "coordinates": [
          -6.5972044,
          41.5904836
        ]
      },
      "properties": {
        "id": 2716205238,
        "osm_type": "node",
        "name": "AP",
        "brand": "AP;BP",
        "opening_hours": "Mo-Su 07:00-22:00"
      }
    },
    {
      "type": "Feature",
      "geometry": {
        "type": "Point",
        "coordinates": [
          -6.800914,
          41.5657303
        ]
      },
      "properties": {
        "id": 2716205292,
        "osm_type": "node",
        "name": "Gaspe",
        "brand": "Gaspe;Galp"
      }
    },
    {
      "type": "Feature",
      "geometry": {
        "type": "Point",
        "coordinates": [
          -6.9663939,
          41.5404499
        ]
      },
      "properties": {
        "id": 2716205326,
        "osm_type": "node",
        "name": "Q8",
        "brand": "Q8"
      }
    },
    {
      "type": "Feature",
      "geometry": {
        "type": "Point",
        "coordinates": [
          -6.962426,
          41.5337274
        ]
      },
      "properties": {
        "id": 2716205344,
        "osm_type": "node",
        "name": "Galp",
        "brand": "Galp",
        "opening_hours": "07:30-21:00"
      }
    },
    {
      "type": "Feature",
      "geometry": {
        "type": "Point",
        "coordinates": [
          -6.9524539,
          41.5513282
        ]
      },
      "properties": {
        "id": 2717430390,
        "osm_type": "node",
        "name": "Alves Bandeira",
        "brand": "Alves Bandeira",
        "opening_hours": "Mo-Su 07:00-23:00"
      }
    },
    {
      "type": "Feature",
      "geometry": {
        "type": "Point",
        "coordinates": [
          -6.7104695,
          41.3432449
        ]
      },
      "properties": {
        "id": 2717430577,
        "osm_type": "node",
        "name": "Repsol",
        "brand": "Repsol",
        "opening_hours": "Mo-Fr 09:00-19:00",
        "check_date": "2023-07-20"
      }
    },
    {
      "type": "Feature",
      "geometry": {
        "type": "Point",
        "coordinates": [
          -7.3014155,
          41.2456661
        ]
      },
      "properties": {
        "id": 2793869367,
        "osm_type": "node",
        "name": "Repsol",
        "brand": "Repsol"
      }
    },
    {
      "type": "Feature",
      "geometry": {
        "type": "Point",
        "coordinates": [
          -6.9824982,
          41.1829014
        ]
      },
      "properties": {
        "id": 2795041940,
        "osm_type": "node",
        "name": "Galp",
        "brand": "Galp",
        "opening_hours": "07:00-23:00"
      }
    },
    {
      "type": "Feature",
      "geometry": {
        "type": "Point",
        "coordinates": [
          -6.8085077,
          41.0902414
        ]
      },
      "properties": {
        "id": 2795041961,
        "osm_type": "node",
        "name": "Gaspe",
        "brand": "Gaspe;Galp"
      }
    },
    {
      "type": "Feature",
      "geometry": {
        "type": "Point",
        "coordinates": [
          -6.7358697,
          41.1943809
        ]
      },
      "properties": {
        "id": 2795041963,
        "osm_type": "node",
        "name": "Alves Bandeira",
        "brand": "Alves Bandeira"
      }
    },
    {
      "type": "Feature",
      "geometry": {
        "type": "Point",
        "coordinates": [
          -6.7790051,
          41.7810443
        ]
      },
      "properties": {
        "id": 2795592338,
        "osm_type": "node",
        "name": "Prio",
        "brand": "Prio",
        "opening_hours": "07:00-23:00"
      }
    },
    {
      "type": "Feature",
      "geometry": {
        "type": "Point",
        "coordinates": [
          -6.7740283,
          41.7865015
        ]
      },
      "properties": {
        "id": 2795592852,
        "osm_type": "node",
        "name": "Cepsa",
        "brand": "Cepsa",
        "opening_hours": "Mo-Su 07:00-00:00"
      }
    },
    {
      "type": "Feature",
      "geometry": {
        "type": "Point",
        "coordinates": [
          -7.1792273,
          41.4949608
        ]
      },
      "properties": {
        "id": 2797540419,
        "osm_type": "node",
        "name": "Pingo Doce",
        "brand": "Pingo Doce;BP",
        "opening_hours": "24/7"
      }
    },
    {
      "type": "Feature",
      "geometry": {
        "type": "Point",
        "coordinates": [
          -6.9634715,
          41.5292121
        ]
      },
      "properties": {
        "id": 2933882309,
        "osm_type": "node",
        "name": "Gaspe",
        "brand": "Gaspe;Galp"
      }
    },
    {
      "type": "Feature",
      "geometry": {
        "type": "Point",
        "coordinates": [
          -7.0998575,
          41.4148713
        ]
      },
      "properties": {
        "id": 3069222893,
        "osm_type": "node",
        "name": "Redil",
        "brand": "Redil;BP"
      }
    },
    {
      "type": "Feature",
      "geometry": {
        "type": "Point",
        "coordinates": [
          -6.5298467,
          41.5733867
        ]
      },
      "properties": {
        "id": 3120148385,
        "osm_type": "node",
        "name": "Alves Bandeira",
        "brand": "Alves Bandeira",
        "opening_hours": "07:00-23:00"
      }
    },
    {
      "type": "Feature",
      "geometry": {
        "type": "Point",
        "coordinates": [
          -6.8083479,
          41.0859604
        ]
      },
      "properties": {
        "id": 3211418029,
        "osm_type": "node",
        "name": "Tuacar",
        "brand": "Tuacar;Repsol"
      }
    },
    {
      "type": "Feature",
      "geometry": {
        "type": "Point",
        "coordinates": [
          -6.792849,
          41.8080961
        ]
      },
      "properties": {
        "id": 3258508037,
        "osm_type": "node",
        "name": "BP",
        "brand": "BP",
        "opening_hours": "Mo-Su 07:00-00:00"
      }
    },
    {
      "type": "Feature",
      "geometry": {
        "type": "Point",
        "coordinates": [
          -7.1564302,
          41.3088582
        ]
      },
      "properties": {
        "id": 3371894718,
        "osm_type": "node",
        "name": "BP",
        "brand": "BP"
      }
    },
    {
      "type": "Feature",
      "geometry": {
        "type": "Point",
        "coordinates": [
          -7.0895558,
          41.2252414
        ]
      },
      "properties": {
        "id": 3873145811,
        "osm_type": "node",
        "name": "BP",
        "brand": "BP"
      }
    },
    {
      "type": "Feature",
      "geometry": {
        "type": "Point",
        "coordinates": [
          -6.8778242,
          41.1851353
        ]
      },
      "properties": {
        "id": 3955375229,
        "osm_type": "node",
        "name": "Jerónimo & Teixeira, S. A."
      }
    },
    {
      "type": "Feature",
      "geometry": {
        "type": "Point",
        "coordinates": [
          -6.7267708,
          41.5618939
        ]
      },
      "properties": {
        "id": 3956987272,
        "osm_type": "node",
        "name": "Cepsa",
        "brand": "Cepsa",
        "opening_hours": "Mo-Su 08:00-22:00"
      }
    },
    {
      "type": "Feature",
      "geometry": {
        "type": "Point",
        "coordinates": [
          -7.1243423,
          41.6575765
        ]
      },
      "properties": {
        "id": 3958279691,
        "osm_type": "node",
        "name": "Repsol",
        "brand": "Repsol",
        "opening_hours": "Mo-Su 07:00-22:00"
      }
    },
    {
      "type": "Feature",
      "geometry": {
        "type": "Point",
        "coordinates": [
          -7.2550579,
          41.2641299
        ]
      },
      "properties": {
        "id": 4420422351,
        "osm_type": "node",
        "name": "Gaspe",
        "brand": "Gaspe;Galp"
      }
    },
    {
      "type": "Feature",
      "geometry": {
        "type": "Point",
        "coordinates": [
          -6.759926,
          41.8100293
        ]
      },
      "properties": {
        "id": 6801353104,
        "osm_type": "node",
        "name": "Repsol",
        "brand": "Repsol",
        "opening_hours": "Mo-Sa 07:30-20:00"
      }
    },
    {
      "type": "Feature",
      "geometry": {
        "type": "Point",
        "coordinates": [
          -6.7547864,
          41.8071141
        ]
      },
      "properties": {
        "id": 6805669489,
        "osm_type": "node",
        "name": "Moeve",
        "brand": "Moeve",
        "opening_hours": "Mo-Su 07:00-23:00"
      }
    },
    {
      "type": "Feature",
      "geometry": {
        "type": "Point",
        "coordinates": [
          -7.0102808,
          41.8367069
        ]
      },
      "properties": {
        "id": 8796483978,
        "osm_type": "node",
        "name": "Francisco Silva & Companhia, Lda."
      }
    },
    {
      "type": "Feature",
      "geometry": {
        "type": "Point",
        "coordinates": [
          -7.3419094,
          41.3012984
        ]
      },
      "properties": {
        "id": 9078374596,
        "osm_type": "node",
        "name": "Prio",
        "brand": "Prio"
      }
    },
    {
      "type": "Feature",
      "geometry": {
        "type": "Point",
        "coordinates": [
          -6.7058332,
          41.3452636
        ]
      },
      "properties": {
        "id": 9211971903,
        "osm_type": "node",
        "name": "Shell",
        "brand": "Shell",
        "check_date": "2023-07-20"
      }
    },
    {
      "type": "Feature",
      "geometry": {
        "type": "Point",
        "coordinates": [
          -6.5195386,
          41.5928225
        ]
      },
      "properties": {
        "id": 9701263111,
        "osm_type": "node",
        "name": "Gaspe",
        "brand": "Gaspe;Galp"
      }
    },
    {
      "type": "Feature",
      "geometry": {
        "type": "Point",
        "coordinates": [
          -6.5032491,
          41.3662407
        ]
      },
      "properties": {
        "id": 9701264132,
        "osm_type": "node",
        "name": "Gaspe",
        "brand": "Gaspe;Galp"
      }
    },
    {
      "type": "Feature",
      "geometry": {
        "type": "Point",
        "coordinates": [
          -6.4433983,
          41.4552162
        ]
      },
      "properties": {
        "id": 9701264133,
        "osm_type": "node",
        "name": "Alves Bandeira",
        "brand": "Alves Bandeira"
      }
    },
    {
      "type": "Feature",
      "geometry": {
        "type": "Point",
        "coordinates": [
          -6.424197,
          41.3927884
        ]
      },
      "properties": {
        "id": 9701264142,
        "osm_type": "node",
        "name": "Gaspe",
        "brand": "Gaspe;Galp"
      }
    },
    {
      "type": "Feature",
      "geometry": {
        "type": "Point",
        "coordinates": [
          -6.3281921,
          41.5446696
        ]
      },
      "properties": {
        "id": 9701264205,
        "osm_type": "node",
        "name": "Galp",
        "brand": "Galp"
      }
    },
    {
      "type": "Feature",
      "geometry": {
        "type": "Point",
        "coordinates": [
          -6.2865085,
          41.5067304
        ]
      },
      "properties": {
        "id": 9701264206,
        "osm_type": "node",
        "name": "BP",
        "brand": "BP"
      }
    },
    {
      "type": "Feature",
      "geometry": {
        "type": "Point",
        "coordinates": [
          -7.1431988,
          41.3746697
        ]
      },
      "properties": {
        "id": 9708380485,
        "osm_type": "node",
        "name": "Dourogás",
        "brand": "Dourogás"
      }
    },
    {
      "type": "Feature",
      "geometry": {
        "type": "Point",
        "coordinates": [
          -6.9957533,
          41.8373257
        ]
      },
      "properties": {
        "id": 11069810633,
        "osm_type": "node",
        "name": "Gaspe",
        "brand": "Gaspe;Galp"
      }
    },
    {
      "type": "Feature",
      "geometry": {
        "type": "Point",
        "coordinates": [
          -7.2050922,
          41.4790468
        ]
      },
      "properties": {
        "id": 11069880726,
        "osm_type": "node",
        "name": "Gaspe",
        "brand": "Gaspe;Galp"
      }
    },
    {
      "type": "Feature",
      "geometry": {
        "type": "Point",
        "coordinates": [
          -6.9942414,
          41.5706948
        ]
      },
      "properties": {
        "id": 11461458695,
        "osm_type": "node",
        "name": "Moeve",
        "brand": "Moeve",
        "check_date": "2025-08-25"
      }
    },
    {
      "type": "Feature",
      "geometry": {
        "type": "Point",
        "coordinates": [
          -7.0154947,
          41.1897668
        ]
      },
      "properties": {
        "id": 13103903685,
        "osm_type": "node",
        "name": "IRMÃOS MOREIRA, LDA"
      }
    },
    {
      "type": "Feature",
      "geometry": {
        "type": "Point",
        "coordinates": [
          -7.0409355,
          41.1785672
        ]
      },
      "properties": {
        "id": 13287664441,
        "osm_type": "node",
        "name": "Intermarché",
        "brand": "Intermarché"
      }
    },
    {
      "type": "Feature",
      "geometry": {
        "type": "Point",
        "coordinates": [
          -6.7706761,
          41.7991619
        ]
      },
      "properties": {
        "id": 13300517980,
        "osm_type": "node",
        "name": "Repsol",
        "brand": "Repsol",
        "opening_hours": "07:00-24:00"
      }
    },
    {
      "type": "Feature",
      "geometry": {
        "type": "Point",
        "coordinates": [
          -7.2055995,
          41.4794989
        ]
      },
      "properties": {
        "id": 13305361822,
        "osm_type": "node",
        "brand": "OZ Energia"
      }
    },
    {
      "type": "Feature",
      "geometry": {
        "type": "Point",
        "coordinates": [
          -6.8341975,
          41.6654905
        ]
      },
      "properties": {
        "id": 13313512446,
        "osm_type": "node",
        "name": "Galp",
        "brand": "Galp"
      }
    },
    {
      "type": "Feature",
      "geometry": {
        "type": "Point",
        "coordinates": [
          -6.3663706,
          41.4704461
        ]
      },
      "properties": {
        "id": 13314281220,
        "osm_type": "node",
        "name": "emarca"
      }
    },
    {
      "type": "Feature",
      "geometry": {
        "type": "Point",
        "coordinates": [
          -6.7550833,
          41.8191352
        ]
      },
      "properties": {
        "id": 217567205,
        "osm_type": "way",
        "name": "Gaspe",
        "brand": "Gaspe;Galp",
        "check_date": "2025-08-25"
      }
    },
    {
      "type": "Feature",
      "geometry": {
        "type": "Point",
        "coordinates": [
          -6.7420442,
          41.8123233
        ]
      },
      "properties": {
        "id": 217815989,
        "osm_type": "way",
        "name": "BP",
        "brand": "BP",
        "opening_hours": "Mo-Su 07:00-23:00"
      }
    },
    {
      "type": "Feature",
      "geometry": {
        "type": "Point",
        "coordinates": [
          -6.7591978,
          41.8028151
        ]
      },
      "properties": {
        "id": 220960454,
        "osm_type": "way",
        "name": "Galp",
        "brand": "Galp"
      }
    },
    {
      "type": "Feature",
      "geometry": {
        "type": "Point",
        "coordinates": [
          -7.0101689,
          41.8307117
        ]
      },
      "properties": {
        "id": 266081277,
        "osm_type": "way",
        "name": "Cepsa",
        "brand": "Cepsa"
      }
    },
    {
      "type": "Feature",
      "geometry": {
        "type": "Point",
        "coordinates": [
          -6.2734085,
          41.4993118
        ]
      },
      "properties": {
        "id": 292098728,
        "osm_type": "way",
        "name": "Cepsa",
        "brand": "Moeve"
      }
    },
    {
      "type": "Feature",
      "geometry": {
        "type": "Point",
        "coordinates": [
          -7.0487396,
          41.1743326
        ]
      },
      "properties": {
        "id": 372981072,
        "osm_type": "way",
        "name": "Prio",
        "brand": "Prio",
        "opening_hours": "24/7"
      }
    },
    {
      "type": "Feature",
      "geometry": {
        "type": "Point",
        "coordinates": [
          -7.2096511,
          41.6431633
        ]
      },
      "properties": {
        "id": 399555172,
        "osm_type": "way",
        "name": "Freitas",
        "brand": "Freitas;Galp",
        "opening_hours": "Mo-Su 07:00-22:00"
      }
    },
    {
      "type": "Feature",
      "geometry": {
        "type": "Point",
        "coordinates": [
          -6.7107354,
          41.3419231
        ]
      },
      "properties": {
        "id": 460956517,
        "osm_type": "way",
        "name": "Tuacar",
        "brand": "Tuacar;Repsol",
        "opening_hours": "07:00-21:00"
      }
    },
    {
      "type": "Feature",
      "geometry": {
        "type": "Point",
        "coordinates": [
          -6.7054535,
          41.338631
        ]
      },
      "properties": {
        "id": 516105136,
        "osm_type": "way",
        "name": "Gaspe",
        "brand": "Gaspe;Galp"
      }
    },
    {
      "type": "Feature",
      "geometry": {
        "type": "Point",
        "coordinates": [
          -7.1630945,
          41.3101628
        ]
      },
      "properties": {
        "id": 884361706,
        "osm_type": "way",
        "name": "Intermarché",
        "brand": "Intermarché"
      }
    },
    {
      "type": "Feature",
      "geometry": {
        "type": "Point",
        "coordinates": [
          -7.1767102,
          41.4930204
        ]
      },
      "properties": {
        "id": 888010224,
        "osm_type": "way",
        "name": "Repsol",
        "brand": "Repsol",
        "opening_hours": "24/7"
      }
    },
    {
      "type": "Feature",
      "geometry": {
        "type": "Point",
        "coordinates": [
          -7.1627254,
          41.7390768
        ]
      },
      "properties": {
        "id": 940677577,
        "osm_type": "way",
        "name": "Maria Leontina Dias"
      }
    },
    {
      "type": "Feature",
      "geometry": {
        "type": "Point",
        "coordinates": [
          -6.2849035,
          41.5050964
        ]
      },
      "properties": {
        "id": 1228514926,
        "osm_type": "way",
        "name": "Intermarché",
        "brand": "Intermarché"
      }
    },
    {
      "type": "Feature",
      "geometry": {
        "type": "Point",
        "coordinates": [
          -6.7077848,
          41.3533707
        ]
      },
      "properties": {
        "id": 1287356509,
        "osm_type": "way",
        "name": "BP",
        "brand": "BP"
      }
    },
    {
      "type": "Feature",
      "geometry": {
        "type": "Point",
        "coordinates": [
          -6.8994264,
          41.4685827
        ]
      },
      "properties": {
        "id": 1431799397,
        "osm_type": "way",
        "name": "Gaspe",
        "brand": "Gaspe;Galp"
      }
    },
    {
      "type": "Feature",
      "geometry": {
        "type": "Point",
        "coordinates": [
          -7.0317017,
          41.6977521
        ]
      },
      "properties": {
        "id": 1435185006,
        "osm_type": "way",
        "name": "Freitas",
        "brand": "Freitas;Galp"
      }
    },
    {
      "type": "Feature",
      "geometry": {
        "type": "Point",
        "coordinates": [
          -7.1776506,
          41.4759046
        ]
      },
      "properties": {
        "id": 1435769447,
        "osm_type": "way",
        "name": "Tuacar",
        "brand": "Tuacar;Repsol"
      }
    },
    {
      "type": "Feature",
      "geometry": {
        "type": "Point",
        "coordinates": [
          -6.9532234,
          41.5326952
        ]
      },
      "properties": {
        "id": 1435769805,
        "osm_type": "way",
        "name": "Intermarché",
        "brand": "Intermarché"
      }
    }
  ]
}