{
  "type": "FeatureCollection",
  "features": [
    {
      "type": "Feature",
      "geometry": {
        "type": "Point",
        "coordinates": [
          29.1723639,
          40.6035141
        ]
      },
      "properties": {
        "id": 1389290336,
        "osm_type": "node"
      }
    },
    {
      "type": "Feature",
      "geometry": {
        "type": "Point",
        "coordinates": [
          29.2773645,
          40.5541258
        ]
      },
      "properties": {
        "id": 4348299738,
        "osm_type": "node",
        "name": "Dağıstan Pidesi"
      }
    },
    {
      "type": "Feature",
      "geometry": {
        "type": "Point",
        "coordinates": [
          29.2713771,
          40.6584311
        ]
      },
      "properties": {
        "id": 5057075311,
        "osm_type": "node",
        "name": "Merkez İşkembe Salonu"
      }
    },
    {
      "type": "Feature",
      "geometry": {
        "type": "Point",
        "coordinates": [
          29.173599,
          40.6059772
        ]
      },
      "properties": {
        "id": 5287231155,
        "osm_type": "node"
      }
    },
    {
      "type": "Feature",
      "geometry": {
        "type": "Point",
        "coordinates": [
          29.2701364,
          40.6034018
        ]
      },
      "properties": {
        "id": 5356029321,
        "osm_type": "node",
        "name": "Sepetcioglu"
      }
    },
    {
      "type": "Feature",
      "geometry": {
        "type": "Point",
        "coordinates": [
          29.2693831,
          40.6574822
        ]
      },
      "properties": {
        "id": 5356037021,
        "osm_type": "node",
        "name": "Unsal Balik"
      }
    },
    {
      "type": "Feature",
      "geometry": {
        "type": "Point",
        "coordinates": [
          29.2783967,
          40.661178
        ]
      },
      "properties": {
        "id": 5356045721,
        "osm_type": "node",
        "name": "ALTIN BALIK MARIN RESTORANT"
      }
    },
    {
      "type": "Feature",
      "geometry": {
        "type": "Point",
        "coordinates": [
          29.2525377,
          40.6054646
        ]
      },
      "properties": {
        "id": 5356045723,
        "osm_type": "node",
        "name": "Masal köyü Kır sofrası"
      }
    },
    {
      "type": "Feature",
      "geometry": {
        "type": "Point",
        "coordinates": [
          29.2677326,
          40.6579888
        ]
      },
      "properties": {
        "id": 5356066221,
        "osm_type": "node",
        "name": "Acarlar Kebap"
      }
    },
    {
      "type": "Feature",
      "geometry": {
        "type": "Point",
        "coordinates": [
          29.276664,
          40.6577453
        ]
      },
      "properties": {
        "id": 6399833085,
        "osm_type": "node",
        "name": "arapça işletmelere hayır"
      }
    },
    {
      "type": "Feature",
      "geometry": {
        "type": "Point",
        "coordinates": [
          29.2765733,
          40.6577343
        ]
      },
      "properties": {
        "id": 6399833185,
        "osm_type": "node"
      }
    },
    {
      "type": "Feature",
      "geometry": {
        "type": "Point",
        "coordinates": [
          29.2316518,
          40.5990206
        ]
      },
      "properties": {
        "id": 6564426271,
        "osm_type": "node"
      }
    },
    {
      "type": "Feature",
      "geometry": {
        "type": "Point",
        "coordinates": [
          29.2816135,
          40.6567168
        ]
      },
      "properties": {
        "id": 6726103800,
        "osm_type": "node"
      }
    },
    {
      "type": "Feature",
      "geometry": {
        "type": "Point",
        "coordinates": [
          29.280389,
          40.6573744
        ]
      },
      "properties": {
        "id": 6726103801,
        "osm_type": "node"
      }
    },
    {
      "type": "Feature",
      "geometry": {
        "type": "Point",
        "coordinates": [
          29.2771465,
          40.657463
        ]
      },
      "properties": {
        "id": 6726103806,
        "osm_type": "node"
      }
    },
    {
      "type": "Feature",
      "geometry": {
        "type": "Point",
        "coordinates": [
          29.2770687,
          40.6570961
        ]
      },
      "properties": {
        "id": 6726103893,
        "osm_type": "node"
      }
    },
    {
      "type": "Feature",
      "geometry": {
        "type": "Point",
        "coordinates": [
          29.2735079,
          40.6534634
        ]
      },
      "properties": {
        "id": 6726103897,
        "osm_type": "node",
        "name": "Ceren Pastanesi"
      }
    },
    {
      "type": "Feature",
      "geometry": {
        "type": "Point",
        "coordinates": [
          29.2732335,
          40.6577369
        ]
      },
      "properties": {
        "id": 6726106697,
        "osm_type": "node",
        "name": "Doyum Pide Lahmacun"
      }
    },
    {
      "type": "Feature",
      "geometry": {
        "type": "Point",
        "coordinates": [
          29.2732218,
          40.6565654
        ]
      },
      "properties": {
        "id": 6726106699,
        "osm_type": "node"
      }
    },
    {
      "type": "Feature",
      "geometry": {
        "type": "Point",
        "coordinates": [
          29.2728494,
          40.6572506
        ]
      },
      "properties": {
        "id": 6726106790,
        "osm_type": "node",
        "name": "Osmanli Doner",
        "opening_hours": "Mo-Sa 09:00-20:30",
        "phone": "+90 226 800 0030"
      }
    },
    {
      "type": "Feature",
      "geometry": {
        "type": "Point",
        "coordinates": [
          29.2778306,
          40.6603095
        ]
      },
      "properties": {
        "id": 6726106791,
        "osm_type": "node"
      }
    },
    {
      "type": "Feature",
      "geometry": {
        "type": "Point",
        "coordinates": [
          29.2187243,
          40.5670849
        ]
      },
      "properties": {
        "id": 6775763985,
        "osm_type": "node",
        "name": "Dereiçi Restaurant Alabalık Tesisleri",
        "phone": "+90 532 206 61 50"
      }
    },
    {
      "type": "Feature",
      "geometry": {
        "type": "Point",
        "coordinates": [
          29.2730956,
          40.6176344
        ]
      },
      "properties": {
        "id": 6938608188,
        "osm_type": "node"
      }
    },
    {
      "type": "Feature",
      "geometry": {
        "type": "Point",
        "coordinates": [
          29.2715514,
          40.6251382
        ]
      },
      "properties": {
        "id": 6938649052,
        "osm_type": "node",
        "name": "Köfteci Yusuf"
      }
    },
    {
      "type": "Feature",
      "geometry": {
        "type": "Point",
        "coordinates": [
          29.2252198,
          40.63637
        ]
      },
      "properties": {
        "id": 6988957272,
        "osm_type": "node",
        "name": "Serin Bahçe Restoran"
      }
    },
    {
      "type": "Feature",
      "geometry": {
        "type": "Point",
        "coordinates": [
          29.3957668,
          40.6808919
        ]
      },
      "properties": {
        "id": 7173066775,
        "osm_type": "node",
        "name": "Köfteci Deniz Baba"
      }
    },
    {
      "type": "Feature",
      "geometry": {
        "type": "Point",
        "coordinates": [
          29.2739147,
          40.657676
        ]
      },
      "properties": {
        "id": 7878354885,
        "osm_type": "node",
        "name": "BİRBİÇER ADANALI MURAT USTA"
      }
    },
    {
      "type": "Feature",
      "geometry": {
        "type": "Point",
        "coordinates": [
          29.1729603,
          40.6126107
        ]
      },
      "properties": {
        "id": 8218546604,
        "osm_type": "node",
        "name": "KYK Termal Erkek Öğrenci Yurdu Kantini"
      }
    },
    {
      "type": "Feature",
      "geometry": {
        "type": "Point",
        "coordinates": [
          29.2787681,
          40.6599167
        ]
      },
      "properties": {
        "id": 8734923704,
        "osm_type": "node",
        "name": "Köfteci Yusuf",
        "brand": "Köfteci Yusuf",
        "opening_hours": "Mo-Su 09:00-21:00",
        "cuisine": "turkish"
      }
    },
    {
      "type": "Feature",
      "geometry": {
        "type": "Point",
        "coordinates": [
          29.3165077,
          40.665
        ]
      },
      "properties": {
        "id": 8849171517,
        "osm_type": "node",
        "name": "Eylül sofrası )yemek ve ızgara (",
        "phone": "05534537025",
        "website": "https://instagram.com/eylul.sofrasi?utm_medium=copy_link"
      }
    },
    {
      "type": "Feature",
      "geometry": {
        "type": "Point",
        "coordinates": [
          29.2710137,
          40.6597114
        ]
      },
      "properties": {
        "id": 10981607554,
        "osm_type": "node",
        "name": "My World Lounge",
        "phone": "05421066978",
        "cuisine": "pizza;coffee_shop;burger;italian;chicken;turkish;regional"
      }
    },
    {
      "type": "Feature",
      "geometry": {
        "type": "Point",
        "coordinates": [
          29.2976589,
          40.5656313
        ]
      },
      "properties": {
        "id": 11040038820,
        "osm_type": "node"
      }
    },
    {
      "type": "Feature",
      "geometry": {
        "type": "Point",
        "coordinates": [
          29.3912278,
          40.6791189
        ]
      },
      "properties": {
        "id": 11083754405,
        "osm_type": "node",
        "name": "Taşköprü Belediyesi Sosyal Tesisi",
        "operator": "Taşköprü Belediyesi"
      }
    },
    {
      "type": "Feature",
      "geometry": {
        "type": "Point",
        "coordinates": [
          29.2780811,
          40.6607385
        ]
      },
      "properties": {
        "id": 11341240271,
        "osm_type": "node",
        "cuisine": "international;turkish"
      }
    },
    {
      "type": "Feature",
      "geometry": {
        "type": "Point",
        "coordinates": [
          29.5229909,
          40.6963149
        ]
      },
      "properties": {
        "id": 11572190493,
        "osm_type": "node",
        "name": "Ova Et Köfte",
        "opening_hours": "Mo-Su 10:00-22:00",
        "website": "http://ovaetkofte.com/",
        "cuisine": "pizza;burger;steak_house",
        "takeaway": "yes"
      }
    },
    {
      "type": "Feature",
      "geometry": {
        "type": "Point",
        "coordinates": [
          29.1514678,
          40.6479681
        ]
      },
      "properties": {
        "id": 11980544923,
        "osm_type": "node",
        "name": "Gardenia Caffee & Restaurant",
        "opening_hours": "Mo-Su 08:00-23:30",
        "phone": "+905304789317",
        "website": "https://gardenia.dijital.menu/"
      }
    },
    {
      "type": "Feature",
      "geometry": {
        "type": "Point",
        "coordinates": [
          29.1184638,
          40.6465286
        ]
      },
      "properties": {
        "id": 12883287420,
        "osm_type": "node",
        "name": "İskele Balık",
        "check_date": "2025-06-03"
      }
    },
    {
      "type": "Feature",
      "geometry": {
        "type": "Point",
        "coordinates": [
          28.8349246,
          40.5101394
        ]
      },
      "properties": {
        "id": 13111088955,
        "osm_type": "node",
        "name": "Acıktım Kebap"
      }
    },
    {
      "type": "Feature",
      "geometry": {
        "type": "Point",
        "coordinates": [
          28.8289227,
          40.5190421
        ]
      },
      "properties": {
        "id": 13196145931,
        "osm_type": "node",
        "name": "Antepli Şefin Yeri",
        "cuisine": "turkish"
      }
    },
    {
      "type": "Feature",
      "geometry": {
        "type": "Point",
        "coordinates": [
          28.8366345,
          40.5113965
        ]
      },
      "properties": {
        "id": 13196145945,
        "osm_type": "node",
        "name": "Üçyol Lokantası"
      }
    },
    {
      "type": "Feature",
      "geometry": {
        "type": "Point",
        "coordinates": [
          28.8374192,
          40.5100406
        ]
      },
      "properties": {
        "id": 13196145950,
        "osm_type": "node",
        "name": "İskele Tantuni",
        "cuisine": "turkish"
      }
    },
    {
      "type": "Feature",
      "geometry": {
        "type": "Point",
        "coordinates": [
          28.8380963,
          40.5094739
        ]
      },
      "properties": {
        "id": 13196145953,
        "osm_type": "node",
        "name": "Bektaş Balıkçılık",
        "cuisine": "fish"
      }
    },
    {
      "type": "Feature",
      "geometry": {
        "type": "Point",
        "coordinates": [
          28.8380933,
          40.5094096
        ]
      },
      "properties": {
        "id": 13196145954,
        "osm_type": "node",
        "name": "Özgür Döner"
      }
    },
    {
      "type": "Feature",
      "geometry": {
        "type": "Point",
        "coordinates": [
          28.8403442,
          40.510375
        ]
      },
      "properties": {
        "id": 13196145961,
        "osm_type": "node",
        "name": "Marmara 77 Lahmacun",
        "cuisine": "turkish"
      }
    },
    {
      "type": "Feature",
      "geometry": {
        "type": "Point",
        "coordinates": [
          28.838071,
          40.5096271
        ]
      },
      "properties": {
        "id": 13611744901,
        "osm_type": "node",
        "name": "Gündüz Kardeşler Kasap Köfte",
        "cuisine": "steak_house"
      }
    },
    {
      "type": "Feature",
      "geometry": {
        "type": "Point",
        "coordinates": [
          29.2694104,
          40.6287637
        ]
      },
      "properties": {
        "id": 13777422551,
        "osm_type": "node",
        "name": "The Park Restaurant"
      }
    },
    {
      "type": "Feature",
      "geometry": {
        "type": "Point",
        "coordinates": [
          29.1735245,
          40.6031049
        ]
      },
      "properties": {
        "id": 124975775,
        "osm_type": "way",
        "cuisine": "turkish"
      }
    },
    {
      "type": "Feature",
      "geometry": {
        "type": "Point",
        "coordinates": [
          29.1757982,
          40.6023666
        ]
      },
      "properties": {
        "id": 124975784,
        "osm_type": "way",
        "cuisine": "turkish"
      }
    },
    {
      "type": "Feature",
      "geometry": {
        "type": "Point",
        "coordinates": [
          29.2754402,
          40.6593551
        ]
      },
      "properties": {
        "id": 252782715,
        "osm_type": "way"
      }
    },
    {
      "type": "Feature",
      "geometry": {
        "type": "Point",
        "coordinates": [
          29.2714809,
          40.6600433
        ]
      },
      "properties": {
        "id": 252942605,
        "osm_type": "way"
      }
    },
    {
      "type": "Feature",
      "geometry": {
        "type": "Point",
        "coordinates": [
          29.2277946,
          40.5721626
        ]
      },
      "properties": {
        "id": 401287562,
        "osm_type": "way",
        "name": "Kutluay Canlı Alabalık Teisleri"
      }
    },
    {
      "type": "Feature",
      "geometry": {
        "type": "Point",
        "coordinates": [
          29.2785571,
          40.5538432
        ]
      },
      "properties": {
        "id": 406607494,
        "osm_type": "way",
        "name": "Zübeydenin Yeri"
      }
    },
    {
      "type": "Feature",
      "geometry": {
        "type": "Point",
        "coordinates": [
          29.228653,
          40.571079
        ]
      },
      "properties": {
        "id": 464713005,
        "osm_type": "way",
        "name": "Ormanika - Ahmet Yiğit",
        "opening_hours": "24/7",
        "phone": "+905065092076"
      }
    },
    {
      "type": "Feature",
      "geometry": {
        "type": "Point",
        "coordinates": [
          29.318988,
          40.6629007
        ]
      },
      "properties": {
        "id": 880906330,
        "osm_type": "way"
      }
    },
    {
      "type": "Feature",
      "geometry": {
        "type": "Point",
        "coordinates": [
          28.8311795,
          40.5211934
        ]
      },
      "properties": {
        "id": 1394818510,
        "osm_type": "way"
      }
    },
    {
      "type": "Feature",
      "geometry": {
        "type": "Point",
        "coordinates": [
          28.8359842,
          40.5104506
        ]
      },
      "properties": {
        "id": 1417612980,
        "osm_type": "way",
        "name": "Adress Kokoreç"
      }
    },
    {
      "type": "Feature",
      "geometry": {
        "type": "Point",
        "coordinates": [
          28.8359984,
          40.5100383
        ]
      },
      "properties": {
        "id": 1421399991,
        "osm_type": "way",
        "name": "Cihan Kokoreç",
        "cuisine": "turkish"
      }
    }
  ]
}