{
  "type": "FeatureCollection",
  "features": [
    {
      "type": "Feature",
      "geometry": {
        "type": "Point",
        "coordinates": [
          28.7952163,
          40.5179556
        ]
      },
      "properties": {
        "id": 3493263847,
        "osm_type": "node"
      }
    },
    {
      "type": "Feature",
      "geometry": {
        "type": "Point",
        "coordinates": [
          28.7898687,
          40.5182379
        ]
      },
      "properties": {
        "id": 3493263850,
        "osm_type": "node"
      }
    },
    {
      "type": "Feature",
      "geometry": {
        "type": "Point",
        "coordinates": [
          29.3215248,
          40.6654742
        ]
      },
      "properties": {
        "id": 4977331722,
        "osm_type": "node",
        "name": "Özdilek"
      }
    },
    {
      "type": "Feature",
      "geometry": {
        "type": "Point",
        "coordinates": [
          29.2710377,
          40.6583946
        ]
      },
      "properties": {
        "id": 5057075295,
        "osm_type": "node",
        "name": "Şok",
        "brand": "Şok"
      }
    },
    {
      "type": "Feature",
      "geometry": {
        "type": "Point",
        "coordinates": [
          29.2762432,
          40.6574088
        ]
      },
      "properties": {
        "id": 6681101485,
        "osm_type": "node",
        "name": "dirilis yayla"
      }
    },
    {
      "type": "Feature",
      "geometry": {
        "type": "Point",
        "coordinates": [
          29.2519883,
          40.6548821
        ]
      },
      "properties": {
        "id": 6726103798,
        "osm_type": "node",
        "name": "Melik Mini Market"
      }
    },
    {
      "type": "Feature",
      "geometry": {
        "type": "Point",
        "coordinates": [
          29.2815669,
          40.6568696
        ]
      },
      "properties": {
        "id": 6726103799,
        "osm_type": "node"
      }
    },
    {
      "type": "Feature",
      "geometry": {
        "type": "Point",
        "coordinates": [
          29.278028,
          40.6578617
        ]
      },
      "properties": {
        "id": 6726103803,
        "osm_type": "node"
      }
    },
    {
      "type": "Feature",
      "geometry": {
        "type": "Point",
        "coordinates": [
          29.2737604,
          40.653554
        ]
      },
      "properties": {
        "id": 6726103817,
        "osm_type": "node"
      }
    },
    {
      "type": "Feature",
      "geometry": {
        "type": "Point",
        "coordinates": [
          29.2512107,
          40.6546659
        ]
      },
      "properties": {
        "id": 6726103891,
        "osm_type": "node",
        "name": "Simay Mini Market"
      }
    },
    {
      "type": "Feature",
      "geometry": {
        "type": "Point",
        "coordinates": [
          29.2731714,
          40.6567222
        ]
      },
      "properties": {
        "id": 6726103896,
        "osm_type": "node",
        "name": "BİM",
        "brand": "BİM",
        "opening_hours": "Mo-Su 09:00-21:00"
      }
    },
    {
      "type": "Feature",
      "geometry": {
        "type": "Point",
        "coordinates": [
          29.2785056,
          40.6579084
        ]
      },
      "properties": {
        "id": 6726106695,
        "osm_type": "node",
        "name": "Didar Market"
      }
    },
    {
      "type": "Feature",
      "geometry": {
        "type": "Point",
        "coordinates": [
          29.2778862,
          40.659583
        ]
      },
      "properties": {
        "id": 6726106700,
        "osm_type": "node",
        "name": "Yalova Vatan Eczanesi"
      }
    },
    {
      "type": "Feature",
      "geometry": {
        "type": "Point",
        "coordinates": [
          29.2518379,
          40.6568585
        ]
      },
      "properties": {
        "id": 6726106787,
        "osm_type": "node"
      }
    },
    {
      "type": "Feature",
      "geometry": {
        "type": "Point",
        "coordinates": [
          29.2510209,
          40.6556137
        ]
      },
      "properties": {
        "id": 6726106788,
        "osm_type": "node",
        "name": "Nur Market"
      }
    },
    {
      "type": "Feature",
      "geometry": {
        "type": "Point",
        "coordinates": [
          29.2573138,
          40.6382123
        ]
      },
      "properties": {
        "id": 7093416026,
        "osm_type": "node",
        "name": "Şok",
        "brand": "Şok"
      }
    },
    {
      "type": "Feature",
      "geometry": {
        "type": "Point",
        "coordinates": [
          29.257817,
          40.6397347
        ]
      },
      "properties": {
        "id": 7093497430,
        "osm_type": "node",
        "name": "BİM",
        "brand": "BİM",
        "opening_hours": "Mo-Su 09:00-21:00"
      }
    },
    {
      "type": "Feature",
      "geometry": {
        "type": "Point",
        "coordinates": [
          29.2579975,
          40.6402289
        ]
      },
      "properties": {
        "id": 7093497435,
        "osm_type": "node",
        "name": "A101",
        "brand": "A101",
        "opening_hours": "Mo-Su 09:00-21:30"
      }
    },
    {
      "type": "Feature",
      "geometry": {
        "type": "Point",
        "coordinates": [
          29.2559064,
          40.6544822
        ]
      },
      "properties": {
        "id": 7093583930,
        "osm_type": "node",
        "name": "BİM",
        "brand": "BİM",
        "opening_hours": "Mo-Su 09:00-21:00"
      }
    },
    {
      "type": "Feature",
      "geometry": {
        "type": "Point",
        "coordinates": [
          29.2746677,
          40.654148
        ]
      },
      "properties": {
        "id": 7095280306,
        "osm_type": "node",
        "name": "Şok",
        "brand": "Şok"
      }
    },
    {
      "type": "Feature",
      "geometry": {
        "type": "Point",
        "coordinates": [
          29.2591775,
          40.647866
        ]
      },
      "properties": {
        "id": 7098064622,
        "osm_type": "node",
        "name": "A101",
        "brand": "A101",
        "opening_hours": "Mo-Su 09:00-21:30"
      }
    },
    {
      "type": "Feature",
      "geometry": {
        "type": "Point",
        "coordinates": [
          29.2598782,
          40.6563268
        ]
      },
      "properties": {
        "id": 7101035653,
        "osm_type": "node",
        "name": "Migros",
        "brand": "Migros"
      }
    },
    {
      "type": "Feature",
      "geometry": {
        "type": "Point",
        "coordinates": [
          29.2702067,
          40.6508325
        ]
      },
      "properties": {
        "id": 7101296566,
        "osm_type": "node",
        "name": "BİM",
        "brand": "BİM",
        "opening_hours": "Mo-Su 09:00-21:00"
      }
    },
    {
      "type": "Feature",
      "geometry": {
        "type": "Point",
        "coordinates": [
          29.2700797,
          40.6511767
        ]
      },
      "properties": {
        "id": 7101296576,
        "osm_type": "node",
        "name": "Yalçınkaya Grup"
      }
    },
    {
      "type": "Feature",
      "geometry": {
        "type": "Point",
        "coordinates": [
          29.270329,
          40.6515229
        ]
      },
      "properties": {
        "id": 7101296577,
        "osm_type": "node",
        "name": "Şok",
        "brand": "Şok"
      }
    },
    {
      "type": "Feature",
      "geometry": {
        "type": "Point",
        "coordinates": [
          29.3062653,
          40.6591808
        ]
      },
      "properties": {
        "id": 7110705441,
        "osm_type": "node",
        "name": "BİM",
        "brand": "BİM",
        "opening_hours": "Mo-Su 09:00-21:00"
      }
    },
    {
      "type": "Feature",
      "geometry": {
        "type": "Point",
        "coordinates": [
          29.3062251,
          40.6585439
        ]
      },
      "properties": {
        "id": 7110705470,
        "osm_type": "node",
        "name": "A101",
        "brand": "A101",
        "opening_hours": "Mo-Su 09:00-21:30"
      }
    },
    {
      "type": "Feature",
      "geometry": {
        "type": "Point",
        "coordinates": [
          29.3061085,
          40.6573383
        ]
      },
      "properties": {
        "id": 7110705475,
        "osm_type": "node",
        "name": "Şok",
        "brand": "Şok"
      }
    },
    {
      "type": "Feature",
      "geometry": {
        "type": "Point",
        "coordinates": [
          29.2724502,
          40.6558547
        ]
      },
      "properties": {
        "id": 7111657928,
        "osm_type": "node",
        "name": "Şok",
        "brand": "Şok"
      }
    },
    {
      "type": "Feature",
      "geometry": {
        "type": "Point",
        "coordinates": [
          29.3010859,
          40.6566617
        ]
      },
      "properties": {
        "id": 7111662586,
        "osm_type": "node",
        "name": "A101",
        "brand": "A101",
        "opening_hours": "Mo-Su 09:00-21:30"
      }
    },
    {
      "type": "Feature",
      "geometry": {
        "type": "Point",
        "coordinates": [
          29.3009679,
          40.6570056
        ]
      },
      "properties": {
        "id": 7111662593,
        "osm_type": "node",
        "name": "BİM",
        "brand": "BİM",
        "opening_hours": "Mo-Su 09:00-21:00"
      }
    },
    {
      "type": "Feature",
      "geometry": {
        "type": "Point",
        "coordinates": [
          29.2911473,
          40.6511866
        ]
      },
      "properties": {
        "id": 7112252027,
        "osm_type": "node",
        "name": "BİM",
        "brand": "BİM",
        "opening_hours": "Mo-Su 09:00-21:00"
      }
    },
    {
      "type": "Feature",
      "geometry": {
        "type": "Point",
        "coordinates": [
          29.2641594,
          40.6449564
        ]
      },
      "properties": {
        "id": 7115300382,
        "osm_type": "node",
        "name": "Şok",
        "brand": "Şok"
      }
    },
    {
      "type": "Feature",
      "geometry": {
        "type": "Point",
        "coordinates": [
          29.264107,
          40.644746
        ]
      },
      "properties": {
        "id": 7115300388,
        "osm_type": "node",
        "name": "A101",
        "brand": "A101",
        "opening_hours": "Mo-Su 09:00-21:30"
      }
    },
    {
      "type": "Feature",
      "geometry": {
        "type": "Point",
        "coordinates": [
          29.2651184,
          40.6458268
        ]
      },
      "properties": {
        "id": 7115300406,
        "osm_type": "node",
        "name": "BİM",
        "brand": "BİM",
        "opening_hours": "Mo-Su 09:00-21:00"
      }
    },
    {
      "type": "Feature",
      "geometry": {
        "type": "Point",
        "coordinates": [
          29.2965311,
          40.6570578
        ]
      },
      "properties": {
        "id": 7117909170,
        "osm_type": "node",
        "name": "A101",
        "brand": "A101",
        "opening_hours": "Mo-Su 09:00-21:30"
      }
    },
    {
      "type": "Feature",
      "geometry": {
        "type": "Point",
        "coordinates": [
          29.2832976,
          40.6558972
        ]
      },
      "properties": {
        "id": 7118846572,
        "osm_type": "node",
        "name": "Migros",
        "brand": "Migros"
      }
    },
    {
      "type": "Feature",
      "geometry": {
        "type": "Point",
        "coordinates": [
          29.2599549,
          40.646359
        ]
      },
      "properties": {
        "id": 7119380134,
        "osm_type": "node",
        "name": "Yalova AVM"
      }
    },
    {
      "type": "Feature",
      "geometry": {
        "type": "Point",
        "coordinates": [
          29.2600372,
          40.646771
        ]
      },
      "properties": {
        "id": 7119380145,
        "osm_type": "node",
        "name": "Migros",
        "brand": "Migros"
      }
    },
    {
      "type": "Feature",
      "geometry": {
        "type": "Point",
        "coordinates": [
          29.2604855,
          40.6469039
        ]
      },
      "properties": {
        "id": 7119380146,
        "osm_type": "node",
        "name": "Deringöl Gros"
      }
    },
    {
      "type": "Feature",
      "geometry": {
        "type": "Point",
        "coordinates": [
          29.2640871,
          40.6560701
        ]
      },
      "properties": {
        "id": 7144787767,
        "osm_type": "node",
        "name": "Çetinkaya"
      }
    },
    {
      "type": "Feature",
      "geometry": {
        "type": "Point",
        "coordinates": [
          29.2702845,
          40.6524756
        ]
      },
      "properties": {
        "id": 7149567907,
        "osm_type": "node",
        "name": "Çetinaya"
      }
    },
    {
      "type": "Feature",
      "geometry": {
        "type": "Point",
        "coordinates": [
          29.1275871,
          40.6465467
        ]
      },
      "properties": {
        "id": 7171095449,
        "osm_type": "node",
        "name": "Migros",
        "brand": "Migros"
      }
    },
    {
      "type": "Feature",
      "geometry": {
        "type": "Point",
        "coordinates": [
          29.3260069,
          40.6675505
        ]
      },
      "properties": {
        "id": 8899318536,
        "osm_type": "node",
        "name": "A101",
        "brand": "A101",
        "opening_hours": "Mo-Su 09:00-21:30"
      }
    },
    {
      "type": "Feature",
      "geometry": {
        "type": "Point",
        "coordinates": [
          29.3154826,
          40.6654021
        ]
      },
      "properties": {
        "id": 8899318724,
        "osm_type": "node",
        "name": "Eser gıda kuruyemiş & baharat"
      }
    },
    {
      "type": "Feature",
      "geometry": {
        "type": "Point",
        "coordinates": [
          29.3256593,
          40.6675091
        ]
      },
      "properties": {
        "id": 8899319319,
        "osm_type": "node",
        "name": "Şok",
        "brand": "Şok"
      }
    },
    {
      "type": "Feature",
      "geometry": {
        "type": "Point",
        "coordinates": [
          29.3268448,
          40.6673849
        ]
      },
      "properties": {
        "id": 8899319320,
        "osm_type": "node",
        "name": "CANTA MARKET"
      }
    },
    {
      "type": "Feature",
      "geometry": {
        "type": "Point",
        "coordinates": [
          29.3160934,
          40.6634392
        ]
      },
      "properties": {
        "id": 8899319324,
        "osm_type": "node",
        "name": "A101",
        "brand": "A101",
        "opening_hours": "Mo-Su 09:00-21:30"
      }
    },
    {
      "type": "Feature",
      "geometry": {
        "type": "Point",
        "coordinates": [
          29.3252099,
          40.667255
        ]
      },
      "properties": {
        "id": 8899319518,
        "osm_type": "node",
        "name": "Seç market"
      }
    },
    {
      "type": "Feature",
      "geometry": {
        "type": "Point",
        "coordinates": [
          29.2721792,
          40.6556666
        ]
      },
      "properties": {
        "id": 9035095501,
        "osm_type": "node",
        "name": "Hızır Saat"
      }
    },
    {
      "type": "Feature",
      "geometry": {
        "type": "Point",
        "coordinates": [
          28.7962206,
          40.5182372
        ]
      },
      "properties": {
        "id": 9442128668,
        "osm_type": "node",
        "name": "Şok",
        "brand": "Şok"
      }
    },
    {
      "type": "Feature",
      "geometry": {
        "type": "Point",
        "coordinates": [
          28.8117553,
          40.5146649
        ]
      },
      "properties": {
        "id": 9442128669,
        "osm_type": "node",
        "name": "A101",
        "brand": "A101",
        "opening_hours": "Mo-Su 09:00-21:30"
      }
    },
    {
      "type": "Feature",
      "geometry": {
        "type": "Point",
        "coordinates": [
          28.7975125,
          40.5175782
        ]
      },
      "properties": {
        "id": 9442128670,
        "osm_type": "node",
        "name": "A101",
        "brand": "A101",
        "opening_hours": "Mo-Su 09:00-21:30"
      }
    },
    {
      "type": "Feature",
      "geometry": {
        "type": "Point",
        "coordinates": [
          28.8105195,
          40.5144204
        ]
      },
      "properties": {
        "id": 9442128672,
        "osm_type": "node",
        "name": "Şok",
        "brand": "Şok"
      }
    },
    {
      "type": "Feature",
      "geometry": {
        "type": "Point",
        "coordinates": [
          29.2539523,
          40.6528094
        ]
      },
      "properties": {
        "id": 9502033520,
        "osm_type": "node"
      }
    },
    {
      "type": "Feature",
      "geometry": {
        "type": "Point",
        "coordinates": [
          28.8635239,
          40.4995775
        ]
      },
      "properties": {
        "id": 10217321917,
        "osm_type": "node",
        "name": "A101",
        "brand": "A101",
        "opening_hours": "Mo-Su 09:00-20:00"
      }
    },
    {
      "type": "Feature",
      "geometry": {
        "type": "Point",
        "coordinates": [
          29.2662607,
          40.6517275
        ]
      },
      "properties": {
        "id": 10223788880,
        "osm_type": "node",
        "name": "Şok",
        "brand": "Şok",
        "opening_hours": "Mo-Su 08:00-21:00"
      }
    },
    {
      "type": "Feature",
      "geometry": {
        "type": "Point",
        "coordinates": [
          29.0777346,
          40.6455822
        ]
      },
      "properties": {
        "id": 10265753010,
        "osm_type": "node",
        "name": "Şok"
      }
    },
    {
      "type": "Feature",
      "geometry": {
        "type": "Point",
        "coordinates": [
          29.0746093,
          40.6447595
        ]
      },
      "properties": {
        "id": 10265753011,
        "osm_type": "node",
        "name": "A101",
        "opening_hours": "Mo-Su 09:00-21:30"
      }
    },
    {
      "type": "Feature",
      "geometry": {
        "type": "Point",
        "coordinates": [
          29.1715863,
          40.6076832
        ]
      },
      "properties": {
        "id": 10925909806,
        "osm_type": "node",
        "name": "BİM",
        "brand": "BİM",
        "opening_hours": "Mo-Su 09:00-21:00"
      }
    },
    {
      "type": "Feature",
      "geometry": {
        "type": "Point",
        "coordinates": [
          29.1735449,
          40.6068604
        ]
      },
      "properties": {
        "id": 10926073005,
        "osm_type": "node",
        "name": "A101",
        "brand": "A101",
        "opening_hours": "Mo-Su 09:00-21:30"
      }
    },
    {
      "type": "Feature",
      "geometry": {
        "type": "Point",
        "coordinates": [
          29.1749417,
          40.5992824
        ]
      },
      "properties": {
        "id": 10926073007,
        "osm_type": "node",
        "name": "Üvezpınar Market"
      }
    },
    {
      "type": "Feature",
      "geometry": {
        "type": "Point",
        "coordinates": [
          29.1736924,
          40.6067697
        ]
      },
      "properties": {
        "id": 10926073105,
        "osm_type": "node",
        "name": "Şok",
        "brand": "Şok"
      }
    },
    {
      "type": "Feature",
      "geometry": {
        "type": "Point",
        "coordinates": [
          29.1924994,
          40.6542089
        ]
      },
      "properties": {
        "id": 10931531305,
        "osm_type": "node",
        "name": "A101",
        "brand": "A101",
        "opening_hours": "Mo-Su 09:00-21:30"
      }
    },
    {
      "type": "Feature",
      "geometry": {
        "type": "Point",
        "coordinates": [
          29.2673216,
          40.65267
        ]
      },
      "properties": {
        "id": 10931531306,
        "osm_type": "node",
        "name": "A101",
        "brand": "A101",
        "opening_hours": "Mo-Su 09:00-21:30"
      }
    },
    {
      "type": "Feature",
      "geometry": {
        "type": "Point",
        "coordinates": [
          29.2510428,
          40.6544097
        ]
      },
      "properties": {
        "id": 10931531405,
        "osm_type": "node",
        "name": "BİM",
        "opening_hours": "Mo-Su 09:00-21:00"
      }
    },
    {
      "type": "Feature",
      "geometry": {
        "type": "Point",
        "coordinates": [
          29.2414411,
          40.6503511
        ]
      },
      "properties": {
        "id": 10931531505,
        "osm_type": "node",
        "name": "BİM",
        "opening_hours": "Mo-Su 09:00-21:00"
      }
    },
    {
      "type": "Feature",
      "geometry": {
        "type": "Point",
        "coordinates": [
          29.3003173,
          40.6576204
        ]
      },
      "properties": {
        "id": 10951650905,
        "osm_type": "node",
        "name": "Şok",
        "brand": "Şok"
      }
    },
    {
      "type": "Feature",
      "geometry": {
        "type": "Point",
        "coordinates": [
          29.2569396,
          40.6353876
        ]
      },
      "properties": {
        "id": 11303442969,
        "osm_type": "node"
      }
    },
    {
      "type": "Feature",
      "geometry": {
        "type": "Point",
        "coordinates": [
          29.2569614,
          40.6356791
        ]
      },
      "properties": {
        "id": 11303442970,
        "osm_type": "node"
      }
    },
    {
      "type": "Feature",
      "geometry": {
        "type": "Point",
        "coordinates": [
          29.2566173,
          40.6350815
        ]
      },
      "properties": {
        "id": 11303443169,
        "osm_type": "node"
      }
    },
    {
      "type": "Feature",
      "geometry": {
        "type": "Point",
        "coordinates": [
          29.2579229,
          40.6410693
        ]
      },
      "properties": {
        "id": 11304454069,
        "osm_type": "node"
      }
    },
    {
      "type": "Feature",
      "geometry": {
        "type": "Point",
        "coordinates": [
          29.5286151,
          40.6959038
        ]
      },
      "properties": {
        "id": 11572190494,
        "osm_type": "node",
        "name": "Dostlar Market"
      }
    },
    {
      "type": "Feature",
      "geometry": {
        "type": "Point",
        "coordinates": [
          29.2662752,
          40.6516171
        ]
      },
      "properties": {
        "id": 12409416081,
        "osm_type": "node",
        "name": "A101",
        "brand": "A101",
        "opening_hours": "Mo-Sa 08:00-21:00"
      }
    },
    {
      "type": "Feature",
      "geometry": {
        "type": "Point",
        "coordinates": [
          29.1181087,
          40.6457923
        ]
      },
      "properties": {
        "id": 12883301433,
        "osm_type": "node",
        "name": "Şok",
        "brand": "Şok"
      }
    },
    {
      "type": "Feature",
      "geometry": {
        "type": "Point",
        "coordinates": [
          29.1239776,
          40.6474464
        ]
      },
      "properties": {
        "id": 12883409639,
        "osm_type": "node",
        "name": "Şok",
        "brand": "Şok"
      }
    },
    {
      "type": "Feature",
      "geometry": {
        "type": "Point",
        "coordinates": [
          29.2641978,
          40.6571762
        ]
      },
      "properties": {
        "id": 12974053902,
        "osm_type": "node",
        "name": "M Migros"
      }
    },
    {
      "type": "Feature",
      "geometry": {
        "type": "Point",
        "coordinates": [
          28.7970592,
          40.5178663
        ]
      },
      "properties": {
        "id": 13110105837,
        "osm_type": "node",
        "name": "BİM",
        "brand": "BİM"
      }
    },
    {
      "type": "Feature",
      "geometry": {
        "type": "Point",
        "coordinates": [
          28.8133957,
          40.5147506
        ]
      },
      "properties": {
        "id": 13110663814,
        "osm_type": "node",
        "name": "Hakmar Express",
        "brand": "Hakmar Express"
      }
    },
    {
      "type": "Feature",
      "geometry": {
        "type": "Point",
        "coordinates": [
          28.8265018,
          40.5174544
        ]
      },
      "properties": {
        "id": 13110684747,
        "osm_type": "node",
        "name": "Hakmar Express",
        "brand": "Hakmar Express"
      }
    },
    {
      "type": "Feature",
      "geometry": {
        "type": "Point",
        "coordinates": [
          28.808205,
          40.5148698
        ]
      },
      "properties": {
        "id": 13110685862,
        "osm_type": "node",
        "name": "BİM",
        "brand": "BİM"
      }
    },
    {
      "type": "Feature",
      "geometry": {
        "type": "Point",
        "coordinates": [
          28.8219133,
          40.5170402
        ]
      },
      "properties": {
        "id": 13110685863,
        "osm_type": "node",
        "name": "Tarım Kredi Kooperatif"
      }
    },
    {
      "type": "Feature",
      "geometry": {
        "type": "Point",
        "coordinates": [
          28.8336216,
          40.5138135
        ]
      },
      "properties": {
        "id": 13111070674,
        "osm_type": "node",
        "name": "Hakmar Express",
        "brand": "Hakmar Express"
      }
    },
    {
      "type": "Feature",
      "geometry": {
        "type": "Point",
        "coordinates": [
          28.8281122,
          40.5197518
        ]
      },
      "properties": {
        "id": 13111077468,
        "osm_type": "node",
        "name": "BİM",
        "brand": "BİM"
      }
    },
    {
      "type": "Feature",
      "geometry": {
        "type": "Point",
        "coordinates": [
          28.8266767,
          40.5176219
        ]
      },
      "properties": {
        "id": 13196145930,
        "osm_type": "node",
        "name": "Hakmar Express",
        "brand": "Hakmar Express"
      }
    },
    {
      "type": "Feature",
      "geometry": {
        "type": "Point",
        "coordinates": [
          28.8362096,
          40.5112361
        ]
      },
      "properties": {
        "id": 13196145936,
        "osm_type": "node",
        "name": "Şok",
        "brand": "Şok"
      }
    },
    {
      "type": "Feature",
      "geometry": {
        "type": "Point",
        "coordinates": [
          28.8359946,
          40.5114034
        ]
      },
      "properties": {
        "id": 13196145940,
        "osm_type": "node",
        "name": "Türkiye Tarım Kredi Kooperatif Market",
        "brand": "Türkiye Tarım Kredi Kooperatif Market"
      }
    },
    {
      "type": "Feature",
      "geometry": {
        "type": "Point",
        "coordinates": [
          28.8357505,
          40.5115763
        ]
      },
      "properties": {
        "id": 13196145942,
        "osm_type": "node",
        "name": "A101",
        "brand": "A101"
      }
    },
    {
      "type": "Feature",
      "geometry": {
        "type": "Point",
        "coordinates": [
          28.8379334,
          40.5099644
        ]
      },
      "properties": {
        "id": 13196145948,
        "osm_type": "node",
        "name": "Migros",
        "brand": "Migros"
      }
    },
    {
      "type": "Feature",
      "geometry": {
        "type": "Point",
        "coordinates": [
          28.8357142,
          40.5099724
        ]
      },
      "properties": {
        "id": 13196145957,
        "osm_type": "node",
        "name": "BİM",
        "brand": "BİM"
      }
    },
    {
      "type": "Feature",
      "geometry": {
        "type": "Point",
        "coordinates": [
          28.8354177,
          40.5099946
        ]
      },
      "properties": {
        "id": 13196145959,
        "osm_type": "node",
        "name": "CarrefourSA",
        "brand": "CarrefourSA"
      }
    },
    {
      "type": "Feature",
      "geometry": {
        "type": "Point",
        "coordinates": [
          28.841037,
          40.5103575
        ]
      },
      "properties": {
        "id": 13196145964,
        "osm_type": "node",
        "name": "BİM",
        "brand": "BİM"
      }
    },
    {
      "type": "Feature",
      "geometry": {
        "type": "Point",
        "coordinates": [
          28.8220436,
          40.517177
        ]
      },
      "properties": {
        "id": 13250585455,
        "osm_type": "node",
        "name": "Türkiye Tarım Kredi Kooperatif Market",
        "brand": "Türkiye Tarım Kredi Kooperatif Market"
      }
    },
    {
      "type": "Feature",
      "geometry": {
        "type": "Point",
        "coordinates": [
          28.8223303,
          40.5173927
        ]
      },
      "properties": {
        "id": 13250585456,
        "osm_type": "node",
        "name": "Migros",
        "brand": "Migros"
      }
    },
    {
      "type": "Feature",
      "geometry": {
        "type": "Point",
        "coordinates": [
          28.8273964,
          40.5184063
        ]
      },
      "properties": {
        "id": 13250585457,
        "osm_type": "node",
        "name": "A101",
        "brand": "A101"
      }
    },
    {
      "type": "Feature",
      "geometry": {
        "type": "Point",
        "coordinates": [
          28.8268031,
          40.5200712
        ]
      },
      "properties": {
        "id": 13250585459,
        "osm_type": "node",
        "name": "A101",
        "brand": "A101"
      }
    },
    {
      "type": "Feature",
      "geometry": {
        "type": "Point",
        "coordinates": [
          28.8629504,
          40.500461
        ]
      },
      "properties": {
        "id": 13250585467,
        "osm_type": "node",
        "name": "Şok",
        "brand": "Şok"
      }
    },
    {
      "type": "Feature",
      "geometry": {
        "type": "Point",
        "coordinates": [
          28.8632462,
          40.5003705
        ]
      },
      "properties": {
        "id": 13250585468,
        "osm_type": "node",
        "name": "A101",
        "brand": "A101"
      }
    },
    {
      "type": "Feature",
      "geometry": {
        "type": "Point",
        "coordinates": [
          29.114817,
          40.6446866
        ]
      },
      "properties": {
        "id": 896025470,
        "osm_type": "way",
        "name": "3M Migros",
        "brand": "Migros"
      }
    },
    {
      "type": "Feature",
      "geometry": {
        "type": "Point",
        "coordinates": [
          28.8565969,
          40.5063284
        ]
      },
      "properties": {
        "id": 1414457582,
        "osm_type": "way",
        "name": "Şok",
        "brand": "Şok"
      }
    }
  ]
}