{
  "type": "FeatureCollection",
  "features": [
    {
      "type": "Feature",
      "geometry": {
        "type": "Point",
        "coordinates": [
          30.2660426,
          37.7172398
        ]
      },
      "properties": {
        "id": 264105821,
        "osm_type": "node",
        "name": "Osmanlar",
        "tourism": "guest_house"
      }
    },
    {
      "type": "Feature",
      "geometry": {
        "type": "Point",
        "coordinates": [
          30.2875487,
          37.7198394
        ]
      },
      "properties": {
        "id": 1826882952,
        "osm_type": "node",
        "name": "Özeren",
        "tourism": "hotel"
      }
    },
    {
      "type": "Feature",
      "geometry": {
        "type": "Point",
        "coordinates": [
          30.5260735,
          37.6587156
        ]
      },
      "properties": {
        "id": 1862638396,
        "osm_type": "node",
        "name": "Sagalassos Lodge & SPA",
        "tourism": "hotel",
        "website": "http://www.sagalassoslodge.com/"
      }
    },
    {
      "type": "Feature",
      "geometry": {
        "type": "Point",
        "coordinates": [
          30.527407,
          37.6589152
        ]
      },
      "properties": {
        "id": 1862638408,
        "osm_type": "node",
        "tourism": "camp_site"
      }
    },
    {
      "type": "Feature",
      "geometry": {
        "type": "Point",
        "coordinates": [
          29.7804705,
          37.3160371
        ]
      },
      "properties": {
        "id": 2909732609,
        "osm_type": "node",
        "name": "Barutlusu Tesisleri",
        "tourism": "hotel"
      }
    },
    {
      "type": "Feature",
      "geometry": {
        "type": "Point",
        "coordinates": [
          29.7027909,
          37.1176702
        ]
      },
      "properties": {
        "id": 4111922089,
        "osm_type": "node",
        "name": "Açelya kamp gözleme",
        "tourism": "camp_site"
      }
    },
    {
      "type": "Feature",
      "geometry": {
        "type": "Point",
        "coordinates": [
          29.7091851,
          37.5080458
        ]
      },
      "properties": {
        "id": 4920472922,
        "osm_type": "node",
        "name": "Belediye Halk Plajı",
        "tourism": "camp_site"
      }
    },
    {
      "type": "Feature",
      "geometry": {
        "type": "Point",
        "coordinates": [
          29.6733626,
          37.519504
        ]
      },
      "properties": {
        "id": 4948138023,
        "osm_type": "node",
        "name": "Salda Gölü Kamp Alanı",
        "tourism": "camp_site"
      }
    },
    {
      "type": "Feature",
      "geometry": {
        "type": "Point",
        "coordinates": [
          29.707596,
          37.5088716
        ]
      },
      "properties": {
        "id": 5153046722,
        "osm_type": "node",
        "tourism": "camp_site"
      }
    },
    {
      "type": "Feature",
      "geometry": {
        "type": "Point",
        "coordinates": [
          29.6818325,
          37.5191785
        ]
      },
      "properties": {
        "id": 5181173422,
        "osm_type": "node",
        "name": "Salda Kamp",
        "tourism": "camp_site"
      }
    },
    {
      "type": "Feature",
      "geometry": {
        "type": "Point",
        "coordinates": [
          29.7086412,
          37.5080857
        ]
      },
      "properties": {
        "id": 5760003921,
        "osm_type": "node",
        "name": "Salda Yeşilova Belediye Kamping",
        "tourism": "caravan_site"
      }
    },
    {
      "type": "Feature",
      "geometry": {
        "type": "Point",
        "coordinates": [
          29.681731,
          37.489164
        ]
      },
      "properties": {
        "id": 5760003922,
        "osm_type": "node",
        "name": "Salda Kayak Merkezi",
        "tourism": "alpine_hut"
      }
    },
    {
      "type": "Feature",
      "geometry": {
        "type": "Point",
        "coordinates": [
          30.5878544,
          37.4560858
        ]
      },
      "properties": {
        "id": 5859034185,
        "osm_type": "node",
        "name": "Dilek Apart & Hotel",
        "tourism": "hotel"
      }
    },
    {
      "type": "Feature",
      "geometry": {
        "type": "Point",
        "coordinates": [
          30.5868725,
          37.4559783
        ]
      },
      "properties": {
        "id": 5859037485,
        "osm_type": "node",
        "name": "Otel Duru Bucak",
        "tourism": "hotel"
      }
    },
    {
      "type": "Feature",
      "geometry": {
        "type": "Point",
        "coordinates": [
          29.6865595,
          37.5149513
        ]
      },
      "properties": {
        "id": 6162387493,
        "osm_type": "node",
        "name": "Hotel Lago Di Salda",
        "tourism": "hotel"
      }
    },
    {
      "type": "Feature",
      "geometry": {
        "type": "Point",
        "coordinates": [
          29.7279862,
          37.526022
        ]
      },
      "properties": {
        "id": 6162387504,
        "osm_type": "node",
        "name": "Salda Lake Hotel",
        "tourism": "hotel"
      }
    },
    {
      "type": "Feature",
      "geometry": {
        "type": "Point",
        "coordinates": [
          30.2816334,
          37.7175204
        ]
      },
      "properties": {
        "id": 7794354026,
        "osm_type": "node",
        "name": "Burdur Polis Evi",
        "tourism": "guest_house",
        "website": "https://www.polisevi.com/burdur-polisevi/"
      }
    },
    {
      "type": "Feature",
      "geometry": {
        "type": "Point",
        "coordinates": [
          30.8393283,
          37.3873134
        ]
      },
      "properties": {
        "id": 8904074917,
        "osm_type": "node",
        "tourism": "hotel",
        "opening_hours": "24/7"
      }
    },
    {
      "type": "Feature",
      "geometry": {
        "type": "Point",
        "coordinates": [
          29.6371618,
          37.5311825
        ]
      },
      "properties": {
        "id": 9205016017,
        "osm_type": "node",
        "tourism": "guest_house",
        "opening_hours": "Mo-Su 09:00-18:00"
      }
    },
    {
      "type": "Feature",
      "geometry": {
        "type": "Point",
        "coordinates": [
          29.7513382,
          37.5100865
        ]
      },
      "properties": {
        "id": 9798124416,
        "osm_type": "node",
        "name": "Yildiz Otel",
        "tourism": "hotel",
        "phone": "+90 5378888499"
      }
    },
    {
      "type": "Feature",
      "geometry": {
        "type": "Point",
        "coordinates": [
          29.7505282,
          37.506641
        ]
      },
      "properties": {
        "id": 9798140177,
        "osm_type": "node",
        "name": "Kayışlıoğlu Otel",
        "tourism": "hotel"
      }
    },
    {
      "type": "Feature",
      "geometry": {
        "type": "Point",
        "coordinates": [
          29.752777,
          37.508166
        ]
      },
      "properties": {
        "id": 9798189461,
        "osm_type": "node",
        "name": "Görenser Otel",
        "tourism": "hotel",
        "phone": "+90 2486180633"
      }
    },
    {
      "type": "Feature",
      "geometry": {
        "type": "Point",
        "coordinates": [
          29.7531242,
          37.5078066
        ]
      },
      "properties": {
        "id": 9798197397,
        "osm_type": "node",
        "name": "Kural Apart",
        "tourism": "hotel"
      }
    },
    {
      "type": "Feature",
      "geometry": {
        "type": "Point",
        "coordinates": [
          29.7515106,
          37.507357
        ]
      },
      "properties": {
        "id": 9798197783,
        "osm_type": "node",
        "name": "Görens Hotel",
        "tourism": "hotel"
      }
    },
    {
      "type": "Feature",
      "geometry": {
        "type": "Point",
        "coordinates": [
          29.7525722,
          37.5073629
        ]
      },
      "properties": {
        "id": 9798201926,
        "osm_type": "node",
        "name": "Hotel Berliner",
        "tourism": "hotel"
      }
    },
    {
      "type": "Feature",
      "geometry": {
        "type": "Point",
        "coordinates": [
          29.635312,
          37.5299766
        ]
      },
      "properties": {
        "id": 9798206203,
        "osm_type": "node",
        "name": "Salda Gölü Çeliköz Apart",
        "tourism": "hotel"
      }
    },
    {
      "type": "Feature",
      "geometry": {
        "type": "Point",
        "coordinates": [
          29.6359371,
          37.5281046
        ]
      },
      "properties": {
        "id": 10095778017,
        "osm_type": "node",
        "tourism": "apartment"
      }
    },
    {
      "type": "Feature",
      "geometry": {
        "type": "Point",
        "coordinates": [
          29.7182434,
          37.5115594
        ]
      },
      "properties": {
        "id": 10974521205,
        "osm_type": "node",
        "tourism": "camp_site"
      }
    },
    {
      "type": "Feature",
      "geometry": {
        "type": "Point",
        "coordinates": [
          30.9661023,
          37.3230729
        ]
      },
      "properties": {
        "id": 11399994270,
        "osm_type": "node",
        "tourism": "camp_site"
      }
    },
    {
      "type": "Feature",
      "geometry": {
        "type": "Point",
        "coordinates": [
          30.9605364,
          37.3153938
        ]
      },
      "properties": {
        "id": 11399994271,
        "osm_type": "node",
        "tourism": "camp_site"
      }
    },
    {
      "type": "Feature",
      "geometry": {
        "type": "Point",
        "coordinates": [
          30.9674131,
          37.3211513
        ]
      },
      "properties": {
        "id": 11399994471,
        "osm_type": "node",
        "tourism": "camp_site"
      }
    },
    {
      "type": "Feature",
      "geometry": {
        "type": "Point",
        "coordinates": [
          30.9601748,
          37.3149145
        ]
      },
      "properties": {
        "id": 11399998771,
        "osm_type": "node",
        "tourism": "camp_site"
      }
    },
    {
      "type": "Feature",
      "geometry": {
        "type": "Point",
        "coordinates": [
          30.9572355,
          37.3372728
        ]
      },
      "properties": {
        "id": 11399998773,
        "osm_type": "node",
        "tourism": "camp_site"
      }
    },
    {
      "type": "Feature",
      "geometry": {
        "type": "Point",
        "coordinates": [
          30.967007,
          37.3266783
        ]
      },
      "properties": {
        "id": 11399999571,
        "osm_type": "node",
        "tourism": "camp_site"
      }
    },
    {
      "type": "Feature",
      "geometry": {
        "type": "Point",
        "coordinates": [
          30.9666365,
          37.3267332
        ]
      },
      "properties": {
        "id": 11400050182,
        "osm_type": "node",
        "tourism": "camp_site"
      }
    },
    {
      "type": "Feature",
      "geometry": {
        "type": "Point",
        "coordinates": [
          29.5445657,
          36.9982606
        ]
      },
      "properties": {
        "id": 11851356799,
        "osm_type": "node",
        "name": "Apart Otel",
        "tourism": "hotel"
      }
    },
    {
      "type": "Feature",
      "geometry": {
        "type": "Point",
        "coordinates": [
          30.9603915,
          37.3152181
        ]
      },
      "properties": {
        "id": 13359231807,
        "osm_type": "node",
        "tourism": "camp_site"
      }
    },
    {
      "type": "Feature",
      "geometry": {
        "type": "Point",
        "coordinates": [
          30.5904933,
          37.4563841
        ]
      },
      "properties": {
        "id": 457091400,
        "osm_type": "way",
        "name": "İnan Otel",
        "tourism": "hotel"
      }
    },
    {
      "type": "Feature",
      "geometry": {
        "type": "Point",
        "coordinates": [
          30.5259843,
          37.6590164
        ]
      },
      "properties": {
        "id": 681561333,
        "osm_type": "way",
        "name": "Sagalassos Lodge & SPA",
        "tourism": "hotel"
      }
    },
    {
      "type": "Feature",
      "geometry": {
        "type": "Point",
        "coordinates": [
          30.3334031,
          37.6873796
        ]
      },
      "properties": {
        "id": 1004304509,
        "osm_type": "way",
        "name": "Lavanta Tepesi",
        "tourism": "hotel"
      }
    },
    {
      "type": "Feature",
      "geometry": {
        "type": "Point",
        "coordinates": [
          30.2809669,
          37.7188571
        ]
      },
      "properties": {
        "id": 1192662158,
        "osm_type": "way",
        "name": "GRAND ÖZEREN OTEL & SPA",
        "tourism": "hotel"
      }
    }
  ]
}