{
  "type": "FeatureCollection",
  "features": [
    {
      "type": "Feature",
      "geometry": {
        "type": "Point",
        "coordinates": [
          -6.0150656,
          54.1686978
        ]
      },
      "properties": {
        "id": 794287331,
        "osm_type": "node",
        "shelter_type": "weather_shelter",
        "bench": "no"
      }
    },
    {
      "type": "Feature",
      "geometry": {
        "type": "Point",
        "coordinates": [
          -6.2230281,
          54.5794813
        ]
      },
      "properties": {
        "id": 4041099096,
        "osm_type": "node",
        "shelter_type": "weather_shelter"
      }
    },
    {
      "type": "Feature",
      "geometry": {
        "type": "Point",
        "coordinates": [
          -6.2244899,
          54.5796243
        ]
      },
      "properties": {
        "id": 4041099097,
        "osm_type": "node",
        "shelter_type": "weather_shelter"
      }
    },
    {
      "type": "Feature",
      "geometry": {
        "type": "Point",
        "coordinates": [
          -7.7049601,
          54.2685509
        ]
      },
      "properties": {
        "id": 9682769020,
        "osm_type": "node",
        "shelter_type": "weather_shelter"
      }
    },
    {
      "type": "Feature",
      "geometry": {
        "type": "Point",
        "coordinates": [
          -7.7299885,
          54.2635701
        ]
      },
      "properties": {
        "id": 9682842108,
        "osm_type": "node",
        "shelter_type": "weather_shelter"
      }
    },
    {
      "type": "Feature",
      "geometry": {
        "type": "Point",
        "coordinates": [
          -6.2152088,
          54.2296937
        ]
      },
      "properties": {
        "id": 11013498348,
        "osm_type": "node",
        "shelter_type": "weather_shelter"
      }
    },
    {
      "type": "Feature",
      "geometry": {
        "type": "Point",
        "coordinates": [
          -6.2820086,
          54.2136756
        ]
      },
      "properties": {
        "id": 11019452967,
        "osm_type": "node",
        "shelter_type": "weather_shelter"
      }
    },
    {
      "type": "Feature",
      "geometry": {
        "type": "Point",
        "coordinates": [
          -5.9542184,
          54.2588871
        ]
      },
      "properties": {
        "id": 11035579823,
        "osm_type": "node",
        "shelter_type": "weather_shelter"
      }
    },
    {
      "type": "Feature",
      "geometry": {
        "type": "Point",
        "coordinates": [
          -6.1478023,
          54.3549879
        ]
      },
      "properties": {
        "id": 11049397643,
        "osm_type": "node",
        "shelter_type": "weather_shelter"
      }
    },
    {
      "type": "Feature",
      "geometry": {
        "type": "Point",
        "coordinates": [
          -6.1476709,
          54.3548312
        ]
      },
      "properties": {
        "id": 11049397644,
        "osm_type": "node",
        "shelter_type": "weather_shelter"
      }
    },
    {
      "type": "Feature",
      "geometry": {
        "type": "Point",
        "coordinates": [
          -6.2150099,
          54.2293267
        ]
      },
      "properties": {
        "id": 11056884983,
        "osm_type": "node",
        "shelter_type": "weather_shelter"
      }
    },
    {
      "type": "Feature",
      "geometry": {
        "type": "Point",
        "coordinates": [
          -5.559075,
          54.373866
        ]
      },
      "properties": {
        "id": 11688234623,
        "osm_type": "node",
        "shelter_type": "weather_shelter"
      }
    },
    {
      "type": "Feature",
      "geometry": {
        "type": "Point",
        "coordinates": [
          -6.8478351,
          54.296596
        ]
      },
      "properties": {
        "id": 11749905906,
        "osm_type": "node",
        "shelter_type": "weather_shelter"
      }
    },
    {
      "type": "Feature",
      "geometry": {
        "type": "Point",
        "coordinates": [
          -6.8465097,
          54.2966239
        ]
      },
      "properties": {
        "id": 11749905907,
        "osm_type": "node",
        "shelter_type": "weather_shelter"
      }
    },
    {
      "type": "Feature",
      "geometry": {
        "type": "Point",
        "coordinates": [
          -6.8473524,
          54.2958714
        ]
      },
      "properties": {
        "id": 11749905908,
        "osm_type": "node",
        "shelter_type": "weather_shelter"
      }
    },
    {
      "type": "Feature",
      "geometry": {
        "type": "Point",
        "coordinates": [
          -6.8474987,
          54.2949987
        ]
      },
      "properties": {
        "id": 11749905909,
        "osm_type": "node",
        "shelter_type": "weather_shelter"
      }
    },
    {
      "type": "Feature",
      "geometry": {
        "type": "Point",
        "coordinates": [
          -5.7034307,
          54.3161864
        ]
      },
      "properties": {
        "id": 12949591007,
        "osm_type": "node",
        "shelter_type": "weather_shelter",
        "operator": "DVA"
      }
    },
    {
      "type": "Feature",
      "geometry": {
        "type": "Point",
        "coordinates": [
          -6.2725151,
          54.1246015
        ]
      },
      "properties": {
        "id": 13423309405,
        "osm_type": "node",
        "shelter_type": "weather_shelter"
      }
    },
    {
      "type": "Feature",
      "geometry": {
        "type": "Point",
        "coordinates": [
          -6.2724247,
          54.1244836
        ]
      },
      "properties": {
        "id": 13423309406,
        "osm_type": "node",
        "shelter_type": "weather_shelter"
      }
    },
    {
      "type": "Feature",
      "geometry": {
        "type": "Point",
        "coordinates": [
          -7.3574798,
          54.5584249
        ]
      },
      "properties": {
        "id": 369304281,
        "osm_type": "way",
        "shelter_type": "weather_shelter"
      }
    },
    {
      "type": "Feature",
      "geometry": {
        "type": "Point",
        "coordinates": [
          -6.6804061,
          54.7227153
        ]
      },
      "properties": {
        "id": 472645488,
        "osm_type": "way",
        "name": "Clay Pigeon Shelter",
        "shelter_type": "weather_shelter"
      }
    },
    {
      "type": "Feature",
      "geometry": {
        "type": "Point",
        "coordinates": [
          -7.8818101,
          54.5169859
        ]
      },
      "properties": {
        "id": 521528715,
        "osm_type": "way",
        "name": "Bubble Dome"
      }
    },
    {
      "type": "Feature",
      "geometry": {
        "type": "Point",
        "coordinates": [
          -7.8812872,
          54.5173866
        ]
      },
      "properties": {
        "id": 521528984,
        "osm_type": "way",
        "name": "Bubble Dome"
      }
    },
    {
      "type": "Feature",
      "geometry": {
        "type": "Point",
        "coordinates": [
          -7.8814626,
          54.5172165
        ]
      },
      "properties": {
        "id": 521528985,
        "osm_type": "way",
        "name": "Bubble Dome"
      }
    },
    {
      "type": "Feature",
      "geometry": {
        "type": "Point",
        "coordinates": [
          -7.8836228,
          54.5168588
        ]
      },
      "properties": {
        "id": 521528986,
        "osm_type": "way",
        "name": "Bubble Dome"
      }
    },
    {
      "type": "Feature",
      "geometry": {
        "type": "Point",
        "coordinates": [
          -7.8833162,
          54.5167517
        ]
      },
      "properties": {
        "id": 521528988,
        "osm_type": "way",
        "name": "Bubble Dome"
      }
    },
    {
      "type": "Feature",
      "geometry": {
        "type": "Point",
        "coordinates": [
          -6.4375027,
          54.1190581
        ]
      },
      "properties": {
        "id": 556532455,
        "osm_type": "way",
        "shelter_type": "weather_shelter"
      }
    },
    {
      "type": "Feature",
      "geometry": {
        "type": "Point",
        "coordinates": [
          -7.5039694,
          54.2098683
        ]
      },
      "properties": {
        "id": 692946459,
        "osm_type": "way",
        "name": "Trannish Island Bothy",
        "fee": "yes",
        "operator": "Share Discovery Village"
      }
    },
    {
      "type": "Feature",
      "geometry": {
        "type": "Point",
        "coordinates": [
          -6.6815549,
          55.1406461
        ]
      },
      "properties": {
        "id": 713948648,
        "osm_type": "way",
        "shelter_type": "weather_shelter"
      }
    },
    {
      "type": "Feature",
      "geometry": {
        "type": "Point",
        "coordinates": [
          -6.680414,
          55.140702
        ]
      },
      "properties": {
        "id": 713948653,
        "osm_type": "way",
        "shelter_type": "weather_shelter"
      }
    },
    {
      "type": "Feature",
      "geometry": {
        "type": "Point",
        "coordinates": [
          -5.8936824,
          54.1925897
        ]
      },
      "properties": {
        "id": 1188673532,
        "osm_type": "way",
        "name": "Shoddy Hut",
        "access": "yes"
      }
    },
    {
      "type": "Feature",
      "geometry": {
        "type": "Point",
        "coordinates": [
          -5.7117436,
          54.3593886
        ]
      },
      "properties": {
        "id": 1344813080,
        "osm_type": "way"
      }
    },
    {
      "type": "Feature",
      "geometry": {
        "type": "Point",
        "coordinates": [
          -5.7119028,
          54.3597656
        ]
      },
      "properties": {
        "id": 1344813081,
        "osm_type": "way"
      }
    },
    {
      "type": "Feature",
      "geometry": {
        "type": "Point",
        "coordinates": [
          -7.8831628,
          54.5169451
        ]
      },
      "properties": {
        "id": 1429017113,
        "osm_type": "way",
        "name": "Bubble Dome"
      }
    },
    {
      "type": "Feature",
      "geometry": {
        "type": "Point",
        "coordinates": [
          -7.8827404,
          54.5168106
        ]
      },
      "properties": {
        "id": 1429017114,
        "osm_type": "way",
        "name": "Bubble Dome"
      }
    },
    {
      "type": "Feature",
      "geometry": {
        "type": "Point",
        "coordinates": [
          -7.881758,
          54.5176303
        ]
      },
      "properties": {
        "id": 1429017115,
        "osm_type": "way",
        "name": "Bubble Dome"
      }
    },
    {
      "type": "Feature",
      "geometry": {
        "type": "Point",
        "coordinates": [
          -6.6038876,
          54.8326328
        ]
      },
      "properties": {
        "id": 1477398623,
        "osm_type": "way",
        "shelter_type": "weather_shelter",
        "bench": "no"
      }
    }
  ]
}