{
  "type": "FeatureCollection",
  "features": [
    {
      "type": "Feature",
      "geometry": {
        "type": "Point",
        "coordinates": [
          37.7727107,
          41.0669074
        ]
      },
      "properties": {
        "id": 3124505041,
        "osm_type": "node",
        "name": "BİM",
        "brand": "BİM",
        "opening_hours": "Mo-Su 09:00-21:00"
      }
    },
    {
      "type": "Feature",
      "geometry": {
        "type": "Point",
        "coordinates": [
          37.8993953,
          40.978444
        ]
      },
      "properties": {
        "id": 3125285811,
        "osm_type": "node",
        "name": "Migros",
        "brand": "Migros"
      }
    },
    {
      "type": "Feature",
      "geometry": {
        "type": "Point",
        "coordinates": [
          37.9134105,
          40.9785123
        ]
      },
      "properties": {
        "id": 3808880594,
        "osm_type": "node",
        "name": "BİM",
        "brand": "BİM",
        "opening_hours": "Mo-Su 09:00-21:00"
      }
    },
    {
      "type": "Feature",
      "geometry": {
        "type": "Point",
        "coordinates": [
          37.8993898,
          40.9639449
        ]
      },
      "properties": {
        "id": 4216825931,
        "osm_type": "node",
        "name": "A101",
        "brand": "A101",
        "opening_hours": "Mo-Su 09:00-21:30"
      }
    },
    {
      "type": "Feature",
      "geometry": {
        "type": "Point",
        "coordinates": [
          37.7740516,
          41.0628901
        ]
      },
      "properties": {
        "id": 4216834521,
        "osm_type": "node",
        "name": "A101",
        "brand": "A101",
        "opening_hours": "Mo-Su 09:00-21:30"
      }
    },
    {
      "type": "Feature",
      "geometry": {
        "type": "Point",
        "coordinates": [
          37.4994387,
          41.0314932
        ]
      },
      "properties": {
        "id": 4944105441,
        "osm_type": "node",
        "name": "Migros",
        "brand": "Migros",
        "opening_hours": "Mo-Su 10:00-22:00"
      }
    },
    {
      "type": "Feature",
      "geometry": {
        "type": "Point",
        "coordinates": [
          37.884193,
          40.9816228
        ]
      },
      "properties": {
        "id": 5203854021,
        "osm_type": "node",
        "name": "Carrefour",
        "brand": "Carrefour"
      }
    },
    {
      "type": "Feature",
      "geometry": {
        "type": "Point",
        "coordinates": [
          37.8928558,
          40.9786746
        ]
      },
      "properties": {
        "id": 5708157990,
        "osm_type": "node",
        "name": "Şok",
        "brand": "Şok"
      }
    },
    {
      "type": "Feature",
      "geometry": {
        "type": "Point",
        "coordinates": [
          37.7727252,
          41.0667594
        ]
      },
      "properties": {
        "id": 5761678863,
        "osm_type": "node",
        "name": "Kalafatlar"
      }
    },
    {
      "type": "Feature",
      "geometry": {
        "type": "Point",
        "coordinates": [
          37.2711804,
          41.1430961
        ]
      },
      "properties": {
        "id": 6276964499,
        "osm_type": "node",
        "name": "Migros"
      }
    },
    {
      "type": "Feature",
      "geometry": {
        "type": "Point",
        "coordinates": [
          37.2837866,
          41.1250805
        ]
      },
      "properties": {
        "id": 6324614544,
        "osm_type": "node",
        "name": "Şok",
        "brand": "Şok"
      }
    },
    {
      "type": "Feature",
      "geometry": {
        "type": "Point",
        "coordinates": [
          37.2705551,
          41.1192882
        ]
      },
      "properties": {
        "id": 6324614545,
        "osm_type": "node",
        "name": "A101",
        "brand": "A101",
        "opening_hours": "Mo-Su 09:00-21:30"
      }
    },
    {
      "type": "Feature",
      "geometry": {
        "type": "Point",
        "coordinates": [
          37.4703709,
          41.0634254
        ]
      },
      "properties": {
        "id": 6324616234,
        "osm_type": "node",
        "name": "A101",
        "brand": "A101",
        "opening_hours": "Mo-Su 09:00-21:30"
      }
    },
    {
      "type": "Feature",
      "geometry": {
        "type": "Point",
        "coordinates": [
          37.2822773,
          41.1244547
        ]
      },
      "properties": {
        "id": 6324616385,
        "osm_type": "node",
        "name": "BİM",
        "brand": "BİM",
        "opening_hours": "Mo-Su 09:00-21:00"
      }
    },
    {
      "type": "Feature",
      "geometry": {
        "type": "Point",
        "coordinates": [
          37.6155877,
          41.0505506
        ]
      },
      "properties": {
        "id": 6479944352,
        "osm_type": "node"
      }
    },
    {
      "type": "Feature",
      "geometry": {
        "type": "Point",
        "coordinates": [
          37.9128407,
          40.9702689
        ]
      },
      "properties": {
        "id": 6534665394,
        "osm_type": "node",
        "name": "A101",
        "brand": "A101",
        "opening_hours": "Mo-Su 09:00-21:30"
      }
    },
    {
      "type": "Feature",
      "geometry": {
        "type": "Point",
        "coordinates": [
          37.9043793,
          40.9787178
        ]
      },
      "properties": {
        "id": 6632027594,
        "osm_type": "node",
        "name": "Migros",
        "brand": "Migros"
      }
    },
    {
      "type": "Feature",
      "geometry": {
        "type": "Point",
        "coordinates": [
          37.8887636,
          40.9761644
        ]
      },
      "properties": {
        "id": 6793758315,
        "osm_type": "node",
        "name": "BİM",
        "brand": "BİM",
        "opening_hours": "Mo-Su 09:00-21:00"
      }
    },
    {
      "type": "Feature",
      "geometry": {
        "type": "Point",
        "coordinates": [
          37.889005,
          40.9765066
        ]
      },
      "properties": {
        "id": 6793758330,
        "osm_type": "node",
        "name": "İdeal AVM"
      }
    },
    {
      "type": "Feature",
      "geometry": {
        "type": "Point",
        "coordinates": [
          37.2854038,
          41.131943
        ]
      },
      "properties": {
        "id": 7905097640,
        "osm_type": "node",
        "name": "CarrefourSA Market",
        "brand": "Carrefour Market"
      }
    },
    {
      "type": "Feature",
      "geometry": {
        "type": "Point",
        "coordinates": [
          37.8893086,
          40.976843
        ]
      },
      "properties": {
        "id": 8149135237,
        "osm_type": "node",
        "name": "Kalafatlar Market"
      }
    },
    {
      "type": "Feature",
      "geometry": {
        "type": "Point",
        "coordinates": [
          37.2368036,
          41.1418511
        ]
      },
      "properties": {
        "id": 8204435206,
        "osm_type": "node",
        "name": "A101",
        "brand": "A101",
        "opening_hours": "Mo-Su 09:00-21:30"
      }
    },
    {
      "type": "Feature",
      "geometry": {
        "type": "Point",
        "coordinates": [
          37.2885936,
          41.1276664
        ]
      },
      "properties": {
        "id": 8244522626,
        "osm_type": "node",
        "name": "A101",
        "brand": "A101",
        "opening_hours": "Mo-Su 09:00-21:30"
      }
    },
    {
      "type": "Feature",
      "geometry": {
        "type": "Point",
        "coordinates": [
          37.9129901,
          40.9780599
        ]
      },
      "properties": {
        "id": 8251776805,
        "osm_type": "node",
        "name": "Kalafatlar"
      }
    },
    {
      "type": "Feature",
      "geometry": {
        "type": "Point",
        "coordinates": [
          37.2358575,
          41.1436742
        ]
      },
      "properties": {
        "id": 8270227402,
        "osm_type": "node",
        "name": "Şok",
        "brand": "Şok"
      }
    },
    {
      "type": "Feature",
      "geometry": {
        "type": "Point",
        "coordinates": [
          37.906567,
          40.9759449
        ]
      },
      "properties": {
        "id": 8285089045,
        "osm_type": "node",
        "name": "Migros",
        "brand": "Migros"
      }
    },
    {
      "type": "Feature",
      "geometry": {
        "type": "Point",
        "coordinates": [
          37.8765073,
          40.9764225
        ]
      },
      "properties": {
        "id": 8517790517,
        "osm_type": "node",
        "name": "Şok",
        "brand": "Şok"
      }
    },
    {
      "type": "Feature",
      "geometry": {
        "type": "Point",
        "coordinates": [
          37.878747,
          40.9811227
        ]
      },
      "properties": {
        "id": 8517959818,
        "osm_type": "node",
        "name": "Ankamar Ekonomi Marketleri Kemerköprü Şubesi"
      }
    },
    {
      "type": "Feature",
      "geometry": {
        "type": "Point",
        "coordinates": [
          37.8791307,
          40.9838536
        ]
      },
      "properties": {
        "id": 8518264218,
        "osm_type": "node",
        "name": "A101",
        "brand": "A101",
        "opening_hours": "Mo-Su 09:00-21:30"
      }
    },
    {
      "type": "Feature",
      "geometry": {
        "type": "Point",
        "coordinates": [
          37.8788857,
          40.9836175
        ]
      },
      "properties": {
        "id": 8518265918,
        "osm_type": "node",
        "name": "Şok",
        "brand": "Şok"
      }
    },
    {
      "type": "Feature",
      "geometry": {
        "type": "Point",
        "coordinates": [
          37.8786742,
          40.9839341
        ]
      },
      "properties": {
        "id": 8518881818,
        "osm_type": "node",
        "name": "Kalafatlar Selimiye Şubesi"
      }
    },
    {
      "type": "Feature",
      "geometry": {
        "type": "Point",
        "coordinates": [
          37.8807357,
          40.9851447
        ]
      },
      "properties": {
        "id": 8521433518,
        "osm_type": "node",
        "name": "BİM",
        "brand": "BİM",
        "opening_hours": "Mo-Su 09:00-21:00"
      }
    },
    {
      "type": "Feature",
      "geometry": {
        "type": "Point",
        "coordinates": [
          37.9142577,
          40.9839074
        ]
      },
      "properties": {
        "id": 8527053117,
        "osm_type": "node",
        "name": "BİM",
        "brand": "BİM",
        "opening_hours": "Mo-Su 09:00-21:00"
      }
    },
    {
      "type": "Feature",
      "geometry": {
        "type": "Point",
        "coordinates": [
          37.8973835,
          40.9822671
        ]
      },
      "properties": {
        "id": 8532539919,
        "osm_type": "node",
        "name": "Ankamar Ekonomi Marketleri - Bahçelievler Şubesi"
      }
    },
    {
      "type": "Feature",
      "geometry": {
        "type": "Point",
        "coordinates": [
          37.8972776,
          40.9810548
        ]
      },
      "properties": {
        "id": 8532539920,
        "osm_type": "node",
        "name": "BİM",
        "brand": "BİM",
        "opening_hours": "Mo-Su 09:00-21:00"
      }
    },
    {
      "type": "Feature",
      "geometry": {
        "type": "Point",
        "coordinates": [
          37.8975369,
          40.9811091
        ]
      },
      "properties": {
        "id": 8532544017,
        "osm_type": "node",
        "name": "A101",
        "brand": "A101",
        "opening_hours": "Mo-Su 09:00-21:30"
      }
    },
    {
      "type": "Feature",
      "geometry": {
        "type": "Point",
        "coordinates": [
          37.885029,
          40.9828225
        ]
      },
      "properties": {
        "id": 8535297518,
        "osm_type": "node",
        "name": "BİM",
        "brand": "BİM",
        "opening_hours": "Mo-Su 09:00-21:00"
      }
    },
    {
      "type": "Feature",
      "geometry": {
        "type": "Point",
        "coordinates": [
          37.2880518,
          41.1224305
        ]
      },
      "properties": {
        "id": 10087843508,
        "osm_type": "node",
        "name": "Hicret Alışveriş Merkezi"
      }
    },
    {
      "type": "Feature",
      "geometry": {
        "type": "Point",
        "coordinates": [
          37.2875509,
          41.1241402
        ]
      },
      "properties": {
        "id": 10087843519,
        "osm_type": "node",
        "name": "A101",
        "brand": "A101",
        "opening_hours": "Mo-Su 09:00-21:30"
      }
    },
    {
      "type": "Feature",
      "geometry": {
        "type": "Point",
        "coordinates": [
          37.3186742,
          41.1148919
        ]
      },
      "properties": {
        "id": 10087843525,
        "osm_type": "node",
        "name": "BİM",
        "brand": "BİM",
        "opening_hours": "Mo-Su 09:00-21:00"
      }
    },
    {
      "type": "Feature",
      "geometry": {
        "type": "Point",
        "coordinates": [
          37.3552836,
          41.108453
        ]
      },
      "properties": {
        "id": 10087843776,
        "osm_type": "node",
        "name": "Şok",
        "brand": "Şok"
      }
    },
    {
      "type": "Feature",
      "geometry": {
        "type": "Point",
        "coordinates": [
          37.5107521,
          41.0269713
        ]
      },
      "properties": {
        "id": 10090333698,
        "osm_type": "node",
        "name": "A101",
        "brand": "A101",
        "opening_hours": "Mo-Su 09:00-21:30"
      }
    },
    {
      "type": "Feature",
      "geometry": {
        "type": "Point",
        "coordinates": [
          37.5060783,
          41.0285823
        ]
      },
      "properties": {
        "id": 10090333704,
        "osm_type": "node",
        "name": "BİM",
        "brand": "BİM",
        "opening_hours": "Mo-Su 09:00-21:00"
      }
    },
    {
      "type": "Feature",
      "geometry": {
        "type": "Point",
        "coordinates": [
          37.4980854,
          41.0328268
        ]
      },
      "properties": {
        "id": 10090333774,
        "osm_type": "node",
        "name": "BİM",
        "brand": "BİM",
        "opening_hours": "Mo-Su 09:00-21:00"
      }
    },
    {
      "type": "Feature",
      "geometry": {
        "type": "Point",
        "coordinates": [
          37.4758983,
          41.0202872
        ]
      },
      "properties": {
        "id": 10090473923,
        "osm_type": "node",
        "name": "Ceceloğlu Torku Bayii"
      }
    },
    {
      "type": "Feature",
      "geometry": {
        "type": "Point",
        "coordinates": [
          37.9422743,
          40.9754591
        ]
      },
      "properties": {
        "id": 10246625732,
        "osm_type": "node",
        "name": "BİM",
        "brand": "BİM",
        "opening_hours": "Mo-Su 09:00-21:00"
      }
    },
    {
      "type": "Feature",
      "geometry": {
        "type": "Point",
        "coordinates": [
          37.9432024,
          40.975607
        ]
      },
      "properties": {
        "id": 10246625733,
        "osm_type": "node",
        "name": "Şok",
        "brand": "Şok"
      }
    },
    {
      "type": "Feature",
      "geometry": {
        "type": "Point",
        "coordinates": [
          37.9632172,
          40.980176
        ]
      },
      "properties": {
        "id": 10259501265,
        "osm_type": "node",
        "name": "Şok",
        "brand": "Şok"
      }
    },
    {
      "type": "Feature",
      "geometry": {
        "type": "Point",
        "coordinates": [
          37.9614033,
          40.9773472
        ]
      },
      "properties": {
        "id": 10264695990,
        "osm_type": "node",
        "name": "Sevenler"
      }
    },
    {
      "type": "Feature",
      "geometry": {
        "type": "Point",
        "coordinates": [
          37.9516998,
          40.980757
        ]
      },
      "properties": {
        "id": 10308500770,
        "osm_type": "node",
        "name": "Şok",
        "brand": "Şok"
      }
    },
    {
      "type": "Feature",
      "geometry": {
        "type": "Point",
        "coordinates": [
          37.4980335,
          41.0284572
        ]
      },
      "properties": {
        "id": 11088627252,
        "osm_type": "node",
        "name": "Şok",
        "brand": "Şok"
      }
    },
    {
      "type": "Feature",
      "geometry": {
        "type": "Point",
        "coordinates": [
          37.5286806,
          41.0221212
        ]
      },
      "properties": {
        "id": 11092019621,
        "osm_type": "node",
        "name": "A101",
        "brand": "A101",
        "opening_hours": "Mo-Su 09:00-21:30"
      }
    },
    {
      "type": "Feature",
      "geometry": {
        "type": "Point",
        "coordinates": [
          37.9633259,
          40.6260042
        ]
      },
      "properties": {
        "id": 11108227317,
        "osm_type": "node",
        "name": "A101",
        "brand": "A101",
        "opening_hours": "Mo-Su 09:00-21:30"
      }
    },
    {
      "type": "Feature",
      "geometry": {
        "type": "Point",
        "coordinates": [
          37.7750344,
          40.4615971
        ]
      },
      "properties": {
        "id": 11109934574,
        "osm_type": "node",
        "name": "A101",
        "opening_hours": "Mo-Su 09:00-21:30"
      }
    },
    {
      "type": "Feature",
      "geometry": {
        "type": "Point",
        "coordinates": [
          37.7731463,
          40.4611804
        ]
      },
      "properties": {
        "id": 11109942219,
        "osm_type": "node",
        "name": "A101",
        "opening_hours": "Mo-Su 09:00-21:30"
      }
    },
    {
      "type": "Feature",
      "geometry": {
        "type": "Point",
        "coordinates": [
          37.2968664,
          40.6261452
        ]
      },
      "properties": {
        "id": 11114132861,
        "osm_type": "node",
        "name": "BIM mini"
      }
    },
    {
      "type": "Feature",
      "geometry": {
        "type": "Point",
        "coordinates": [
          37.694318,
          41.1228945
        ]
      },
      "properties": {
        "id": 12005725285,
        "osm_type": "node",
        "name": "A101",
        "brand": "A101",
        "opening_hours": "Mo-Su 09:00-21:00"
      }
    },
    {
      "type": "Feature",
      "geometry": {
        "type": "Point",
        "coordinates": [
          37.493031,
          41.0313003
        ]
      },
      "properties": {
        "id": 12246219002,
        "osm_type": "node",
        "name": "A101",
        "brand": "A101",
        "opening_hours": "Mo-Su 09:00-21:30"
      }
    },
    {
      "type": "Feature",
      "geometry": {
        "type": "Point",
        "coordinates": [
          37.4980795,
          41.0320762
        ]
      },
      "properties": {
        "id": 12246219602,
        "osm_type": "node",
        "name": "Şok",
        "brand": "Şok",
        "opening_hours": "Mo-Su 09:00-21:00"
      }
    },
    {
      "type": "Feature",
      "geometry": {
        "type": "Point",
        "coordinates": [
          37.4931203,
          41.0325717
        ]
      },
      "properties": {
        "id": 12247782801,
        "osm_type": "node",
        "name": "A101",
        "brand": "A101",
        "opening_hours": "Mo-Su 09:00-21:00"
      }
    },
    {
      "type": "Feature",
      "geometry": {
        "type": "Point",
        "coordinates": [
          37.4881835,
          41.0299562
        ]
      },
      "properties": {
        "id": 12250639101,
        "osm_type": "node",
        "name": "A101",
        "brand": "A101",
        "opening_hours": "Mo-Su 09:00-21:00"
      }
    },
    {
      "type": "Feature",
      "geometry": {
        "type": "Point",
        "coordinates": [
          37.499895,
          41.0313423
        ]
      },
      "properties": {
        "id": 12262804614,
        "osm_type": "node",
        "name": "A101",
        "brand": "A101",
        "opening_hours": "Mo-Su 09:00-21:30"
      }
    },
    {
      "type": "Feature",
      "geometry": {
        "type": "Point",
        "coordinates": [
          37.5031861,
          41.029394
        ]
      },
      "properties": {
        "id": 12606706743,
        "osm_type": "node",
        "name": "Şok",
        "brand": "Şok"
      }
    },
    {
      "type": "Feature",
      "geometry": {
        "type": "Point",
        "coordinates": [
          37.5032983,
          41.0295784
        ]
      },
      "properties": {
        "id": 12606862593,
        "osm_type": "node",
        "name": "Şok",
        "brand": "Şok"
      }
    },
    {
      "type": "Feature",
      "geometry": {
        "type": "Point",
        "coordinates": [
          37.5127688,
          41.0263216
        ]
      },
      "properties": {
        "id": 12617796994,
        "osm_type": "node",
        "name": "BİM",
        "brand": "BİM"
      }
    },
    {
      "type": "Feature",
      "geometry": {
        "type": "Point",
        "coordinates": [
          37.4861448,
          41.0257793
        ]
      },
      "properties": {
        "id": 12684421242,
        "osm_type": "node",
        "name": "A101",
        "brand": "A101"
      }
    },
    {
      "type": "Feature",
      "geometry": {
        "type": "Point",
        "coordinates": [
          37.284548,
          41.1338601
        ]
      },
      "properties": {
        "id": 13168158679,
        "osm_type": "node",
        "name": "A101",
        "brand": "A101"
      }
    },
    {
      "type": "Feature",
      "geometry": {
        "type": "Point",
        "coordinates": [
          37.2849498,
          41.1336916
        ]
      },
      "properties": {
        "id": 13168158680,
        "osm_type": "node",
        "name": "BİM",
        "brand": "BİM"
      }
    },
    {
      "type": "Feature",
      "geometry": {
        "type": "Point",
        "coordinates": [
          37.2848193,
          41.1330948
        ]
      },
      "properties": {
        "id": 13168158681,
        "osm_type": "node",
        "name": "Kale Market"
      }
    },
    {
      "type": "Feature",
      "geometry": {
        "type": "Point",
        "coordinates": [
          37.4697837,
          41.0636548
        ]
      },
      "properties": {
        "id": 13604655558,
        "osm_type": "node",
        "name": "Migros",
        "brand": "Migros"
      }
    },
    {
      "type": "Feature",
      "geometry": {
        "type": "Point",
        "coordinates": [
          37.8884334,
          40.9818577
        ]
      },
      "properties": {
        "id": 786495043,
        "osm_type": "way",
        "name": "Carrefour",
        "brand": "Carrefour",
        "opening_hours": "10:00-22:00"
      }
    },
    {
      "type": "Feature",
      "geometry": {
        "type": "Point",
        "coordinates": [
          37.2713123,
          41.1430525
        ]
      },
      "properties": {
        "id": 886630766,
        "osm_type": "way",
        "name": "Migros",
        "brand": "Migros"
      }
    },
    {
      "type": "Feature",
      "geometry": {
        "type": "Point",
        "coordinates": [
          37.508154,
          41.027326
        ]
      },
      "properties": {
        "id": 1359551340,
        "osm_type": "way",
        "name": "Fatsa Market"
      }
    },
    {
      "type": "Feature",
      "geometry": {
        "type": "Point",
        "coordinates": [
          37.4809596,
          41.0430896
        ]
      },
      "properties": {
        "id": 1455950212,
        "osm_type": "way",
        "name": "A101",
        "brand": "A101"
      }
    }
  ]
}