{
  "type": "FeatureCollection",
  "features": [
    {
      "type": "Feature",
      "geometry": {
        "type": "Point",
        "coordinates": [
          25.6126556,
          43.0809703
        ]
      },
      "properties": {
        "id": 1977629175,
        "osm_type": "node",
        "name": "баничарница \"Фантазия\"",
        "opening_hours": "Mo-Su,PH 06:00-22:00",
        "cuisine": "breakfast",
        "chain": "unknown"
      }
    },
    {
      "type": "Feature",
      "geometry": {
        "type": "Point",
        "coordinates": [
          25.6328549,
          43.0814983
        ]
      },
      "properties": {
        "id": 2961220861,
        "osm_type": "node",
        "name": "Mario",
        "cuisine": "burger",
        "chain": "unknown"
      }
    },
    {
      "type": "Feature",
      "geometry": {
        "type": "Point",
        "coordinates": [
          25.6087105,
          43.0767737
        ]
      },
      "properties": {
        "id": 2961220865,
        "osm_type": "node",
        "name": "Fornetti",
        "brand": "Fornetti",
        "brand:wikidata": "Q1003020",
        "chain": "unknown"
      }
    },
    {
      "type": "Feature",
      "geometry": {
        "type": "Point",
        "coordinates": [
          25.6188462,
          43.0834682
        ]
      },
      "properties": {
        "id": 3740651844,
        "osm_type": "node",
        "name": "Рувер",
        "chain": "unknown"
      }
    },
    {
      "type": "Feature",
      "geometry": {
        "type": "Point",
        "coordinates": [
          25.6217296,
          43.0839617
        ]
      },
      "properties": {
        "id": 3740653233,
        "osm_type": "node",
        "chain": "unknown"
      }
    },
    {
      "type": "Feature",
      "geometry": {
        "type": "Point",
        "coordinates": [
          25.6340072,
          43.084228
        ]
      },
      "properties": {
        "id": 3741799175,
        "osm_type": "node",
        "name": "Айча",
        "chain": "unknown"
      }
    },
    {
      "type": "Feature",
      "geometry": {
        "type": "Point",
        "coordinates": [
          25.634479,
          43.0846338
        ]
      },
      "properties": {
        "id": 3741862480,
        "osm_type": "node",
        "name": "Hesburger",
        "brand": "Hesburger",
        "brand:wikidata": "Q1276832",
        "cuisine": "burger",
        "chain": "unknown"
      }
    },
    {
      "type": "Feature",
      "geometry": {
        "type": "Point",
        "coordinates": [
          25.6307815,
          43.080302
        ]
      },
      "properties": {
        "id": 3744637623,
        "osm_type": "node",
        "cuisine": "kebab",
        "chain": "unknown"
      }
    },
    {
      "type": "Feature",
      "geometry": {
        "type": "Point",
        "coordinates": [
          25.6305012,
          43.0805724
        ]
      },
      "properties": {
        "id": 3744637624,
        "osm_type": "node",
        "cuisine": "kebab",
        "chain": "unknown"
      }
    },
    {
      "type": "Feature",
      "geometry": {
        "type": "Point",
        "coordinates": [
          25.6332517,
          43.0807131
        ]
      },
      "properties": {
        "id": 3744672711,
        "osm_type": "node",
        "name": "Гладното магаре",
        "chain": "unknown"
      }
    },
    {
      "type": "Feature",
      "geometry": {
        "type": "Point",
        "coordinates": [
          25.6335334,
          43.0802907
        ]
      },
      "properties": {
        "id": 3744672721,
        "osm_type": "node",
        "name": "GO Grill",
        "brand": "GO Grill",
        "brand:wikidata": "Q137165486",
        "chain": "unknown"
      }
    },
    {
      "type": "Feature",
      "geometry": {
        "type": "Point",
        "coordinates": [
          25.6333131,
          43.0806386
        ]
      },
      "properties": {
        "id": 3744673563,
        "osm_type": "node",
        "cuisine": "pizza",
        "chain": "unknown"
      }
    },
    {
      "type": "Feature",
      "geometry": {
        "type": "Point",
        "coordinates": [
          25.6149194,
          43.0790859
        ]
      },
      "properties": {
        "id": 3749779928,
        "osm_type": "node",
        "name": "Ниш",
        "chain": "unknown"
      }
    },
    {
      "type": "Feature",
      "geometry": {
        "type": "Point",
        "coordinates": [
          25.6273926,
          43.0784733
        ]
      },
      "properties": {
        "id": 3749804929,
        "osm_type": "node",
        "name": "La Scalla",
        "chain": "unknown"
      }
    },
    {
      "type": "Feature",
      "geometry": {
        "type": "Point",
        "coordinates": [
          25.6285857,
          43.0794501
        ]
      },
      "properties": {
        "id": 3749810045,
        "osm_type": "node",
        "chain": "unknown"
      }
    },
    {
      "type": "Feature",
      "geometry": {
        "type": "Point",
        "coordinates": [
          25.6247936,
          43.0762442
        ]
      },
      "properties": {
        "id": 3750972071,
        "osm_type": "node",
        "name": "При Айко",
        "chain": "unknown"
      }
    },
    {
      "type": "Feature",
      "geometry": {
        "type": "Point",
        "coordinates": [
          25.618752,
          43.0748587
        ]
      },
      "properties": {
        "id": 3750974053,
        "osm_type": "node",
        "name": "Fresh Bar №1",
        "chain": "unknown"
      }
    },
    {
      "type": "Feature",
      "geometry": {
        "type": "Point",
        "coordinates": [
          25.6219706,
          43.0759088
        ]
      },
      "properties": {
        "id": 3750978094,
        "osm_type": "node",
        "name": "Fornetti",
        "brand": "Fornetti",
        "brand:wikidata": "Q1003020",
        "chain": "unknown"
      }
    },
    {
      "type": "Feature",
      "geometry": {
        "type": "Point",
        "coordinates": [
          25.6219626,
          43.0758598
        ]
      },
      "properties": {
        "id": 3750978100,
        "osm_type": "node",
        "name": "GO Grill",
        "brand": "GO Grill",
        "brand:wikidata": "Q137165486",
        "chain": "unknown"
      }
    },
    {
      "type": "Feature",
      "geometry": {
        "type": "Point",
        "coordinates": [
          25.6165483,
          43.0749194
        ]
      },
      "properties": {
        "id": 3750987198,
        "osm_type": "node",
        "name": "Дюнер",
        "cuisine": "kebab",
        "chain": "unknown"
      }
    },
    {
      "type": "Feature",
      "geometry": {
        "type": "Point",
        "coordinates": [
          25.615048,
          43.0746424
        ]
      },
      "properties": {
        "id": 3750987201,
        "osm_type": "node",
        "name": "Нели",
        "chain": "unknown"
      }
    },
    {
      "type": "Feature",
      "geometry": {
        "type": "Point",
        "coordinates": [
          25.6871818,
          43.1278543
        ]
      },
      "properties": {
        "id": 4376044290,
        "osm_type": "node",
        "chain": "unknown"
      }
    },
    {
      "type": "Feature",
      "geometry": {
        "type": "Point",
        "coordinates": [
          25.6322813,
          43.0827308
        ]
      },
      "properties": {
        "id": 5868206887,
        "osm_type": "node",
        "name": "Вкусна храна в центъра",
        "opening_hours": "Su-Th 07:30-00:30; Fr-Sa 07:30-02:30",
        "phone": "+359 87 888 3797",
        "website": "http://fb.me/thetastefoods",
        "operator": "the taste foods",
        "cuisine": "burger;tea;coffee_shop;beef_bowl;pizza;chicken;arab;italian_pizza",
        "chain": "unknown"
      }
    },
    {
      "type": "Feature",
      "geometry": {
        "type": "Point",
        "coordinates": [
          25.6334317,
          43.0832934
        ]
      },
      "properties": {
        "id": 6397100475,
        "osm_type": "node",
        "name": "Сандвичарница",
        "cuisine": "sandwich",
        "chain": "unknown"
      }
    },
    {
      "type": "Feature",
      "geometry": {
        "type": "Point",
        "coordinates": [
          25.6061977,
          43.0754842
        ]
      },
      "properties": {
        "id": 6412636739,
        "osm_type": "node",
        "name": "Студентски Стол - 3",
        "opening_hours": "Mo-Fr 11:30-14:30,15:00-17:30",
        "chain": "unknown"
      }
    },
    {
      "type": "Feature",
      "geometry": {
        "type": "Point",
        "coordinates": [
          25.6256825,
          43.0776674
        ]
      },
      "properties": {
        "id": 6934735087,
        "osm_type": "node",
        "chain": "unknown"
      }
    },
    {
      "type": "Feature",
      "geometry": {
        "type": "Point",
        "coordinates": [
          25.6423398,
          43.2997285
        ]
      },
      "properties": {
        "id": 6939054685,
        "osm_type": "node",
        "chain": "unknown"
      }
    },
    {
      "type": "Feature",
      "geometry": {
        "type": "Point",
        "coordinates": [
          25.6329141,
          43.0813666
        ]
      },
      "properties": {
        "id": 7796274885,
        "osm_type": "node",
        "chain": "unknown"
      }
    },
    {
      "type": "Feature",
      "geometry": {
        "type": "Point",
        "coordinates": [
          25.7137246,
          43.1082272
        ]
      },
      "properties": {
        "id": 7812453486,
        "osm_type": "node",
        "name": "GO GRILL - Горнооряховска скара",
        "chain": "unknown"
      }
    },
    {
      "type": "Feature",
      "geometry": {
        "type": "Point",
        "coordinates": [
          25.6885032,
          43.1223051
        ]
      },
      "properties": {
        "id": 10119125549,
        "osm_type": "node",
        "name": "Aladin Food",
        "brand": "Aladin Foods",
        "brand:wikidata": "Q115656547",
        "cuisine": "bulgarian",
        "chain": "unknown"
      }
    },
    {
      "type": "Feature",
      "geometry": {
        "type": "Point",
        "coordinates": [
          25.6872608,
          43.1230498
        ]
      },
      "properties": {
        "id": 10119135541,
        "osm_type": "node",
        "name": "Apetito",
        "chain": "unknown"
      }
    },
    {
      "type": "Feature",
      "geometry": {
        "type": "Point",
        "coordinates": [
          25.8809096,
          42.930084
        ]
      },
      "properties": {
        "id": 10293134411,
        "osm_type": "node",
        "chain": "unknown"
      }
    },
    {
      "type": "Feature",
      "geometry": {
        "type": "Point",
        "coordinates": [
          25.8794419,
          42.9300197
        ]
      },
      "properties": {
        "id": 10971065405,
        "osm_type": "node",
        "chain": "unknown"
      }
    },
    {
      "type": "Feature",
      "geometry": {
        "type": "Point",
        "coordinates": [
          25.6356116,
          43.084546
        ]
      },
      "properties": {
        "id": 11121454176,
        "osm_type": "node",
        "name": "Dinero 2",
        "cuisine": "kebab",
        "chain": "unknown"
      }
    },
    {
      "type": "Feature",
      "geometry": {
        "type": "Point",
        "coordinates": [
          25.8414867,
          42.940852
        ]
      },
      "properties": {
        "id": 11130679305,
        "osm_type": "node",
        "name": "Гъби",
        "chain": "unknown"
      }
    },
    {
      "type": "Feature",
      "geometry": {
        "type": "Point",
        "coordinates": [
          25.6059873,
          43.0695334
        ]
      },
      "properties": {
        "id": 12119768794,
        "osm_type": "node",
        "name": "Релакс",
        "chain": "unknown"
      }
    },
    {
      "type": "Feature",
      "geometry": {
        "type": "Point",
        "coordinates": [
          25.6348489,
          43.3695483
        ]
      },
      "properties": {
        "id": 12120709467,
        "osm_type": "node",
        "cuisine": "kebab;hot_dog",
        "chain": "unknown"
      }
    },
    {
      "type": "Feature",
      "geometry": {
        "type": "Point",
        "coordinates": [
          25.6355638,
          43.3686846
        ]
      },
      "properties": {
        "id": 13724031418,
        "osm_type": "node",
        "chain": "unknown"
      }
    },
    {
      "type": "Feature",
      "geometry": {
        "type": "Point",
        "coordinates": [
          25.6161638,
          43.0731259
        ]
      },
      "properties": {
        "id": 222951980,
        "osm_type": "way",
        "name": "McDonald's",
        "brand": "McDonald's",
        "opening_hours": "Mo-Th 07:00-23:00; Fr-Sa 07:00-01:00",
        "website": "https://mcdonalds.bg/",
        "operator": "McDonald's",
        "brand:wikidata": "Q38076",
        "cuisine": "burger",
        "chain": "mcdonalds"
      }
    },
    {
      "type": "Feature",
      "geometry": {
        "type": "Point",
        "coordinates": [
          25.6092581,
          43.0728615
        ]
      },
      "properties": {
        "id": 684771459,
        "osm_type": "way",
        "name": "GO Grill",
        "brand": "GO Grill",
        "opening_hours": "Mo-Fr 08:30-21:00; Sa-Su 10:00-20:00",
        "website": "https://gogrill.bg/",
        "brand:wikidata": "Q137165486",
        "chain": "unknown"
      }
    },
    {
      "type": "Feature",
      "geometry": {
        "type": "Point",
        "coordinates": [
          25.6010504,
          43.0593431
        ]
      },
      "properties": {
        "id": 903416803,
        "osm_type": "way",
        "name": "На Завоя",
        "chain": "unknown"
      }
    }
  ]
}