{
  "type": "FeatureCollection",
  "features": [
    {
      "type": "Feature",
      "geometry": {
        "type": "Point",
        "coordinates": [
          24.8711604,
          43.7492183
        ]
      },
      "properties": {
        "id": 1680686536,
        "osm_type": "node",
        "name": "Boșanca Fast-Food",
        "chain": "unknown"
      }
    },
    {
      "type": "Feature",
      "geometry": {
        "type": "Point",
        "coordinates": [
          24.9949816,
          44.111183
        ]
      },
      "properties": {
        "id": 6834046381,
        "osm_type": "node",
        "name": "Bunutzu",
        "opening_hours": "Mo-Sa 18:00-00:00",
        "chain": "unknown"
      }
    },
    {
      "type": "Feature",
      "geometry": {
        "type": "Point",
        "coordinates": [
          24.9930022,
          44.1116446
        ]
      },
      "properties": {
        "id": 6834060812,
        "osm_type": "node",
        "name": "City Doner",
        "opening_hours": "Mo-Fr 09:00-22:00; Sa 10:00-22:00; Su 10:00-22:00",
        "chain": "unknown"
      }
    },
    {
      "type": "Feature",
      "geometry": {
        "type": "Point",
        "coordinates": [
          24.9944004,
          44.111509
        ]
      },
      "properties": {
        "id": 6834080602,
        "osm_type": "node",
        "name": "Gogoșerie",
        "chain": "unknown"
      }
    },
    {
      "type": "Feature",
      "geometry": {
        "type": "Point",
        "coordinates": [
          24.9850395,
          44.1218111
        ]
      },
      "properties": {
        "id": 9240777479,
        "osm_type": "node",
        "name": "City Doner",
        "chain": "unknown"
      }
    },
    {
      "type": "Feature",
      "geometry": {
        "type": "Point",
        "coordinates": [
          24.9850228,
          44.12171
        ]
      },
      "properties": {
        "id": 9240777480,
        "osm_type": "node",
        "chain": "unknown"
      }
    },
    {
      "type": "Feature",
      "geometry": {
        "type": "Point",
        "coordinates": [
          25.333446,
          43.9666184
        ]
      },
      "properties": {
        "id": 9790270231,
        "osm_type": "node",
        "name": "Antonia Star",
        "chain": "unknown"
      }
    }
  ]
}