{
  "type": "FeatureCollection",
  "features": [
    {
      "type": "Feature",
      "geometry": {
        "type": "Point",
        "coordinates": [
          23.4835987,
          41.8444431
        ]
      },
      "properties": {
        "id": 278616386,
        "osm_type": "node",
        "name": "Петрол",
        "brand": "Петрол",
        "opening_hours": "24/7"
      }
    },
    {
      "type": "Feature",
      "geometry": {
        "type": "Point",
        "coordinates": [
          23.5570971,
          41.8234355
        ]
      },
      "properties": {
        "id": 280728673,
        "osm_type": "node",
        "name": "Лукойл",
        "brand": "Лукойл"
      }
    },
    {
      "type": "Feature",
      "geometry": {
        "type": "Point",
        "coordinates": [
          23.7467543,
          41.575196
        ]
      },
      "properties": {
        "id": 281909574,
        "osm_type": "node",
        "name": "Лукойл",
        "brand": "Лукойл"
      }
    },
    {
      "type": "Feature",
      "geometry": {
        "type": "Point",
        "coordinates": [
          23.7474709,
          41.5737354
        ]
      },
      "properties": {
        "id": 281909649,
        "osm_type": "node",
        "name": "ЕKO",
        "brand": "EКО"
      }
    },
    {
      "type": "Feature",
      "geometry": {
        "type": "Point",
        "coordinates": [
          23.4469833,
          41.8799352
        ]
      },
      "properties": {
        "id": 289880006,
        "osm_type": "node",
        "name": "Лукойл",
        "brand": "Лукойл",
        "opening_hours": "24/7"
      }
    },
    {
      "type": "Feature",
      "geometry": {
        "type": "Point",
        "coordinates": [
          23.1895924,
          41.3961069
        ]
      },
      "properties": {
        "id": 458443509,
        "osm_type": "node",
        "name": "Лукойл",
        "brand": "Лукойл"
      }
    },
    {
      "type": "Feature",
      "geometry": {
        "type": "Point",
        "coordinates": [
          23.1899196,
          41.3965417
        ]
      },
      "properties": {
        "id": 458443510,
        "osm_type": "node",
        "name": "Петрол",
        "brand": "Петрол",
        "opening_hours": "24/7"
      }
    },
    {
      "type": "Feature",
      "geometry": {
        "type": "Point",
        "coordinates": [
          23.2229862,
          41.3990099
        ]
      },
      "properties": {
        "id": 472134907,
        "osm_type": "node"
      }
    },
    {
      "type": "Feature",
      "geometry": {
        "type": "Point",
        "coordinates": [
          23.527923,
          41.8846402
        ]
      },
      "properties": {
        "id": 1314635056,
        "osm_type": "node"
      }
    },
    {
      "type": "Feature",
      "geometry": {
        "type": "Point",
        "coordinates": [
          23.4726956,
          41.8776253
        ]
      },
      "properties": {
        "id": 1314635135,
        "osm_type": "node",
        "name": "Rompetrol",
        "brand": "Rompetrol"
      }
    },
    {
      "type": "Feature",
      "geometry": {
        "type": "Point",
        "coordinates": [
          23.4810657,
          41.851198
        ]
      },
      "properties": {
        "id": 1348214986,
        "osm_type": "node",
        "name": "Газпром",
        "brand": "Gazprom"
      }
    },
    {
      "type": "Feature",
      "geometry": {
        "type": "Point",
        "coordinates": [
          23.0878409,
          41.9848664
        ]
      },
      "properties": {
        "id": 1348214989,
        "osm_type": "node",
        "name": "Лукойл",
        "brand": "Лукойл"
      }
    },
    {
      "type": "Feature",
      "geometry": {
        "type": "Point",
        "coordinates": [
          23.0758376,
          42.0080239
        ]
      },
      "properties": {
        "id": 1348214991,
        "osm_type": "node",
        "name": "Shell",
        "brand": "Shell"
      }
    },
    {
      "type": "Feature",
      "geometry": {
        "type": "Point",
        "coordinates": [
          23.0735033,
          42.0152965
        ]
      },
      "properties": {
        "id": 1348214995,
        "osm_type": "node",
        "name": "Лукойл",
        "brand": "Лукойл"
      }
    },
    {
      "type": "Feature",
      "geometry": {
        "type": "Point",
        "coordinates": [
          23.0497536,
          42.0437276
        ]
      },
      "properties": {
        "id": 1348214998,
        "osm_type": "node",
        "name": "Лукойл",
        "brand": "Лукойл"
      }
    },
    {
      "type": "Feature",
      "geometry": {
        "type": "Point",
        "coordinates": [
          23.2702747,
          41.5468817
        ]
      },
      "properties": {
        "id": 1425864118,
        "osm_type": "node",
        "name": "OMV",
        "brand": "OMV",
        "opening_hours": "24/7"
      }
    },
    {
      "type": "Feature",
      "geometry": {
        "type": "Point",
        "coordinates": [
          23.2239481,
          41.6096181
        ]
      },
      "properties": {
        "id": 1837853227,
        "osm_type": "node",
        "name": "Shell",
        "brand": "Shell"
      }
    },
    {
      "type": "Feature",
      "geometry": {
        "type": "Point",
        "coordinates": [
          23.1953665,
          41.6465538
        ]
      },
      "properties": {
        "id": 1837853229,
        "osm_type": "node",
        "name": "Rompetrol",
        "brand": "Rompetrol"
      }
    },
    {
      "type": "Feature",
      "geometry": {
        "type": "Point",
        "coordinates": [
          23.1956202,
          41.6470673
        ]
      },
      "properties": {
        "id": 1837853230,
        "osm_type": "node"
      }
    },
    {
      "type": "Feature",
      "geometry": {
        "type": "Point",
        "coordinates": [
          23.1724134,
          41.7102598
        ]
      },
      "properties": {
        "id": 1837853231,
        "osm_type": "node",
        "name": "EKO",
        "brand": "EKO"
      }
    },
    {
      "type": "Feature",
      "geometry": {
        "type": "Point",
        "coordinates": [
          23.1714281,
          41.7129525
        ]
      },
      "properties": {
        "id": 1837853232,
        "osm_type": "node",
        "name": "Петрол",
        "brand": "Петрол"
      }
    },
    {
      "type": "Feature",
      "geometry": {
        "type": "Point",
        "coordinates": [
          23.7445984,
          41.5810494
        ]
      },
      "properties": {
        "id": 2346348139,
        "osm_type": "node",
        "name": "Shell",
        "brand": "Shell",
        "opening_hours": "24/7"
      }
    },
    {
      "type": "Feature",
      "geometry": {
        "type": "Point",
        "coordinates": [
          23.4131817,
          41.8757086
        ]
      },
      "properties": {
        "id": 2346348212,
        "osm_type": "node",
        "name": "Shell",
        "brand": "Shell",
        "opening_hours": "24/7"
      }
    },
    {
      "type": "Feature",
      "geometry": {
        "type": "Point",
        "coordinates": [
          23.0859131,
          42.005893
        ]
      },
      "properties": {
        "id": 2423800780,
        "osm_type": "node",
        "name": "Метан"
      }
    },
    {
      "type": "Feature",
      "geometry": {
        "type": "Point",
        "coordinates": [
          23.0686183,
          42.01298
        ]
      },
      "properties": {
        "id": 2423802764,
        "osm_type": "node",
        "name": "Метан"
      }
    },
    {
      "type": "Feature",
      "geometry": {
        "type": "Point",
        "coordinates": [
          23.9918037,
          41.6147888
        ]
      },
      "properties": {
        "id": 2994295461,
        "osm_type": "node",
        "name": "Лукойл",
        "brand": "Лукойл",
        "opening_hours": "24/7"
      }
    },
    {
      "type": "Feature",
      "geometry": {
        "type": "Point",
        "coordinates": [
          23.2719202,
          41.5464527
        ]
      },
      "properties": {
        "id": 3325309854,
        "osm_type": "node",
        "name": "Лукойл",
        "brand": "Лукойл",
        "opening_hours": "24/7"
      }
    },
    {
      "type": "Feature",
      "geometry": {
        "type": "Point",
        "coordinates": [
          23.2712357,
          41.5433227
        ]
      },
      "properties": {
        "id": 3325309855,
        "osm_type": "node"
      }
    },
    {
      "type": "Feature",
      "geometry": {
        "type": "Point",
        "coordinates": [
          23.2573502,
          41.4829708
        ]
      },
      "properties": {
        "id": 3325309856,
        "osm_type": "node",
        "name": "Лукойл",
        "brand": "Лукойл"
      }
    },
    {
      "type": "Feature",
      "geometry": {
        "type": "Point",
        "coordinates": [
          23.2273562,
          41.4530192
        ]
      },
      "properties": {
        "id": 3325311261,
        "osm_type": "node"
      }
    },
    {
      "type": "Feature",
      "geometry": {
        "type": "Point",
        "coordinates": [
          23.2167268,
          41.4304987
        ]
      },
      "properties": {
        "id": 3325311267,
        "osm_type": "node"
      }
    },
    {
      "type": "Feature",
      "geometry": {
        "type": "Point",
        "coordinates": [
          23.2100367,
          41.4101389
        ]
      },
      "properties": {
        "id": 3325311268,
        "osm_type": "node",
        "name": "Петрол",
        "brand": "Петрол"
      }
    },
    {
      "type": "Feature",
      "geometry": {
        "type": "Point",
        "coordinates": [
          23.0951967,
          42.0064583
        ]
      },
      "properties": {
        "id": 3334249508,
        "osm_type": "node",
        "name": "OMV",
        "brand": "OMV",
        "opening_hours": "24/7"
      }
    },
    {
      "type": "Feature",
      "geometry": {
        "type": "Point",
        "coordinates": [
          23.204567,
          41.4053743
        ]
      },
      "properties": {
        "id": 4711512289,
        "osm_type": "node"
      }
    },
    {
      "type": "Feature",
      "geometry": {
        "type": "Point",
        "coordinates": [
          23.5779825,
          41.9141261
        ]
      },
      "properties": {
        "id": 4902163205,
        "osm_type": "node",
        "name": "Лукойл",
        "brand": "Лукойл",
        "opening_hours": "24/7"
      }
    },
    {
      "type": "Feature",
      "geometry": {
        "type": "Point",
        "coordinates": [
          23.2718889,
          41.5414215
        ]
      },
      "properties": {
        "id": 5014183921,
        "osm_type": "node"
      }
    },
    {
      "type": "Feature",
      "geometry": {
        "type": "Point",
        "coordinates": [
          23.2289803,
          41.4542607
        ]
      },
      "properties": {
        "id": 5030786452,
        "osm_type": "node"
      }
    },
    {
      "type": "Feature",
      "geometry": {
        "type": "Point",
        "coordinates": [
          23.0808062,
          42.0073196
        ]
      },
      "properties": {
        "id": 5241045129,
        "osm_type": "node"
      }
    },
    {
      "type": "Feature",
      "geometry": {
        "type": "Point",
        "coordinates": [
          23.355826,
          41.3969717
        ]
      },
      "properties": {
        "id": 5429039005,
        "osm_type": "node",
        "name": "OMV",
        "brand": "OMV",
        "opening_hours": "24/7"
      }
    },
    {
      "type": "Feature",
      "geometry": {
        "type": "Point",
        "coordinates": [
          23.0988287,
          41.9978312
        ]
      },
      "properties": {
        "id": 5522924657,
        "osm_type": "node",
        "name": "EKO",
        "brand": "EKO"
      }
    },
    {
      "type": "Feature",
      "geometry": {
        "type": "Point",
        "coordinates": [
          23.8010365,
          41.5153408
        ]
      },
      "properties": {
        "id": 5808717770,
        "osm_type": "node",
        "name": "Петрол",
        "brand": "Петрол",
        "opening_hours": "24/7"
      }
    },
    {
      "type": "Feature",
      "geometry": {
        "type": "Point",
        "coordinates": [
          23.2053254,
          41.6095789
        ]
      },
      "properties": {
        "id": 5974399617,
        "osm_type": "node",
        "name": "Метанстанция Драката"
      }
    },
    {
      "type": "Feature",
      "geometry": {
        "type": "Point",
        "coordinates": [
          23.282134,
          41.5633166
        ]
      },
      "properties": {
        "id": 5974407323,
        "osm_type": "node",
        "name": "Драки ЕООД"
      }
    },
    {
      "type": "Feature",
      "geometry": {
        "type": "Point",
        "coordinates": [
          23.4251157,
          41.4400473
        ]
      },
      "properties": {
        "id": 5974414640,
        "osm_type": "node",
        "name": "Драки ЕООД"
      }
    },
    {
      "type": "Feature",
      "geometry": {
        "type": "Point",
        "coordinates": [
          23.6619686,
          42.018351
        ]
      },
      "properties": {
        "id": 5997814272,
        "osm_type": "node",
        "name": "Гърбев",
        "opening_hours": "24/7"
      }
    },
    {
      "type": "Feature",
      "geometry": {
        "type": "Point",
        "coordinates": [
          23.14051,
          41.3986608
        ]
      },
      "properties": {
        "id": 6452808785,
        "osm_type": "node"
      }
    },
    {
      "type": "Feature",
      "geometry": {
        "type": "Point",
        "coordinates": [
          23.2969686,
          41.4875321
        ]
      },
      "properties": {
        "id": 6651424885,
        "osm_type": "node",
        "name": "Шел",
        "brand": "Shell"
      }
    },
    {
      "type": "Feature",
      "geometry": {
        "type": "Point",
        "coordinates": [
          23.3537927,
          41.3978584
        ]
      },
      "properties": {
        "id": 6723546892,
        "osm_type": "node",
        "name": "Лукойл",
        "brand": "Лукойл"
      }
    },
    {
      "type": "Feature",
      "geometry": {
        "type": "Point",
        "coordinates": [
          23.354923,
          41.3963582
        ]
      },
      "properties": {
        "id": 6723546893,
        "osm_type": "node",
        "name": "OMV",
        "brand": "OMV",
        "opening_hours": "24/7"
      }
    },
    {
      "type": "Feature",
      "geometry": {
        "type": "Point",
        "coordinates": [
          23.2646764,
          41.5462031
        ]
      },
      "properties": {
        "id": 6903580385,
        "osm_type": "node"
      }
    },
    {
      "type": "Feature",
      "geometry": {
        "type": "Point",
        "coordinates": [
          23.1748446,
          41.7057008
        ]
      },
      "properties": {
        "id": 6905898386,
        "osm_type": "node"
      }
    },
    {
      "type": "Feature",
      "geometry": {
        "type": "Point",
        "coordinates": [
          23.2612872,
          41.5444999
        ]
      },
      "properties": {
        "id": 6905951486,
        "osm_type": "node"
      }
    },
    {
      "type": "Feature",
      "geometry": {
        "type": "Point",
        "coordinates": [
          23.2024283,
          41.6136222
        ]
      },
      "properties": {
        "id": 7169867486,
        "osm_type": "node"
      }
    },
    {
      "type": "Feature",
      "geometry": {
        "type": "Point",
        "coordinates": [
          23.140888,
          41.8494315
        ]
      },
      "properties": {
        "id": 7169882485,
        "osm_type": "node"
      }
    },
    {
      "type": "Feature",
      "geometry": {
        "type": "Point",
        "coordinates": [
          23.0960619,
          41.9684968
        ]
      },
      "properties": {
        "id": 7442537235,
        "osm_type": "node",
        "name": "Газпром",
        "brand": "Gazprom"
      }
    },
    {
      "type": "Feature",
      "geometry": {
        "type": "Point",
        "coordinates": [
          23.6645615,
          41.6718399
        ]
      },
      "properties": {
        "id": 8337351361,
        "osm_type": "node",
        "brand": "Sibia"
      }
    },
    {
      "type": "Feature",
      "geometry": {
        "type": "Point",
        "coordinates": [
          23.3341241,
          41.4351118
        ]
      },
      "properties": {
        "id": 9162516842,
        "osm_type": "node",
        "name": "Круиз",
        "brand": "Круиз"
      }
    },
    {
      "type": "Feature",
      "geometry": {
        "type": "Point",
        "coordinates": [
          23.7354389,
          41.5699758
        ]
      },
      "properties": {
        "id": 9730915938,
        "osm_type": "node",
        "name": "Петрол",
        "brand": "Петрол",
        "opening_hours": "24/7"
      }
    },
    {
      "type": "Feature",
      "geometry": {
        "type": "Point",
        "coordinates": [
          23.7344087,
          41.5698053
        ]
      },
      "properties": {
        "id": 9730915939,
        "osm_type": "node",
        "name": "Лукойл",
        "brand": "Лукойл",
        "opening_hours": "24/7"
      }
    },
    {
      "type": "Feature",
      "geometry": {
        "type": "Point",
        "coordinates": [
          23.969076,
          41.6234448
        ]
      },
      "properties": {
        "id": 9891602085,
        "osm_type": "node",
        "name": "Dospatles Oil"
      }
    },
    {
      "type": "Feature",
      "geometry": {
        "type": "Point",
        "coordinates": [
          23.2250911,
          41.5981214
        ]
      },
      "properties": {
        "id": 9909405577,
        "osm_type": "node",
        "name": "Петрол",
        "brand": "Петрол",
        "opening_hours": "24/7"
      }
    },
    {
      "type": "Feature",
      "geometry": {
        "type": "Point",
        "coordinates": [
          23.6875105,
          42.0280055
        ]
      },
      "properties": {
        "id": 9909426283,
        "osm_type": "node",
        "name": "Бея"
      }
    },
    {
      "type": "Feature",
      "geometry": {
        "type": "Point",
        "coordinates": [
          23.6792681,
          42.0249352
        ]
      },
      "properties": {
        "id": 9909426287,
        "osm_type": "node",
        "name": "Лукойл",
        "brand": "Лукойл",
        "opening_hours": "24/7"
      }
    },
    {
      "type": "Feature",
      "geometry": {
        "type": "Point",
        "coordinates": [
          23.6712027,
          42.0218148
        ]
      },
      "properties": {
        "id": 9909426288,
        "osm_type": "node",
        "name": "Via"
      }
    },
    {
      "type": "Feature",
      "geometry": {
        "type": "Point",
        "coordinates": [
          23.3594303,
          41.3912189
        ]
      },
      "properties": {
        "id": 9955014813,
        "osm_type": "node",
        "name": "Шел",
        "brand": "Shell"
      }
    },
    {
      "type": "Feature",
      "geometry": {
        "type": "Point",
        "coordinates": [
          23.357438,
          41.3942671
        ]
      },
      "properties": {
        "id": 9955014814,
        "osm_type": "node",
        "name": "Лукойл",
        "brand": "Лукойл",
        "opening_hours": "24/7"
      }
    },
    {
      "type": "Feature",
      "geometry": {
        "type": "Point",
        "coordinates": [
          23.3543943,
          41.3989126
        ]
      },
      "properties": {
        "id": 10048539739,
        "osm_type": "node",
        "name": "EKO",
        "brand": "EKO",
        "opening_hours": "24/7"
      }
    },
    {
      "type": "Feature",
      "geometry": {
        "type": "Point",
        "coordinates": [
          23.0861395,
          42.0086011
        ]
      },
      "properties": {
        "id": 10069024815,
        "osm_type": "node",
        "name": "Круиз",
        "brand": "Круиз"
      }
    },
    {
      "type": "Feature",
      "geometry": {
        "type": "Point",
        "coordinates": [
          23.2098078,
          41.4072797
        ]
      },
      "properties": {
        "id": 10267722764,
        "osm_type": "node",
        "name": "OMV",
        "brand": "OMV",
        "opening_hours": "24/7"
      }
    },
    {
      "type": "Feature",
      "geometry": {
        "type": "Point",
        "coordinates": [
          23.2575277,
          41.5580519
        ]
      },
      "properties": {
        "id": 10671428715,
        "osm_type": "node",
        "name": "Круиз",
        "brand": "Круиз"
      }
    },
    {
      "type": "Feature",
      "geometry": {
        "type": "Point",
        "coordinates": [
          22.9419801,
          41.9929914
        ]
      },
      "properties": {
        "id": 10790546405,
        "osm_type": "node",
        "name": "Торино"
      }
    },
    {
      "type": "Feature",
      "geometry": {
        "type": "Point",
        "coordinates": [
          23.1444244,
          41.3976043
        ]
      },
      "properties": {
        "id": 10815222898,
        "osm_type": "node"
      }
    },
    {
      "type": "Feature",
      "geometry": {
        "type": "Point",
        "coordinates": [
          23.1601348,
          41.8131685
        ]
      },
      "properties": {
        "id": 11061484784,
        "osm_type": "node",
        "name": "Karelia"
      }
    },
    {
      "type": "Feature",
      "geometry": {
        "type": "Point",
        "coordinates": [
          23.1159598,
          41.8975626
        ]
      },
      "properties": {
        "id": 11171722040,
        "osm_type": "node",
        "name": "Петрол",
        "brand": "Петрол"
      }
    },
    {
      "type": "Feature",
      "geometry": {
        "type": "Point",
        "coordinates": [
          23.0833518,
          42.0061608
        ]
      },
      "properties": {
        "id": 11221890130,
        "osm_type": "node",
        "name": "Лукойл",
        "brand": "Лукойл",
        "opening_hours": "24/7"
      }
    },
    {
      "type": "Feature",
      "geometry": {
        "type": "Point",
        "coordinates": [
          23.4801999,
          41.8873228
        ]
      },
      "properties": {
        "id": 11222039497,
        "osm_type": "node",
        "name": "Лукойл",
        "brand": "Лукойл",
        "opening_hours": "24/7"
      }
    },
    {
      "type": "Feature",
      "geometry": {
        "type": "Point",
        "coordinates": [
          23.7371089,
          41.6205995
        ]
      },
      "properties": {
        "id": 11222052421,
        "osm_type": "node",
        "name": "Лукойл",
        "brand": "Лукойл",
        "opening_hours": "24/7"
      }
    },
    {
      "type": "Feature",
      "geometry": {
        "type": "Point",
        "coordinates": [
          23.4843329,
          41.844736
        ]
      },
      "properties": {
        "id": 11250501177,
        "osm_type": "node",
        "name": "Лукойл",
        "brand": "Лукойл",
        "opening_hours": "24/7"
      }
    },
    {
      "type": "Feature",
      "geometry": {
        "type": "Point",
        "coordinates": [
          23.4855692,
          41.844403
        ]
      },
      "properties": {
        "id": 11250501178,
        "osm_type": "node",
        "name": "ЕКО",
        "brand": "EKO"
      }
    },
    {
      "type": "Feature",
      "geometry": {
        "type": "Point",
        "coordinates": [
          23.0796195,
          42.0174627
        ]
      },
      "properties": {
        "id": 11733915482,
        "osm_type": "node",
        "name": "Петрол",
        "brand": "Петрол",
        "opening_hours": "24/7"
      }
    },
    {
      "type": "Feature",
      "geometry": {
        "type": "Point",
        "coordinates": [
          23.0595075,
          41.9972246
        ]
      },
      "properties": {
        "id": 12150989298,
        "osm_type": "node",
        "name": "Пирин Ойл"
      }
    },
    {
      "type": "Feature",
      "geometry": {
        "type": "Point",
        "coordinates": [
          23.1139662,
          41.8935091
        ]
      },
      "properties": {
        "id": 12581992984,
        "osm_type": "node",
        "name": "Киви",
        "brand": "Киви"
      }
    },
    {
      "type": "Feature",
      "geometry": {
        "type": "Point",
        "coordinates": [
          24.0253984,
          41.5938063
        ]
      },
      "properties": {
        "id": 12903378782,
        "osm_type": "node",
        "name": "Visil"
      }
    },
    {
      "type": "Feature",
      "geometry": {
        "type": "Point",
        "coordinates": [
          23.9893931,
          41.6154795
        ]
      },
      "properties": {
        "id": 13505338004,
        "osm_type": "node",
        "name": "Киби Ексим"
      }
    },
    {
      "type": "Feature",
      "geometry": {
        "type": "Point",
        "coordinates": [
          23.9971225,
          41.5330638
        ]
      },
      "properties": {
        "id": 13505338005,
        "osm_type": "node",
        "name": "AMG Oil"
      }
    },
    {
      "type": "Feature",
      "geometry": {
        "type": "Point",
        "coordinates": [
          24.0420475,
          41.4995762
        ]
      },
      "properties": {
        "id": 13505338006,
        "osm_type": "node",
        "name": "Tuhovishta Gas Station"
      }
    },
    {
      "type": "Feature",
      "geometry": {
        "type": "Point",
        "coordinates": [
          23.7836182,
          41.6973325
        ]
      },
      "properties": {
        "id": 13505472548,
        "osm_type": "node",
        "name": "Universal"
      }
    },
    {
      "type": "Feature",
      "geometry": {
        "type": "Point",
        "coordinates": [
          23.3617194,
          41.3840788
        ]
      },
      "properties": {
        "id": 203928129,
        "osm_type": "way",
        "name": "Петрол",
        "brand": "Петрол"
      }
    },
    {
      "type": "Feature",
      "geometry": {
        "type": "Point",
        "coordinates": [
          23.4719972,
          41.8818101
        ]
      },
      "properties": {
        "id": 277401069,
        "osm_type": "way",
        "name": "Петрол",
        "brand": "Петрол"
      }
    },
    {
      "type": "Feature",
      "geometry": {
        "type": "Point",
        "coordinates": [
          23.1557613,
          41.8880251
        ]
      },
      "properties": {
        "id": 822294132,
        "osm_type": "way"
      }
    },
    {
      "type": "Feature",
      "geometry": {
        "type": "Point",
        "coordinates": [
          23.2619757,
          41.5451668
        ]
      },
      "properties": {
        "id": 882388605,
        "osm_type": "way",
        "name": "Круиз",
        "brand": "Круиз"
      }
    },
    {
      "type": "Feature",
      "geometry": {
        "type": "Point",
        "coordinates": [
          23.0572808,
          42.0301492
        ]
      },
      "properties": {
        "id": 904459287,
        "osm_type": "way",
        "name": "OMV",
        "brand": "OMV",
        "opening_hours": "24/7"
      }
    },
    {
      "type": "Feature",
      "geometry": {
        "type": "Point",
        "coordinates": [
          23.0833669,
          42.0150335
        ]
      },
      "properties": {
        "id": 909318282,
        "osm_type": "way",
        "name": "EKO",
        "brand": "EKO"
      }
    },
    {
      "type": "Feature",
      "geometry": {
        "type": "Point",
        "coordinates": [
          23.2683123,
          41.5484481
        ]
      },
      "properties": {
        "id": 1046578703,
        "osm_type": "way",
        "name": "Лукойл",
        "brand": "Лукойл"
      }
    },
    {
      "type": "Feature",
      "geometry": {
        "type": "Point",
        "coordinates": [
          23.1403451,
          41.3987143
        ]
      },
      "properties": {
        "id": 1062392827,
        "osm_type": "way",
        "name": "Бензиностанция Сторос"
      }
    },
    {
      "type": "Feature",
      "geometry": {
        "type": "Point",
        "coordinates": [
          23.4554248,
          41.9159359
        ]
      },
      "properties": {
        "id": 1136947139,
        "osm_type": "way"
      }
    },
    {
      "type": "Feature",
      "geometry": {
        "type": "Point",
        "coordinates": [
          23.512875,
          41.9283968
        ]
      },
      "properties": {
        "id": 1137202880,
        "osm_type": "way"
      }
    },
    {
      "type": "Feature",
      "geometry": {
        "type": "Point",
        "coordinates": [
          23.227377,
          41.452958
        ]
      },
      "properties": {
        "id": 1146029115,
        "osm_type": "way"
      }
    },
    {
      "type": "Feature",
      "geometry": {
        "type": "Point",
        "coordinates": [
          23.229087,
          41.4542525
        ]
      },
      "properties": {
        "id": 1146029231,
        "osm_type": "way"
      }
    },
    {
      "type": "Feature",
      "geometry": {
        "type": "Point",
        "coordinates": [
          23.8287701,
          41.5673119
        ]
      },
      "properties": {
        "id": 1146653628,
        "osm_type": "way",
        "name": "Петрол",
        "brand": "Петрол"
      }
    },
    {
      "type": "Feature",
      "geometry": {
        "type": "Point",
        "coordinates": [
          23.8191415,
          41.5688329
        ]
      },
      "properties": {
        "id": 1146661268,
        "osm_type": "way",
        "name": "B-trend"
      }
    },
    {
      "type": "Feature",
      "geometry": {
        "type": "Point",
        "coordinates": [
          23.2009065,
          41.6356368
        ]
      },
      "properties": {
        "id": 1160000426,
        "osm_type": "way",
        "name": "Kareliya Oil"
      }
    },
    {
      "type": "Feature",
      "geometry": {
        "type": "Point",
        "coordinates": [
          23.9324637,
          41.5413893
        ]
      },
      "properties": {
        "id": 1167804642,
        "osm_type": "way",
        "name": "Green Oil"
      }
    },
    {
      "type": "Feature",
      "geometry": {
        "type": "Point",
        "coordinates": [
          24.0320145,
          41.5867459
        ]
      },
      "properties": {
        "id": 1395482485,
        "osm_type": "way",
        "name": "VS Oil"
      }
    },
    {
      "type": "Feature",
      "geometry": {
        "type": "Point",
        "coordinates": [
          23.9230369,
          41.5476041
        ]
      },
      "properties": {
        "id": 1471820294,
        "osm_type": "way",
        "name": "SAE"
      }
    },
    {
      "type": "Feature",
      "geometry": {
        "type": "Point",
        "coordinates": [
          23.8332137,
          41.566231
        ]
      },
      "properties": {
        "id": 1471820295,
        "osm_type": "way",
        "name": "Octan"
      }
    },
    {
      "type": "Feature",
      "geometry": {
        "type": "Point",
        "coordinates": [
          23.7961675,
          41.6023218
        ]
      },
      "properties": {
        "id": 1471820296,
        "osm_type": "way",
        "name": "Uno Oil"
      }
    }
  ]
}