{
  "type": "FeatureCollection",
  "features": [
    {
      "type": "Feature",
      "geometry": {
        "type": "Point",
        "coordinates": [
          30.0085476,
          40.5700055
        ]
      },
      "properties": {
        "id": 694162181,
        "osm_type": "node"
      }
    },
    {
      "type": "Feature",
      "geometry": {
        "type": "Point",
        "coordinates": [
          29.8247265,
          40.81433
        ]
      },
      "properties": {
        "id": 938248061,
        "osm_type": "node"
      }
    },
    {
      "type": "Feature",
      "geometry": {
        "type": "Point",
        "coordinates": [
          29.8082763,
          40.808444
        ]
      },
      "properties": {
        "id": 938248079,
        "osm_type": "node"
      }
    },
    {
      "type": "Feature",
      "geometry": {
        "type": "Point",
        "coordinates": [
          30.2202249,
          40.7302385
        ]
      },
      "properties": {
        "id": 5183414641,
        "osm_type": "node"
      }
    },
    {
      "type": "Feature",
      "geometry": {
        "type": "Point",
        "coordinates": [
          29.5316629,
          40.5913155
        ]
      },
      "properties": {
        "id": 5851418185,
        "osm_type": "node"
      }
    },
    {
      "type": "Feature",
      "geometry": {
        "type": "Point",
        "coordinates": [
          29.5311135,
          40.5898395
        ]
      },
      "properties": {
        "id": 5851418186,
        "osm_type": "node"
      }
    },
    {
      "type": "Feature",
      "geometry": {
        "type": "Point",
        "coordinates": [
          29.5268261,
          40.5753229
        ]
      },
      "properties": {
        "id": 5851418187,
        "osm_type": "node"
      }
    },
    {
      "type": "Feature",
      "geometry": {
        "type": "Point",
        "coordinates": [
          29.5280997,
          40.5794387
        ]
      },
      "properties": {
        "id": 5851418285,
        "osm_type": "node"
      }
    },
    {
      "type": "Feature",
      "geometry": {
        "type": "Point",
        "coordinates": [
          29.5200886,
          40.5641222
        ]
      },
      "properties": {
        "id": 5851480786,
        "osm_type": "node"
      }
    },
    {
      "type": "Feature",
      "geometry": {
        "type": "Point",
        "coordinates": [
          29.5242383,
          40.5475805
        ]
      },
      "properties": {
        "id": 5851488585,
        "osm_type": "node"
      }
    },
    {
      "type": "Feature",
      "geometry": {
        "type": "Point",
        "coordinates": [
          29.5326762,
          40.544281
        ]
      },
      "properties": {
        "id": 5851529085,
        "osm_type": "node"
      }
    },
    {
      "type": "Feature",
      "geometry": {
        "type": "Point",
        "coordinates": [
          29.5404362,
          40.5401565
        ]
      },
      "properties": {
        "id": 5851529086,
        "osm_type": "node"
      }
    },
    {
      "type": "Feature",
      "geometry": {
        "type": "Point",
        "coordinates": [
          29.9194895,
          40.7630747
        ]
      },
      "properties": {
        "id": 6336142598,
        "osm_type": "node",
        "name": "Çeşme"
      }
    },
    {
      "type": "Feature",
      "geometry": {
        "type": "Point",
        "coordinates": [
          29.7905757,
          40.7218218
        ]
      },
      "properties": {
        "id": 6654780065,
        "osm_type": "node"
      }
    },
    {
      "type": "Feature",
      "geometry": {
        "type": "Point",
        "coordinates": [
          30.0482458,
          41.1333326
        ]
      },
      "properties": {
        "id": 7074095529,
        "osm_type": "node"
      }
    },
    {
      "type": "Feature",
      "geometry": {
        "type": "Point",
        "coordinates": [
          29.6241617,
          40.6957698
        ]
      },
      "properties": {
        "id": 7074125547,
        "osm_type": "node"
      }
    },
    {
      "type": "Feature",
      "geometry": {
        "type": "Point",
        "coordinates": [
          29.786776,
          40.7218077
        ]
      },
      "properties": {
        "id": 8568304079,
        "osm_type": "node"
      }
    },
    {
      "type": "Feature",
      "geometry": {
        "type": "Point",
        "coordinates": [
          29.7845399,
          40.7219833
        ]
      },
      "properties": {
        "id": 8568304080,
        "osm_type": "node"
      }
    },
    {
      "type": "Feature",
      "geometry": {
        "type": "Point",
        "coordinates": [
          30.1701215,
          40.7355193
        ]
      },
      "properties": {
        "id": 8598932296,
        "osm_type": "node"
      }
    },
    {
      "type": "Feature",
      "geometry": {
        "type": "Point",
        "coordinates": [
          30.162053,
          40.7380398
        ]
      },
      "properties": {
        "id": 8599038607,
        "osm_type": "node"
      }
    },
    {
      "type": "Feature",
      "geometry": {
        "type": "Point",
        "coordinates": [
          30.1626136,
          40.7351356
        ]
      },
      "properties": {
        "id": 8599086015,
        "osm_type": "node"
      }
    },
    {
      "type": "Feature",
      "geometry": {
        "type": "Point",
        "coordinates": [
          30.1618344,
          40.7350175
        ]
      },
      "properties": {
        "id": 8599137835,
        "osm_type": "node"
      }
    },
    {
      "type": "Feature",
      "geometry": {
        "type": "Point",
        "coordinates": [
          29.9456284,
          40.7652329
        ]
      },
      "properties": {
        "id": 9456184521,
        "osm_type": "node"
      }
    },
    {
      "type": "Feature",
      "geometry": {
        "type": "Point",
        "coordinates": [
          29.9291409,
          41.0638151
        ]
      },
      "properties": {
        "id": 9700988872,
        "osm_type": "node"
      }
    },
    {
      "type": "Feature",
      "geometry": {
        "type": "Point",
        "coordinates": [
          30.0085793,
          41.0559525
        ]
      },
      "properties": {
        "id": 9701020529,
        "osm_type": "node"
      }
    },
    {
      "type": "Feature",
      "geometry": {
        "type": "Point",
        "coordinates": [
          29.9659517,
          41.0524099
        ]
      },
      "properties": {
        "id": 9701026048,
        "osm_type": "node"
      }
    },
    {
      "type": "Feature",
      "geometry": {
        "type": "Point",
        "coordinates": [
          29.9673511,
          41.0521937
        ]
      },
      "properties": {
        "id": 9701036407,
        "osm_type": "node"
      }
    },
    {
      "type": "Feature",
      "geometry": {
        "type": "Point",
        "coordinates": [
          30.0022577,
          41.0568833
        ]
      },
      "properties": {
        "id": 9701038978,
        "osm_type": "node"
      }
    },
    {
      "type": "Feature",
      "geometry": {
        "type": "Point",
        "coordinates": [
          29.9352069,
          40.9665134
        ]
      },
      "properties": {
        "id": 9718403563,
        "osm_type": "node",
        "access": "yes",
        "fee": "no"
      }
    },
    {
      "type": "Feature",
      "geometry": {
        "type": "Point",
        "coordinates": [
          29.9548419,
          40.981633
        ]
      },
      "properties": {
        "id": 9718406216,
        "osm_type": "node",
        "access": "yes",
        "fee": "no"
      }
    },
    {
      "type": "Feature",
      "geometry": {
        "type": "Point",
        "coordinates": [
          29.8926565,
          40.7590583
        ]
      },
      "properties": {
        "id": 10012349865,
        "osm_type": "node"
      }
    },
    {
      "type": "Feature",
      "geometry": {
        "type": "Point",
        "coordinates": [
          29.8035598,
          40.7489668
        ]
      },
      "properties": {
        "id": 10752286426,
        "osm_type": "node"
      }
    },
    {
      "type": "Feature",
      "geometry": {
        "type": "Point",
        "coordinates": [
          29.9207811,
          40.6690172
        ]
      },
      "properties": {
        "id": 11019575205,
        "osm_type": "node"
      }
    },
    {
      "type": "Feature",
      "geometry": {
        "type": "Point",
        "coordinates": [
          29.9301446,
          40.6497129
        ]
      },
      "properties": {
        "id": 11019575505,
        "osm_type": "node"
      }
    },
    {
      "type": "Feature",
      "geometry": {
        "type": "Point",
        "coordinates": [
          29.880706,
          40.6007149
        ]
      },
      "properties": {
        "id": 11019575605,
        "osm_type": "node"
      }
    },
    {
      "type": "Feature",
      "geometry": {
        "type": "Point",
        "coordinates": [
          29.9061376,
          40.5845124
        ]
      },
      "properties": {
        "id": 11019575606,
        "osm_type": "node"
      }
    },
    {
      "type": "Feature",
      "geometry": {
        "type": "Point",
        "coordinates": [
          29.6000834,
          40.569286
        ]
      },
      "properties": {
        "id": 11162385205,
        "osm_type": "node",
        "name": "Česma"
      }
    },
    {
      "type": "Feature",
      "geometry": {
        "type": "Point",
        "coordinates": [
          29.5138436,
          40.8934394
        ]
      },
      "properties": {
        "id": 11245578259,
        "osm_type": "node",
        "name": "Çeşme"
      }
    }
  ]
}