{
  "type": "FeatureCollection",
  "features": [
    {
      "type": "Feature",
      "geometry": {
        "type": "Point",
        "coordinates": [
          27.1441017,
          43.3100432
        ]
      },
      "properties": {
        "id": 1365790118,
        "osm_type": "node",
        "name": "Ресторант Карачката",
        "cuisine": "regional"
      }
    },
    {
      "type": "Feature",
      "geometry": {
        "type": "Point",
        "coordinates": [
          26.9391429,
          43.2721534
        ]
      },
      "properties": {
        "id": 1695302846,
        "osm_type": "node",
        "name": "Miki"
      }
    },
    {
      "type": "Feature",
      "geometry": {
        "type": "Point",
        "coordinates": [
          26.813669,
          43.1408283
        ]
      },
      "properties": {
        "id": 2386058266,
        "osm_type": "node",
        "name": "Златна Рибка"
      }
    },
    {
      "type": "Feature",
      "geometry": {
        "type": "Point",
        "coordinates": [
          26.9227503,
          43.2672279
        ]
      },
      "properties": {
        "id": 2907336487,
        "osm_type": "node",
        "name": "Механа Чифлика"
      }
    },
    {
      "type": "Feature",
      "geometry": {
        "type": "Point",
        "coordinates": [
          26.9518699,
          43.2766946
        ]
      },
      "properties": {
        "id": 2907337281,
        "osm_type": "node",
        "name": "Гостилница Чарли"
      }
    },
    {
      "type": "Feature",
      "geometry": {
        "type": "Point",
        "coordinates": [
          26.929973,
          43.2736222
        ]
      },
      "properties": {
        "id": 2907347124,
        "osm_type": "node",
        "name": "Манастира",
        "opening_hours": "Mo-Su 10:00-24:00",
        "phone": "+359 89 791 5020",
        "cuisine": "regional;international",
        "outdoor_seating": "yes"
      }
    },
    {
      "type": "Feature",
      "geometry": {
        "type": "Point",
        "coordinates": [
          27.1165607,
          43.2771307
        ]
      },
      "properties": {
        "id": 3837612521,
        "osm_type": "node",
        "name": "при бай живко"
      }
    },
    {
      "type": "Feature",
      "geometry": {
        "type": "Point",
        "coordinates": [
          27.1159623,
          43.2777996
        ]
      },
      "properties": {
        "id": 4354949593,
        "osm_type": "node",
        "name": "madarski konnik",
        "cuisine": "local"
      }
    },
    {
      "type": "Feature",
      "geometry": {
        "type": "Point",
        "coordinates": [
          26.7853214,
          43.0897891
        ]
      },
      "properties": {
        "id": 4986286622,
        "osm_type": "node",
        "name": "Русалка",
        "check_date": "2026-01-02"
      }
    },
    {
      "type": "Feature",
      "geometry": {
        "type": "Point",
        "coordinates": [
          26.9186282,
          43.2725271
        ]
      },
      "properties": {
        "id": 6637998383,
        "osm_type": "node",
        "name": "Виенска Градина",
        "opening_hours": "Mo-Su 09:00-23:00",
        "phone": "+359 89 012 1333",
        "website": "https://vienska-gradina.com/",
        "cuisine": "pizza;italian;seafood;barbeque;regional;chicken",
        "outdoor_seating": "yes",
        "takeaway": "yes"
      }
    },
    {
      "type": "Feature",
      "geometry": {
        "type": "Point",
        "coordinates": [
          26.9300923,
          43.2729963
        ]
      },
      "properties": {
        "id": 6644490340,
        "osm_type": "node",
        "name": "Сол и Пипер",
        "opening_hours": "Mo-Sa 12:00-23:00",
        "phone": "+359 89 887 8631",
        "cuisine": "regional;international",
        "outdoor_seating": "yes",
        "takeaway": "yes"
      }
    },
    {
      "type": "Feature",
      "geometry": {
        "type": "Point",
        "coordinates": [
          26.9210923,
          43.27663
        ]
      },
      "properties": {
        "id": 6644515012,
        "osm_type": "node",
        "name": "Руше",
        "opening_hours": "Mo-Su 08:30-18:30",
        "cuisine": "regional",
        "outdoor_seating": "no",
        "takeaway": "yes"
      }
    },
    {
      "type": "Feature",
      "geometry": {
        "type": "Point",
        "coordinates": [
          26.9214188,
          43.2731092
        ]
      },
      "properties": {
        "id": 6650191367,
        "osm_type": "node",
        "name": "Шуменъ",
        "opening_hours": "Mo-Fr 10:00-23:00; Sa 15:00-23:00",
        "phone": "+359 88 241 4222",
        "cuisine": "regional",
        "outdoor_seating": "yes"
      }
    },
    {
      "type": "Feature",
      "geometry": {
        "type": "Point",
        "coordinates": [
          26.925537,
          43.2734827
        ]
      },
      "properties": {
        "id": 7362957252,
        "osm_type": "node",
        "name": "Снежанка",
        "phone": "+359 98 871 6421",
        "website": "https://www.facebook.com/profile.php?id=100062319074234",
        "cuisine": "pizza;grill",
        "outdoor_seating": "no"
      }
    },
    {
      "type": "Feature",
      "geometry": {
        "type": "Point",
        "coordinates": [
          26.9277614,
          43.2712481
        ]
      },
      "properties": {
        "id": 7362957268,
        "osm_type": "node",
        "name": "Otto Pizza Napoletana",
        "opening_hours": "Mo-Sa 11:30-22:30",
        "phone": "+359890138080",
        "cuisine": "italian;pasta;pizza",
        "outdoor_seating": "yes"
      }
    },
    {
      "type": "Feature",
      "geometry": {
        "type": "Point",
        "coordinates": [
          26.9361579,
          43.2672731
        ]
      },
      "properties": {
        "id": 7362978159,
        "osm_type": "node",
        "name": "Joia Pizza & BBQ",
        "opening_hours": "Mo-Su 09:30-23:00",
        "phone": "+359 89 797 2147",
        "website": "https://www.facebook.com/joia.pizza.bbq/",
        "cuisine": "pizza;italian;barbecue"
      }
    },
    {
      "type": "Feature",
      "geometry": {
        "type": "Point",
        "coordinates": [
          26.9243598,
          43.2700208
        ]
      },
      "properties": {
        "id": 7550879061,
        "osm_type": "node",
        "name": "Общината"
      }
    },
    {
      "type": "Feature",
      "geometry": {
        "type": "Point",
        "coordinates": [
          26.651258,
          42.9561371
        ]
      },
      "properties": {
        "id": 7656469791,
        "osm_type": "node",
        "name": "Бистро Бабой",
        "cuisine": "regional"
      }
    },
    {
      "type": "Feature",
      "geometry": {
        "type": "Point",
        "coordinates": [
          26.8953986,
          43.2667796
        ]
      },
      "properties": {
        "id": 7783567385,
        "osm_type": "node"
      }
    },
    {
      "type": "Feature",
      "geometry": {
        "type": "Point",
        "coordinates": [
          26.941878,
          43.2702618
        ]
      },
      "properties": {
        "id": 7784248585,
        "osm_type": "node"
      }
    },
    {
      "type": "Feature",
      "geometry": {
        "type": "Point",
        "coordinates": [
          27.0319134,
          42.9833562
        ]
      },
      "properties": {
        "id": 7857152221,
        "osm_type": "node"
      }
    },
    {
      "type": "Feature",
      "geometry": {
        "type": "Point",
        "coordinates": [
          27.0308948,
          43.0763058
        ]
      },
      "properties": {
        "id": 7857156407,
        "osm_type": "node",
        "name": "Хан \"Кабината\""
      }
    },
    {
      "type": "Feature",
      "geometry": {
        "type": "Point",
        "coordinates": [
          26.9178302,
          43.271364
        ]
      },
      "properties": {
        "id": 8074497617,
        "osm_type": "node",
        "name": "Попшейтанова къща",
        "opening_hours": "Mo-Sa 11:00-24:00; Su 11:00-22:00",
        "phone": "+359876802211",
        "cuisine": "local;balkan",
        "outdoor_seating": "yes",
        "takeaway": "yes"
      }
    },
    {
      "type": "Feature",
      "geometry": {
        "type": "Point",
        "coordinates": [
          27.1592488,
          43.3140977
        ]
      },
      "properties": {
        "id": 8938741517,
        "osm_type": "node",
        "name": "kanulera"
      }
    },
    {
      "type": "Feature",
      "geometry": {
        "type": "Point",
        "coordinates": [
          27.1593841,
          43.3141661
        ]
      },
      "properties": {
        "id": 8938766217,
        "osm_type": "node",
        "name": "Механа \"Канцлера\""
      }
    },
    {
      "type": "Feature",
      "geometry": {
        "type": "Point",
        "coordinates": [
          26.9294589,
          43.2677628
        ]
      },
      "properties": {
        "id": 9460727334,
        "osm_type": "node",
        "name": "Green garden",
        "opening_hours": "Mo-Su 15:00-23:00"
      }
    },
    {
      "type": "Feature",
      "geometry": {
        "type": "Point",
        "coordinates": [
          26.9549078,
          43.2743414
        ]
      },
      "properties": {
        "id": 10212419605,
        "osm_type": "node",
        "name": "Алиса"
      }
    },
    {
      "type": "Feature",
      "geometry": {
        "type": "Point",
        "coordinates": [
          27.2011806,
          43.3399165
        ]
      },
      "properties": {
        "id": 10979803195,
        "osm_type": "node",
        "name": "пиле на грил"
      }
    },
    {
      "type": "Feature",
      "geometry": {
        "type": "Point",
        "coordinates": [
          26.9287095,
          43.2713047
        ]
      },
      "properties": {
        "id": 11147816096,
        "osm_type": "node"
      }
    },
    {
      "type": "Feature",
      "geometry": {
        "type": "Point",
        "coordinates": [
          26.9325315,
          43.2740499
        ]
      },
      "properties": {
        "id": 11151314998,
        "osm_type": "node",
        "name": "Примо Бар и Грил",
        "opening_hours": "Mo-Su 09:00-23:00",
        "phone": "+359 89 795 0162",
        "cuisine": "pizza;mediterranean;italian;grill;barbecue",
        "outdoor_seating": "yes"
      }
    },
    {
      "type": "Feature",
      "geometry": {
        "type": "Point",
        "coordinates": [
          26.9376477,
          43.2760114
        ]
      },
      "properties": {
        "id": 11212318020,
        "osm_type": "node",
        "name": "PM Grill & Pizza",
        "cuisine": "pizza;barbecue"
      }
    },
    {
      "type": "Feature",
      "geometry": {
        "type": "Point",
        "coordinates": [
          26.9275905,
          43.2687931
        ]
      },
      "properties": {
        "id": 11243847886,
        "osm_type": "node"
      }
    },
    {
      "type": "Feature",
      "geometry": {
        "type": "Point",
        "coordinates": [
          26.9562813,
          43.2720873
        ]
      },
      "properties": {
        "id": 11275621273,
        "osm_type": "node"
      }
    },
    {
      "type": "Feature",
      "geometry": {
        "type": "Point",
        "coordinates": [
          26.9455256,
          43.2674362
        ]
      },
      "properties": {
        "id": 11291564327,
        "osm_type": "node"
      }
    },
    {
      "type": "Feature",
      "geometry": {
        "type": "Point",
        "coordinates": [
          26.9250259,
          43.2725235
        ]
      },
      "properties": {
        "id": 11364822992,
        "osm_type": "node",
        "name": "Хуа Синг Лоу",
        "opening_hours": "Mo-Sa 10:00-22:00",
        "phone": "+359887288888",
        "cuisine": "chinese;asian",
        "takeaway": "yes"
      }
    },
    {
      "type": "Feature",
      "geometry": {
        "type": "Point",
        "coordinates": [
          26.9323474,
          43.2620038
        ]
      },
      "properties": {
        "id": 12000992176,
        "osm_type": "node",
        "name": "L'Olivo Bar & Dinner"
      }
    },
    {
      "type": "Feature",
      "geometry": {
        "type": "Point",
        "coordinates": [
          26.9322881,
          43.2738053
        ]
      },
      "properties": {
        "id": 12814743212,
        "osm_type": "node",
        "name": "AURA Pizza & Grill",
        "cuisine": "pizza;italian;turkish"
      }
    },
    {
      "type": "Feature",
      "geometry": {
        "type": "Point",
        "coordinates": [
          26.9354399,
          43.3065366
        ]
      },
      "properties": {
        "id": 13305086045,
        "osm_type": "node",
        "name": "The Way (5ти километър)"
      }
    },
    {
      "type": "Feature",
      "geometry": {
        "type": "Point",
        "coordinates": [
          26.9272184,
          43.2793935
        ]
      },
      "properties": {
        "id": 13390348248,
        "osm_type": "node",
        "name": "Casa La Mamma Pizza Italiana",
        "opening_hours": "Mo-Su 09:30-23:00",
        "phone": "+359895940933",
        "cuisine": "italian",
        "takeaway": "yes"
      }
    },
    {
      "type": "Feature",
      "geometry": {
        "type": "Point",
        "coordinates": [
          26.9591162,
          43.277546
        ]
      },
      "properties": {
        "id": 13720340031,
        "osm_type": "node",
        "name": "Lino",
        "cuisine": "pizza"
      }
    },
    {
      "type": "Feature",
      "geometry": {
        "type": "Point",
        "coordinates": [
          26.9365322,
          43.2719142
        ]
      },
      "properties": {
        "id": 13720352506,
        "osm_type": "node",
        "name": "Tokyo",
        "cuisine": "sushi"
      }
    },
    {
      "type": "Feature",
      "geometry": {
        "type": "Point",
        "coordinates": [
          26.9387821,
          43.2721337
        ]
      },
      "properties": {
        "id": 13720363096,
        "osm_type": "node",
        "name": "Casino",
        "cuisine": "italian"
      }
    },
    {
      "type": "Feature",
      "geometry": {
        "type": "Point",
        "coordinates": [
          26.9174448,
          43.343194
        ]
      },
      "properties": {
        "id": 252703693,
        "osm_type": "way"
      }
    },
    {
      "type": "Feature",
      "geometry": {
        "type": "Point",
        "coordinates": [
          26.8079096,
          43.1631786
        ]
      },
      "properties": {
        "id": 260748906,
        "osm_type": "way",
        "name": "Оазис",
        "cuisine": "bulgarian",
        "outdoor_seating": "yes"
      }
    },
    {
      "type": "Feature",
      "geometry": {
        "type": "Point",
        "coordinates": [
          26.8883955,
          43.2612612
        ]
      },
      "properties": {
        "id": 444299329,
        "osm_type": "way",
        "name": "Комплекс Шуменско Плато - Стъклото",
        "phone": "+359 88 788 6499;+359 88 855 0226",
        "website": "https://www.facebook.com/%D0%9A%D0%BE%D0%BC%D0%BF%D0%BB%D0%B5%D0%BA%D1%81-%D0%A8%D1%83%D0%BC%D0%B5%D0%BD%D1%81%D0%BA%D0%BE-%D0%BF%D0%BB%D0%B0%D1%82%D0%BE-%D0%A1%D1%82%D1%8A%D0%BA%D0%BB%D0%BE%D1%82%D0%BE-180045572190961/"
      }
    },
    {
      "type": "Feature",
      "geometry": {
        "type": "Point",
        "coordinates": [
          26.8106558,
          43.1533776
        ]
      },
      "properties": {
        "id": 496255548,
        "osm_type": "way",
        "name": "Panorama",
        "cuisine": "bulgarian",
        "outdoor_seating": "yes"
      }
    },
    {
      "type": "Feature",
      "geometry": {
        "type": "Point",
        "coordinates": [
          26.9298831,
          43.2715407
        ]
      },
      "properties": {
        "id": 539213630,
        "osm_type": "way",
        "name": "Пекин",
        "opening_hours": "Mo-Su 11:30-23:30",
        "phone": "+359 54 832 011",
        "cuisine": "chinese",
        "outdoor_seating": "yes",
        "takeaway": "yes"
      }
    },
    {
      "type": "Feature",
      "geometry": {
        "type": "Point",
        "coordinates": [
          26.923978,
          43.2728236
        ]
      },
      "properties": {
        "id": 714460751,
        "osm_type": "way",
        "name": "The Joyful Bar & Dinner",
        "opening_hours": "Mo-Su 10:00-23:00",
        "phone": "+359 88 555 2500",
        "cuisine": "regional",
        "outdoor_seating": "yes"
      }
    },
    {
      "type": "Feature",
      "geometry": {
        "type": "Point",
        "coordinates": [
          27.1167967,
          43.2756856
        ]
      },
      "properties": {
        "id": 813727093,
        "osm_type": "way"
      }
    }
  ]
}