{
  "type": "FeatureCollection",
  "features": [
    {
      "type": "Feature",
      "geometry": {
        "type": "Point",
        "coordinates": [
          9.8744968,
          59.1270656
        ]
      },
      "properties": {
        "id": 5745188569,
        "osm_type": "node",
        "vending": "drinks",
        "operator": "Larvik Modellflyklubb"
      }
    },
    {
      "type": "Feature",
      "geometry": {
        "type": "Point",
        "coordinates": [
          10.0490748,
          59.0489844
        ]
      },
      "properties": {
        "id": 9708880951,
        "osm_type": "node",
        "vending": "drinks"
      }
    },
    {
      "type": "Feature",
      "geometry": {
        "type": "Point",
        "coordinates": [
          10.0304239,
          59.0503963
        ]
      },
      "properties": {
        "id": 9708880953,
        "osm_type": "node",
        "vending": "drinks"
      }
    },
    {
      "type": "Feature",
      "geometry": {
        "type": "Point",
        "coordinates": [
          10.0470782,
          59.0406172
        ]
      },
      "properties": {
        "id": 13589433492,
        "osm_type": "node",
        "vending": "coffee"
      }
    },
    {
      "type": "Feature",
      "geometry": {
        "type": "Point",
        "coordinates": [
          10.0471442,
          59.0406042
        ]
      },
      "properties": {
        "id": 13589433495,
        "osm_type": "node",
        "vending": "drinks;sweets",
        "operator": "Juno larvik"
      }
    }
  ]
}