{
  "type": "FeatureCollection",
  "features": [
    {
      "type": "Feature",
      "geometry": {
        "type": "Point",
        "coordinates": [
          14.2240361,
          57.7797648
        ]
      },
      "properties": {
        "id": 1205925029,
        "osm_type": "node",
        "name": "Burger King",
        "brand": "Burger King",
        "operator": "Burger King",
        "brand:wikidata": "Q177054",
        "chain": "burger_king"
      }
    },
    {
      "type": "Feature",
      "geometry": {
        "type": "Point",
        "coordinates": [
          14.172609,
          57.7801238
        ]
      },
      "properties": {
        "id": 5768986684,
        "osm_type": "node",
        "name": "Burger King",
        "brand": "Burger King",
        "brand:wikidata": "Q177054",
        "chain": "burger_king"
      }
    },
    {
      "type": "Feature",
      "geometry": {
        "type": "Point",
        "coordinates": [
          14.1550804,
          57.6909813
        ]
      },
      "properties": {
        "id": 10985062872,
        "osm_type": "node",
        "name": "McDonald's",
        "brand": "McDonald's",
        "brand:wikidata": "Q38076",
        "chain": "mcdonalds"
      }
    },
    {
      "type": "Feature",
      "geometry": {
        "type": "Point",
        "coordinates": [
          14.1985388,
          57.7728884
        ]
      },
      "properties": {
        "id": 114435352,
        "osm_type": "way",
        "name": "McDonald's",
        "brand": "McDonald's",
        "brand:wikidata": "Q38076",
        "chain": "mcdonalds"
      }
    },
    {
      "type": "Feature",
      "geometry": {
        "type": "Point",
        "coordinates": [
          14.1507907,
          57.7620867
        ]
      },
      "properties": {
        "id": 134327735,
        "osm_type": "way",
        "name": "McDonald's",
        "brand": "McDonald's",
        "brand:wikidata": "Q38076",
        "chain": "mcdonalds"
      }
    },
    {
      "type": "Feature",
      "geometry": {
        "type": "Point",
        "coordinates": [
          14.0736405,
          57.1636264
        ]
      },
      "properties": {
        "id": 157961447,
        "osm_type": "way",
        "name": "Burger King",
        "brand": "Burger King",
        "opening_hours": "Mo-Su 10:00-22:00",
        "operator": "Burger King",
        "brand:wikidata": "Q177054",
        "chain": "burger_king"
      }
    },
    {
      "type": "Feature",
      "geometry": {
        "type": "Point",
        "coordinates": [
          14.0728946,
          57.1626968
        ]
      },
      "properties": {
        "id": 157961450,
        "osm_type": "way",
        "name": "McDonald's",
        "brand": "McDonald's",
        "opening_hours": "24/7",
        "phone": "+46 370-463 10",
        "website": "https://www.mcdonalds.com/se/sv-se/location/103.html",
        "brand:wikidata": "Q38076",
        "chain": "mcdonalds"
      }
    },
    {
      "type": "Feature",
      "geometry": {
        "type": "Point",
        "coordinates": [
          15.0907486,
          57.415769
        ]
      },
      "properties": {
        "id": 249355508,
        "osm_type": "way",
        "name": "McDonald's Vetlanda",
        "brand": "McDonald's",
        "phone": "+46 383 193 21",
        "website": "www.mcdonalds.se",
        "brand:wikidata": "Q38076",
        "chain": "mcdonalds"
      }
    },
    {
      "type": "Feature",
      "geometry": {
        "type": "Point",
        "coordinates": [
          13.5472151,
          57.3218704
        ]
      },
      "properties": {
        "id": 407495217,
        "osm_type": "way",
        "name": "Burger King",
        "brand": "Burger King",
        "website": "https://burgerking.se",
        "operator": "Burger King",
        "brand:wikidata": "Q177054",
        "chain": "burger_king"
      }
    },
    {
      "type": "Feature",
      "geometry": {
        "type": "Point",
        "coordinates": [
          14.9509646,
          57.6478699
        ]
      },
      "properties": {
        "id": 729374623,
        "osm_type": "way",
        "name": "Burger King",
        "brand": "Burger King",
        "brand:wikidata": "Q177054",
        "chain": "burger_king"
      }
    },
    {
      "type": "Feature",
      "geometry": {
        "type": "Point",
        "coordinates": [
          14.959241,
          57.6588842
        ]
      },
      "properties": {
        "id": 1462122163,
        "osm_type": "way",
        "name": "McDonald's",
        "brand": "McDonald's",
        "brand:wikidata": "Q38076",
        "chain": "mcdonalds"
      }
    }
  ]
}