{
  "type": "FeatureCollection",
  "features": [
    {
      "type": "Feature",
      "geometry": {
        "type": "Point",
        "coordinates": [
          15.6346691,
          57.9873841
        ]
      },
      "properties": {
        "id": 255860553,
        "osm_type": "node",
        "name": "Cafe Columbia"
      }
    },
    {
      "type": "Feature",
      "geometry": {
        "type": "Point",
        "coordinates": [
          16.325191,
          58.4819178
        ]
      },
      "properties": {
        "id": 434200843,
        "osm_type": "node",
        "name": "Smultronstället",
        "opening_hours": "Apr 30-May 28: 10:00-18:00; May 29-Jun 24: 10:00-19:00; Jun 25: 10:00-18:00; Jun 26-Aug 15: 10:00-20:00; Aug 16-Aug 29: 10:00-19:00",
        "outdoor_seating": "yes"
      }
    },
    {
      "type": "Feature",
      "geometry": {
        "type": "Point",
        "coordinates": [
          14.8899968,
          58.4481102
        ]
      },
      "properties": {
        "id": 442350040,
        "osm_type": "node",
        "name": "Gamla Konditoriet",
        "opening_hours": "Mo-Fr 09:00-18:00; Sa 09:00-17:00, Su 11:00-17:00",
        "outdoor_seating": "yes"
      }
    },
    {
      "type": "Feature",
      "geometry": {
        "type": "Point",
        "coordinates": [
          15.6018508,
          58.4071477
        ]
      },
      "properties": {
        "id": 449220441,
        "osm_type": "node",
        "name": "Borgs konditori",
        "opening_hours": "Mo-Th 07:00-16:00; Fr 07:00-15:00"
      }
    },
    {
      "type": "Feature",
      "geometry": {
        "type": "Point",
        "coordinates": [
          15.7244118,
          58.3021524
        ]
      },
      "properties": {
        "id": 452055806,
        "osm_type": "node"
      }
    },
    {
      "type": "Feature",
      "geometry": {
        "type": "Point",
        "coordinates": [
          15.6410158,
          58.4071621
        ]
      },
      "properties": {
        "id": 452268581,
        "osm_type": "node",
        "name": "Tannefors Hembageri",
        "opening_hours": "Mo-Fr 07:00-18:00; Sa 08:30-14:00"
      }
    },
    {
      "type": "Feature",
      "geometry": {
        "type": "Point",
        "coordinates": [
          15.5901497,
          58.4058846
        ]
      },
      "properties": {
        "id": 452647525,
        "osm_type": "node",
        "name": "Dahlbergs Café",
        "opening_hours": "Mo-Su 10:00-17:30"
      }
    },
    {
      "type": "Feature",
      "geometry": {
        "type": "Point",
        "coordinates": [
          15.6421198,
          58.3705459
        ]
      },
      "properties": {
        "id": 454637577,
        "osm_type": "node",
        "name": "Café Vidingsjö",
        "opening_hours": "Mo-Th 09:00-18:00; We 10:00-18:00; Fr 09:00-16:00; Sa 11:00-15:00; Su 10:00-16:00"
      }
    },
    {
      "type": "Feature",
      "geometry": {
        "type": "Point",
        "coordinates": [
          16.3268042,
          58.6706063
        ]
      },
      "properties": {
        "id": 483582377,
        "osm_type": "node",
        "name": "Oskarshällsbacken"
      }
    },
    {
      "type": "Feature",
      "geometry": {
        "type": "Point",
        "coordinates": [
          16.042685,
          58.5503599
        ]
      },
      "properties": {
        "id": 496164071,
        "osm_type": "node",
        "name": "Trädgårdscaféet Löfstad Slott"
      }
    },
    {
      "type": "Feature",
      "geometry": {
        "type": "Point",
        "coordinates": [
          15.6060198,
          58.4137107
        ]
      },
      "properties": {
        "id": 564988757,
        "osm_type": "node",
        "name": "Konditori Lanemo",
        "opening_hours": "Mo-Fr 07:00-18:00, Sa 08:00-16:00, Su 09:00-16:00"
      }
    },
    {
      "type": "Feature",
      "geometry": {
        "type": "Point",
        "coordinates": [
          15.6242186,
          58.4099576
        ]
      },
      "properties": {
        "id": 597428759,
        "osm_type": "node",
        "name": "Espresso House",
        "brand": "Espresso House",
        "opening_hours": "Mo-Fr 07:00-21:30; Sa 08:00-21:30; Su 09:00-20:00",
        "takeaway": "yes",
        "outdoor_seating": "yes"
      }
    },
    {
      "type": "Feature",
      "geometry": {
        "type": "Point",
        "coordinates": [
          16.1809281,
          58.664835
        ]
      },
      "properties": {
        "id": 687711277,
        "osm_type": "node",
        "name": "Åby Konditori"
      }
    },
    {
      "type": "Feature",
      "geometry": {
        "type": "Point",
        "coordinates": [
          15.8242891,
          58.9005252
        ]
      },
      "properties": {
        "id": 808622891,
        "osm_type": "node",
        "name": "Maria cafe",
        "opening_hours": "10:00-18:00"
      }
    },
    {
      "type": "Feature",
      "geometry": {
        "type": "Point",
        "coordinates": [
          15.7384734,
          58.2704859
        ]
      },
      "properties": {
        "id": 810371560,
        "osm_type": "node",
        "name": "Slottskaféet"
      }
    },
    {
      "type": "Feature",
      "geometry": {
        "type": "Point",
        "coordinates": [
          16.1219304,
          58.6745036
        ]
      },
      "properties": {
        "id": 813846329,
        "osm_type": "node",
        "name": "Hulta glass",
        "opening_hours": "10:00-18:00"
      }
    },
    {
      "type": "Feature",
      "geometry": {
        "type": "Point",
        "coordinates": [
          15.0858357,
          58.3949472
        ]
      },
      "properties": {
        "id": 847221837,
        "osm_type": "node",
        "name": "Källan Café"
      }
    },
    {
      "type": "Feature",
      "geometry": {
        "type": "Point",
        "coordinates": [
          15.6218791,
          58.4072873
        ]
      },
      "properties": {
        "id": 893405020,
        "osm_type": "node",
        "name": "Tropikhuset",
        "opening_hours": "Mo-Fr 10:00-18:00; Sa,Su 11:00-17:00"
      }
    },
    {
      "type": "Feature",
      "geometry": {
        "type": "Point",
        "coordinates": [
          15.6295099,
          58.4102764
        ]
      },
      "properties": {
        "id": 913884178,
        "osm_type": "node",
        "name": "Claras coffee",
        "opening_hours": "Mo-Fr 09:00-16:00"
      }
    },
    {
      "type": "Feature",
      "geometry": {
        "type": "Point",
        "coordinates": [
          15.6278917,
          58.4101992
        ]
      },
      "properties": {
        "id": 913884194,
        "osm_type": "node",
        "name": "Bokcaféet"
      }
    },
    {
      "type": "Feature",
      "geometry": {
        "type": "Point",
        "coordinates": [
          15.6300904,
          58.4115137
        ]
      },
      "properties": {
        "id": 914809269,
        "osm_type": "node",
        "name": "Ronaldo's Bread",
        "opening_hours": "Mo-Fr 07:30-18:00; Sa 09:00-16:00"
      }
    },
    {
      "type": "Feature",
      "geometry": {
        "type": "Point",
        "coordinates": [
          16.2103019,
          58.5730597
        ]
      },
      "properties": {
        "id": 1028596330,
        "osm_type": "node",
        "name": "Lindahls Konditori",
        "opening_hours": "Mo-Fr 10:00-20:00; Sa,Su 10:00-18:00"
      }
    },
    {
      "type": "Feature",
      "geometry": {
        "type": "Point",
        "coordinates": [
          16.1890741,
          58.5949094
        ]
      },
      "properties": {
        "id": 1123891120,
        "osm_type": "node",
        "name": "Gubbens trädgård"
      }
    },
    {
      "type": "Feature",
      "geometry": {
        "type": "Point",
        "coordinates": [
          16.157924,
          58.5772891
        ]
      },
      "properties": {
        "id": 1177842883,
        "osm_type": "node",
        "name": "Rixi Konditori"
      }
    },
    {
      "type": "Feature",
      "geometry": {
        "type": "Point",
        "coordinates": [
          16.1545695,
          58.5840307
        ]
      },
      "properties": {
        "id": 1177971871,
        "osm_type": "node",
        "name": "Landerholms konditori"
      }
    },
    {
      "type": "Feature",
      "geometry": {
        "type": "Point",
        "coordinates": [
          16.1894139,
          58.5856342
        ]
      },
      "properties": {
        "id": 1178048644,
        "osm_type": "node",
        "name": "Åby konditori",
        "opening_hours": "Mo-Fr 07:00-18:00; Sa 10:30-14:30; Su off"
      }
    },
    {
      "type": "Feature",
      "geometry": {
        "type": "Point",
        "coordinates": [
          16.1799004,
          58.5934538
        ]
      },
      "properties": {
        "id": 1185240402,
        "osm_type": "node",
        "name": "Broadway Kvarterskrog"
      }
    },
    {
      "type": "Feature",
      "geometry": {
        "type": "Point",
        "coordinates": [
          16.1931003,
          58.5893902
        ]
      },
      "properties": {
        "id": 1193963902,
        "osm_type": "node",
        "name": "Hasibas"
      }
    },
    {
      "type": "Feature",
      "geometry": {
        "type": "Point",
        "coordinates": [
          16.1948025,
          58.5933155
        ]
      },
      "properties": {
        "id": 1194112502,
        "osm_type": "node",
        "name": "Saras bageri"
      }
    },
    {
      "type": "Feature",
      "geometry": {
        "type": "Point",
        "coordinates": [
          16.173697,
          58.67358
        ]
      },
      "properties": {
        "id": 1255871537,
        "osm_type": "node",
        "name": "Café Kajen"
      }
    },
    {
      "type": "Feature",
      "geometry": {
        "type": "Point",
        "coordinates": [
          16.1876038,
          58.5856716
        ]
      },
      "properties": {
        "id": 1313194880,
        "osm_type": "node",
        "name": "Cafe Kuriosa",
        "opening_hours": "Mo-Fr 10:00-18:00; Sa 10:00-16:00; Su off"
      }
    },
    {
      "type": "Feature",
      "geometry": {
        "type": "Point",
        "coordinates": [
          16.1802126,
          58.5890224
        ]
      },
      "properties": {
        "id": 1313266551,
        "osm_type": "node",
        "name": "Espresso house",
        "brand": "Espresso House",
        "opening_hours": "Mo-Sa 10:00-17:00; Su 10:00-17:00",
        "takeaway": "yes"
      }
    },
    {
      "type": "Feature",
      "geometry": {
        "type": "Point",
        "coordinates": [
          16.1828705,
          58.5851318
        ]
      },
      "properties": {
        "id": 1313888435,
        "osm_type": "node",
        "name": "Halvars Glass"
      }
    },
    {
      "type": "Feature",
      "geometry": {
        "type": "Point",
        "coordinates": [
          15.5306607,
          58.4856396
        ]
      },
      "properties": {
        "id": 1324434774,
        "osm_type": "node"
      }
    },
    {
      "type": "Feature",
      "geometry": {
        "type": "Point",
        "coordinates": [
          15.2822146,
          58.5614723
        ]
      },
      "properties": {
        "id": 1340082963,
        "osm_type": "node",
        "name": "Strömfiket",
        "outdoor_seating": "yes"
      }
    },
    {
      "type": "Feature",
      "geometry": {
        "type": "Point",
        "coordinates": [
          16.1883325,
          58.5701614
        ]
      },
      "properties": {
        "id": 1366982203,
        "osm_type": "node",
        "name": "Cafe och minigolf"
      }
    },
    {
      "type": "Feature",
      "geometry": {
        "type": "Point",
        "coordinates": [
          15.9236195,
          58.0146565
        ]
      },
      "properties": {
        "id": 1375341496,
        "osm_type": "node"
      }
    },
    {
      "type": "Feature",
      "geometry": {
        "type": "Point",
        "coordinates": [
          16.2295178,
          58.6856376
        ]
      },
      "properties": {
        "id": 1388313047,
        "osm_type": "node",
        "name": "Ingelstorp"
      }
    },
    {
      "type": "Feature",
      "geometry": {
        "type": "Point",
        "coordinates": [
          15.661936,
          58.3956616
        ]
      },
      "properties": {
        "id": 1392606512,
        "osm_type": "node",
        "name": "Ronaldo's",
        "opening_hours": "Mo 07:00-15:00; Tu-Fr 07:00-17:00; Sa 08:00-17:00; Su off"
      }
    },
    {
      "type": "Feature",
      "geometry": {
        "type": "Point",
        "coordinates": [
          15.5206333,
          58.4148219
        ]
      },
      "properties": {
        "id": 1396928595,
        "osm_type": "node",
        "name": "Öhrberg & Laveryds Bageri",
        "opening_hours": "Mo-Fr 07:00-17:00, Sa 08:00-14:00",
        "outdoor_seating": "yes"
      }
    },
    {
      "type": "Feature",
      "geometry": {
        "type": "Point",
        "coordinates": [
          16.6336336,
          58.6382764
        ]
      },
      "properties": {
        "id": 1416514173,
        "osm_type": "node",
        "name": "Qvarsebo Café"
      }
    },
    {
      "type": "Feature",
      "geometry": {
        "type": "Point",
        "coordinates": [
          15.6488632,
          58.3867121
        ]
      },
      "properties": {
        "id": 1600409412,
        "osm_type": "node"
      }
    },
    {
      "type": "Feature",
      "geometry": {
        "type": "Point",
        "coordinates": [
          15.0377162,
          58.5369255
        ]
      },
      "properties": {
        "id": 1714411545,
        "osm_type": "node",
        "name": "Ströget"
      }
    },
    {
      "type": "Feature",
      "geometry": {
        "type": "Point",
        "coordinates": [
          15.0353882,
          58.5350713
        ]
      },
      "properties": {
        "id": 1715040976,
        "osm_type": "node",
        "name": "Cafe Sjöbris"
      }
    },
    {
      "type": "Feature",
      "geometry": {
        "type": "Point",
        "coordinates": [
          15.0377199,
          58.5330776
        ]
      },
      "properties": {
        "id": 1727663397,
        "osm_type": "node",
        "name": "Motorcafét"
      }
    },
    {
      "type": "Feature",
      "geometry": {
        "type": "Point",
        "coordinates": [
          15.0408135,
          58.534038
        ]
      },
      "properties": {
        "id": 1750060352,
        "osm_type": "node",
        "name": "Två små hus"
      }
    },
    {
      "type": "Feature",
      "geometry": {
        "type": "Point",
        "coordinates": [
          15.0669248,
          58.5480879
        ]
      },
      "properties": {
        "id": 1750225837,
        "osm_type": "node",
        "name": "Mallboden"
      }
    },
    {
      "type": "Feature",
      "geometry": {
        "type": "Point",
        "coordinates": [
          15.4269389,
          58.0153177
        ]
      },
      "properties": {
        "id": 1769542874,
        "osm_type": "node",
        "name": "Affären Svalsjö"
      }
    },
    {
      "type": "Feature",
      "geometry": {
        "type": "Point",
        "coordinates": [
          16.3226602,
          58.4807445
        ]
      },
      "properties": {
        "id": 1806393574,
        "osm_type": "node",
        "name": "Jannes Hembageri",
        "opening_hours": "Mo-Fr 07:30-18:00; Sa 08:00-15:00; Su 10:00-16:00",
        "outdoor_seating": "yes"
      }
    },
    {
      "type": "Feature",
      "geometry": {
        "type": "Point",
        "coordinates": [
          15.8399709,
          57.900425
        ]
      },
      "properties": {
        "id": 1833993459,
        "osm_type": "node",
        "name": "Annas Cafe",
        "opening_hours": "Mo,Tu 09:00-15:00; We-Fr 09:00-17:00; Sa 09:00-13:00"
      }
    },
    {
      "type": "Feature",
      "geometry": {
        "type": "Point",
        "coordinates": [
          15.6856349,
          58.1356983
        ]
      },
      "properties": {
        "id": 1922278599,
        "osm_type": "node",
        "name": "Bagarboden"
      }
    },
    {
      "type": "Feature",
      "geometry": {
        "type": "Point",
        "coordinates": [
          15.7747049,
          58.7085745
        ]
      },
      "properties": {
        "id": 1946244029,
        "osm_type": "node"
      }
    },
    {
      "type": "Feature",
      "geometry": {
        "type": "Point",
        "coordinates": [
          15.052988,
          58.1966563
        ]
      },
      "properties": {
        "id": 2104798804,
        "osm_type": "node",
        "name": "Storgatans Café & Smörgåsbar"
      }
    },
    {
      "type": "Feature",
      "geometry": {
        "type": "Point",
        "coordinates": [
          15.0782256,
          58.5556965
        ]
      },
      "properties": {
        "id": 2305167042,
        "osm_type": "node",
        "name": "Slusskiosk"
      }
    },
    {
      "type": "Feature",
      "geometry": {
        "type": "Point",
        "coordinates": [
          16.1919155,
          58.5867985
        ]
      },
      "properties": {
        "id": 2341946611,
        "osm_type": "node",
        "name": "Nelins konditori city",
        "opening_hours": "Mo-Fr 07:30-18:00; Sa 09:00-17:00; Su 11:00-17:00"
      }
    },
    {
      "type": "Feature",
      "geometry": {
        "type": "Point",
        "coordinates": [
          16.1891568,
          58.5870255
        ]
      },
      "properties": {
        "id": 2341946793,
        "osm_type": "node",
        "name": "Waynes Coffee",
        "brand": "Wayne's Coffee",
        "opening_hours": "Mo-Th 08:30-19:30; Fr 08:30-19:00; Sa 10:00-17:30; Su 10:30-17:30",
        "takeaway": "yes"
      }
    },
    {
      "type": "Feature",
      "geometry": {
        "type": "Point",
        "coordinates": [
          16.191662,
          58.5847537
        ]
      },
      "properties": {
        "id": 2341949683,
        "osm_type": "node",
        "name": "Café Swartz",
        "opening_hours": "Mo-Fr 09:00-16:00"
      }
    },
    {
      "type": "Feature",
      "geometry": {
        "type": "Point",
        "coordinates": [
          16.1873326,
          58.5908529
        ]
      },
      "properties": {
        "id": 2341975196,
        "osm_type": "node",
        "name": "Surdegsbageriet"
      }
    },
    {
      "type": "Feature",
      "geometry": {
        "type": "Point",
        "coordinates": [
          16.1899775,
          58.5863097
        ]
      },
      "properties": {
        "id": 2342007391,
        "osm_type": "node",
        "name": "Brödernas",
        "opening_hours": "Mo-Th 08:30-19:30; Fr 08:00-19:00; Sa 09:00-18:00; Su 10:00-18:00"
      }
    },
    {
      "type": "Feature",
      "geometry": {
        "type": "Point",
        "coordinates": [
          16.1916834,
          58.5866368
        ]
      },
      "properties": {
        "id": 2342008324,
        "osm_type": "node",
        "name": "Café Vetekornet",
        "opening_hours": "Mo-Fr 10:00-16:00; Sa,Su off"
      }
    },
    {
      "type": "Feature",
      "geometry": {
        "type": "Point",
        "coordinates": [
          16.1754239,
          58.5899919
        ]
      },
      "properties": {
        "id": 2342018009,
        "osm_type": "node",
        "name": "Café Täppan"
      }
    },
    {
      "type": "Feature",
      "geometry": {
        "type": "Point",
        "coordinates": [
          16.1922596,
          58.5923569
        ]
      },
      "properties": {
        "id": 2350621549,
        "osm_type": "node",
        "name": "Café 12:an",
        "opening_hours": "Mo-Th 06:00-15:00, Fr 06:00-13:30, Sa 09:00-13:00"
      }
    },
    {
      "type": "Feature",
      "geometry": {
        "type": "Point",
        "coordinates": [
          16.1719018,
          58.5945207
        ]
      },
      "properties": {
        "id": 2386926967,
        "osm_type": "node",
        "name": "Sockerbagarns"
      }
    },
    {
      "type": "Feature",
      "geometry": {
        "type": "Point",
        "coordinates": [
          15.4229076,
          58.4711417
        ]
      },
      "properties": {
        "id": 2387990451,
        "osm_type": "node",
        "name": "Boställets vedugnsbageri"
      }
    },
    {
      "type": "Feature",
      "geometry": {
        "type": "Point",
        "coordinates": [
          16.6042765,
          58.2039567
        ]
      },
      "properties": {
        "id": 2395125118,
        "osm_type": "node"
      }
    },
    {
      "type": "Feature",
      "geometry": {
        "type": "Point",
        "coordinates": [
          16.6045362,
          58.2038662
        ]
      },
      "properties": {
        "id": 2395125141,
        "osm_type": "node"
      }
    },
    {
      "type": "Feature",
      "geometry": {
        "type": "Point",
        "coordinates": [
          16.5959131,
          58.6384069
        ]
      },
      "properties": {
        "id": 2395379396,
        "osm_type": "node",
        "name": "Säterdalen"
      }
    },
    {
      "type": "Feature",
      "geometry": {
        "type": "Point",
        "coordinates": [
          15.1322947,
          58.3227635
        ]
      },
      "properties": {
        "id": 2419494732,
        "osm_type": "node",
        "name": "järnvägscaféet",
        "opening_hours": "Mo-Fr 06:30-18:00"
      }
    },
    {
      "type": "Feature",
      "geometry": {
        "type": "Point",
        "coordinates": [
          16.9405896,
          58.476111
        ]
      },
      "properties": {
        "id": 2459512203,
        "osm_type": "node",
        "name": "Strandcafé"
      }
    },
    {
      "type": "Feature",
      "geometry": {
        "type": "Point",
        "coordinates": [
          15.626459,
          58.41039
        ]
      },
      "properties": {
        "id": 2893309428,
        "osm_type": "node",
        "name": "Gyllencaféet",
        "opening_hours": "Mo-Fr 07:30-19:00, Sa 07:30-17:00, Su 10:00-17:00"
      }
    },
    {
      "type": "Feature",
      "geometry": {
        "type": "Point",
        "coordinates": [
          15.6712264,
          58.2956594
        ]
      },
      "properties": {
        "id": 2917267988,
        "osm_type": "node",
        "name": "Stafsäters Gårdsglass AB",
        "takeaway": "yes",
        "outdoor_seating": "yes"
      }
    },
    {
      "type": "Feature",
      "geometry": {
        "type": "Point",
        "coordinates": [
          15.6230771,
          58.4092763
        ]
      },
      "properties": {
        "id": 2929883124,
        "osm_type": "node",
        "name": "Babettes kafferi & bageri",
        "opening_hours": "Tu-Fr 08:00-18:00; Sa 10:00-16:00"
      }
    },
    {
      "type": "Feature",
      "geometry": {
        "type": "Point",
        "coordinates": [
          15.4449372,
          58.1221567
        ]
      },
      "properties": {
        "id": 2981170439,
        "osm_type": "node",
        "name": "Amundebo Södergård"
      }
    },
    {
      "type": "Feature",
      "geometry": {
        "type": "Point",
        "coordinates": [
          16.0332761,
          58.6457805
        ]
      },
      "properties": {
        "id": 2985098102,
        "osm_type": "node",
        "name": "Café Villa Flora",
        "opening_hours": "Mo-Fr 10:00-17:00; Sa-Su 10:00-15:30"
      }
    },
    {
      "type": "Feature",
      "geometry": {
        "type": "Point",
        "coordinates": [
          16.3339001,
          58.4775378
        ]
      },
      "properties": {
        "id": 3026618163,
        "osm_type": "node"
      }
    },
    {
      "type": "Feature",
      "geometry": {
        "type": "Point",
        "coordinates": [
          15.578167,
          58.4015309
        ]
      },
      "properties": {
        "id": 3282932024,
        "osm_type": "node",
        "name": "Moccado",
        "opening_hours": "Mo-Th 10:00-11:15, 12:00-16:00; Fr 10:00-11:15, 12:00-15:00"
      }
    },
    {
      "type": "Feature",
      "geometry": {
        "type": "Point",
        "coordinates": [
          15.5769428,
          58.4019853
        ]
      },
      "properties": {
        "id": 3282932025,
        "osm_type": "node",
        "name": "Podden i A-huset",
        "opening_hours": "Mo-Fr 09:00-15:15"
      }
    },
    {
      "type": "Feature",
      "geometry": {
        "type": "Point",
        "coordinates": [
          14.8856996,
          58.4454548
        ]
      },
      "properties": {
        "id": 3542029921,
        "osm_type": "node",
        "outdoor_seating": "yes"
      }
    },
    {
      "type": "Feature",
      "geometry": {
        "type": "Point",
        "coordinates": [
          15.0891598,
          58.0285254
        ]
      },
      "properties": {
        "id": 3566897277,
        "osm_type": "node",
        "name": "Glass"
      }
    },
    {
      "type": "Feature",
      "geometry": {
        "type": "Point",
        "coordinates": [
          16.4600844,
          58.6634102
        ]
      },
      "properties": {
        "id": 3645608949,
        "osm_type": "node",
        "name": "Pingos café"
      }
    },
    {
      "type": "Feature",
      "geometry": {
        "type": "Point",
        "coordinates": [
          15.0341816,
          57.9156125
        ]
      },
      "properties": {
        "id": 3706307973,
        "osm_type": "node",
        "name": "Brostorp",
        "opening_hours": "Fr-Su 11:00-17:00"
      }
    },
    {
      "type": "Feature",
      "geometry": {
        "type": "Point",
        "coordinates": [
          15.5781796,
          58.4009881
        ]
      },
      "properties": {
        "id": 3750673548,
        "osm_type": "node",
        "name": "Sektionscafé Baljan",
        "opening_hours": "Mo-Fr 08:00-16:15",
        "takeaway": "yes"
      }
    },
    {
      "type": "Feature",
      "geometry": {
        "type": "Point",
        "coordinates": [
          15.6331399,
          58.4110366
        ]
      },
      "properties": {
        "id": 3971957890,
        "osm_type": "node",
        "name": "Ronaldo's Bageri",
        "opening_hours": "Mo-Fr 07:30-18:00; Sa 09:00-16:00; Su 09:00-15:00"
      }
    },
    {
      "type": "Feature",
      "geometry": {
        "type": "Point",
        "coordinates": [
          15.613006,
          58.4114353
        ]
      },
      "properties": {
        "id": 4124123392,
        "osm_type": "node",
        "name": "Café Galejan",
        "opening_hours": "Mo-Fr 10:00-16:00"
      }
    },
    {
      "type": "Feature",
      "geometry": {
        "type": "Point",
        "coordinates": [
          16.2031297,
          58.5900461
        ]
      },
      "properties": {
        "id": 4124243689,
        "osm_type": "node",
        "name": "Landerholms",
        "opening_hours": "Mo-Fr 07:00-18:00; Sa 07:00-13:00"
      }
    },
    {
      "type": "Feature",
      "geometry": {
        "type": "Point",
        "coordinates": [
          16.188445,
          58.5876242
        ]
      },
      "properties": {
        "id": 4136463691,
        "osm_type": "node",
        "name": "Espresso house",
        "brand": "Espresso House",
        "opening_hours": "Mo-Fr 07:00-20:00; Sa 08:00-20:00; Su 08:00-19:00",
        "takeaway": "yes"
      }
    },
    {
      "type": "Feature",
      "geometry": {
        "type": "Point",
        "coordinates": [
          16.1879983,
          58.5889484
        ]
      },
      "properties": {
        "id": 4280211293,
        "osm_type": "node",
        "name": "Teaterbaren Skandia",
        "opening_hours": "Mo-Th 11:00-23:00; Fr-Sa 11:00-25:00"
      }
    },
    {
      "type": "Feature",
      "geometry": {
        "type": "Point",
        "coordinates": [
          15.6172389,
          58.4180358
        ]
      },
      "properties": {
        "id": 4323120336,
        "osm_type": "node",
        "name": "Cirkus Caféet"
      }
    },
    {
      "type": "Feature",
      "geometry": {
        "type": "Point",
        "coordinates": [
          15.624926,
          58.4090011
        ]
      },
      "properties": {
        "id": 4538197279,
        "osm_type": "node",
        "name": "Teddys & Friends",
        "opening_hours": "Mo-Fr 08:00-16:00; Sa 08:00-12:00; Su off"
      }
    },
    {
      "type": "Feature",
      "geometry": {
        "type": "Point",
        "coordinates": [
          16.3199723,
          58.4821924
        ]
      },
      "properties": {
        "id": 4570353692,
        "osm_type": "node",
        "name": "Kaffebönan",
        "opening_hours": "Mo-Fr 10:00-18:00; Sa 10:00-14:00"
      }
    },
    {
      "type": "Feature",
      "geometry": {
        "type": "Point",
        "coordinates": [
          16.730922,
          58.3333358
        ]
      },
      "properties": {
        "id": 4970185970,
        "osm_type": "node",
        "name": "Tjärholms Skärgards Cafe",
        "opening_hours": "Fr-Su 11:00-17:00"
      }
    },
    {
      "type": "Feature",
      "geometry": {
        "type": "Point",
        "coordinates": [
          15.7118627,
          58.7164836
        ]
      },
      "properties": {
        "id": 5020598077,
        "osm_type": "node"
      }
    },
    {
      "type": "Feature",
      "geometry": {
        "type": "Point",
        "coordinates": [
          15.0406218,
          58.5349984
        ]
      },
      "properties": {
        "id": 5041668570,
        "osm_type": "node",
        "name": "Sjöglimten"
      }
    },
    {
      "type": "Feature",
      "geometry": {
        "type": "Point",
        "coordinates": [
          15.622041,
          58.4019304
        ]
      },
      "properties": {
        "id": 5552556623,
        "osm_type": "node",
        "name": "Linds Konditori",
        "opening_hours": "Mo-Fr 08:00-18:00; Sa-Su 11:00-17:00"
      }
    },
    {
      "type": "Feature",
      "geometry": {
        "type": "Point",
        "coordinates": [
          17.0109191,
          58.2526739
        ]
      },
      "properties": {
        "id": 5761481453,
        "osm_type": "node",
        "name": "Harstena bageri"
      }
    },
    {
      "type": "Feature",
      "geometry": {
        "type": "Point",
        "coordinates": [
          15.4340588,
          58.125366
        ]
      },
      "properties": {
        "id": 5786981357,
        "osm_type": "node",
        "opening_hours": "Mo-Fr 09:30-18:00; Sa 08:00-15:00; PH off"
      }
    },
    {
      "type": "Feature",
      "geometry": {
        "type": "Point",
        "coordinates": [
          16.4239557,
          58.6608965
        ]
      },
      "properties": {
        "id": 5820456061,
        "osm_type": "node",
        "name": "Marmorbrukets café"
      }
    },
    {
      "type": "Feature",
      "geometry": {
        "type": "Point",
        "coordinates": [
          15.622924,
          58.5412457
        ]
      },
      "properties": {
        "id": 5837739658,
        "osm_type": "node",
        "name": "Sandviks camping"
      }
    },
    {
      "type": "Feature",
      "geometry": {
        "type": "Point",
        "coordinates": [
          15.6189545,
          58.4103686
        ]
      },
      "properties": {
        "id": 5873349585,
        "osm_type": "node",
        "name": "Simons Rosteri & Bageri",
        "opening_hours": "Mo-Th 08:00-18:00; Sa 09:00-16:00; Su 10:00-16:00; Fr 08:00-17:00"
      }
    },
    {
      "type": "Feature",
      "geometry": {
        "type": "Point",
        "coordinates": [
          15.6258307,
          58.4161577
        ]
      },
      "properties": {
        "id": 6199037683,
        "osm_type": "node",
        "name": "Espresso House",
        "brand": "Espresso House",
        "opening_hours": "Mo-Fr 05:00-21:00; Sa,Su 06:30-20:00",
        "takeaway": "yes"
      }
    },
    {
      "type": "Feature",
      "geometry": {
        "type": "Point",
        "coordinates": [
          14.8890741,
          58.4473656
        ]
      },
      "properties": {
        "id": 6548514629,
        "osm_type": "node",
        "name": "Bageri Hamilton",
        "outdoor_seating": "yes"
      }
    },
    {
      "type": "Feature",
      "geometry": {
        "type": "Point",
        "coordinates": [
          15.6262129,
          58.4083481
        ]
      },
      "properties": {
        "id": 6594470885,
        "osm_type": "node",
        "name": "Martas Cafe",
        "opening_hours": "Mo-Th 10:00-16:00; Fr 10:00-15:00"
      }
    },
    {
      "type": "Feature",
      "geometry": {
        "type": "Point",
        "coordinates": [
          17.0058302,
          58.2561233
        ]
      },
      "properties": {
        "id": 6660105245,
        "osm_type": "node"
      }
    },
    {
      "type": "Feature",
      "geometry": {
        "type": "Point",
        "coordinates": [
          16.1861135,
          58.589247
        ]
      },
      "properties": {
        "id": 6813943858,
        "osm_type": "node",
        "name": "Tinas Café å Sånt",
        "opening_hours": "Mo-Fr 10:00-19:30; Sa 10:00-17:00; Su 11:00-16:00"
      }
    },
    {
      "type": "Feature",
      "geometry": {
        "type": "Point",
        "coordinates": [
          16.1775844,
          58.5891816
        ]
      },
      "properties": {
        "id": 7087872779,
        "osm_type": "node",
        "name": "Restaurang & Café C"
      }
    },
    {
      "type": "Feature",
      "geometry": {
        "type": "Point",
        "coordinates": [
          16.1916605,
          58.5897496
        ]
      },
      "properties": {
        "id": 7087872895,
        "osm_type": "node",
        "name": "Kafé Tassen"
      }
    },
    {
      "type": "Feature",
      "geometry": {
        "type": "Point",
        "coordinates": [
          16.1872317,
          58.5905257
        ]
      },
      "properties": {
        "id": 7087877040,
        "osm_type": "node",
        "name": "Hej! Take away"
      }
    },
    {
      "type": "Feature",
      "geometry": {
        "type": "Point",
        "coordinates": [
          16.1756183,
          58.5872636
        ]
      },
      "properties": {
        "id": 7087898469,
        "osm_type": "node",
        "name": "Café Väster"
      }
    },
    {
      "type": "Feature",
      "geometry": {
        "type": "Point",
        "coordinates": [
          16.1750524,
          58.5834358
        ]
      },
      "properties": {
        "id": 7087901219,
        "osm_type": "node",
        "name": "Marikas Café"
      }
    },
    {
      "type": "Feature",
      "geometry": {
        "type": "Point",
        "coordinates": [
          16.1855033,
          58.5920603
        ]
      },
      "properties": {
        "id": 7087922821,
        "osm_type": "node",
        "name": "Lilla caféet"
      }
    },
    {
      "type": "Feature",
      "geometry": {
        "type": "Point",
        "coordinates": [
          16.229172,
          58.5804538
        ]
      },
      "properties": {
        "id": 7087964777,
        "osm_type": "node",
        "name": "Nelins smedby"
      }
    },
    {
      "type": "Feature",
      "geometry": {
        "type": "Point",
        "coordinates": [
          15.6266698,
          58.4118707
        ]
      },
      "properties": {
        "id": 7099712295,
        "osm_type": "node",
        "name": "Melins Café & Bistro",
        "opening_hours": "Mo-Fr 09:30-19:00; Sa 10:00-17:00; Su 11:30-16:00"
      }
    },
    {
      "type": "Feature",
      "geometry": {
        "type": "Point",
        "coordinates": [
          15.626027,
          58.4159166
        ]
      },
      "properties": {
        "id": 7104857867,
        "osm_type": "node",
        "name": "Järnvägscaféet",
        "opening_hours": "Mo-Su 11:00-22:00"
      }
    },
    {
      "type": "Feature",
      "geometry": {
        "type": "Point",
        "coordinates": [
          15.6228655,
          58.410351
        ]
      },
      "properties": {
        "id": 7567042270,
        "osm_type": "node",
        "name": "Wayne's Coffee",
        "brand": "Wayne's Coffee",
        "opening_hours": "Mo-Fr 08:00-19:00; Sa 10:00-19:00; Su 10:00-17:30",
        "takeaway": "yes"
      }
    },
    {
      "type": "Feature",
      "geometry": {
        "type": "Point",
        "coordinates": [
          16.3336788,
          58.4750973
        ]
      },
      "properties": {
        "id": 7682582579,
        "osm_type": "node",
        "name": "Konditori"
      }
    },
    {
      "type": "Feature",
      "geometry": {
        "type": "Point",
        "coordinates": [
          14.7171107,
          58.3642455
        ]
      },
      "properties": {
        "id": 7774785492,
        "osm_type": "node",
        "name": "Kafé på Skedet",
        "opening_hours": "Jul-Aug: Th-Su 11:00-16:00",
        "outdoor_seating": "yes"
      }
    },
    {
      "type": "Feature",
      "geometry": {
        "type": "Point",
        "coordinates": [
          15.2804889,
          58.558982
        ]
      },
      "properties": {
        "id": 7780795534,
        "osm_type": "node",
        "name": "Kaffeteriet",
        "outdoor_seating": "yes"
      }
    },
    {
      "type": "Feature",
      "geometry": {
        "type": "Point",
        "coordinates": [
          16.1812863,
          58.58973
        ]
      },
      "properties": {
        "id": 7826314486,
        "osm_type": "node",
        "name": "Mjölnaren",
        "opening_hours": "Mo-Fr 07:00-19:00; Sa 07:00-16:00; Su 08:00-16:00"
      }
    },
    {
      "type": "Feature",
      "geometry": {
        "type": "Point",
        "coordinates": [
          16.6015287,
          58.2020636
        ]
      },
      "properties": {
        "id": 7966133697,
        "osm_type": "node",
        "name": "Café Lilla Blå",
        "opening_hours": "Mo-Fr 08:00-18:00; Sa 9:00-16:00; Su closed",
        "outdoor_seating": "yes"
      }
    },
    {
      "type": "Feature",
      "geometry": {
        "type": "Point",
        "coordinates": [
          15.0851773,
          58.3967638
        ]
      },
      "properties": {
        "id": 8345545837,
        "osm_type": "node",
        "name": "Sjölingårdens kaffestuga"
      }
    },
    {
      "type": "Feature",
      "geometry": {
        "type": "Point",
        "coordinates": [
          16.4591458,
          58.661151
        ]
      },
      "properties": {
        "id": 8910401868,
        "osm_type": "node",
        "name": "Barnens Kiosk"
      }
    },
    {
      "type": "Feature",
      "geometry": {
        "type": "Point",
        "coordinates": [
          16.4589139,
          58.662477
        ]
      },
      "properties": {
        "id": 8911435450,
        "osm_type": "node",
        "name": "Fiket"
      }
    },
    {
      "type": "Feature",
      "geometry": {
        "type": "Point",
        "coordinates": [
          15.6253377,
          58.4109625
        ]
      },
      "properties": {
        "id": 9026098129,
        "osm_type": "node",
        "name": "Crepino",
        "opening_hours": "Mo-Th 11:00-20:30; Fr 11:00-22:30; Sa 12:00-22:30; Su 14:00-20:00"
      }
    },
    {
      "type": "Feature",
      "geometry": {
        "type": "Point",
        "coordinates": [
          16.8433982,
          58.3433349
        ]
      },
      "properties": {
        "id": 9381932092,
        "osm_type": "node",
        "name": "Ekö Gård Trädgårdscafé"
      }
    },
    {
      "type": "Feature",
      "geometry": {
        "type": "Point",
        "coordinates": [
          16.1762403,
          58.5868593
        ]
      },
      "properties": {
        "id": 9720025491,
        "osm_type": "node",
        "name": "Glokala Haket"
      }
    },
    {
      "type": "Feature",
      "geometry": {
        "type": "Point",
        "coordinates": [
          15.5635005,
          58.4084061
        ]
      },
      "properties": {
        "id": 9765011967,
        "osm_type": "node",
        "name": "Linds bageri",
        "opening_hours": "Mo-Fr 08:00-18:00; Sa 10:00-15:00"
      }
    },
    {
      "type": "Feature",
      "geometry": {
        "type": "Point",
        "coordinates": [
          16.4636113,
          58.6629074
        ]
      },
      "properties": {
        "id": 9954308820,
        "osm_type": "node"
      }
    },
    {
      "type": "Feature",
      "geometry": {
        "type": "Point",
        "coordinates": [
          15.8988325,
          58.0217511
        ]
      },
      "properties": {
        "id": 9960130563,
        "osm_type": "node",
        "name": "Café Pärlan"
      }
    },
    {
      "type": "Feature",
      "geometry": {
        "type": "Point",
        "coordinates": [
          15.5889336,
          58.40638
        ]
      },
      "properties": {
        "id": 10020910968,
        "osm_type": "node",
        "name": "Skönfärgaregården Butik & Våffelstuga",
        "opening_hours": "Tu-Fr 11:00-16:30; Sa,Su 11:00-16:00",
        "outdoor_seating": "yes"
      }
    },
    {
      "type": "Feature",
      "geometry": {
        "type": "Point",
        "coordinates": [
          16.183214,
          58.5963869
        ]
      },
      "properties": {
        "id": 10905994713,
        "osm_type": "node",
        "name": "Espresso House",
        "brand": "Espresso House",
        "opening_hours": "Mo-Fr 05:30-20:30; Sa 07:00-19:00; Su 08:00-20:00",
        "takeaway": "yes"
      }
    },
    {
      "type": "Feature",
      "geometry": {
        "type": "Point",
        "coordinates": [
          14.6536687,
          58.2288367
        ]
      },
      "properties": {
        "id": 11025458588,
        "osm_type": "node",
        "name": "Lysings konditori"
      }
    },
    {
      "type": "Feature",
      "geometry": {
        "type": "Point",
        "coordinates": [
          15.1291308,
          58.3262236
        ]
      },
      "properties": {
        "id": 11099428160,
        "osm_type": "node",
        "name": "Nyfiket"
      }
    },
    {
      "type": "Feature",
      "geometry": {
        "type": "Point",
        "coordinates": [
          15.126214,
          58.3260337
        ]
      },
      "properties": {
        "id": 11099430533,
        "osm_type": "node",
        "name": "Espresso House",
        "brand": "Espresso House",
        "takeaway": "yes"
      }
    },
    {
      "type": "Feature",
      "geometry": {
        "type": "Point",
        "coordinates": [
          15.1256614,
          58.3256027
        ]
      },
      "properties": {
        "id": 11099430535,
        "osm_type": "node",
        "name": "Linds bageri"
      }
    },
    {
      "type": "Feature",
      "geometry": {
        "type": "Point",
        "coordinates": [
          16.1783627,
          58.5914698
        ]
      },
      "properties": {
        "id": 11189038266,
        "osm_type": "node",
        "name": "Golden Royale Chocolate Café"
      }
    },
    {
      "type": "Feature",
      "geometry": {
        "type": "Point",
        "coordinates": [
          14.8873245,
          58.4469805
        ]
      },
      "properties": {
        "id": 11808147283,
        "osm_type": "node",
        "name": "Café Nostalgi",
        "outdoor_seating": "yes"
      }
    },
    {
      "type": "Feature",
      "geometry": {
        "type": "Point",
        "coordinates": [
          14.9311981,
          58.442978
        ]
      },
      "properties": {
        "id": 11813276401,
        "osm_type": "node",
        "name": "Rosteriet Vadstena"
      }
    },
    {
      "type": "Feature",
      "geometry": {
        "type": "Point",
        "coordinates": [
          14.8925976,
          58.4499615
        ]
      },
      "properties": {
        "id": 11813276405,
        "osm_type": "node",
        "name": "Pilgrimscafë",
        "outdoor_seating": "yes"
      }
    },
    {
      "type": "Feature",
      "geometry": {
        "type": "Point",
        "coordinates": [
          15.5811257,
          58.3917131
        ]
      },
      "properties": {
        "id": 11934397344,
        "osm_type": "node",
        "name": "Dolce Vita Fika",
        "opening_hours": "Mo 10:00-17:00; Tu-Fr 10:00-18:00; Sa 09:00-16:00; Su 11:00-17:00"
      }
    },
    {
      "type": "Feature",
      "geometry": {
        "type": "Point",
        "coordinates": [
          15.5821624,
          58.3934879
        ]
      },
      "properties": {
        "id": 11934470772,
        "osm_type": "node",
        "name": "Café do Parque",
        "opening_hours": "Tu-Fr 11:00-16:00; Sa 12:00-16:30"
      }
    },
    {
      "type": "Feature",
      "geometry": {
        "type": "Point",
        "coordinates": [
          15.0382273,
          58.5332831
        ]
      },
      "properties": {
        "id": 11935097778,
        "osm_type": "node",
        "name": "Glass- och våffelboden"
      }
    },
    {
      "type": "Feature",
      "geometry": {
        "type": "Point",
        "coordinates": [
          15.0381298,
          58.5331846
        ]
      },
      "properties": {
        "id": 11935097779,
        "osm_type": "node",
        "name": "Jojos glass"
      }
    },
    {
      "type": "Feature",
      "geometry": {
        "type": "Point",
        "coordinates": [
          15.622867,
          58.4111942
        ]
      },
      "properties": {
        "id": 12010264598,
        "osm_type": "node",
        "name": "Mori Tea House",
        "opening_hours": "Mo-Fr 11:00-18:00; Sa 11:00-18:00; Su 11:00-17:00"
      }
    },
    {
      "type": "Feature",
      "geometry": {
        "type": "Point",
        "coordinates": [
          15.6205951,
          58.4102602
        ]
      },
      "properties": {
        "id": 12018365310,
        "osm_type": "node",
        "name": "Bageri Normandie",
        "opening_hours": "Mo-Fr 07:30-18:00; Sa 08:00-16:00"
      }
    },
    {
      "type": "Feature",
      "geometry": {
        "type": "Point",
        "coordinates": [
          16.2614829,
          58.4984386
        ]
      },
      "properties": {
        "id": 12061960633,
        "osm_type": "node",
        "name": "Jolla Chokladmakarna",
        "opening_hours": "10:00-18:00",
        "outdoor_seating": "yes"
      }
    },
    {
      "type": "Feature",
      "geometry": {
        "type": "Point",
        "coordinates": [
          16.1861654,
          58.5891523
        ]
      },
      "properties": {
        "id": 12064767430,
        "osm_type": "node",
        "name": "Tinas Bakficka",
        "opening_hours": "Mo,Su off; Tu-Fr 11:00-19:30; Sa 11:00-17:00"
      }
    },
    {
      "type": "Feature",
      "geometry": {
        "type": "Point",
        "coordinates": [
          15.6644068,
          58.2107357
        ]
      },
      "properties": {
        "id": 12066468957,
        "osm_type": "node",
        "name": "Brokind Slusscafé",
        "outdoor_seating": "yes"
      }
    },
    {
      "type": "Feature",
      "geometry": {
        "type": "Point",
        "coordinates": [
          16.1853287,
          58.5889782
        ]
      },
      "properties": {
        "id": 12349110902,
        "osm_type": "node",
        "name": "Lilla Vän kaffebar",
        "outdoor_seating": "no"
      }
    },
    {
      "type": "Feature",
      "geometry": {
        "type": "Point",
        "coordinates": [
          14.8882926,
          58.447762
        ]
      },
      "properties": {
        "id": 12398849595,
        "osm_type": "node",
        "name": "Ektrollet"
      }
    },
    {
      "type": "Feature",
      "geometry": {
        "type": "Point",
        "coordinates": [
          15.6160406,
          58.4187799
        ]
      },
      "properties": {
        "id": 12514712621,
        "osm_type": "node",
        "name": "Lemon Garden",
        "opening_hours": "Mo-Sa 11:00-20:00; Su 11:00-18:00"
      }
    },
    {
      "type": "Feature",
      "geometry": {
        "type": "Point",
        "coordinates": [
          15.6249497,
          58.4181603
        ]
      },
      "properties": {
        "id": 12536937638,
        "osm_type": "node",
        "name": "Café Drivbänk"
      }
    },
    {
      "type": "Feature",
      "geometry": {
        "type": "Point",
        "coordinates": [
          16.1745939,
          58.592887
        ]
      },
      "properties": {
        "id": 12542144158,
        "osm_type": "node",
        "name": "Cafe Smedian"
      }
    },
    {
      "type": "Feature",
      "geometry": {
        "type": "Point",
        "coordinates": [
          15.6222837,
          58.4006258
        ]
      },
      "properties": {
        "id": 12626156426,
        "osm_type": "node",
        "name": "Linds Konditori",
        "opening_hours": "Mo-Fr 08:00-16:30; Sa-Su 12:00-13:00"
      }
    },
    {
      "type": "Feature",
      "geometry": {
        "type": "Point",
        "coordinates": [
          15.3322723,
          58.5212523
        ]
      },
      "properties": {
        "id": 12641564447,
        "osm_type": "node",
        "name": "Örbäck Cafe"
      }
    },
    {
      "type": "Feature",
      "geometry": {
        "type": "Point",
        "coordinates": [
          15.0544537,
          58.3840089
        ]
      },
      "properties": {
        "id": 12997258201,
        "osm_type": "node",
        "name": "Open New Doors",
        "opening_hours": "Mo-Su 08:00-16:00"
      }
    },
    {
      "type": "Feature",
      "geometry": {
        "type": "Point",
        "coordinates": [
          15.0093438,
          58.5459015
        ]
      },
      "properties": {
        "id": 13085129977,
        "osm_type": "node",
        "name": "Café Furulid"
      }
    },
    {
      "type": "Feature",
      "geometry": {
        "type": "Point",
        "coordinates": [
          15.6047152,
          58.4036432
        ]
      },
      "properties": {
        "id": 13256190308,
        "osm_type": "node",
        "name": "Hörnet",
        "opening_hours": "Mo-Th 10:00-16:30; Fr \"lunchöppet\""
      }
    },
    {
      "type": "Feature",
      "geometry": {
        "type": "Point",
        "coordinates": [
          16.200407,
          58.5961918
        ]
      },
      "properties": {
        "id": 13314319109,
        "osm_type": "node",
        "name": "Bagel Bay"
      }
    },
    {
      "type": "Feature",
      "geometry": {
        "type": "Point",
        "coordinates": [
          16.1617168,
          58.654394
        ]
      },
      "properties": {
        "id": 88300110,
        "osm_type": "way",
        "name": "Åby Bageri och Konditori"
      }
    },
    {
      "type": "Feature",
      "geometry": {
        "type": "Point",
        "coordinates": [
          15.6204151,
          58.4043315
        ]
      },
      "properties": {
        "id": 90893875,
        "osm_type": "way",
        "name": "Belvederen",
        "opening_hours": "closed \"Stängt tillsvidare\""
      }
    },
    {
      "type": "Feature",
      "geometry": {
        "type": "Point",
        "coordinates": [
          16.179491,
          58.5902794
        ]
      },
      "properties": {
        "id": 93316925,
        "osm_type": "way",
        "name": "Sista supen"
      }
    },
    {
      "type": "Feature",
      "geometry": {
        "type": "Point",
        "coordinates": [
          15.6279902,
          58.4126713
        ]
      },
      "properties": {
        "id": 94445008,
        "osm_type": "way",
        "name": "Stadsmissionens café",
        "opening_hours": "Mo 09:30-14:00; Tu-Fr 09:30-16:00; Sa 11:00-16:00"
      }
    },
    {
      "type": "Feature",
      "geometry": {
        "type": "Point",
        "coordinates": [
          15.5831587,
          58.4008218
        ]
      },
      "properties": {
        "id": 95598453,
        "osm_type": "way",
        "name": "Valla Minigolf",
        "opening_hours": "Mo-Su 10:00-22:00",
        "outdoor_seating": "yes"
      }
    },
    {
      "type": "Feature",
      "geometry": {
        "type": "Point",
        "coordinates": [
          16.167477,
          58.5877842
        ]
      },
      "properties": {
        "id": 96791241,
        "osm_type": "way",
        "name": "Café Färgargården",
        "opening_hours": "Mo-Su 10:00-19:00"
      }
    },
    {
      "type": "Feature",
      "geometry": {
        "type": "Point",
        "coordinates": [
          16.1836392,
          58.6011594
        ]
      },
      "properties": {
        "id": 132473188,
        "osm_type": "way",
        "name": "Lindahls Bagarboden"
      }
    },
    {
      "type": "Feature",
      "geometry": {
        "type": "Point",
        "coordinates": [
          15.6113003,
          58.4012892
        ]
      },
      "properties": {
        "id": 145013023,
        "osm_type": "way",
        "name": "Bageriet",
        "opening_hours": "Mo-Fr 06:00-18:00; Sa 07:00-16:00; Su off"
      }
    },
    {
      "type": "Feature",
      "geometry": {
        "type": "Point",
        "coordinates": [
          14.9232389,
          58.3134503
        ]
      },
      "properties": {
        "id": 171490811,
        "osm_type": "way",
        "name": "Väderstad Centralkonditori",
        "opening_hours": "Mo-Sa 08:00-17:00; Su 10:00-17:00",
        "outdoor_seating": "yes"
      }
    },
    {
      "type": "Feature",
      "geometry": {
        "type": "Point",
        "coordinates": [
          16.032859,
          58.5080172
        ]
      },
      "properties": {
        "id": 196958126,
        "osm_type": "way",
        "name": "Brådtom Sluss"
      }
    },
    {
      "type": "Feature",
      "geometry": {
        "type": "Point",
        "coordinates": [
          14.9955508,
          58.5330886
        ]
      },
      "properties": {
        "id": 199643390,
        "osm_type": "way",
        "name": "Råssnäs Bageri"
      }
    },
    {
      "type": "Feature",
      "geometry": {
        "type": "Point",
        "coordinates": [
          15.4276525,
          58.5184777
        ]
      },
      "properties": {
        "id": 200440683,
        "osm_type": "way",
        "name": "Claudia's Gastrobar & Glass"
      }
    },
    {
      "type": "Feature",
      "geometry": {
        "type": "Point",
        "coordinates": [
          15.6781169,
          58.3932133
        ]
      },
      "properties": {
        "id": 218594057,
        "osm_type": "way",
        "name": "Ådala Kaffestuga"
      }
    },
    {
      "type": "Feature",
      "geometry": {
        "type": "Point",
        "coordinates": [
          15.5022724,
          58.5087123
        ]
      },
      "properties": {
        "id": 220986329,
        "osm_type": "way",
        "name": "Ljungsbro Glass & Café",
        "outdoor_seating": "yes"
      }
    },
    {
      "type": "Feature",
      "geometry": {
        "type": "Point",
        "coordinates": [
          16.1848953,
          58.5940032
        ]
      },
      "properties": {
        "id": 225426514,
        "osm_type": "way",
        "name": "Café Carl Johan",
        "opening_hours": "Jun-Aug"
      }
    },
    {
      "type": "Feature",
      "geometry": {
        "type": "Point",
        "coordinates": [
          15.8426368,
          58.6751362
        ]
      },
      "properties": {
        "id": 264280353,
        "osm_type": "way",
        "opening_hours": "10:00-16:00",
        "outdoor_seating": "yes"
      }
    },
    {
      "type": "Feature",
      "geometry": {
        "type": "Point",
        "coordinates": [
          15.6350176,
          58.40939
        ]
      },
      "properties": {
        "id": 267064338,
        "osm_type": "way",
        "name": "Åbacka café",
        "outdoor_seating": "yes"
      }
    },
    {
      "type": "Feature",
      "geometry": {
        "type": "Point",
        "coordinates": [
          15.5399599,
          57.7945215
        ]
      },
      "properties": {
        "id": 301757293,
        "osm_type": "way",
        "name": "Brosjögården",
        "opening_hours": "Jun-Aug: Mo-Su 12:00-21:00"
      }
    },
    {
      "type": "Feature",
      "geometry": {
        "type": "Point",
        "coordinates": [
          15.5993386,
          58.2555064
        ]
      },
      "properties": {
        "id": 327341250,
        "osm_type": "way",
        "name": "Lökebo gårdsbageri"
      }
    },
    {
      "type": "Feature",
      "geometry": {
        "type": "Point",
        "coordinates": [
          15.6482439,
          58.4001669
        ]
      },
      "properties": {
        "id": 331502826,
        "osm_type": "way",
        "name": "Café Tannefors Slussar",
        "opening_hours": "May-Aug: 11:00-19:00+"
      }
    },
    {
      "type": "Feature",
      "geometry": {
        "type": "Point",
        "coordinates": [
          14.8900262,
          58.4509586
        ]
      },
      "properties": {
        "id": 345999597,
        "osm_type": "way",
        "name": "Vadstena Klostercafé",
        "outdoor_seating": "yes"
      }
    },
    {
      "type": "Feature",
      "geometry": {
        "type": "Point",
        "coordinates": [
          15.9150237,
          58.5795739
        ]
      },
      "properties": {
        "id": 375775097,
        "osm_type": "way"
      }
    },
    {
      "type": "Feature",
      "geometry": {
        "type": "Point",
        "coordinates": [
          15.5854799,
          58.4343672
        ]
      },
      "properties": {
        "id": 405823970,
        "osm_type": "way",
        "name": "Sannes coffee"
      }
    },
    {
      "type": "Feature",
      "geometry": {
        "type": "Point",
        "coordinates": [
          16.4475185,
          58.6611007
        ]
      },
      "properties": {
        "id": 418260823,
        "osm_type": "way",
        "name": "Key West Café"
      }
    },
    {
      "type": "Feature",
      "geometry": {
        "type": "Point",
        "coordinates": [
          15.5618749,
          58.4101843
        ]
      },
      "properties": {
        "id": 434611140,
        "osm_type": "way",
        "name": "Kafe Myran",
        "opening_hours": "We 18:00-22:00; Su 13:00-17:00",
        "takeaway": "yes"
      }
    },
    {
      "type": "Feature",
      "geometry": {
        "type": "Point",
        "coordinates": [
          15.7930315,
          58.7047202
        ]
      },
      "properties": {
        "id": 604382338,
        "osm_type": "way",
        "name": "Klippestorpsgården",
        "outdoor_seating": "yes"
      }
    },
    {
      "type": "Feature",
      "geometry": {
        "type": "Point",
        "coordinates": [
          16.0852268,
          58.7219055
        ]
      },
      "properties": {
        "id": 620164189,
        "osm_type": "way",
        "name": "Sörsjöns camping"
      }
    },
    {
      "type": "Feature",
      "geometry": {
        "type": "Point",
        "coordinates": [
          15.2242482,
          58.334198
        ]
      },
      "properties": {
        "id": 762676459,
        "osm_type": "way",
        "name": "Open New Doors Bahnhof"
      }
    },
    {
      "type": "Feature",
      "geometry": {
        "type": "Point",
        "coordinates": [
          15.5860332,
          58.4330139
        ]
      },
      "properties": {
        "id": 837369376,
        "osm_type": "way",
        "name": "Espresso House",
        "brand": "Espresso House",
        "opening_hours": "Mo-Fr 09:30-20:00; Sa,Su 09:30-18:00",
        "takeaway": "yes"
      }
    },
    {
      "type": "Feature",
      "geometry": {
        "type": "Point",
        "coordinates": [
          16.9429129,
          58.4885466
        ]
      },
      "properties": {
        "id": 915436298,
        "osm_type": "way",
        "name": "Lykkes Glass",
        "outdoor_seating": "yes"
      }
    },
    {
      "type": "Feature",
      "geometry": {
        "type": "Point",
        "coordinates": [
          15.8988368,
          58.0217515
        ]
      },
      "properties": {
        "id": 1087051413,
        "osm_type": "way"
      }
    },
    {
      "type": "Feature",
      "geometry": {
        "type": "Point",
        "coordinates": [
          15.093471,
          58.0056707
        ]
      },
      "properties": {
        "id": 1090967869,
        "osm_type": "way",
        "name": "Stebbarps Gård"
      }
    },
    {
      "type": "Feature",
      "geometry": {
        "type": "Point",
        "coordinates": [
          14.684304,
          58.3575785
        ]
      },
      "properties": {
        "id": 1092116625,
        "osm_type": "way"
      }
    },
    {
      "type": "Feature",
      "geometry": {
        "type": "Point",
        "coordinates": [
          15.557109,
          58.3439779
        ]
      },
      "properties": {
        "id": 1396064655,
        "osm_type": "way",
        "name": "Haddorps Gårdsbutik",
        "opening_hours": "Mo-Fr 09:00-18:00; Sa-Su 10:00-17:00",
        "outdoor_seating": "yes"
      }
    },
    {
      "type": "Feature",
      "geometry": {
        "type": "Point",
        "coordinates": [
          16.2589466,
          58.4583719
        ]
      },
      "properties": {
        "id": 1426263458,
        "osm_type": "way",
        "name": "Café Jägmästargården",
        "outdoor_seating": "yes"
      }
    },
    {
      "type": "Feature",
      "geometry": {
        "type": "Point",
        "coordinates": [
          16.156271,
          58.6185186
        ]
      },
      "properties": {
        "id": 1443570427,
        "osm_type": "way",
        "name": "Lindahls"
      }
    },
    {
      "type": "Feature",
      "geometry": {
        "type": "Point",
        "coordinates": [
          16.1560017,
          58.6184122
        ]
      },
      "properties": {
        "id": 1443570428,
        "osm_type": "way",
        "name": "Lindahls"
      }
    },
    {
      "type": "Feature",
      "geometry": {
        "type": "Point",
        "coordinates": [
          16.1576915,
          58.6192465
        ]
      },
      "properties": {
        "id": 1443570449,
        "osm_type": "way",
        "name": "Espresso House",
        "brand": "Espresso House",
        "takeaway": "yes"
      }
    }
  ]
}