{
  "type": "FeatureCollection",
  "features": [
    {
      "type": "Feature",
      "geometry": {
        "type": "Point",
        "coordinates": [
          25.5112413,
          69.4711427
        ]
      },
      "properties": {
        "id": 451730929,
        "osm_type": "node",
        "name": "Biebmo",
        "opening_hours": "Mo-Su 14:00-20:00"
      }
    },
    {
      "type": "Feature",
      "geometry": {
        "type": "Point",
        "coordinates": [
          29.6193978,
          70.1402108
        ]
      },
      "properties": {
        "id": 1288154460,
        "osm_type": "node",
        "name": "Tomaselvdalen skihytte",
        "opening_hours": "Jan 01-Apr 01: Sa-Su 10:00-16:00"
      }
    },
    {
      "type": "Feature",
      "geometry": {
        "type": "Point",
        "coordinates": [
          23.3721293,
          69.9710511
        ]
      },
      "properties": {
        "id": 1643392285,
        "osm_type": "node",
        "name": "Østlyngens Bakeri & Konditori",
        "opening_hours": "Mo-Fr 07:00-20:00;Sa 07:00-18:00"
      }
    },
    {
      "type": "Feature",
      "geometry": {
        "type": "Point",
        "coordinates": [
          28.1925243,
          70.1992911
        ]
      },
      "properties": {
        "id": 1982608697,
        "osm_type": "node",
        "name": "Smak"
      }
    },
    {
      "type": "Feature",
      "geometry": {
        "type": "Point",
        "coordinates": [
          29.7478669,
          70.0743492
        ]
      },
      "properties": {
        "id": 1999069084,
        "osm_type": "node",
        "name": "Vadsø Jazzklubb Varangerfestivalen"
      }
    },
    {
      "type": "Feature",
      "geometry": {
        "type": "Point",
        "coordinates": [
          23.2704446,
          69.9657112
        ]
      },
      "properties": {
        "id": 2185888671,
        "osm_type": "node",
        "name": "Uno",
        "opening_hours": "Mo-Fr 10:00-20:00; Sa 10:00-18:00"
      }
    },
    {
      "type": "Feature",
      "geometry": {
        "type": "Point",
        "coordinates": [
          30.0444758,
          69.7275309
        ]
      },
      "properties": {
        "id": 2351909312,
        "osm_type": "node",
        "name": "Centrum Cafe",
        "opening_hours": "Mo-Fr 09:00-16:00; Sa 09:00-15:00"
      }
    },
    {
      "type": "Feature",
      "geometry": {
        "type": "Point",
        "coordinates": [
          30.082815,
          70.55098
        ]
      },
      "properties": {
        "id": 2401909907,
        "osm_type": "node",
        "name": "Stauran Kunst Cafe"
      }
    },
    {
      "type": "Feature",
      "geometry": {
        "type": "Point",
        "coordinates": [
          23.6815232,
          70.6635631
        ]
      },
      "properties": {
        "id": 2603291026,
        "osm_type": "node",
        "name": "Enjoy Cafe & Thai Take Away"
      }
    },
    {
      "type": "Feature",
      "geometry": {
        "type": "Point",
        "coordinates": [
          23.6881417,
          70.6631403
        ]
      },
      "properties": {
        "id": 2886678807,
        "osm_type": "node",
        "name": "no19",
        "opening_hours": "Mo-We,Fr 10:00-16:30; Th 10:00-18:00; Sa 10:00-15:00"
      }
    },
    {
      "type": "Feature",
      "geometry": {
        "type": "Point",
        "coordinates": [
          23.6902494,
          70.663852
        ]
      },
      "properties": {
        "id": 2886681695,
        "osm_type": "node",
        "name": "Kafe NordVest",
        "opening_hours": "Mo-Fr 10:00-15:30",
        "outdoor_seating": "no"
      }
    },
    {
      "type": "Feature",
      "geometry": {
        "type": "Point",
        "coordinates": [
          25.971055,
          70.981898
        ]
      },
      "properties": {
        "id": 2888692151,
        "osm_type": "node",
        "name": "Honni Bakes",
        "opening_hours": "Mo-Sa 10:00-18:00"
      }
    },
    {
      "type": "Feature",
      "geometry": {
        "type": "Point",
        "coordinates": [
          31.1099845,
          70.3721803
        ]
      },
      "properties": {
        "id": 2940341394,
        "osm_type": "node",
        "name": "Strandtorget kafé"
      }
    },
    {
      "type": "Feature",
      "geometry": {
        "type": "Point",
        "coordinates": [
          23.2314435,
          69.9606193
        ]
      },
      "properties": {
        "id": 3469561014,
        "osm_type": "node",
        "name": "Kaffesalongen",
        "opening_hours": "Mo 08:30-16:00;Tu-Th 08:30-18:00; Fr 08:30-16:00;Sa 09:00-15:00"
      }
    },
    {
      "type": "Feature",
      "geometry": {
        "type": "Point",
        "coordinates": [
          23.26918,
          69.9653761
        ]
      },
      "properties": {
        "id": 3622323414,
        "osm_type": "node",
        "name": "Nordlysbadet Kafe"
      }
    },
    {
      "type": "Feature",
      "geometry": {
        "type": "Point",
        "coordinates": [
          23.0413739,
          69.011837
        ]
      },
      "properties": {
        "id": 3633209068,
        "osm_type": "node",
        "name": "Kafe Risku",
        "opening_hours": "Mo-Sa 11:00-19:00"
      }
    },
    {
      "type": "Feature",
      "geometry": {
        "type": "Point",
        "coordinates": [
          23.2735561,
          69.9669826
        ]
      },
      "properties": {
        "id": 3649773430,
        "osm_type": "node",
        "name": "Østlyngens Bakeri & Konditori - Bakeriutsalg",
        "opening_hours": "Mo-Fr 10:00-19:00; Sa 10:00-17:00;Su off"
      }
    },
    {
      "type": "Feature",
      "geometry": {
        "type": "Point",
        "coordinates": [
          29.3183757,
          70.7205141
        ]
      },
      "properties": {
        "id": 3690530482,
        "osm_type": "node",
        "name": "Kongsfjord Landhandel & cafe",
        "opening_hours": "Jun 1-Aug 15: 10:00-20:00"
      }
    },
    {
      "type": "Feature",
      "geometry": {
        "type": "Point",
        "coordinates": [
          22.2596196,
          70.0402157
        ]
      },
      "properties": {
        "id": 3716139335,
        "osm_type": "node",
        "name": "Porten til Finnmark",
        "opening_hours": "Jun 12:00-18:00;Jul Mo-Sa 11:00-18:00;Jul Su 12:00-18:00;Aug 12:00-18:00"
      }
    },
    {
      "type": "Feature",
      "geometry": {
        "type": "Point",
        "coordinates": [
          24.5042515,
          70.4319025
        ]
      },
      "properties": {
        "id": 4284755470,
        "osm_type": "node",
        "name": "bæivis",
        "opening_hours": "Mo-Th 10:30-20:30; Fr 10:30-21:00; Sa 11:00-21:00; Su 11:00-20:30"
      }
    },
    {
      "type": "Feature",
      "geometry": {
        "type": "Point",
        "coordinates": [
          25.5125929,
          69.4724817
        ]
      },
      "properties": {
        "id": 4292821290,
        "osm_type": "node",
        "name": "Kjells kafe",
        "outdoor_seating": "yes"
      }
    },
    {
      "type": "Feature",
      "geometry": {
        "type": "Point",
        "coordinates": [
          30.5129552,
          70.2409081
        ]
      },
      "properties": {
        "id": 4756182234,
        "osm_type": "node"
      }
    },
    {
      "type": "Feature",
      "geometry": {
        "type": "Point",
        "coordinates": [
          25.5050761,
          69.4727917
        ]
      },
      "properties": {
        "id": 5075131947,
        "osm_type": "node"
      }
    },
    {
      "type": "Feature",
      "geometry": {
        "type": "Point",
        "coordinates": [
          24.3970621,
          70.4485169
        ]
      },
      "properties": {
        "id": 5368245599,
        "osm_type": "node",
        "name": "Skaidi Alpin"
      }
    },
    {
      "type": "Feature",
      "geometry": {
        "type": "Point",
        "coordinates": [
          23.275599,
          69.9667688
        ]
      },
      "properties": {
        "id": 5640064595,
        "osm_type": "node",
        "name": "Studenthuset City Scene",
        "opening_hours": "Mo-Th 11:00-17:00,20:00-23:00; Fr 11:00-03:00; Sa 11:00-16:00,21:00-03:00"
      }
    },
    {
      "type": "Feature",
      "geometry": {
        "type": "Point",
        "coordinates": [
          24.9582058,
          70.0521376
        ]
      },
      "properties": {
        "id": 5863163718,
        "osm_type": "node",
        "name": "Senterkafèen",
        "opening_hours": "Th, Fr 09:00-17:00; Sa 10:00-15:00; Su off; Mo-We 09:00-16:00"
      }
    },
    {
      "type": "Feature",
      "geometry": {
        "type": "Point",
        "coordinates": [
          24.9821641,
          70.0662178
        ]
      },
      "properties": {
        "id": 5903073424,
        "osm_type": "node",
        "name": "Airport Cafe"
      }
    },
    {
      "type": "Feature",
      "geometry": {
        "type": "Point",
        "coordinates": [
          23.2935047,
          69.9767531
        ]
      },
      "properties": {
        "id": 6114210937,
        "osm_type": "node",
        "name": "Uno Catering & Delikatesse",
        "opening_hours": "Mo-Fr 10:00-17:00; Sa 11:00-16:00; PH,Su off"
      }
    },
    {
      "type": "Feature",
      "geometry": {
        "type": "Point",
        "coordinates": [
          25.55928,
          70.3173058
        ]
      },
      "properties": {
        "id": 6245652274,
        "osm_type": "node"
      }
    },
    {
      "type": "Feature",
      "geometry": {
        "type": "Point",
        "coordinates": [
          28.5719218,
          70.1745786
        ]
      },
      "properties": {
        "id": 6721900078,
        "osm_type": "node",
        "name": "Varanger starting point",
        "opening_hours": "Mo-Su 10:00-20:00"
      }
    },
    {
      "type": "Feature",
      "geometry": {
        "type": "Point",
        "coordinates": [
          29.6444178,
          69.972947
        ]
      },
      "properties": {
        "id": 6721914111,
        "osm_type": "node",
        "name": "Lassigården"
      }
    },
    {
      "type": "Feature",
      "geometry": {
        "type": "Point",
        "coordinates": [
          24.9658037,
          70.0532203
        ]
      },
      "properties": {
        "id": 6909898335,
        "osm_type": "node",
        "name": "Hos Hansens Cafe & Konditori",
        "opening_hours": "Mo-Th 05:00-13:00; Fr 05:00-15:00"
      }
    },
    {
      "type": "Feature",
      "geometry": {
        "type": "Point",
        "coordinates": [
          30.6142462,
          70.5400325
        ]
      },
      "properties": {
        "id": 7773262985,
        "osm_type": "node",
        "name": "Kafé Pakkhuskaia",
        "opening_hours": "Mo-Su 11:00-19:00"
      }
    },
    {
      "type": "Feature",
      "geometry": {
        "type": "Point",
        "coordinates": [
          24.9074972,
          70.1773847
        ]
      },
      "properties": {
        "id": 7787788150,
        "osm_type": "node",
        "name": "Stabbursdalen Resort",
        "outdoor_seating": "yes"
      }
    },
    {
      "type": "Feature",
      "geometry": {
        "type": "Point",
        "coordinates": [
          23.5282976,
          69.5878035
        ]
      },
      "properties": {
        "id": 7798241717,
        "osm_type": "node",
        "name": "Suolovuopmi Fjellstue"
      }
    },
    {
      "type": "Feature",
      "geometry": {
        "type": "Point",
        "coordinates": [
          25.8228461,
          71.1121786
        ]
      },
      "properties": {
        "id": 7812508839,
        "osm_type": "node",
        "name": "Nordkapp jul & vinterhus",
        "opening_hours": "Mo-Su 11:00-14:00,16:00-20:00",
        "takeaway": "yes",
        "outdoor_seating": "yes"
      }
    },
    {
      "type": "Feature",
      "geometry": {
        "type": "Point",
        "coordinates": [
          30.038844,
          69.7205
        ]
      },
      "properties": {
        "id": 7812508852,
        "osm_type": "node",
        "name": "Basilica cafe og restaurant"
      }
    },
    {
      "type": "Feature",
      "geometry": {
        "type": "Point",
        "coordinates": [
          30.041436,
          69.7256711
        ]
      },
      "properties": {
        "id": 7812508855,
        "osm_type": "node",
        "name": "Johnnys Lunch & Kaffebar"
      }
    },
    {
      "type": "Feature",
      "geometry": {
        "type": "Point",
        "coordinates": [
          23.1866848,
          69.9474952
        ]
      },
      "properties": {
        "id": 7812508864,
        "osm_type": "node",
        "name": "Museumskafeen"
      }
    },
    {
      "type": "Feature",
      "geometry": {
        "type": "Point",
        "coordinates": [
          29.7287908,
          70.6383488
        ]
      },
      "properties": {
        "id": 7812508880,
        "osm_type": "node",
        "name": "Bakerigården konditori",
        "opening_hours": "Mo-Fr 09:00-16:00; Sa 10:00-14:00; Su off",
        "outdoor_seating": "yes"
      }
    },
    {
      "type": "Feature",
      "geometry": {
        "type": "Point",
        "coordinates": [
          28.0701931,
          70.3498843
        ]
      },
      "properties": {
        "id": 10013095498,
        "osm_type": "node",
        "name": "Abborstua"
      }
    },
    {
      "type": "Feature",
      "geometry": {
        "type": "Point",
        "coordinates": [
          23.3650929,
          69.9665964
        ]
      },
      "properties": {
        "id": 10047262814,
        "osm_type": "node",
        "name": "Føniks kafè",
        "opening_hours": "Mo-Th 10:00-15:00; Fr 10:00-14:00; Sa,Su,PH off"
      }
    },
    {
      "type": "Feature",
      "geometry": {
        "type": "Point",
        "coordinates": [
          25.9675386,
          70.9992911
        ]
      },
      "properties": {
        "id": 11069334310,
        "osm_type": "node",
        "name": "Bistrofé"
      }
    },
    {
      "type": "Feature",
      "geometry": {
        "type": "Point",
        "coordinates": [
          23.667493,
          69.4436057
        ]
      },
      "properties": {
        "id": 11159014680,
        "osm_type": "node",
        "name": "Nærbutikken Maze",
        "opening_hours": "Mo-Fr 10:00-20:00, Sa 10:00-14:00"
      }
    },
    {
      "type": "Feature",
      "geometry": {
        "type": "Point",
        "coordinates": [
          30.0027648,
          70.532355
        ]
      },
      "properties": {
        "id": 11990143686,
        "osm_type": "node",
        "name": "Farmen"
      }
    },
    {
      "type": "Feature",
      "geometry": {
        "type": "Point",
        "coordinates": [
          22.3489169,
          70.2402985
        ]
      },
      "properties": {
        "id": 12292372457,
        "osm_type": "node",
        "name": "Støa kafé og spiseri"
      }
    },
    {
      "type": "Feature",
      "geometry": {
        "type": "Point",
        "coordinates": [
          25.3781245,
          71.0998198
        ]
      },
      "properties": {
        "id": 13081674381,
        "osm_type": "node",
        "name": "Matroken"
      }
    },
    {
      "type": "Feature",
      "geometry": {
        "type": "Point",
        "coordinates": [
          25.0690921,
          70.475144
        ]
      },
      "properties": {
        "id": 13085102361,
        "osm_type": "node"
      }
    },
    {
      "type": "Feature",
      "geometry": {
        "type": "Point",
        "coordinates": [
          25.8307682,
          71.1134755
        ]
      },
      "properties": {
        "id": 178131983,
        "osm_type": "way",
        "name": "Skarsvåg Tourist Center"
      }
    },
    {
      "type": "Feature",
      "geometry": {
        "type": "Point",
        "coordinates": [
          29.7530394,
          70.0735035
        ]
      },
      "properties": {
        "id": 189042496,
        "osm_type": "way",
        "name": "Hildonens bakeri og kafé"
      }
    },
    {
      "type": "Feature",
      "geometry": {
        "type": "Point",
        "coordinates": [
          24.56409,
          71.0193742
        ]
      },
      "properties": {
        "id": 194947199,
        "osm_type": "way",
        "name": "Arctic View"
      }
    },
    {
      "type": "Feature",
      "geometry": {
        "type": "Point",
        "coordinates": [
          30.0027713,
          70.5323407
        ]
      },
      "properties": {
        "id": 344881900,
        "osm_type": "way"
      }
    },
    {
      "type": "Feature",
      "geometry": {
        "type": "Point",
        "coordinates": [
          25.9760125,
          70.9800599
        ]
      },
      "properties": {
        "id": 1008799329,
        "osm_type": "way",
        "name": "Snoy",
        "outdoor_seating": "yes"
      }
    }
  ]
}