{
  "type": "FeatureCollection",
  "features": [
    {
      "type": "Feature",
      "geometry": {
        "type": "Point",
        "coordinates": [
          25.0662404,
          70.4782868
        ]
      },
      "properties": {
        "id": 454377026,
        "osm_type": "node"
      }
    },
    {
      "type": "Feature",
      "geometry": {
        "type": "Point",
        "coordinates": [
          27.8498724,
          71.0404717
        ]
      },
      "properties": {
        "id": 686571963,
        "osm_type": "node",
        "name": "Coop Marked Mehamn"
      }
    },
    {
      "type": "Feature",
      "geometry": {
        "type": "Point",
        "coordinates": [
          27.8519634,
          71.0386952
        ]
      },
      "properties": {
        "id": 1364910760,
        "osm_type": "node",
        "name": "Mix Johannes Nilsen Handleri",
        "brand": "Mix",
        "opening_hours": "Mo-Sa 11:00-20:00; Su 17:00-20:00"
      }
    },
    {
      "type": "Feature",
      "geometry": {
        "type": "Point",
        "coordinates": [
          30.0446099,
          69.7277932
        ]
      },
      "properties": {
        "id": 1484529316,
        "osm_type": "node",
        "name": "Narvesen",
        "brand": "Narvesen"
      }
    },
    {
      "type": "Feature",
      "geometry": {
        "type": "Point",
        "coordinates": [
          23.6828881,
          70.6631595
        ]
      },
      "properties": {
        "id": 1696939459,
        "osm_type": "node",
        "name": "Narvesen",
        "brand": "Narvesen",
        "opening_hours": "Mo-Fr 08:00-22:00; Sa 09:00-22:00; Su 10:00-22:00"
      }
    },
    {
      "type": "Feature",
      "geometry": {
        "type": "Point",
        "coordinates": [
          28.1867926,
          70.1998809
        ]
      },
      "properties": {
        "id": 1982620984,
        "osm_type": "node",
        "name": "Mix tigern storkiosk"
      }
    },
    {
      "type": "Feature",
      "geometry": {
        "type": "Point",
        "coordinates": [
          30.0402686,
          69.7280372
        ]
      },
      "properties": {
        "id": 2351840801,
        "osm_type": "node",
        "name": "Duangs Asias Mat"
      }
    },
    {
      "type": "Feature",
      "geometry": {
        "type": "Point",
        "coordinates": [
          29.9929533,
          69.6880665
        ]
      },
      "properties": {
        "id": 2351909337,
        "osm_type": "node"
      }
    },
    {
      "type": "Feature",
      "geometry": {
        "type": "Point",
        "coordinates": [
          23.6984865,
          70.6633592
        ]
      },
      "properties": {
        "id": 2603291029,
        "osm_type": "node",
        "name": "Narvensen"
      }
    },
    {
      "type": "Feature",
      "geometry": {
        "type": "Point",
        "coordinates": [
          27.4050326,
          70.0161198
        ]
      },
      "properties": {
        "id": 3455331246,
        "osm_type": "node",
        "name": "Snarkjøp Sirma",
        "brand": "Snarkjøp",
        "opening_hours": "Mo-Fr 10:00-16:30; Sa 10:00-14:30"
      }
    },
    {
      "type": "Feature",
      "geometry": {
        "type": "Point",
        "coordinates": [
          23.2310601,
          69.9610137
        ]
      },
      "properties": {
        "id": 3469388707,
        "osm_type": "node",
        "name": "Narvesen",
        "brand": "Narvesen"
      }
    },
    {
      "type": "Feature",
      "geometry": {
        "type": "Point",
        "coordinates": [
          23.2354262,
          69.960616
        ]
      },
      "properties": {
        "id": 3469502968,
        "osm_type": "node",
        "name": "YX Bossekop",
        "opening_hours": "Mo-Fr 00:00-01:00,06:00-24:00;Sa-Su 00:00-24:00"
      }
    },
    {
      "type": "Feature",
      "geometry": {
        "type": "Point",
        "coordinates": [
          25.5081179,
          69.467417
        ]
      },
      "properties": {
        "id": 4292822791,
        "osm_type": "node",
        "name": "Knivsmed Strømeng"
      }
    },
    {
      "type": "Feature",
      "geometry": {
        "type": "Point",
        "coordinates": [
          25.9693337,
          70.9815762
        ]
      },
      "properties": {
        "id": 4970125021,
        "osm_type": "node",
        "name": "Narvesen",
        "brand": "Narvesen"
      }
    },
    {
      "type": "Feature",
      "geometry": {
        "type": "Point",
        "coordinates": [
          23.6695337,
          70.6762164
        ]
      },
      "properties": {
        "id": 5011594721,
        "osm_type": "node",
        "name": "Asiabutikken"
      }
    },
    {
      "type": "Feature",
      "geometry": {
        "type": "Point",
        "coordinates": [
          23.6734515,
          70.6374431
        ]
      },
      "properties": {
        "id": 5815474069,
        "osm_type": "node",
        "name": "MariNor Bilpleie & Dekkhotel"
      }
    },
    {
      "type": "Feature",
      "geometry": {
        "type": "Point",
        "coordinates": [
          29.8839715,
          69.7214835
        ]
      },
      "properties": {
        "id": 6122926477,
        "osm_type": "node",
        "name": "Narvesen",
        "brand": "Narvesen"
      }
    },
    {
      "type": "Feature",
      "geometry": {
        "type": "Point",
        "coordinates": [
          23.67161,
          70.673025
        ]
      },
      "properties": {
        "id": 6122926989,
        "osm_type": "node",
        "name": "Narvesen",
        "brand": "Narvesen"
      }
    },
    {
      "type": "Feature",
      "geometry": {
        "type": "Point",
        "coordinates": [
          30.044822,
          69.727802
        ]
      },
      "properties": {
        "id": 6122927006,
        "osm_type": "node",
        "name": "Narvesen",
        "brand": "Narvesen"
      }
    },
    {
      "type": "Feature",
      "geometry": {
        "type": "Point",
        "coordinates": [
          22.1091539,
          70.2665517
        ]
      },
      "properties": {
        "id": 6568173134,
        "osm_type": "node",
        "name": "Snarkjøp Nuvsvåg",
        "brand": "Snarkjøp",
        "opening_hours": "Mo-Sa 10:00-13:00"
      }
    },
    {
      "type": "Feature",
      "geometry": {
        "type": "Point",
        "coordinates": [
          29.7147775,
          70.0799371
        ]
      },
      "properties": {
        "id": 6789986222,
        "osm_type": "node",
        "name": "Krysset storkiosk",
        "opening_hours": "Mo-Sa 09:00-24:00; Su 12:00-24:00"
      }
    },
    {
      "type": "Feature",
      "geometry": {
        "type": "Point",
        "coordinates": [
          31.1103995,
          70.3688759
        ]
      },
      "properties": {
        "id": 6832131602,
        "osm_type": "node",
        "name": "Søndrevåg kiosk",
        "opening_hours": "Mo-Sa 09:00-22:00; Su 12:00-22:00"
      }
    },
    {
      "type": "Feature",
      "geometry": {
        "type": "Point",
        "coordinates": [
          27.3539025,
          70.945747
        ]
      },
      "properties": {
        "id": 7140991163,
        "osm_type": "node",
        "name": "Mix Mossakiosken",
        "brand": "Mix",
        "opening_hours": "Mo-Fr 10:00-22:00; Sa 11:00-21:00; Su 15:00-20:00"
      }
    },
    {
      "type": "Feature",
      "geometry": {
        "type": "Point",
        "coordinates": [
          26.589672,
          70.6568482
        ]
      },
      "properties": {
        "id": 7141286377,
        "osm_type": "node",
        "name": "Snarkjøp Veidnes Bygdehandel",
        "brand": "Snarkjøp"
      }
    },
    {
      "type": "Feature",
      "geometry": {
        "type": "Point",
        "coordinates": [
          29.3185165,
          70.7205308
        ]
      },
      "properties": {
        "id": 7141286383,
        "osm_type": "node",
        "name": "Kongsfjord Landhandel"
      }
    },
    {
      "type": "Feature",
      "geometry": {
        "type": "Point",
        "coordinates": [
          21.7893077,
          70.2488386
        ]
      },
      "properties": {
        "id": 7141308490,
        "osm_type": "node",
        "name": "Snarkjøp Bergsfjord",
        "brand": "Snarkjøp"
      }
    },
    {
      "type": "Feature",
      "geometry": {
        "type": "Point",
        "coordinates": [
          28.1880113,
          70.1987412
        ]
      },
      "properties": {
        "id": 10942414020,
        "osm_type": "node",
        "name": "Tana Thai",
        "opening_hours": "Mo-Sa 11:00-18:00; Su,PH off"
      }
    },
    {
      "type": "Feature",
      "geometry": {
        "type": "Point",
        "coordinates": [
          22.2847668,
          70.0252536
        ]
      },
      "properties": {
        "id": 11459120267,
        "osm_type": "node",
        "name": "Snarkjøp Langfjord",
        "brand": "Snarkjøp",
        "opening_hours": "24/7"
      }
    },
    {
      "type": "Feature",
      "geometry": {
        "type": "Point",
        "coordinates": [
          23.3351339,
          69.9756903
        ]
      },
      "properties": {
        "id": 11938162134,
        "osm_type": "node"
      }
    },
    {
      "type": "Feature",
      "geometry": {
        "type": "Point",
        "coordinates": [
          24.6736878,
          70.9954038
        ]
      },
      "properties": {
        "id": 194926037,
        "osm_type": "way",
        "name": "ViMo"
      }
    },
    {
      "type": "Feature",
      "geometry": {
        "type": "Point",
        "coordinates": [
          29.7126045,
          70.6312305
        ]
      },
      "properties": {
        "id": 643835635,
        "osm_type": "way"
      }
    }
  ]
}