{
  "type": "FeatureCollection",
  "features": [
    {
      "type": "Feature",
      "geometry": {
        "type": "Point",
        "coordinates": [
          20.0961453,
          46.4865407
        ]
      },
      "properties": {
        "id": 2552420787,
        "osm_type": "node",
        "access": "customers"
      }
    },
    {
      "type": "Feature",
      "geometry": {
        "type": "Point",
        "coordinates": [
          20.0990733,
          46.4870921
        ]
      },
      "properties": {
        "id": 2552420790,
        "osm_type": "node"
      }
    },
    {
      "type": "Feature",
      "geometry": {
        "type": "Point",
        "coordinates": [
          20.0952378,
          46.4893212
        ]
      },
      "properties": {
        "id": 2552420794,
        "osm_type": "node",
        "access": "customers"
      }
    },
    {
      "type": "Feature",
      "geometry": {
        "type": "Point",
        "coordinates": [
          20.0215982,
          46.2711207
        ]
      },
      "properties": {
        "id": 3033602690,
        "osm_type": "node"
      }
    },
    {
      "type": "Feature",
      "geometry": {
        "type": "Point",
        "coordinates": [
          20.116138,
          46.2520067
        ]
      },
      "properties": {
        "id": 3437115975,
        "osm_type": "node",
        "access": "customers"
      }
    },
    {
      "type": "Feature",
      "geometry": {
        "type": "Point",
        "coordinates": [
          20.186465,
          46.715559
        ]
      },
      "properties": {
        "id": 3463086430,
        "osm_type": "node"
      }
    },
    {
      "type": "Feature",
      "geometry": {
        "type": "Point",
        "coordinates": [
          20.185183,
          46.715783
        ]
      },
      "properties": {
        "id": 3463086431,
        "osm_type": "node"
      }
    },
    {
      "type": "Feature",
      "geometry": {
        "type": "Point",
        "coordinates": [
          20.18288,
          46.715799
        ]
      },
      "properties": {
        "id": 3463086432,
        "osm_type": "node"
      }
    },
    {
      "type": "Feature",
      "geometry": {
        "type": "Point",
        "coordinates": [
          20.1571294,
          46.2731324
        ]
      },
      "properties": {
        "id": 3964481498,
        "osm_type": "node"
      }
    },
    {
      "type": "Feature",
      "geometry": {
        "type": "Point",
        "coordinates": [
          20.1679069,
          46.2568835
        ]
      },
      "properties": {
        "id": 3987146883,
        "osm_type": "node"
      }
    },
    {
      "type": "Feature",
      "geometry": {
        "type": "Point",
        "coordinates": [
          20.1077974,
          46.3813516
        ]
      },
      "properties": {
        "id": 4170335502,
        "osm_type": "node"
      }
    },
    {
      "type": "Feature",
      "geometry": {
        "type": "Point",
        "coordinates": [
          20.1053956,
          46.3832977
        ]
      },
      "properties": {
        "id": 4170335503,
        "osm_type": "node"
      }
    },
    {
      "type": "Feature",
      "geometry": {
        "type": "Point",
        "coordinates": [
          20.147011,
          46.2540854
        ]
      },
      "properties": {
        "id": 4230799089,
        "osm_type": "node",
        "opening_hours": "08:00-12:00,12:20-17:00,17:25-20:00",
        "access": "yes"
      }
    },
    {
      "type": "Feature",
      "geometry": {
        "type": "Point",
        "coordinates": [
          19.6743559,
          46.2842262
        ]
      },
      "properties": {
        "id": 4243150703,
        "osm_type": "node"
      }
    },
    {
      "type": "Feature",
      "geometry": {
        "type": "Point",
        "coordinates": [
          20.1419069,
          46.1791429
        ]
      },
      "properties": {
        "id": 4258330527,
        "osm_type": "node"
      }
    },
    {
      "type": "Feature",
      "geometry": {
        "type": "Point",
        "coordinates": [
          20.1056393,
          46.2746196
        ]
      },
      "properties": {
        "id": 4382014609,
        "osm_type": "node"
      }
    },
    {
      "type": "Feature",
      "geometry": {
        "type": "Point",
        "coordinates": [
          20.1202938,
          46.2443779
        ]
      },
      "properties": {
        "id": 4419294898,
        "osm_type": "node",
        "access": "yes"
      }
    },
    {
      "type": "Feature",
      "geometry": {
        "type": "Point",
        "coordinates": [
          20.3183282,
          46.4117587
        ]
      },
      "properties": {
        "id": 4422022994,
        "osm_type": "node",
        "opening_hours": "24/7"
      }
    },
    {
      "type": "Feature",
      "geometry": {
        "type": "Point",
        "coordinates": [
          20.1429893,
          46.2398735
        ]
      },
      "properties": {
        "id": 4737625690,
        "osm_type": "node"
      }
    },
    {
      "type": "Feature",
      "geometry": {
        "type": "Point",
        "coordinates": [
          20.1431111,
          46.2400922
        ]
      },
      "properties": {
        "id": 4737626624,
        "osm_type": "node"
      }
    },
    {
      "type": "Feature",
      "geometry": {
        "type": "Point",
        "coordinates": [
          20.1410273,
          46.257382
        ]
      },
      "properties": {
        "id": 4745723903,
        "osm_type": "node"
      }
    },
    {
      "type": "Feature",
      "geometry": {
        "type": "Point",
        "coordinates": [
          20.143077,
          46.2398277
        ]
      },
      "properties": {
        "id": 4753262162,
        "osm_type": "node"
      }
    },
    {
      "type": "Feature",
      "geometry": {
        "type": "Point",
        "coordinates": [
          20.1201009,
          46.2505132
        ]
      },
      "properties": {
        "id": 4838490055,
        "osm_type": "node",
        "access": "customers"
      }
    },
    {
      "type": "Feature",
      "geometry": {
        "type": "Point",
        "coordinates": [
          20.1136773,
          46.2485704
        ]
      },
      "properties": {
        "id": 4940660328,
        "osm_type": "node",
        "access": "customers"
      }
    },
    {
      "type": "Feature",
      "geometry": {
        "type": "Point",
        "coordinates": [
          20.1142705,
          46.2493734
        ]
      },
      "properties": {
        "id": 5059006571,
        "osm_type": "node",
        "access": "customers"
      }
    },
    {
      "type": "Feature",
      "geometry": {
        "type": "Point",
        "coordinates": [
          20.1021866,
          46.2739943
        ]
      },
      "properties": {
        "id": 5263416634,
        "osm_type": "node",
        "access": "customers"
      }
    },
    {
      "type": "Feature",
      "geometry": {
        "type": "Point",
        "coordinates": [
          20.0156485,
          46.2674546
        ]
      },
      "properties": {
        "id": 5315997210,
        "osm_type": "node"
      }
    },
    {
      "type": "Feature",
      "geometry": {
        "type": "Point",
        "coordinates": [
          20.0156153,
          46.2673103
        ]
      },
      "properties": {
        "id": 5315997211,
        "osm_type": "node"
      }
    },
    {
      "type": "Feature",
      "geometry": {
        "type": "Point",
        "coordinates": [
          19.8879506,
          46.2747432
        ]
      },
      "properties": {
        "id": 5803097279,
        "osm_type": "node",
        "access": "customers"
      }
    },
    {
      "type": "Feature",
      "geometry": {
        "type": "Point",
        "coordinates": [
          20.0200755,
          46.2700092
        ]
      },
      "properties": {
        "id": 5830226296,
        "osm_type": "node",
        "name": "WC & öltöző"
      }
    },
    {
      "type": "Feature",
      "geometry": {
        "type": "Point",
        "coordinates": [
          20.1285912,
          46.2668743
        ]
      },
      "properties": {
        "id": 5887380592,
        "osm_type": "node",
        "access": "yes"
      }
    },
    {
      "type": "Feature",
      "geometry": {
        "type": "Point",
        "coordinates": [
          20.4375503,
          46.2751997
        ]
      },
      "properties": {
        "id": 5981045030,
        "osm_type": "node",
        "access": "yes"
      }
    },
    {
      "type": "Feature",
      "geometry": {
        "type": "Point",
        "coordinates": [
          20.1739092,
          46.2356114
        ]
      },
      "properties": {
        "id": 6106218314,
        "osm_type": "node",
        "access": "customers"
      }
    },
    {
      "type": "Feature",
      "geometry": {
        "type": "Point",
        "coordinates": [
          20.1191281,
          46.2440226
        ]
      },
      "properties": {
        "id": 6282993204,
        "osm_type": "node",
        "access": "yes"
      }
    },
    {
      "type": "Feature",
      "geometry": {
        "type": "Point",
        "coordinates": [
          20.1373126,
          46.254392
        ]
      },
      "properties": {
        "id": 6574333380,
        "osm_type": "node"
      }
    },
    {
      "type": "Feature",
      "geometry": {
        "type": "Point",
        "coordinates": [
          19.8718603,
          46.2771546
        ]
      },
      "properties": {
        "id": 6643006169,
        "osm_type": "node"
      }
    },
    {
      "type": "Feature",
      "geometry": {
        "type": "Point",
        "coordinates": [
          20.0221538,
          46.2702362
        ]
      },
      "properties": {
        "id": 6651448295,
        "osm_type": "node"
      }
    },
    {
      "type": "Feature",
      "geometry": {
        "type": "Point",
        "coordinates": [
          20.0222231,
          46.2702051
        ]
      },
      "properties": {
        "id": 6651448322,
        "osm_type": "node"
      }
    },
    {
      "type": "Feature",
      "geometry": {
        "type": "Point",
        "coordinates": [
          20.1392329,
          46.2570989
        ]
      },
      "properties": {
        "id": 6961541987,
        "osm_type": "node",
        "opening_hours": "Mo-Sa 04:00-14:00; Su 04:00-13:00; PH off"
      }
    },
    {
      "type": "Feature",
      "geometry": {
        "type": "Point",
        "coordinates": [
          20.1390148,
          46.2567671
        ]
      },
      "properties": {
        "id": 7160125555,
        "osm_type": "node",
        "opening_hours": "closed"
      }
    },
    {
      "type": "Feature",
      "geometry": {
        "type": "Point",
        "coordinates": [
          20.3445499,
          46.4324878
        ]
      },
      "properties": {
        "id": 7459547892,
        "osm_type": "node"
      }
    },
    {
      "type": "Feature",
      "geometry": {
        "type": "Point",
        "coordinates": [
          20.0858102,
          46.4851716
        ]
      },
      "properties": {
        "id": 7823744215,
        "osm_type": "node"
      }
    },
    {
      "type": "Feature",
      "geometry": {
        "type": "Point",
        "coordinates": [
          20.1600348,
          46.2319007
        ]
      },
      "properties": {
        "id": 7842594080,
        "osm_type": "node"
      }
    },
    {
      "type": "Feature",
      "geometry": {
        "type": "Point",
        "coordinates": [
          20.1545061,
          46.2495817
        ]
      },
      "properties": {
        "id": 7848750544,
        "osm_type": "node",
        "access": "yes"
      }
    },
    {
      "type": "Feature",
      "geometry": {
        "type": "Point",
        "coordinates": [
          19.8843487,
          46.2779777
        ]
      },
      "properties": {
        "id": 7903159770,
        "osm_type": "node"
      }
    },
    {
      "type": "Feature",
      "geometry": {
        "type": "Point",
        "coordinates": [
          19.8843218,
          46.2779669
        ]
      },
      "properties": {
        "id": 7903159771,
        "osm_type": "node"
      }
    },
    {
      "type": "Feature",
      "geometry": {
        "type": "Point",
        "coordinates": [
          20.1627501,
          46.174072
        ]
      },
      "properties": {
        "id": 7922813578,
        "osm_type": "node",
        "access": "yes"
      }
    },
    {
      "type": "Feature",
      "geometry": {
        "type": "Point",
        "coordinates": [
          20.174249,
          46.231027
        ]
      },
      "properties": {
        "id": 8632748329,
        "osm_type": "node"
      }
    },
    {
      "type": "Feature",
      "geometry": {
        "type": "Point",
        "coordinates": [
          20.1252794,
          46.2662218
        ]
      },
      "properties": {
        "id": 9103641866,
        "osm_type": "node"
      }
    },
    {
      "type": "Feature",
      "geometry": {
        "type": "Point",
        "coordinates": [
          20.1252298,
          46.2662463
        ]
      },
      "properties": {
        "id": 9103641867,
        "osm_type": "node"
      }
    },
    {
      "type": "Feature",
      "geometry": {
        "type": "Point",
        "coordinates": [
          20.1738978,
          46.18378
        ]
      },
      "properties": {
        "id": 9253823024,
        "osm_type": "node",
        "access": "no"
      }
    },
    {
      "type": "Feature",
      "geometry": {
        "type": "Point",
        "coordinates": [
          20.1638977,
          46.2454949
        ]
      },
      "properties": {
        "id": 9334493819,
        "osm_type": "node"
      }
    },
    {
      "type": "Feature",
      "geometry": {
        "type": "Point",
        "coordinates": [
          20.093767,
          46.4882223
        ]
      },
      "properties": {
        "id": 9876004858,
        "osm_type": "node"
      }
    },
    {
      "type": "Feature",
      "geometry": {
        "type": "Point",
        "coordinates": [
          19.8876397,
          46.2174899
        ]
      },
      "properties": {
        "id": 9950741833,
        "osm_type": "node"
      }
    },
    {
      "type": "Feature",
      "geometry": {
        "type": "Point",
        "coordinates": [
          20.1615572,
          46.2495439
        ]
      },
      "properties": {
        "id": 9950928999,
        "osm_type": "node",
        "access": "customers"
      }
    },
    {
      "type": "Feature",
      "geometry": {
        "type": "Point",
        "coordinates": [
          20.1610261,
          46.2489327
        ]
      },
      "properties": {
        "id": 9950929002,
        "osm_type": "node"
      }
    },
    {
      "type": "Feature",
      "geometry": {
        "type": "Point",
        "coordinates": [
          19.8874618,
          46.2170471
        ]
      },
      "properties": {
        "id": 9951491173,
        "osm_type": "node"
      }
    },
    {
      "type": "Feature",
      "geometry": {
        "type": "Point",
        "coordinates": [
          20.1812947,
          46.2508675
        ]
      },
      "properties": {
        "id": 9952980780,
        "osm_type": "node",
        "access": "customers"
      }
    },
    {
      "type": "Feature",
      "geometry": {
        "type": "Point",
        "coordinates": [
          20.1812846,
          46.2508884
        ]
      },
      "properties": {
        "id": 9952980781,
        "osm_type": "node",
        "access": "customers"
      }
    },
    {
      "type": "Feature",
      "geometry": {
        "type": "Point",
        "coordinates": [
          19.8871692,
          46.2185051
        ]
      },
      "properties": {
        "id": 9958928671,
        "osm_type": "node",
        "access": "yes"
      }
    },
    {
      "type": "Feature",
      "geometry": {
        "type": "Point",
        "coordinates": [
          19.8871616,
          46.2185396
        ]
      },
      "properties": {
        "id": 9958928672,
        "osm_type": "node",
        "access": "yes"
      }
    },
    {
      "type": "Feature",
      "geometry": {
        "type": "Point",
        "coordinates": [
          20.273285,
          46.3848818
        ]
      },
      "properties": {
        "id": 9961895900,
        "osm_type": "node"
      }
    },
    {
      "type": "Feature",
      "geometry": {
        "type": "Point",
        "coordinates": [
          20.2764441,
          46.3822943
        ]
      },
      "properties": {
        "id": 9961902201,
        "osm_type": "node"
      }
    },
    {
      "type": "Feature",
      "geometry": {
        "type": "Point",
        "coordinates": [
          20.2738255,
          46.3839454
        ]
      },
      "properties": {
        "id": 9961905181,
        "osm_type": "node"
      }
    },
    {
      "type": "Feature",
      "geometry": {
        "type": "Point",
        "coordinates": [
          20.1391157,
          46.2689379
        ]
      },
      "properties": {
        "id": 10020233749,
        "osm_type": "node",
        "access": "yes"
      }
    },
    {
      "type": "Feature",
      "geometry": {
        "type": "Point",
        "coordinates": [
          20.2347819,
          46.6657407
        ]
      },
      "properties": {
        "id": 10086929000,
        "osm_type": "node"
      }
    },
    {
      "type": "Feature",
      "geometry": {
        "type": "Point",
        "coordinates": [
          20.3259749,
          46.221878
        ]
      },
      "properties": {
        "id": 10876247805,
        "osm_type": "node"
      }
    },
    {
      "type": "Feature",
      "geometry": {
        "type": "Point",
        "coordinates": [
          20.2116798,
          46.6785462
        ]
      },
      "properties": {
        "id": 11032250786,
        "osm_type": "node"
      }
    },
    {
      "type": "Feature",
      "geometry": {
        "type": "Point",
        "coordinates": [
          20.1077834,
          46.381438
        ]
      },
      "properties": {
        "id": 11147123607,
        "osm_type": "node"
      }
    },
    {
      "type": "Feature",
      "geometry": {
        "type": "Point",
        "coordinates": [
          19.7497648,
          46.2804859
        ]
      },
      "properties": {
        "id": 11148286440,
        "osm_type": "node"
      }
    },
    {
      "type": "Feature",
      "geometry": {
        "type": "Point",
        "coordinates": [
          20.3182453,
          46.4114399
        ]
      },
      "properties": {
        "id": 11148629149,
        "osm_type": "node",
        "access": "customers"
      }
    },
    {
      "type": "Feature",
      "geometry": {
        "type": "Point",
        "coordinates": [
          20.3182536,
          46.4114945
        ]
      },
      "properties": {
        "id": 11148629150,
        "osm_type": "node",
        "access": "customers"
      }
    },
    {
      "type": "Feature",
      "geometry": {
        "type": "Point",
        "coordinates": [
          20.1442639,
          46.2550036
        ]
      },
      "properties": {
        "id": 11307138466,
        "osm_type": "node",
        "opening_hours": "24/7",
        "access": "yes"
      }
    },
    {
      "type": "Feature",
      "geometry": {
        "type": "Point",
        "coordinates": [
          20.1617711,
          46.175126
        ]
      },
      "properties": {
        "id": 11361376537,
        "osm_type": "node",
        "access": "customers"
      }
    },
    {
      "type": "Feature",
      "geometry": {
        "type": "Point",
        "coordinates": [
          20.0948377,
          46.4889778
        ]
      },
      "properties": {
        "id": 11775261495,
        "osm_type": "node"
      }
    },
    {
      "type": "Feature",
      "geometry": {
        "type": "Point",
        "coordinates": [
          20.1651618,
          46.2659971
        ]
      },
      "properties": {
        "id": 11933272313,
        "osm_type": "node",
        "opening_hours": "Mo-Fr 09:00-17:30; Sa 10:00-17:30",
        "access": "yes"
      }
    },
    {
      "type": "Feature",
      "geometry": {
        "type": "Point",
        "coordinates": [
          20.1515516,
          46.2514488
        ]
      },
      "properties": {
        "id": 11936924855,
        "osm_type": "node",
        "access": "yes"
      }
    },
    {
      "type": "Feature",
      "geometry": {
        "type": "Point",
        "coordinates": [
          20.1753348,
          46.2355205
        ]
      },
      "properties": {
        "id": 11950641412,
        "osm_type": "node"
      }
    },
    {
      "type": "Feature",
      "geometry": {
        "type": "Point",
        "coordinates": [
          20.2185247,
          46.3385305
        ]
      },
      "properties": {
        "id": 12079587372,
        "osm_type": "node"
      }
    },
    {
      "type": "Feature",
      "geometry": {
        "type": "Point",
        "coordinates": [
          20.1576365,
          46.2520585
        ]
      },
      "properties": {
        "id": 12083550394,
        "osm_type": "node"
      }
    },
    {
      "type": "Feature",
      "geometry": {
        "type": "Point",
        "coordinates": [
          20.1575689,
          46.2521193
        ]
      },
      "properties": {
        "id": 12083550395,
        "osm_type": "node"
      }
    },
    {
      "type": "Feature",
      "geometry": {
        "type": "Point",
        "coordinates": [
          20.1079967,
          46.5522237
        ]
      },
      "properties": {
        "id": 12241214927,
        "osm_type": "node"
      }
    },
    {
      "type": "Feature",
      "geometry": {
        "type": "Point",
        "coordinates": [
          19.9526638,
          46.20728
        ]
      },
      "properties": {
        "id": 12714084916,
        "osm_type": "node",
        "access": "customers"
      }
    },
    {
      "type": "Feature",
      "geometry": {
        "type": "Point",
        "coordinates": [
          20.0375241,
          46.1884829
        ]
      },
      "properties": {
        "id": 12789124609,
        "osm_type": "node"
      }
    },
    {
      "type": "Feature",
      "geometry": {
        "type": "Point",
        "coordinates": [
          19.9672771,
          46.4669268
        ]
      },
      "properties": {
        "id": 12956613581,
        "osm_type": "node",
        "access": "customers"
      }
    },
    {
      "type": "Feature",
      "geometry": {
        "type": "Point",
        "coordinates": [
          20.1610829,
          46.2489265
        ]
      },
      "properties": {
        "id": 13342060707,
        "osm_type": "node"
      }
    },
    {
      "type": "Feature",
      "geometry": {
        "type": "Point",
        "coordinates": [
          19.9825578,
          46.1783849
        ]
      },
      "properties": {
        "id": 103975489,
        "osm_type": "way"
      }
    },
    {
      "type": "Feature",
      "geometry": {
        "type": "Point",
        "coordinates": [
          19.9812712,
          46.1786951
        ]
      },
      "properties": {
        "id": 103976890,
        "osm_type": "way"
      }
    },
    {
      "type": "Feature",
      "geometry": {
        "type": "Point",
        "coordinates": [
          20.1164184,
          46.1587621
        ]
      },
      "properties": {
        "id": 169077254,
        "osm_type": "way"
      }
    },
    {
      "type": "Feature",
      "geometry": {
        "type": "Point",
        "coordinates": [
          20.1109247,
          46.2949925
        ]
      },
      "properties": {
        "id": 303605636,
        "osm_type": "way"
      }
    },
    {
      "type": "Feature",
      "geometry": {
        "type": "Point",
        "coordinates": [
          20.1102237,
          46.295861
        ]
      },
      "properties": {
        "id": 303605637,
        "osm_type": "way"
      }
    },
    {
      "type": "Feature",
      "geometry": {
        "type": "Point",
        "coordinates": [
          19.8857679,
          46.5456741
        ]
      },
      "properties": {
        "id": 305395366,
        "osm_type": "way"
      }
    },
    {
      "type": "Feature",
      "geometry": {
        "type": "Point",
        "coordinates": [
          19.8843039,
          46.5456261
        ]
      },
      "properties": {
        "id": 305395367,
        "osm_type": "way",
        "access": "yes"
      }
    },
    {
      "type": "Feature",
      "geometry": {
        "type": "Point",
        "coordinates": [
          19.9972249,
          46.3713334
        ]
      },
      "properties": {
        "id": 305483659,
        "osm_type": "way"
      }
    },
    {
      "type": "Feature",
      "geometry": {
        "type": "Point",
        "coordinates": [
          19.9983156,
          46.3731655
        ]
      },
      "properties": {
        "id": 305483660,
        "osm_type": "way"
      }
    },
    {
      "type": "Feature",
      "geometry": {
        "type": "Point",
        "coordinates": [
          20.1155372,
          46.248628
        ]
      },
      "properties": {
        "id": 363365623,
        "osm_type": "way",
        "access": "customers"
      }
    },
    {
      "type": "Feature",
      "geometry": {
        "type": "Point",
        "coordinates": [
          20.4706744,
          46.1542617
        ]
      },
      "properties": {
        "id": 371183991,
        "osm_type": "way"
      }
    },
    {
      "type": "Feature",
      "geometry": {
        "type": "Point",
        "coordinates": [
          20.1587614,
          46.2319298
        ]
      },
      "properties": {
        "id": 505831844,
        "osm_type": "way"
      }
    },
    {
      "type": "Feature",
      "geometry": {
        "type": "Point",
        "coordinates": [
          20.1560974,
          46.2506136
        ]
      },
      "properties": {
        "id": 616098863,
        "osm_type": "way"
      }
    },
    {
      "type": "Feature",
      "geometry": {
        "type": "Point",
        "coordinates": [
          20.4385675,
          46.2738617
        ]
      },
      "properties": {
        "id": 633617597,
        "osm_type": "way"
      }
    },
    {
      "type": "Feature",
      "geometry": {
        "type": "Point",
        "coordinates": [
          20.1465472,
          46.248052
        ]
      },
      "properties": {
        "id": 718458033,
        "osm_type": "way"
      }
    },
    {
      "type": "Feature",
      "geometry": {
        "type": "Point",
        "coordinates": [
          20.323937,
          46.4103755
        ]
      },
      "properties": {
        "id": 787859640,
        "osm_type": "way",
        "access": "customers"
      }
    },
    {
      "type": "Feature",
      "geometry": {
        "type": "Point",
        "coordinates": [
          19.886657,
          46.2711806
        ]
      },
      "properties": {
        "id": 909956340,
        "osm_type": "way"
      }
    },
    {
      "type": "Feature",
      "geometry": {
        "type": "Point",
        "coordinates": [
          20.7489421,
          46.2157003
        ]
      },
      "properties": {
        "id": 1004861841,
        "osm_type": "way",
        "access": "yes"
      }
    },
    {
      "type": "Feature",
      "geometry": {
        "type": "Point",
        "coordinates": [
          20.7476653,
          46.2166871
        ]
      },
      "properties": {
        "id": 1004861842,
        "osm_type": "way",
        "access": "yes"
      }
    },
    {
      "type": "Feature",
      "geometry": {
        "type": "Point",
        "coordinates": [
          20.1656799,
          46.521041
        ]
      },
      "properties": {
        "id": 1304244180,
        "osm_type": "way"
      }
    },
    {
      "type": "Feature",
      "geometry": {
        "type": "Point",
        "coordinates": [
          20.1597524,
          46.2532573
        ]
      },
      "properties": {
        "id": 1305600459,
        "osm_type": "way",
        "access": "customers"
      }
    },
    {
      "type": "Feature",
      "geometry": {
        "type": "Point",
        "coordinates": [
          20.1597132,
          46.2533176
        ]
      },
      "properties": {
        "id": 1305600460,
        "osm_type": "way",
        "access": "customers"
      }
    },
    {
      "type": "Feature",
      "geometry": {
        "type": "Point",
        "coordinates": [
          20.1537493,
          46.1686913
        ]
      },
      "properties": {
        "id": 1489206397,
        "osm_type": "way"
      }
    },
    {
      "type": "Feature",
      "geometry": {
        "type": "Point",
        "coordinates": [
          20.1536439,
          46.1686535
        ]
      },
      "properties": {
        "id": 1489206400,
        "osm_type": "way"
      }
    },
    {
      "type": "Feature",
      "geometry": {
        "type": "Point",
        "coordinates": [
          20.1536933,
          46.1686787
        ]
      },
      "properties": {
        "id": 1489206401,
        "osm_type": "way"
      }
    }
  ]
}