{
  "type": "FeatureCollection",
  "features": [
    {
      "type": "Feature",
      "geometry": {
        "type": "Point",
        "coordinates": [
          13.0040405,
          46.6777574
        ]
      },
      "properties": {
        "id": 12709468853,
        "osm_type": "node",
        "vending": "food;eggs;joghurt"
      }
    },
    {
      "type": "Feature",
      "geometry": {
        "type": "Point",
        "coordinates": [
          13.2598502,
          46.8986738
        ]
      },
      "properties": {
        "id": 13247371725,
        "osm_type": "node",
        "vending": "drinks;sweets"
      }
    },
    {
      "type": "Feature",
      "geometry": {
        "type": "Point",
        "coordinates": [
          13.8065229,
          46.558292
        ]
      },
      "properties": {
        "id": 12959185557,
        "osm_type": "node",
        "vending": "food;milk",
        "operator": "Petz"
      }
    },
    {
      "type": "Feature",
      "geometry": {
        "type": "Point",
        "coordinates": [
          13.8779141,
          46.5693811
        ]
      },
      "properties": {
        "id": 10069343203,
        "osm_type": "node",
        "vending": "food"
      }
    },
    {
      "type": "Feature",
      "geometry": {
        "type": "Point",
        "coordinates": [
          13.9115444,
          46.5643198
        ]
      },
      "properties": {
        "id": 4437443829,
        "osm_type": "node",
        "vending": "drinks"
      }
    },
    {
      "type": "Feature",
      "geometry": {
        "type": "Point",
        "coordinates": [
          13.8274299,
          46.5886304
        ]
      },
      "properties": {
        "id": 9970544751,
        "osm_type": "node",
        "name": "Ackerbox",
        "vending": "food"
      }
    },
    {
      "type": "Feature",
      "geometry": {
        "type": "Point",
        "coordinates": [
          13.6448389,
          46.7199432
        ]
      },
      "properties": {
        "id": 13250557197,
        "osm_type": "node",
        "vending": "drinks;sweets"
      }
    },
    {
      "type": "Feature",
      "geometry": {
        "type": "Point",
        "coordinates": [
          13.6743468,
          46.7637179
        ]
      },
      "properties": {
        "id": 11150548844,
        "osm_type": "node",
        "vending": "drinks"
      }
    },
    {
      "type": "Feature",
      "geometry": {
        "type": "Point",
        "coordinates": [
          13.6314807,
          46.7893424
        ]
      },
      "properties": {
        "id": 10059863681,
        "osm_type": "node",
        "name": "Genusshitt'l",
        "opening_hours": "Mo-Su 06:00-22:00",
        "vending": "food"
      }
    },
    {
      "type": "Feature",
      "geometry": {
        "type": "Point",
        "coordinates": [
          13.8521553,
          46.6219886
        ]
      },
      "properties": {
        "id": 13653191402,
        "osm_type": "node",
        "vending": "food"
      }
    },
    {
      "type": "Feature",
      "geometry": {
        "type": "Point",
        "coordinates": [
          14.1043384,
          46.6178448
        ]
      },
      "properties": {
        "id": 12025780615,
        "osm_type": "node",
        "vending": "drinks"
      }
    },
    {
      "type": "Feature",
      "geometry": {
        "type": "Point",
        "coordinates": [
          14.14547,
          46.6363108
        ]
      },
      "properties": {
        "id": 11212212886,
        "osm_type": "node",
        "vending": "drinks;sweets",
        "operator": "selecta"
      }
    },
    {
      "type": "Feature",
      "geometry": {
        "type": "Point",
        "coordinates": [
          14.2483322,
          46.6569506
        ]
      },
      "properties": {
        "id": 9866445596,
        "osm_type": "node",
        "vending": "drinks"
      }
    },
    {
      "type": "Feature",
      "geometry": {
        "type": "Point",
        "coordinates": [
          14.2524594,
          46.6597571
        ]
      },
      "properties": {
        "id": 6561323010,
        "osm_type": "node",
        "vending": "food;drinks;coffee;milk;sweets"
      }
    },
    {
      "type": "Feature",
      "geometry": {
        "type": "Point",
        "coordinates": [
          13.9104057,
          46.8998082
        ]
      },
      "properties": {
        "id": 8932433085,
        "osm_type": "node",
        "name": "Schatzkiste",
        "vending": "drinks",
        "operator": "Hotel Hochschober"
      }
    },
    {
      "type": "Feature",
      "geometry": {
        "type": "Point",
        "coordinates": [
          13.6168354,
          47.0582278
        ]
      },
      "properties": {
        "id": 10047696350,
        "osm_type": "node",
        "vending": "drinks"
      }
    },
    {
      "type": "Feature",
      "geometry": {
        "type": "Point",
        "coordinates": [
          14.295877,
          46.5993066
        ]
      },
      "properties": {
        "id": 9725010924,
        "osm_type": "node",
        "name": "Bauernladen",
        "opening_hours": "06:00-22:00",
        "vending": "food"
      }
    },
    {
      "type": "Feature",
      "geometry": {
        "type": "Point",
        "coordinates": [
          14.2672074,
          46.6180598
        ]
      },
      "properties": {
        "id": 12228513148,
        "osm_type": "node",
        "vending": "snacks"
      }
    },
    {
      "type": "Feature",
      "geometry": {
        "type": "Point",
        "coordinates": [
          14.2668604,
          46.6228668
        ]
      },
      "properties": {
        "id": 8374695776,
        "osm_type": "node",
        "vending": "sweets;water;drinks"
      }
    },
    {
      "type": "Feature",
      "geometry": {
        "type": "Point",
        "coordinates": [
          14.2868299,
          46.6127666
        ]
      },
      "properties": {
        "id": 6497025352,
        "osm_type": "node",
        "vending": "drinks"
      }
    },
    {
      "type": "Feature",
      "geometry": {
        "type": "Point",
        "coordinates": [
          14.2957677,
          46.6073316
        ]
      },
      "properties": {
        "id": 6841664175,
        "osm_type": "node",
        "vending": "food",
        "operator": "Suppenstudio Sanibel GmbH."
      }
    },
    {
      "type": "Feature",
      "geometry": {
        "type": "Point",
        "coordinates": [
          14.3051238,
          46.6248035
        ]
      },
      "properties": {
        "id": 8575735240,
        "osm_type": "node",
        "vending": "drinks"
      }
    },
    {
      "type": "Feature",
      "geometry": {
        "type": "Point",
        "coordinates": [
          14.3035349,
          46.6233368
        ]
      },
      "properties": {
        "id": 11096813705,
        "osm_type": "node",
        "vending": "drinks;snacks",
        "brand": "Elite Kiosk"
      }
    },
    {
      "type": "Feature",
      "geometry": {
        "type": "Point",
        "coordinates": [
          14.3079156,
          46.6235383
        ]
      },
      "properties": {
        "id": 12957220542,
        "osm_type": "node",
        "vending": "coffee"
      }
    },
    {
      "type": "Feature",
      "geometry": {
        "type": "Point",
        "coordinates": [
          14.3079079,
          46.6235021
        ]
      },
      "properties": {
        "id": 12957233203,
        "osm_type": "node",
        "vending": "pizza"
      }
    },
    {
      "type": "Feature",
      "geometry": {
        "type": "Point",
        "coordinates": [
          14.2755297,
          46.6482165
        ]
      },
      "properties": {
        "id": 11420501600,
        "osm_type": "node",
        "vending": "milk"
      }
    },
    {
      "type": "Feature",
      "geometry": {
        "type": "Point",
        "coordinates": [
          14.3077111,
          46.635596
        ]
      },
      "properties": {
        "id": 13708777135,
        "osm_type": "node",
        "vending": "pizza"
      }
    },
    {
      "type": "Feature",
      "geometry": {
        "type": "Point",
        "coordinates": [
          14.3317982,
          46.6364167
        ]
      },
      "properties": {
        "id": 13421520951,
        "osm_type": "node",
        "vending": "drinks"
      }
    },
    {
      "type": "Feature",
      "geometry": {
        "type": "Point",
        "coordinates": [
          14.3397009,
          46.6802238
        ]
      },
      "properties": {
        "id": 7257507889,
        "osm_type": "node",
        "opening_hours": "24/7",
        "vending": "food"
      }
    },
    {
      "type": "Feature",
      "geometry": {
        "type": "Point",
        "coordinates": [
          14.3470455,
          46.6850326
        ]
      },
      "properties": {
        "id": 5824206287,
        "osm_type": "node",
        "vending": "coffee"
      }
    },
    {
      "type": "Feature",
      "geometry": {
        "type": "Point",
        "coordinates": [
          14.3470269,
          46.6850369
        ]
      },
      "properties": {
        "id": 5824206288,
        "osm_type": "node",
        "vending": "drinks"
      }
    },
    {
      "type": "Feature",
      "geometry": {
        "type": "Point",
        "coordinates": [
          14.4532952,
          46.755382
        ]
      },
      "properties": {
        "id": 6566159322,
        "osm_type": "node",
        "vending": "coffee"
      }
    }
  ]
}