{
  "type": "FeatureCollection",
  "features": [
    {
      "type": "Feature",
      "geometry": {
        "type": "Point",
        "coordinates": [
          20.6822352,
          44.2573922
        ]
      },
      "properties": {
        "id": 612917967,
        "osm_type": "node",
        "name": "НИС Петрол",
        "brand": "НИС Петрол",
        "opening_hours": "24/7"
      }
    },
    {
      "type": "Feature",
      "geometry": {
        "type": "Point",
        "coordinates": [
          20.9071196,
          44.0164805
        ]
      },
      "properties": {
        "id": 936150925,
        "osm_type": "node",
        "name": "НИС Петрол",
        "brand": "НИС Петрол",
        "opening_hours": "Mo-Su 06:00-22:00"
      }
    },
    {
      "type": "Feature",
      "geometry": {
        "type": "Point",
        "coordinates": [
          20.910062,
          44.0213889
        ]
      },
      "properties": {
        "id": 971083787,
        "osm_type": "node",
        "name": "ЕКО Петрол",
        "brand": "EKO",
        "opening_hours": "24/7",
        "check_date": "2025-04-26"
      }
    },
    {
      "type": "Feature",
      "geometry": {
        "type": "Point",
        "coordinates": [
          20.9204149,
          44.0269871
        ]
      },
      "properties": {
        "id": 971083973,
        "osm_type": "node"
      }
    },
    {
      "type": "Feature",
      "geometry": {
        "type": "Point",
        "coordinates": [
          20.9112335,
          44.0351081
        ]
      },
      "properties": {
        "id": 971087260,
        "osm_type": "node",
        "name": "Lukoil",
        "brand": "Lukoil",
        "opening_hours": "24/7",
        "check_date": "2025-04-21"
      }
    },
    {
      "type": "Feature",
      "geometry": {
        "type": "Point",
        "coordinates": [
          20.8821725,
          44.0074314
        ]
      },
      "properties": {
        "id": 976667224,
        "osm_type": "node"
      }
    },
    {
      "type": "Feature",
      "geometry": {
        "type": "Point",
        "coordinates": [
          20.9357415,
          44.0158008
        ]
      },
      "properties": {
        "id": 999202319,
        "osm_type": "node",
        "name": "Коле петрол"
      }
    },
    {
      "type": "Feature",
      "geometry": {
        "type": "Point",
        "coordinates": [
          20.6935635,
          44.047913
        ]
      },
      "properties": {
        "id": 1314911883,
        "osm_type": "node",
        "name": "MKWT Milosevic"
      }
    },
    {
      "type": "Feature",
      "geometry": {
        "type": "Point",
        "coordinates": [
          20.9296676,
          44.0188747
        ]
      },
      "properties": {
        "id": 1789060795,
        "osm_type": "node",
        "name": "НИС Петрол",
        "brand": "НИС Петрол",
        "opening_hours": "Mo-Su 06:00-22:00"
      }
    },
    {
      "type": "Feature",
      "geometry": {
        "type": "Point",
        "coordinates": [
          20.9183902,
          44.0283241
        ]
      },
      "properties": {
        "id": 1808918202,
        "osm_type": "node",
        "name": "Газпром",
        "brand": "Gazprom",
        "opening_hours": "24/7"
      }
    },
    {
      "type": "Feature",
      "geometry": {
        "type": "Point",
        "coordinates": [
          20.848058,
          43.9886352
        ]
      },
      "properties": {
        "id": 2114896117,
        "osm_type": "node",
        "name": "Miletić komerc",
        "brand": "Miletić komerc",
        "opening_hours": "24/7",
        "check_date": "2025-04-20"
      }
    },
    {
      "type": "Feature",
      "geometry": {
        "type": "Point",
        "coordinates": [
          20.9080738,
          44.044192
        ]
      },
      "properties": {
        "id": 2114896118,
        "osm_type": "node",
        "name": "Кнез Петрол",
        "brand": "Кнез Петрол",
        "opening_hours": "24/7",
        "check_date": "2025-05-03"
      }
    },
    {
      "type": "Feature",
      "geometry": {
        "type": "Point",
        "coordinates": [
          20.7799248,
          43.9358891
        ]
      },
      "properties": {
        "id": 2119463631,
        "osm_type": "node",
        "name": "Lukoil",
        "brand": "Lukoil",
        "opening_hours": "24/7",
        "check_date": "2025-04-21"
      }
    },
    {
      "type": "Feature",
      "geometry": {
        "type": "Point",
        "coordinates": [
          20.6985396,
          44.2415692
        ]
      },
      "properties": {
        "id": 2239171165,
        "osm_type": "node"
      }
    },
    {
      "type": "Feature",
      "geometry": {
        "type": "Point",
        "coordinates": [
          20.6911801,
          44.2466962
        ]
      },
      "properties": {
        "id": 2239171168,
        "osm_type": "node",
        "name": "Trnava promet",
        "brand": "Trnava promet",
        "opening_hours": "Mo-Sа 07:00-22:00; Su 07:00-21:00",
        "check_date": "2025-05-18"
      }
    },
    {
      "type": "Feature",
      "geometry": {
        "type": "Point",
        "coordinates": [
          20.6969949,
          44.277196
        ]
      },
      "properties": {
        "id": 2239171175,
        "osm_type": "node",
        "name": "Neša petrol",
        "opening_hours": "24/7",
        "check_date": "2025-05-04"
      }
    },
    {
      "type": "Feature",
      "geometry": {
        "type": "Point",
        "coordinates": [
          20.6981345,
          44.2839544
        ]
      },
      "properties": {
        "id": 2239171183,
        "osm_type": "node",
        "name": "Neša petrol",
        "opening_hours": "24/7",
        "check_date": "2025-05-20"
      }
    },
    {
      "type": "Feature",
      "geometry": {
        "type": "Point",
        "coordinates": [
          21.0765325,
          44.1525709
        ]
      },
      "properties": {
        "id": 2431183522,
        "osm_type": "node",
        "name": "Bugarin petrol",
        "opening_hours": "24/7",
        "check_date": "2025-09-18"
      }
    },
    {
      "type": "Feature",
      "geometry": {
        "type": "Point",
        "coordinates": [
          20.5862262,
          44.3335453
        ]
      },
      "properties": {
        "id": 2495199916,
        "osm_type": "node"
      }
    },
    {
      "type": "Feature",
      "geometry": {
        "type": "Point",
        "coordinates": [
          20.9843267,
          44.221496
        ]
      },
      "properties": {
        "id": 4973727705,
        "osm_type": "node",
        "name": "DMB petrol oil",
        "brand": "DMB petrol oil",
        "opening_hours": "24/7",
        "check_date": "2025-05-18"
      }
    },
    {
      "type": "Feature",
      "geometry": {
        "type": "Point",
        "coordinates": [
          20.9302773,
          44.0187252
        ]
      },
      "properties": {
        "id": 5843965888,
        "osm_type": "node",
        "name": "НИС Петрол",
        "brand": "НИС Петрол",
        "opening_hours": "24/7"
      }
    },
    {
      "type": "Feature",
      "geometry": {
        "type": "Point",
        "coordinates": [
          20.9253192,
          44.0194727
        ]
      },
      "properties": {
        "id": 5843965899,
        "osm_type": "node",
        "name": "Кнез Петрол",
        "brand": "Кнез Петрол",
        "opening_hours": "24/7",
        "check_date": "2025-05-03"
      }
    },
    {
      "type": "Feature",
      "geometry": {
        "type": "Point",
        "coordinates": [
          20.9122,
          44.0273165
        ]
      },
      "properties": {
        "id": 5843965900,
        "osm_type": "node",
        "name": "НИС Петрол",
        "brand": "НИС Петрол",
        "opening_hours": "24/7"
      }
    },
    {
      "type": "Feature",
      "geometry": {
        "type": "Point",
        "coordinates": [
          20.9192568,
          44.0063358
        ]
      },
      "properties": {
        "id": 5866572876,
        "osm_type": "node",
        "name": "MOL",
        "brand": "MOL",
        "opening_hours": "Mo-Su 06:00-22:00"
      }
    },
    {
      "type": "Feature",
      "geometry": {
        "type": "Point",
        "coordinates": [
          20.8835802,
          43.9983493
        ]
      },
      "properties": {
        "id": 6455465588,
        "osm_type": "node",
        "name": "НИС Петрол",
        "brand": "НИС Петрол",
        "opening_hours": "24/7"
      }
    },
    {
      "type": "Feature",
      "geometry": {
        "type": "Point",
        "coordinates": [
          20.8892709,
          44.0006971
        ]
      },
      "properties": {
        "id": 6455465600,
        "osm_type": "node",
        "name": "ЕКО Петрол",
        "brand": "EKO",
        "opening_hours": "24/7",
        "check_date": "2025-04-27"
      }
    },
    {
      "type": "Feature",
      "geometry": {
        "type": "Point",
        "coordinates": [
          20.9182377,
          43.9991171
        ]
      },
      "properties": {
        "id": 6532921410,
        "osm_type": "node",
        "name": "Box petrol"
      }
    },
    {
      "type": "Feature",
      "geometry": {
        "type": "Point",
        "coordinates": [
          20.9303939,
          44.0014547
        ]
      },
      "properties": {
        "id": 6532926019,
        "osm_type": "node"
      }
    },
    {
      "type": "Feature",
      "geometry": {
        "type": "Point",
        "coordinates": [
          20.8933463,
          44.0024798
        ]
      },
      "properties": {
        "id": 6581934327,
        "osm_type": "node",
        "name": "OMV",
        "brand": "OMV",
        "opening_hours": "24/7"
      }
    },
    {
      "type": "Feature",
      "geometry": {
        "type": "Point",
        "coordinates": [
          20.9837456,
          44.2237897
        ]
      },
      "properties": {
        "id": 6700359035,
        "osm_type": "node",
        "name": "Lukoil",
        "brand": "Lukoil",
        "opening_hours": "Mo-Su 06:00-22:00",
        "check_date": "2025-04-21"
      }
    },
    {
      "type": "Feature",
      "geometry": {
        "type": "Point",
        "coordinates": [
          20.9714686,
          44.2316291
        ]
      },
      "properties": {
        "id": 6700383928,
        "osm_type": "node",
        "name": "DMB petrol oil",
        "brand": "DMB petrol oil",
        "opening_hours": "24/7",
        "check_date": "2025-05-18"
      }
    },
    {
      "type": "Feature",
      "geometry": {
        "type": "Point",
        "coordinates": [
          20.8785293,
          44.0015731
        ]
      },
      "properties": {
        "id": 6737302470,
        "osm_type": "node"
      }
    },
    {
      "type": "Feature",
      "geometry": {
        "type": "Point",
        "coordinates": [
          20.6792981,
          43.973297
        ]
      },
      "properties": {
        "id": 7415628971,
        "osm_type": "node",
        "name": "НГ петрол",
        "opening_hours": "Mo-Su 06:00-22:00"
      }
    },
    {
      "type": "Feature",
      "geometry": {
        "type": "Point",
        "coordinates": [
          20.9178234,
          43.9980721
        ]
      },
      "properties": {
        "id": 8295270532,
        "osm_type": "node",
        "name": "Lukoil",
        "brand": "Lukoil",
        "opening_hours": "24/7",
        "check_date": "2025-04-21"
      }
    },
    {
      "type": "Feature",
      "geometry": {
        "type": "Point",
        "coordinates": [
          20.6421683,
          43.9130182
        ]
      },
      "properties": {
        "id": 8596904844,
        "osm_type": "node"
      }
    },
    {
      "type": "Feature",
      "geometry": {
        "type": "Point",
        "coordinates": [
          20.5873162,
          44.3028569
        ]
      },
      "properties": {
        "id": 9994712122,
        "osm_type": "node",
        "name": "НИС Петрол",
        "brand": "НИС Петрол",
        "opening_hours": "24/7"
      }
    },
    {
      "type": "Feature",
      "geometry": {
        "type": "Point",
        "coordinates": [
          20.5504646,
          44.3126853
        ]
      },
      "properties": {
        "id": 10047245549,
        "osm_type": "node",
        "name": "MOL",
        "brand": "MOL",
        "opening_hours": "24/7"
      }
    },
    {
      "type": "Feature",
      "geometry": {
        "type": "Point",
        "coordinates": [
          20.598766,
          44.1939679
        ]
      },
      "properties": {
        "id": 10902622447,
        "osm_type": "node",
        "name": "NG Petrol",
        "opening_hours": "Mo-Su 06:00-22:00",
        "check_date": "2025-05-20"
      }
    },
    {
      "type": "Feature",
      "geometry": {
        "type": "Point",
        "coordinates": [
          20.876486,
          44.0733291
        ]
      },
      "properties": {
        "id": 11176208188,
        "osm_type": "node",
        "name": "Lukoil",
        "brand": "Lukoil",
        "opening_hours": "Mo-Su 06:00-22:00",
        "check_date": "2025-04-21"
      }
    },
    {
      "type": "Feature",
      "geometry": {
        "type": "Point",
        "coordinates": [
          21.014823,
          44.122107
        ]
      },
      "properties": {
        "id": 11698563080,
        "osm_type": "node",
        "name": "Reisen petrol",
        "opening_hours": "Mo-Su 06:00-23:00"
      }
    },
    {
      "type": "Feature",
      "geometry": {
        "type": "Point",
        "coordinates": [
          20.9282159,
          44.023739
        ]
      },
      "properties": {
        "id": 11799539574,
        "osm_type": "node",
        "name": "Shell",
        "brand": "Shell",
        "opening_hours": "24/7"
      }
    },
    {
      "type": "Feature",
      "geometry": {
        "type": "Point",
        "coordinates": [
          20.6858323,
          44.2621004
        ]
      },
      "properties": {
        "id": 12206732098,
        "osm_type": "node",
        "name": "DMB petrol oil",
        "brand": "DMB petrol oil",
        "opening_hours": "24/7",
        "check_date": "2025-05-18"
      }
    },
    {
      "type": "Feature",
      "geometry": {
        "type": "Point",
        "coordinates": [
          20.9329645,
          44.0211672
        ]
      },
      "properties": {
        "id": 12752740911,
        "osm_type": "node",
        "name": "Petrol",
        "brand": "Petrol",
        "opening_hours": "24/7",
        "check_date": "2025-04-13"
      }
    },
    {
      "type": "Feature",
      "geometry": {
        "type": "Point",
        "coordinates": [
          21.1111261,
          44.1498087
        ]
      },
      "properties": {
        "id": 12765613406,
        "osm_type": "node",
        "name": "Mihajlović",
        "opening_hours": "24/7",
        "check_date": "2025-04-18"
      }
    },
    {
      "type": "Feature",
      "geometry": {
        "type": "Point",
        "coordinates": [
          21.0727998,
          44.1484137
        ]
      },
      "properties": {
        "id": 12805730006,
        "osm_type": "node",
        "name": "Кнез Петрол",
        "brand": "Кнез Петрол",
        "opening_hours": "24/7",
        "check_date": "2025-05-03"
      }
    },
    {
      "type": "Feature",
      "geometry": {
        "type": "Point",
        "coordinates": [
          20.9308697,
          44.0147303
        ]
      },
      "properties": {
        "id": 12809990567,
        "osm_type": "node",
        "name": "ButanGas",
        "brand": "ButanGas",
        "opening_hours": "24/7",
        "check_date": "2025-05-04"
      }
    },
    {
      "type": "Feature",
      "geometry": {
        "type": "Point",
        "coordinates": [
          20.5977374,
          44.3079085
        ]
      },
      "properties": {
        "id": 12846628124,
        "osm_type": "node",
        "name": "MG petrol",
        "brand": "MG petrol",
        "opening_hours": "Mo-Su 05:30-23:30",
        "check_date": "2025-05-18"
      }
    },
    {
      "type": "Feature",
      "geometry": {
        "type": "Point",
        "coordinates": [
          20.5901396,
          44.3020798
        ]
      },
      "properties": {
        "id": 12846817772,
        "osm_type": "node",
        "name": "DMB petrol oil",
        "brand": "DMB petrol oil",
        "opening_hours": "24/7",
        "check_date": "2025-05-18"
      }
    },
    {
      "type": "Feature",
      "geometry": {
        "type": "Point",
        "coordinates": [
          20.5946075,
          44.3007166
        ]
      },
      "properties": {
        "id": 12846817780,
        "osm_type": "node",
        "name": "Univerzum",
        "brand": "Univerzum",
        "opening_hours": "24/7",
        "check_date": "2025-05-04"
      }
    },
    {
      "type": "Feature",
      "geometry": {
        "type": "Point",
        "coordinates": [
          20.5189899,
          44.3290606
        ]
      },
      "properties": {
        "id": 12846849585,
        "osm_type": "node",
        "name": "DMB petrol oil",
        "brand": "DMB petrol oil",
        "check_date": "2025-05-18"
      }
    },
    {
      "type": "Feature",
      "geometry": {
        "type": "Point",
        "coordinates": [
          20.5576811,
          44.3098477
        ]
      },
      "properties": {
        "id": 12846849586,
        "osm_type": "node",
        "name": "Univerzum",
        "brand": "Univerzum",
        "opening_hours": "Mo-Su 07:00-22:00",
        "check_date": "2025-05-12"
      }
    },
    {
      "type": "Feature",
      "geometry": {
        "type": "Point",
        "coordinates": [
          20.7992017,
          44.2518373
        ]
      },
      "properties": {
        "id": 12846991888,
        "osm_type": "node",
        "name": "DMB petrol oil",
        "brand": "DMB petrol oil",
        "opening_hours": "24/7",
        "check_date": "2025-05-18"
      }
    },
    {
      "type": "Feature",
      "geometry": {
        "type": "Point",
        "coordinates": [
          20.6775274,
          44.2514233
        ]
      },
      "properties": {
        "id": 12847053831,
        "osm_type": "node",
        "name": "Homeland",
        "check_date": "2025-05-18"
      }
    },
    {
      "type": "Feature",
      "geometry": {
        "type": "Point",
        "coordinates": [
          20.7421625,
          44.1442226
        ]
      },
      "properties": {
        "id": 12847171654,
        "osm_type": "node",
        "name": "DMB petrol oil",
        "brand": "DMB petrol oil",
        "opening_hours": "24/7",
        "check_date": "2025-05-18"
      }
    },
    {
      "type": "Feature",
      "geometry": {
        "type": "Point",
        "coordinates": [
          20.4654989,
          44.4134308
        ]
      },
      "properties": {
        "id": 12849444869,
        "osm_type": "node",
        "name": "Morava gas",
        "brand": "Morava gas",
        "opening_hours": "Mo-Su 07:00-20:00",
        "check_date": "2025-05-19"
      }
    },
    {
      "type": "Feature",
      "geometry": {
        "type": "Point",
        "coordinates": [
          20.9133229,
          44.0300412
        ]
      },
      "properties": {
        "id": 12878796113,
        "osm_type": "node",
        "name": "MOL",
        "brand": "MOL",
        "opening_hours": "24/7"
      }
    },
    {
      "type": "Feature",
      "geometry": {
        "type": "Point",
        "coordinates": [
          21.0906717,
          44.176888
        ]
      },
      "properties": {
        "id": 13153064466,
        "osm_type": "node",
        "name": "Bugarin petrol",
        "opening_hours": "24/7",
        "check_date": "2025-09-18"
      }
    },
    {
      "type": "Feature",
      "geometry": {
        "type": "Point",
        "coordinates": [
          21.0906218,
          44.1897655
        ]
      },
      "properties": {
        "id": 13153064470,
        "osm_type": "node",
        "name": "Bugarin petrol",
        "opening_hours": "Mo-Su 06:00-22:00",
        "check_date": "2025-09-18"
      }
    },
    {
      "type": "Feature",
      "geometry": {
        "type": "Point",
        "coordinates": [
          21.0913657,
          44.178906
        ]
      },
      "properties": {
        "id": 13153107761,
        "osm_type": "node",
        "name": "DTL Morava",
        "opening_hours": "24/7",
        "check_date": "2025-09-18"
      }
    },
    {
      "type": "Feature",
      "geometry": {
        "type": "Point",
        "coordinates": [
          21.0896507,
          44.1721538
        ]
      },
      "properties": {
        "id": 13266994101,
        "osm_type": "node"
      }
    },
    {
      "type": "Feature",
      "geometry": {
        "type": "Point",
        "coordinates": [
          21.097379,
          44.1843776
        ]
      },
      "properties": {
        "id": 13267007201,
        "osm_type": "node"
      }
    },
    {
      "type": "Feature",
      "geometry": {
        "type": "Point",
        "coordinates": [
          20.8607793,
          44.02632
        ]
      },
      "properties": {
        "id": 168707947,
        "osm_type": "way",
        "name": "Геопетрол МБ"
      }
    },
    {
      "type": "Feature",
      "geometry": {
        "type": "Point",
        "coordinates": [
          20.7269097,
          43.927268
        ]
      },
      "properties": {
        "id": 419896817,
        "osm_type": "way"
      }
    },
    {
      "type": "Feature",
      "geometry": {
        "type": "Point",
        "coordinates": [
          20.8229793,
          43.9765162
        ]
      },
      "properties": {
        "id": 626238104,
        "osm_type": "way",
        "name": "Kole petrol"
      }
    },
    {
      "type": "Feature",
      "geometry": {
        "type": "Point",
        "coordinates": [
          20.8937236,
          44.0073651
        ]
      },
      "properties": {
        "id": 690064758,
        "osm_type": "way",
        "name": "Макс петрол",
        "opening_hours": "24/7"
      }
    },
    {
      "type": "Feature",
      "geometry": {
        "type": "Point",
        "coordinates": [
          20.5751234,
          44.301324
        ]
      },
      "properties": {
        "id": 1089477583,
        "osm_type": "way",
        "name": "НИС Петрол",
        "brand": "НИС Петрол",
        "opening_hours": "Mo-Su 06:00-22:00"
      }
    },
    {
      "type": "Feature",
      "geometry": {
        "type": "Point",
        "coordinates": [
          21.1078979,
          44.2048328
        ]
      },
      "properties": {
        "id": 1093138206,
        "osm_type": "way",
        "name": "OMV",
        "brand": "OMV",
        "opening_hours": "24/7"
      }
    },
    {
      "type": "Feature",
      "geometry": {
        "type": "Point",
        "coordinates": [
          21.1057906,
          44.2070686
        ]
      },
      "properties": {
        "id": 1093140294,
        "osm_type": "way",
        "name": "OMV",
        "brand": "OMV",
        "opening_hours": "24/7"
      }
    },
    {
      "type": "Feature",
      "geometry": {
        "type": "Point",
        "coordinates": [
          20.5533497,
          44.3215996
        ]
      },
      "properties": {
        "id": 1116870950,
        "osm_type": "way",
        "name": "Auto klinika"
      }
    },
    {
      "type": "Feature",
      "geometry": {
        "type": "Point",
        "coordinates": [
          20.7268033,
          43.9271986
        ]
      },
      "properties": {
        "id": 1229266720,
        "osm_type": "way"
      }
    },
    {
      "type": "Feature",
      "geometry": {
        "type": "Point",
        "coordinates": [
          20.5474149,
          44.3141558
        ]
      },
      "properties": {
        "id": 1263117686,
        "osm_type": "way",
        "name": "Lukoil",
        "brand": "Lukoil",
        "opening_hours": "24/7",
        "check_date": "2025-04-21"
      }
    },
    {
      "type": "Feature",
      "geometry": {
        "type": "Point",
        "coordinates": [
          20.8970276,
          44.007532
        ]
      },
      "properties": {
        "id": 1292930922,
        "osm_type": "way",
        "name": "Трнава промет"
      }
    },
    {
      "type": "Feature",
      "geometry": {
        "type": "Point",
        "coordinates": [
          20.5960005,
          44.3216322
        ]
      },
      "properties": {
        "id": 1436897090,
        "osm_type": "way",
        "name": "Кнез петрол",
        "brand": "Кнез Петрол"
      }
    },
    {
      "type": "Feature",
      "geometry": {
        "type": "Point",
        "coordinates": [
          20.5767497,
          44.3034074
        ]
      },
      "properties": {
        "id": 1462797620,
        "osm_type": "way",
        "name": "OMV",
        "brand": "OMV",
        "opening_hours": "24/7"
      }
    }
  ]
}