{
  "type": "FeatureCollection",
  "features": [
    {
      "type": "Feature",
      "geometry": {
        "type": "Point",
        "coordinates": [
          22.7789469,
          43.0165804
        ]
      },
      "properties": {
        "id": 3893726555,
        "osm_type": "node",
        "name": "Black & White"
      }
    },
    {
      "type": "Feature",
      "geometry": {
        "type": "Point",
        "coordinates": [
          22.7756023,
          43.0147238
        ]
      },
      "properties": {
        "id": 5232740838,
        "osm_type": "node"
      }
    },
    {
      "type": "Feature",
      "geometry": {
        "type": "Point",
        "coordinates": [
          22.7758159,
          43.0153887
        ]
      },
      "properties": {
        "id": 5909857185,
        "osm_type": "node",
        "name": "Panorama"
      }
    },
    {
      "type": "Feature",
      "geometry": {
        "type": "Point",
        "coordinates": [
          22.3130371,
          43.2166796
        ]
      },
      "properties": {
        "id": 6046823565,
        "osm_type": "node",
        "name": "Colorido"
      }
    },
    {
      "type": "Feature",
      "geometry": {
        "type": "Point",
        "coordinates": [
          22.3118129,
          43.2180042
        ]
      },
      "properties": {
        "id": 6266411641,
        "osm_type": "node",
        "name": "Стари Жак"
      }
    },
    {
      "type": "Feature",
      "geometry": {
        "type": "Point",
        "coordinates": [
          22.1848968,
          43.3096842
        ]
      },
      "properties": {
        "id": 6789754054,
        "osm_type": "node",
        "name": "Grof"
      }
    },
    {
      "type": "Feature",
      "geometry": {
        "type": "Point",
        "coordinates": [
          22.5891923,
          43.1652723
        ]
      },
      "properties": {
        "id": 6789837473,
        "osm_type": "node"
      }
    },
    {
      "type": "Feature",
      "geometry": {
        "type": "Point",
        "coordinates": [
          22.5875353,
          43.158781
        ]
      },
      "properties": {
        "id": 6789852054,
        "osm_type": "node"
      }
    },
    {
      "type": "Feature",
      "geometry": {
        "type": "Point",
        "coordinates": [
          22.3122252,
          43.218337
        ]
      },
      "properties": {
        "id": 7935251174,
        "osm_type": "node",
        "name": "Pekara Aki",
        "opening_hours": "Mo-Fr 05:00-13:30; Sa-Su 05:00-13:00"
      }
    },
    {
      "type": "Feature",
      "geometry": {
        "type": "Point",
        "coordinates": [
          22.3119942,
          43.2176285
        ]
      },
      "properties": {
        "id": 9235923868,
        "osm_type": "node",
        "name": "Пекара Клас"
      }
    },
    {
      "type": "Feature",
      "geometry": {
        "type": "Point",
        "coordinates": [
          22.5781213,
          43.178287
        ]
      },
      "properties": {
        "id": 9919151388,
        "osm_type": "node",
        "name": "DriveCafe"
      }
    },
    {
      "type": "Feature",
      "geometry": {
        "type": "Point",
        "coordinates": [
          22.5904321,
          43.1604973
        ]
      },
      "properties": {
        "id": 10017624539,
        "osm_type": "node",
        "name": "Koki",
        "opening_hours": "05:00-00:00"
      }
    },
    {
      "type": "Feature",
      "geometry": {
        "type": "Point",
        "coordinates": [
          22.5828002,
          43.1730278
        ]
      },
      "properties": {
        "id": 10017651301,
        "osm_type": "node",
        "name": "Укус",
        "opening_hours": "05:00+"
      }
    },
    {
      "type": "Feature",
      "geometry": {
        "type": "Point",
        "coordinates": [
          22.8193863,
          43.0003848
        ]
      },
      "properties": {
        "id": 10029213834,
        "osm_type": "node",
        "name": "Viva cafe"
      }
    },
    {
      "type": "Feature",
      "geometry": {
        "type": "Point",
        "coordinates": [
          22.3118407,
          43.2173162
        ]
      },
      "properties": {
        "id": 10834096479,
        "osm_type": "node",
        "name": "Cafe bar 13"
      }
    },
    {
      "type": "Feature",
      "geometry": {
        "type": "Point",
        "coordinates": [
          22.3120187,
          43.218001
        ]
      },
      "properties": {
        "id": 10994219133,
        "osm_type": "node",
        "name": "Atos"
      }
    },
    {
      "type": "Feature",
      "geometry": {
        "type": "Point",
        "coordinates": [
          22.3115297,
          43.2176855
        ]
      },
      "properties": {
        "id": 11068702048,
        "osm_type": "node",
        "name": "Пекара Гаги",
        "opening_hours": "Mo-Su 05:00-15:00"
      }
    },
    {
      "type": "Feature",
      "geometry": {
        "type": "Point",
        "coordinates": [
          22.3114974,
          43.2177072
        ]
      },
      "properties": {
        "id": 11068702049,
        "osm_type": "node",
        "name": "Пекара Цаци Д",
        "opening_hours": "Mo-Su 05:00-24:00"
      }
    },
    {
      "type": "Feature",
      "geometry": {
        "type": "Point",
        "coordinates": [
          22.3118031,
          43.2179732
        ]
      },
      "properties": {
        "id": 11068702050,
        "osm_type": "node",
        "name": "Bobi BJ"
      }
    },
    {
      "type": "Feature",
      "geometry": {
        "type": "Point",
        "coordinates": [
          22.7791111,
          43.016531
        ]
      },
      "properties": {
        "id": 11978682143,
        "osm_type": "node"
      }
    },
    {
      "type": "Feature",
      "geometry": {
        "type": "Point",
        "coordinates": [
          22.3117697,
          43.2175251
        ]
      },
      "properties": {
        "id": 12074914370,
        "osm_type": "node",
        "name": "Pekara Stojanović 2015"
      }
    },
    {
      "type": "Feature",
      "geometry": {
        "type": "Point",
        "coordinates": [
          22.5859513,
          43.1568284
        ]
      },
      "properties": {
        "id": 13664332409,
        "osm_type": "node",
        "name": "Euphoria",
        "opening_hours": "Mo-Sa 08:00-23:30; Su 08:00-21:00"
      }
    },
    {
      "type": "Feature",
      "geometry": {
        "type": "Point",
        "coordinates": [
          22.779779,
          43.0158593
        ]
      },
      "properties": {
        "id": 394361213,
        "osm_type": "way",
        "name": "My Freedom"
      }
    },
    {
      "type": "Feature",
      "geometry": {
        "type": "Point",
        "coordinates": [
          22.5962468,
          43.1523356
        ]
      },
      "properties": {
        "id": 1221793641,
        "osm_type": "way",
        "name": "Half-time pub"
      }
    }
  ]
}