{
  "type": "FeatureCollection",
  "features": [
    {
      "type": "Feature",
      "geometry": {
        "type": "Point",
        "coordinates": [
          8.6622619,
          47.3130427
        ]
      },
      "properties": {
        "id": 9658573452,
        "osm_type": "node",
        "shelter_type": "weather_shelter",
        "bench": "yes",
        "operator": "Holzkorporation Aesch-Forch"
      }
    },
    {
      "type": "Feature",
      "geometry": {
        "type": "Point",
        "coordinates": [
          8.7420458,
          47.3505361
        ]
      },
      "properties": {
        "id": 5547678038,
        "osm_type": "node",
        "shelter_type": "weather_shelter"
      }
    },
    {
      "type": "Feature",
      "geometry": {
        "type": "Point",
        "coordinates": [
          8.7367913,
          47.3834192
        ]
      },
      "properties": {
        "id": 5564497539,
        "osm_type": "node",
        "shelter_type": "weather_shelter"
      }
    },
    {
      "type": "Feature",
      "geometry": {
        "type": "Point",
        "coordinates": [
          8.5145917,
          47.614292
        ]
      },
      "properties": {
        "id": 1274863748,
        "osm_type": "node",
        "shelter_type": "weather_shelter"
      }
    },
    {
      "type": "Feature",
      "geometry": {
        "type": "Point",
        "coordinates": [
          8.5985112,
          47.433596
        ]
      },
      "properties": {
        "id": 6979437523,
        "osm_type": "node",
        "access": "permit",
        "capacity": "30",
        "fee": "yes",
        "operator": "Gemeinde Wallisellen",
        "description": "nur für private Feste, keine Übernachtung"
      }
    },
    {
      "type": "Feature",
      "geometry": {
        "type": "Point",
        "coordinates": [
          8.618015,
          47.5009275
        ]
      },
      "properties": {
        "id": 2552752801,
        "osm_type": "node",
        "name": "Fuchsrain-Hütte",
        "shelter_type": "weather_shelter"
      }
    },
    {
      "type": "Feature",
      "geometry": {
        "type": "Point",
        "coordinates": [
          8.6115648,
          47.5142587
        ]
      },
      "properties": {
        "id": 1262068342,
        "osm_type": "node",
        "shelter_type": "weather_shelter"
      }
    },
    {
      "type": "Feature",
      "geometry": {
        "type": "Point",
        "coordinates": [
          8.7333966,
          47.5117041
        ]
      },
      "properties": {
        "id": 7555741431,
        "osm_type": "node",
        "shelter_type": "weather_shelter",
        "bench": "yes"
      }
    },
    {
      "type": "Feature",
      "geometry": {
        "type": "Point",
        "coordinates": [
          8.672962,
          47.6139785
        ]
      },
      "properties": {
        "id": 4056742270,
        "osm_type": "node",
        "shelter_type": "weather_shelter"
      }
    },
    {
      "type": "Feature",
      "geometry": {
        "type": "Point",
        "coordinates": [
          8.4524223,
          47.2294143
        ]
      },
      "properties": {
        "id": 687757971,
        "osm_type": "way",
        "shelter_type": "weather_shelter",
        "bench": "yes"
      }
    },
    {
      "type": "Feature",
      "geometry": {
        "type": "Point",
        "coordinates": [
          8.4640523,
          47.2475283
        ]
      },
      "properties": {
        "id": 702104221,
        "osm_type": "way",
        "shelter_type": "weather_shelter"
      }
    },
    {
      "type": "Feature",
      "geometry": {
        "type": "Point",
        "coordinates": [
          8.4540267,
          47.2720008
        ]
      },
      "properties": {
        "id": 827422208,
        "osm_type": "way",
        "shelter_type": "weather_shelter"
      }
    },
    {
      "type": "Feature",
      "geometry": {
        "type": "Point",
        "coordinates": [
          8.5258502,
          47.2697201
        ]
      },
      "properties": {
        "id": 513092813,
        "osm_type": "way",
        "name": "Albisboden",
        "shelter_type": "weather_shelter",
        "bench": "yes"
      }
    },
    {
      "type": "Feature",
      "geometry": {
        "type": "Point",
        "coordinates": [
          8.5698554,
          47.2673985
        ]
      },
      "properties": {
        "id": 148773236,
        "osm_type": "way",
        "name": "Pflanzschulhütte",
        "access": "permit",
        "capacity": "25",
        "fee": "yes",
        "operator": "Fordtbetrieb Landforst GmbH",
        "description": "Hütte für Privatanlässe, keine Übernachtung"
      }
    },
    {
      "type": "Feature",
      "geometry": {
        "type": "Point",
        "coordinates": [
          8.5636399,
          47.2810079
        ]
      },
      "properties": {
        "id": 89743193,
        "osm_type": "way",
        "name": "Bannegghütte",
        "access": "permit",
        "capacity": "18",
        "fee": "yes",
        "operator": "Holzkorporation Bannegg"
      }
    },
    {
      "type": "Feature",
      "geometry": {
        "type": "Point",
        "coordinates": [
          8.4254594,
          47.3338075
        ]
      },
      "properties": {
        "id": 43759457,
        "osm_type": "way",
        "name": "Waldhütte Aesch",
        "access": "permit",
        "capacity": "64",
        "fee": "yes",
        "operator": "Holzkorporation Aesch",
        "description": "Nür für private Anlässe. Keine Übernachtung."
      }
    },
    {
      "type": "Feature",
      "geometry": {
        "type": "Point",
        "coordinates": [
          8.4471064,
          47.3760776
        ]
      },
      "properties": {
        "id": 819326644,
        "osm_type": "way",
        "shelter_type": "weather_shelter"
      }
    },
    {
      "type": "Feature",
      "geometry": {
        "type": "Point",
        "coordinates": [
          8.4783147,
          47.3748826
        ]
      },
      "properties": {
        "id": 56216139,
        "osm_type": "way",
        "name": "Hasenrain",
        "access": "permit",
        "capacity": "32",
        "fee": "yes",
        "operator": "Gewerbeverein Albisrieden",
        "description": "Nür für private Anlässe. Keine Übernachtung.",
        "url": "https://www.albisrieden.ch/waldhuette-hasenrain"
      }
    },
    {
      "type": "Feature",
      "geometry": {
        "type": "Point",
        "coordinates": [
          8.5744307,
          47.3543341
        ]
      },
      "properties": {
        "id": 508225884,
        "osm_type": "way",
        "shelter_type": "weather_shelter"
      }
    },
    {
      "type": "Feature",
      "geometry": {
        "type": "Point",
        "coordinates": [
          8.5049507,
          47.3715736
        ]
      },
      "properties": {
        "id": 814999573,
        "osm_type": "way",
        "shelter_type": "weather_shelter"
      }
    },
    {
      "type": "Feature",
      "geometry": {
        "type": "Point",
        "coordinates": [
          8.5125813,
          47.3673376
        ]
      },
      "properties": {
        "id": 504724853,
        "osm_type": "way",
        "shelter_type": "weather_shelter"
      }
    },
    {
      "type": "Feature",
      "geometry": {
        "type": "Point",
        "coordinates": [
          8.5064347,
          47.3747267
        ]
      },
      "properties": {
        "id": 503218632,
        "osm_type": "way",
        "shelter_type": "weather_shelter"
      }
    },
    {
      "type": "Feature",
      "geometry": {
        "type": "Point",
        "coordinates": [
          8.5119235,
          47.37639
        ]
      },
      "properties": {
        "id": 223064312,
        "osm_type": "way",
        "shelter_type": "weather_shelter"
      }
    },
    {
      "type": "Feature",
      "geometry": {
        "type": "Point",
        "coordinates": [
          8.5324132,
          47.3727932
        ]
      },
      "properties": {
        "id": 1271390670,
        "osm_type": "way",
        "shelter_type": "weather_shelter"
      }
    },
    {
      "type": "Feature",
      "geometry": {
        "type": "Point",
        "coordinates": [
          8.5436792,
          47.3828053
        ]
      },
      "properties": {
        "id": 506672992,
        "osm_type": "way",
        "shelter_type": "weather_shelter"
      }
    },
    {
      "type": "Feature",
      "geometry": {
        "type": "Point",
        "coordinates": [
          8.5382561,
          47.3957566
        ]
      },
      "properties": {
        "id": 506241502,
        "osm_type": "way",
        "shelter_type": "weather_shelter"
      }
    },
    {
      "type": "Feature",
      "geometry": {
        "type": "Point",
        "coordinates": [
          8.5375062,
          47.396133
        ]
      },
      "properties": {
        "id": 506241504,
        "osm_type": "way",
        "shelter_type": "weather_shelter"
      }
    },
    {
      "type": "Feature",
      "geometry": {
        "type": "Point",
        "coordinates": [
          8.5421112,
          47.4115989
        ]
      },
      "properties": {
        "id": 502422272,
        "osm_type": "way",
        "shelter_type": "weather_shelter"
      }
    },
    {
      "type": "Feature",
      "geometry": {
        "type": "Point",
        "coordinates": [
          8.542328,
          47.4117625
        ]
      },
      "properties": {
        "id": 691027633,
        "osm_type": "way",
        "shelter_type": "weather_shelter"
      }
    },
    {
      "type": "Feature",
      "geometry": {
        "type": "Point",
        "coordinates": [
          8.581159,
          47.3798115
        ]
      },
      "properties": {
        "id": 124014594,
        "osm_type": "way",
        "shelter_type": "weather_shelter"
      }
    },
    {
      "type": "Feature",
      "geometry": {
        "type": "Point",
        "coordinates": [
          8.5739263,
          47.3984448
        ]
      },
      "properties": {
        "id": 695510132,
        "osm_type": "way",
        "name": "Waldhütte Ziegelhöhe",
        "access": "permit",
        "capacity": "30",
        "fee": "yes",
        "operator": "Hubgenossenschaft Schwamendingen",
        "description": "Nür für private Anlässe. Keine Übernachtung."
      }
    },
    {
      "type": "Feature",
      "geometry": {
        "type": "Point",
        "coordinates": [
          8.5916391,
          47.3885928
        ]
      },
      "properties": {
        "id": 123222245,
        "osm_type": "way",
        "name": "Klubhaus SC OG",
        "access": "permit",
        "capacity": "45",
        "fee": "yes",
        "description": "nur für private Feste, keine Übernachtung"
      }
    },
    {
      "type": "Feature",
      "geometry": {
        "type": "Point",
        "coordinates": [
          8.6526032,
          47.3034383
        ]
      },
      "properties": {
        "id": 436060684,
        "osm_type": "way",
        "name": "Waldhütte Herrliberg",
        "access": "permit",
        "capacity": "40",
        "fee": "yes",
        "operator": "Holzkorporation Herrliberg",
        "description": "Nür für private Anlässe. Keine Übernachtung.",
        "url": "http://www.zueriwald.ch/wald-fuer-alle/waldhuetten/herrliberg/"
      }
    },
    {
      "type": "Feature",
      "geometry": {
        "type": "Point",
        "coordinates": [
          8.6680176,
          47.2951997
        ]
      },
      "properties": {
        "id": 31698176,
        "osm_type": "way",
        "name": "Waldhütte Pfannenstiel",
        "access": "permit",
        "capacity": "40",
        "fee": "yes",
        "operator": "Forstkorporation Pfannenstiel",
        "description": "Nür für private Anlässe. Keine Übernachtung."
      }
    },
    {
      "type": "Feature",
      "geometry": {
        "type": "Point",
        "coordinates": [
          8.7302211,
          47.2486027
        ]
      },
      "properties": {
        "id": 1252162542,
        "osm_type": "way",
        "shelter_type": "weather_shelter"
      }
    },
    {
      "type": "Feature",
      "geometry": {
        "type": "Point",
        "coordinates": [
          8.707452,
          47.2644138
        ]
      },
      "properties": {
        "id": 33153626,
        "osm_type": "way",
        "name": "Waldhütte Männedorf",
        "access": "permit",
        "capacity": "130",
        "fee": "yes",
        "operator": "Waldkorporation Männedorf",
        "description": "Nür für private Anlässe. Keine Übernachtung."
      }
    },
    {
      "type": "Feature",
      "geometry": {
        "type": "Point",
        "coordinates": [
          8.7641757,
          47.2838868
        ]
      },
      "properties": {
        "id": 439817196,
        "osm_type": "way",
        "shelter_type": "weather_shelter"
      }
    },
    {
      "type": "Feature",
      "geometry": {
        "type": "Point",
        "coordinates": [
          8.6249423,
          47.3110913
        ]
      },
      "properties": {
        "id": 48979655,
        "osm_type": "way",
        "name": "Waldhütte Holzkorporation Erlenbach",
        "access": "permit",
        "capacity": "40",
        "fee": "yes",
        "operator": "Holzkorporation Erlenbach",
        "description": "Nur für private Feste, keine Übernachtung"
      }
    },
    {
      "type": "Feature",
      "geometry": {
        "type": "Point",
        "coordinates": [
          8.6557357,
          47.354146
        ]
      },
      "properties": {
        "id": 38054638,
        "osm_type": "way",
        "name": "Waldhütte Maur",
        "access": "permit",
        "capacity": "70",
        "fee": "yes",
        "operator": "Holzkorporation Maur",
        "description": "Nür für private Anlässe. Keine Übernachtung."
      }
    },
    {
      "type": "Feature",
      "geometry": {
        "type": "Point",
        "coordinates": [
          8.6094475,
          47.3763878
        ]
      },
      "properties": {
        "id": 48565351,
        "osm_type": "way",
        "name": "Waldhütte Geeren",
        "access": "permit",
        "capacity": "50",
        "fee": "yes",
        "operator": "Holzkorporation Dübendorf",
        "description": "Nür für private Anlässe. Keine Übernachtung.",
        "url": "https://hkdonline.ch/forsthuette"
      }
    },
    {
      "type": "Feature",
      "geometry": {
        "type": "Point",
        "coordinates": [
          8.6207707,
          47.3787568
        ]
      },
      "properties": {
        "id": 244067009,
        "osm_type": "way",
        "name": "Fällander Waldhuus",
        "access": "permit",
        "capacity": "100",
        "fee": "yes",
        "description": "Nür für private Anlässe. Keine Übernachtung.",
        "url": "https://www.dorfverein.ch/waldhuus.html"
      }
    },
    {
      "type": "Feature",
      "geometry": {
        "type": "Point",
        "coordinates": [
          8.6722396,
          47.3743872
        ]
      },
      "properties": {
        "id": 48405612,
        "osm_type": "way",
        "name": "Waldhütte",
        "access": "permit",
        "capacity": "40",
        "fee": "yes",
        "operator": "Milandia"
      }
    },
    {
      "type": "Feature",
      "geometry": {
        "type": "Point",
        "coordinates": [
          8.6732964,
          47.410428
        ]
      },
      "properties": {
        "id": 124283587,
        "osm_type": "way",
        "name": "Waldhütte Kindhausen",
        "access": "permit",
        "capacity": "40",
        "fee": "yes",
        "operator": "Holzkorporation Hegnau",
        "description": "Nur für private Feste, keine Übernachtung",
        "url": "http://www.holzkorporation-hegnau.ch/index.php/waldhuette.html"
      }
    },
    {
      "type": "Feature",
      "geometry": {
        "type": "Point",
        "coordinates": [
          8.707355,
          47.3749111
        ]
      },
      "properties": {
        "id": 436155631,
        "osm_type": "way",
        "name": "Waldhütte Näniker Hard",
        "access": "permit",
        "capacity": "35",
        "fee": "yes",
        "operator": "Stadt Uster",
        "description": "Nür für private Anlässe. Keine Übernachtung.",
        "url": "https://www.uster.ch/dienstleistungen/19392"
      }
    },
    {
      "type": "Feature",
      "geometry": {
        "type": "Point",
        "coordinates": [
          8.7367321,
          47.3834544
        ]
      },
      "properties": {
        "id": 33075231,
        "osm_type": "way",
        "name": "Forsthaus Sackholz",
        "access": "permit",
        "capacity": "32",
        "fee": "yes",
        "description": "Nür für private Anlässe. Keine Übernachtung."
      }
    },
    {
      "type": "Feature",
      "geometry": {
        "type": "Point",
        "coordinates": [
          8.7953377,
          47.3683177
        ]
      },
      "properties": {
        "id": 1187205231,
        "osm_type": "way",
        "shelter_type": "weather_shelter",
        "bench": "yes"
      }
    },
    {
      "type": "Feature",
      "geometry": {
        "type": "Point",
        "coordinates": [
          8.8187689,
          47.3068919
        ]
      },
      "properties": {
        "id": 1297145014,
        "osm_type": "way",
        "shelter_type": "weather_shelter"
      }
    },
    {
      "type": "Feature",
      "geometry": {
        "type": "Point",
        "coordinates": [
          8.3917105,
          47.4273932
        ]
      },
      "properties": {
        "id": 1252848358,
        "osm_type": "way",
        "shelter_type": "weather_shelter"
      }
    },
    {
      "type": "Feature",
      "geometry": {
        "type": "Point",
        "coordinates": [
          8.4138247,
          47.4348817
        ]
      },
      "properties": {
        "id": 229206630,
        "osm_type": "way",
        "name": "Höngger Hütte",
        "access": "permit",
        "capacity": "25",
        "fee": "yes",
        "operator": "Berg-Club Höngg",
        "description": "Nür für private Anlässe. Keine Übernachtung."
      }
    },
    {
      "type": "Feature",
      "geometry": {
        "type": "Point",
        "coordinates": [
          8.4101545,
          47.4355097
        ]
      },
      "properties": {
        "id": 760192042,
        "osm_type": "way",
        "name": "Naturfreundehütte Altberg",
        "access": "permit",
        "description": "nur für private Feste, keine Übernachtung"
      }
    },
    {
      "type": "Feature",
      "geometry": {
        "type": "Point",
        "coordinates": [
          8.5361808,
          47.4621571
        ]
      },
      "properties": {
        "id": 33898459,
        "osm_type": "way",
        "shelter_type": "weather_shelter"
      }
    },
    {
      "type": "Feature",
      "geometry": {
        "type": "Point",
        "coordinates": [
          8.5611971,
          47.4142869
        ]
      },
      "properties": {
        "id": 931472674,
        "osm_type": "way",
        "shelter_type": "weather_shelter"
      }
    },
    {
      "type": "Feature",
      "geometry": {
        "type": "Point",
        "coordinates": [
          8.5722561,
          47.4199809
        ]
      },
      "properties": {
        "id": 76587659,
        "osm_type": "way",
        "name": "Waldhütte Au",
        "access": "permit",
        "capacity": "30",
        "fee": "yes",
        "operator": "Stadt Opfikon",
        "description": "Waldhütte nur für private Feste, keine Übernachtung"
      }
    },
    {
      "type": "Feature",
      "geometry": {
        "type": "Point",
        "coordinates": [
          8.5843449,
          47.4347393
        ]
      },
      "properties": {
        "id": 858496084,
        "osm_type": "way",
        "name": "Waldhütte Häuligrueb",
        "access": "permit",
        "bench": "yes",
        "capacity": "30",
        "fee": "yes",
        "operator": "Holzkorporation Opfikon",
        "description": "Nur für private Feste, keine Übernachtung"
      }
    },
    {
      "type": "Feature",
      "geometry": {
        "type": "Point",
        "coordinates": [
          8.5240605,
          47.5055931
        ]
      },
      "properties": {
        "id": 28288117,
        "osm_type": "way",
        "name": "Waldhütte Höhragen",
        "access": "permit",
        "capacity": "70",
        "fee": "yes",
        "operator": "Stadt Bülach",
        "description": "Die Waldhütte Höhragen steht grundsätzlich allen Interessenten (nachfolgend Mieter genannt) zur Benutzung für Anlässe offen."
      }
    },
    {
      "type": "Feature",
      "geometry": {
        "type": "Point",
        "coordinates": [
          8.4159019,
          47.5260255
        ]
      },
      "properties": {
        "id": 825543246,
        "osm_type": "way",
        "name": "Unterstand mit grünem Tisch",
        "shelter_type": "lean_to"
      }
    },
    {
      "type": "Feature",
      "geometry": {
        "type": "Point",
        "coordinates": [
          8.5071426,
          47.564902
        ]
      },
      "properties": {
        "id": 678859766,
        "osm_type": "way",
        "name": "Jagdhaus \"Laubberg\"",
        "access": "permit",
        "capacity": "40",
        "fee": "yes",
        "operator": "Jagdgesellschaft Glattfelden Nord \"Laubberg\"",
        "description": "nur für private Feste, keine Übernachtung"
      }
    },
    {
      "type": "Feature",
      "geometry": {
        "type": "Point",
        "coordinates": [
          8.5475174,
          47.5575959
        ]
      },
      "properties": {
        "id": 1424521537,
        "osm_type": "way",
        "shelter_type": "lean_to"
      }
    },
    {
      "type": "Feature",
      "geometry": {
        "type": "Point",
        "coordinates": [
          8.6476366,
          47.4349183
        ]
      },
      "properties": {
        "id": 431512945,
        "osm_type": "way",
        "access": "permit",
        "capacity": "35",
        "fee": "yes",
        "operator": "Gemeinde Bassersdorf",
        "description": "Nur für private Feste, keine Übernachtung. Nur für Bassersdorfer."
      }
    },
    {
      "type": "Feature",
      "geometry": {
        "type": "Point",
        "coordinates": [
          8.6227662,
          47.4568729
        ]
      },
      "properties": {
        "id": 744976543,
        "osm_type": "way",
        "access": "permit",
        "capacity": "20",
        "fee": "yes",
        "operator": "Gemeinde Bassersdorf",
        "description": "Nur für private Feste, keine Übernachtung. Nur für Bassersdorfer."
      }
    },
    {
      "type": "Feature",
      "geometry": {
        "type": "Point",
        "coordinates": [
          8.699044,
          47.4200214
        ]
      },
      "properties": {
        "id": 741882890,
        "osm_type": "way",
        "shelter_type": "weather_shelter"
      }
    },
    {
      "type": "Feature",
      "geometry": {
        "type": "Point",
        "coordinates": [
          8.6787512,
          47.4508626
        ]
      },
      "properties": {
        "id": 1133331332,
        "osm_type": "way",
        "shelter_type": "weather_shelter"
      }
    },
    {
      "type": "Feature",
      "geometry": {
        "type": "Point",
        "coordinates": [
          8.6778028,
          47.4493032
        ]
      },
      "properties": {
        "id": 1133331338,
        "osm_type": "way",
        "shelter_type": "basic_hut"
      }
    },
    {
      "type": "Feature",
      "geometry": {
        "type": "Point",
        "coordinates": [
          8.6310311,
          47.4746555
        ]
      },
      "properties": {
        "id": 745673121,
        "osm_type": "way",
        "access": "permit",
        "capacity": "30",
        "fee": "yes",
        "operator": "Hamm, Sebastian und Gabriela",
        "description": "nur für private Feste, keine Übernachtung"
      }
    },
    {
      "type": "Feature",
      "geometry": {
        "type": "Point",
        "coordinates": [
          8.6365994,
          47.4925533
        ]
      },
      "properties": {
        "id": 689513741,
        "osm_type": "way",
        "name": "Waldhütte Oberwagenburg",
        "access": "permit",
        "capacity": "30",
        "fee": "yes",
        "operator": "Gemeindeverwaltung Oberembrach",
        "description": "Nür für private Anlässe. Keine Übernachtung."
      }
    },
    {
      "type": "Feature",
      "geometry": {
        "type": "Point",
        "coordinates": [
          8.6584399,
          47.4662939
        ]
      },
      "properties": {
        "id": 136073298,
        "osm_type": "way",
        "name": "Waldhütte Breite",
        "access": "permit",
        "capacity": "40",
        "fee": "yes",
        "operator": "Waldhüttenverein Breite-Hakab",
        "description": "Waldhütte für private Feste, keine Übernachtung"
      }
    },
    {
      "type": "Feature",
      "geometry": {
        "type": "Point",
        "coordinates": [
          8.7323756,
          47.4625126
        ]
      },
      "properties": {
        "id": 1324874871,
        "osm_type": "way",
        "name": "Gamserhütte",
        "shelter_type": "lean_to",
        "bench": "yes"
      }
    },
    {
      "type": "Feature",
      "geometry": {
        "type": "Point",
        "coordinates": [
          8.7468889,
          47.4634084
        ]
      },
      "properties": {
        "id": 1325479072,
        "osm_type": "way",
        "shelter_type": "lean_to"
      }
    },
    {
      "type": "Feature",
      "geometry": {
        "type": "Point",
        "coordinates": [
          8.7260989,
          47.4705619
        ]
      },
      "properties": {
        "id": 1324874874,
        "osm_type": "way",
        "shelter_type": "lean_to"
      }
    },
    {
      "type": "Feature",
      "geometry": {
        "type": "Point",
        "coordinates": [
          8.7405153,
          47.4667828
        ]
      },
      "properties": {
        "id": 1325472109,
        "osm_type": "way",
        "shelter_type": "lean_to"
      }
    },
    {
      "type": "Feature",
      "geometry": {
        "type": "Point",
        "coordinates": [
          8.7340629,
          47.4729446
        ]
      },
      "properties": {
        "id": 1326374184,
        "osm_type": "way",
        "name": "Riedhütte",
        "shelter_type": "lean_to"
      }
    },
    {
      "type": "Feature",
      "geometry": {
        "type": "Point",
        "coordinates": [
          8.738931,
          47.4724374
        ]
      },
      "properties": {
        "id": 1327126069,
        "osm_type": "way",
        "shelter_type": "lean_to"
      }
    },
    {
      "type": "Feature",
      "geometry": {
        "type": "Point",
        "coordinates": [
          8.7458412,
          47.4645481
        ]
      },
      "properties": {
        "id": 1327126065,
        "osm_type": "way",
        "shelter_type": "lean_to"
      }
    },
    {
      "type": "Feature",
      "geometry": {
        "type": "Point",
        "coordinates": [
          8.7585211,
          47.4737982
        ]
      },
      "properties": {
        "id": 1327643636,
        "osm_type": "way",
        "shelter_type": "lean_to"
      }
    },
    {
      "type": "Feature",
      "geometry": {
        "type": "Point",
        "coordinates": [
          8.8693608,
          47.4539734
        ]
      },
      "properties": {
        "id": 1365841399,
        "osm_type": "way"
      }
    }
  ]
}