{
  "type": "FeatureCollection",
  "features": [
    {
      "type": "Feature",
      "geometry": {
        "type": "Point",
        "coordinates": [
          19.0344545,
          47.64135
        ]
      },
      "properties": {
        "id": 97470907,
        "osm_type": "node",
        "name": "MOL",
        "brand": "MOL",
        "opening_hours": "06:00-20:00"
      }
    },
    {
      "type": "Feature",
      "geometry": {
        "type": "Point",
        "coordinates": [
          18.9675436,
          47.4258978
        ]
      },
      "properties": {
        "id": 148626957,
        "osm_type": "node",
        "opening_hours": "Mo-Fr 06:00-18:00; Sa 06:00-14:00; Su 07:00-14:00"
      }
    },
    {
      "type": "Feature",
      "geometry": {
        "type": "Point",
        "coordinates": [
          18.8892147,
          47.4423205
        ]
      },
      "properties": {
        "id": 151288269,
        "osm_type": "node",
        "name": "Auchan benzinkút",
        "brand": "Auchan"
      }
    },
    {
      "type": "Feature",
      "geometry": {
        "type": "Point",
        "coordinates": [
          18.9239899,
          47.3249124
        ]
      },
      "properties": {
        "id": 195991752,
        "osm_type": "node"
      }
    },
    {
      "type": "Feature",
      "geometry": {
        "type": "Point",
        "coordinates": [
          18.8188471,
          47.4952337
        ]
      },
      "properties": {
        "id": 206346550,
        "osm_type": "node",
        "name": "MOL",
        "brand": "MOL"
      }
    },
    {
      "type": "Feature",
      "geometry": {
        "type": "Point",
        "coordinates": [
          18.9984218,
          47.5850023
        ]
      },
      "properties": {
        "id": 257085123,
        "osm_type": "node",
        "name": "OMV",
        "brand": "OMV",
        "opening_hours": "24/7"
      }
    },
    {
      "type": "Feature",
      "geometry": {
        "type": "Point",
        "coordinates": [
          18.9638405,
          47.3159257
        ]
      },
      "properties": {
        "id": 276494858,
        "osm_type": "node",
        "name": "Fuel Tango Kft.",
        "brand": "MOL"
      }
    },
    {
      "type": "Feature",
      "geometry": {
        "type": "Point",
        "coordinates": [
          18.8175708,
          47.4945024
        ]
      },
      "properties": {
        "id": 282958256,
        "osm_type": "node",
        "name": "MOL",
        "brand": "MOL"
      }
    },
    {
      "type": "Feature",
      "geometry": {
        "type": "Point",
        "coordinates": [
          18.9408534,
          47.4418051
        ]
      },
      "properties": {
        "id": 288677097,
        "osm_type": "node",
        "name": "MOL",
        "brand": "MOL"
      }
    },
    {
      "type": "Feature",
      "geometry": {
        "type": "Point",
        "coordinates": [
          19.5552899,
          47.2778949
        ]
      },
      "properties": {
        "id": 311450524,
        "osm_type": "node",
        "name": "Dragon Benz",
        "brand": "Dragon Benz"
      }
    },
    {
      "type": "Feature",
      "geometry": {
        "type": "Point",
        "coordinates": [
          18.8815987,
          47.8159418
        ]
      },
      "properties": {
        "id": 314391068,
        "osm_type": "node",
        "name": "OIL!",
        "brand": "OIL!"
      }
    },
    {
      "type": "Feature",
      "geometry": {
        "type": "Point",
        "coordinates": [
          18.8934025,
          47.4606126
        ]
      },
      "properties": {
        "id": 315572175,
        "osm_type": "node",
        "name": "MOL",
        "brand": "MOL"
      }
    },
    {
      "type": "Feature",
      "geometry": {
        "type": "Point",
        "coordinates": [
          18.8904457,
          47.3169291
        ]
      },
      "properties": {
        "id": 320514510,
        "osm_type": "node",
        "name": "Total"
      }
    },
    {
      "type": "Feature",
      "geometry": {
        "type": "Point",
        "coordinates": [
          19.1179724,
          47.3465048
        ]
      },
      "properties": {
        "id": 323173684,
        "osm_type": "node",
        "name": "OMV",
        "brand": "OMV",
        "opening_hours": "24/7"
      }
    },
    {
      "type": "Feature",
      "geometry": {
        "type": "Point",
        "coordinates": [
          18.8124956,
          47.3570522
        ]
      },
      "properties": {
        "id": 385477566,
        "osm_type": "node",
        "name": "Orlen",
        "brand": "Orlen"
      }
    },
    {
      "type": "Feature",
      "geometry": {
        "type": "Point",
        "coordinates": [
          18.7375586,
          47.5113459
        ]
      },
      "properties": {
        "id": 448026966,
        "osm_type": "node",
        "name": "Orlen",
        "brand": "Orlen"
      }
    },
    {
      "type": "Feature",
      "geometry": {
        "type": "Point",
        "coordinates": [
          18.7347325,
          47.5105351
        ]
      },
      "properties": {
        "id": 448026967,
        "osm_type": "node",
        "name": "Orlen"
      }
    },
    {
      "type": "Feature",
      "geometry": {
        "type": "Point",
        "coordinates": [
          19.3298784,
          47.2736703
        ]
      },
      "properties": {
        "id": 448084147,
        "osm_type": "node",
        "name": "OMV",
        "brand": "OMV",
        "opening_hours": "24/7"
      }
    },
    {
      "type": "Feature",
      "geometry": {
        "type": "Point",
        "coordinates": [
          19.3234341,
          47.2760079
        ]
      },
      "properties": {
        "id": 448084148,
        "osm_type": "node",
        "name": "OMV",
        "brand": "OMV",
        "opening_hours": "24/7"
      }
    },
    {
      "type": "Feature",
      "geometry": {
        "type": "Point",
        "coordinates": [
          19.1407883,
          47.7640219
        ]
      },
      "properties": {
        "id": 464764000,
        "osm_type": "node",
        "name": "OMV",
        "brand": "OMV",
        "opening_hours": "24/7"
      }
    },
    {
      "type": "Feature",
      "geometry": {
        "type": "Point",
        "coordinates": [
          19.1163816,
          47.7919764
        ]
      },
      "properties": {
        "id": 464764001,
        "osm_type": "node",
        "name": "MOL",
        "brand": "MOL",
        "opening_hours": "Mo-Su 06:00-22:00"
      }
    },
    {
      "type": "Feature",
      "geometry": {
        "type": "Point",
        "coordinates": [
          19.1139392,
          47.7946114
        ]
      },
      "properties": {
        "id": 470332168,
        "osm_type": "node",
        "brand": "Castrol"
      }
    },
    {
      "type": "Feature",
      "geometry": {
        "type": "Point",
        "coordinates": [
          19.2882145,
          47.6542537
        ]
      },
      "properties": {
        "id": 483032413,
        "osm_type": "node",
        "name": "MOL",
        "brand": "MOL",
        "opening_hours": "Mo-Su 06:00-20:00"
      }
    },
    {
      "type": "Feature",
      "geometry": {
        "type": "Point",
        "coordinates": [
          19.2945081,
          47.6476939
        ]
      },
      "properties": {
        "id": 483032414,
        "osm_type": "node",
        "name": "OMV",
        "brand": "OMV"
      }
    },
    {
      "type": "Feature",
      "geometry": {
        "type": "Point",
        "coordinates": [
          18.9436834,
          47.5958065
        ]
      },
      "properties": {
        "id": 490744488,
        "osm_type": "node",
        "name": "Dalos",
        "opening_hours": "Mo-Su 06:00-22:00"
      }
    },
    {
      "type": "Feature",
      "geometry": {
        "type": "Point",
        "coordinates": [
          18.9655757,
          47.5969651
        ]
      },
      "properties": {
        "id": 491469883,
        "osm_type": "node",
        "name": "Auchan",
        "brand": "Auchan",
        "opening_hours": "Mo-Sa 07:00-21:00; Su 08:00-20:00"
      }
    },
    {
      "type": "Feature",
      "geometry": {
        "type": "Point",
        "coordinates": [
          18.8975224,
          47.6148826
        ]
      },
      "properties": {
        "id": 516110113,
        "osm_type": "node",
        "name": "Orlen",
        "brand": "Orlen"
      }
    },
    {
      "type": "Feature",
      "geometry": {
        "type": "Point",
        "coordinates": [
          19.2461706,
          47.4191382
        ]
      },
      "properties": {
        "id": 516431827,
        "osm_type": "node",
        "name": "MOL",
        "brand": "MOL",
        "opening_hours": "24/7"
      }
    },
    {
      "type": "Feature",
      "geometry": {
        "type": "Point",
        "coordinates": [
          19.2833415,
          47.3838924
        ]
      },
      "properties": {
        "id": 549761467,
        "osm_type": "node",
        "name": "MOL",
        "brand": "MOL"
      }
    },
    {
      "type": "Feature",
      "geometry": {
        "type": "Point",
        "coordinates": [
          18.9716308,
          47.7913235
        ]
      },
      "properties": {
        "id": 582676198,
        "osm_type": "node",
        "name": "MOL",
        "brand": "MOL"
      }
    },
    {
      "type": "Feature",
      "geometry": {
        "type": "Point",
        "coordinates": [
          19.0435453,
          47.786971
        ]
      },
      "properties": {
        "id": 582676364,
        "osm_type": "node",
        "name": "OMV",
        "brand": "OMV",
        "opening_hours": "Mo-Su 06:00-22:00; PH off"
      }
    },
    {
      "type": "Feature",
      "geometry": {
        "type": "Point",
        "coordinates": [
          19.2371116,
          47.4228089
        ]
      },
      "properties": {
        "id": 703392678,
        "osm_type": "node",
        "name": "Avia",
        "brand": "Avia",
        "opening_hours": "24/7"
      }
    },
    {
      "type": "Feature",
      "geometry": {
        "type": "Point",
        "coordinates": [
          18.9059211,
          47.6056555
        ]
      },
      "properties": {
        "id": 724511360,
        "osm_type": "node",
        "name": "Schuck - Töltőállomás"
      }
    },
    {
      "type": "Feature",
      "geometry": {
        "type": "Point",
        "coordinates": [
          18.9211056,
          47.5030334
        ]
      },
      "properties": {
        "id": 752197842,
        "osm_type": "node",
        "name": "MOL",
        "brand": "MOL",
        "opening_hours": "Mo-Su 07:00-19:00"
      }
    },
    {
      "type": "Feature",
      "geometry": {
        "type": "Point",
        "coordinates": [
          19.2560831,
          47.6906792
        ]
      },
      "properties": {
        "id": 895788164,
        "osm_type": "node",
        "name": "Avia",
        "brand": "Avia"
      }
    },
    {
      "type": "Feature",
      "geometry": {
        "type": "Point",
        "coordinates": [
          19.0733899,
          47.6616075
        ]
      },
      "properties": {
        "id": 898021231,
        "osm_type": "node",
        "name": "MOL",
        "brand": "MOL",
        "opening_hours": "Mo-Su 06:00-21:00"
      }
    },
    {
      "type": "Feature",
      "geometry": {
        "type": "Point",
        "coordinates": [
          19.1757445,
          47.6149506
        ]
      },
      "properties": {
        "id": 928445624,
        "osm_type": "node",
        "name": "OIL!",
        "brand": "OIL!",
        "opening_hours": "Mo-Fr 06:00-20:30; Sa 06:00-20:00"
      }
    },
    {
      "type": "Feature",
      "geometry": {
        "type": "Point",
        "coordinates": [
          19.3627135,
          47.4477334
        ]
      },
      "properties": {
        "id": 955779465,
        "osm_type": "node",
        "name": "OMV",
        "brand": "OMV",
        "opening_hours": "24/7"
      }
    },
    {
      "type": "Feature",
      "geometry": {
        "type": "Point",
        "coordinates": [
          18.9034352,
          47.4519253
        ]
      },
      "properties": {
        "id": 1018717347,
        "osm_type": "node",
        "name": "Shell",
        "brand": "Shell"
      }
    },
    {
      "type": "Feature",
      "geometry": {
        "type": "Point",
        "coordinates": [
          19.3478663,
          47.4403232
        ]
      },
      "properties": {
        "id": 1058733587,
        "osm_type": "node",
        "name": "OIL!",
        "brand": "OIL!"
      }
    },
    {
      "type": "Feature",
      "geometry": {
        "type": "Point",
        "coordinates": [
          19.2551405,
          47.417526
        ]
      },
      "properties": {
        "id": 1190960309,
        "osm_type": "node",
        "name": "Shell",
        "brand": "Shell",
        "opening_hours": "24/7"
      }
    },
    {
      "type": "Feature",
      "geometry": {
        "type": "Point",
        "coordinates": [
          19.2820627,
          47.3845706
        ]
      },
      "properties": {
        "id": 1214495520,
        "osm_type": "node",
        "name": "MOL",
        "brand": "MOL"
      }
    },
    {
      "type": "Feature",
      "geometry": {
        "type": "Point",
        "coordinates": [
          19.3194662,
          47.4401063
        ]
      },
      "properties": {
        "id": 1223104223,
        "osm_type": "node",
        "name": "Avia",
        "brand": "Avia"
      }
    },
    {
      "type": "Feature",
      "geometry": {
        "type": "Point",
        "coordinates": [
          19.4088946,
          47.4187978
        ]
      },
      "properties": {
        "id": 1304796602,
        "osm_type": "node",
        "name": "MOL",
        "brand": "MOL",
        "opening_hours": "24/7"
      }
    },
    {
      "type": "Feature",
      "geometry": {
        "type": "Point",
        "coordinates": [
          19.1293194,
          47.6370004
        ]
      },
      "properties": {
        "id": 1362212437,
        "osm_type": "node",
        "name": "Orlen",
        "brand": "Orlen",
        "opening_hours": "24/7"
      }
    },
    {
      "type": "Feature",
      "geometry": {
        "type": "Point",
        "coordinates": [
          18.9651643,
          47.4520716
        ]
      },
      "properties": {
        "id": 1365277331,
        "osm_type": "node",
        "name": "Shell",
        "brand": "Shell"
      }
    },
    {
      "type": "Feature",
      "geometry": {
        "type": "Point",
        "coordinates": [
          18.8093669,
          47.3567626
        ]
      },
      "properties": {
        "id": 1365361077,
        "osm_type": "node",
        "name": "Orlen",
        "brand": "Orlen"
      }
    },
    {
      "type": "Feature",
      "geometry": {
        "type": "Point",
        "coordinates": [
          19.5247597,
          47.6666386
        ]
      },
      "properties": {
        "id": 1446022329,
        "osm_type": "node",
        "name": "MOL",
        "brand": "MOL"
      }
    },
    {
      "type": "Feature",
      "geometry": {
        "type": "Point",
        "coordinates": [
          19.4268186,
          47.6695578
        ]
      },
      "properties": {
        "id": 1458535294,
        "osm_type": "node",
        "name": "Avia",
        "brand": "Avia"
      }
    },
    {
      "type": "Feature",
      "geometry": {
        "type": "Point",
        "coordinates": [
          18.9386376,
          47.5760105
        ]
      },
      "properties": {
        "id": 1502716088,
        "osm_type": "node",
        "name": "Shell",
        "brand": "Shell",
        "opening_hours": "24/7"
      }
    },
    {
      "type": "Feature",
      "geometry": {
        "type": "Point",
        "coordinates": [
          19.3228212,
          47.3908551
        ]
      },
      "properties": {
        "id": 1523356395,
        "osm_type": "node",
        "name": "Orlen",
        "brand": "Orlen"
      }
    },
    {
      "type": "Feature",
      "geometry": {
        "type": "Point",
        "coordinates": [
          18.9389215,
          47.3789297
        ]
      },
      "properties": {
        "id": 1645918362,
        "osm_type": "node",
        "name": "Orlen",
        "brand": "Orlen"
      }
    },
    {
      "type": "Feature",
      "geometry": {
        "type": "Point",
        "coordinates": [
          19.0480297,
          47.37042
        ]
      },
      "properties": {
        "id": 1654296104,
        "osm_type": "node",
        "name": "Orlen Shop",
        "opening_hours": "24/7"
      }
    },
    {
      "type": "Feature",
      "geometry": {
        "type": "Point",
        "coordinates": [
          19.196786,
          47.6056229
        ]
      },
      "properties": {
        "id": 1673398287,
        "osm_type": "node",
        "name": "Shell",
        "brand": "Shell",
        "check_date": "2024-02-08"
      }
    },
    {
      "type": "Feature",
      "geometry": {
        "type": "Point",
        "coordinates": [
          19.1263818,
          47.6267142
        ]
      },
      "properties": {
        "id": 1679665892,
        "osm_type": "node",
        "name": "Shell",
        "brand": "Shell",
        "opening_hours": "Mo-Su 06:00-22:00; PH off"
      }
    },
    {
      "type": "Feature",
      "geometry": {
        "type": "Point",
        "coordinates": [
          19.2666474,
          47.5494312
        ]
      },
      "properties": {
        "id": 1683873515,
        "osm_type": "node",
        "name": "OMV",
        "brand": "OMV",
        "opening_hours": "Mo-Su 06:00-22:00"
      }
    },
    {
      "type": "Feature",
      "geometry": {
        "type": "Point",
        "coordinates": [
          19.2165849,
          47.5438994
        ]
      },
      "properties": {
        "id": 1704152398,
        "osm_type": "node",
        "name": "Üzemanyagtöltő állomás"
      }
    },
    {
      "type": "Feature",
      "geometry": {
        "type": "Point",
        "coordinates": [
          19.7430011,
          47.407916
        ]
      },
      "properties": {
        "id": 1718424656,
        "osm_type": "node",
        "name": "Avia",
        "brand": "Avia",
        "opening_hours": "Mo-Su 04:30-22:00"
      }
    },
    {
      "type": "Feature",
      "geometry": {
        "type": "Point",
        "coordinates": [
          19.8693329,
          47.3381786
        ]
      },
      "properties": {
        "id": 1804426710,
        "osm_type": "node",
        "name": "OMV",
        "brand": "OMV"
      }
    },
    {
      "type": "Feature",
      "geometry": {
        "type": "Point",
        "coordinates": [
          19.3294698,
          47.6696009
        ]
      },
      "properties": {
        "id": 1806069617,
        "osm_type": "node",
        "name": "Fixoil Benzinkút",
        "opening_hours": "Mo-Su 06:00-20:00"
      }
    },
    {
      "type": "Feature",
      "geometry": {
        "type": "Point",
        "coordinates": [
          19.0511046,
          47.2852743
        ]
      },
      "properties": {
        "id": 1810222680,
        "osm_type": "node",
        "name": "OIL!",
        "brand": "OIL!"
      }
    },
    {
      "type": "Feature",
      "geometry": {
        "type": "Point",
        "coordinates": [
          19.0369669,
          47.3064561
        ]
      },
      "properties": {
        "id": 1810222834,
        "osm_type": "node",
        "name": "Castrol"
      }
    },
    {
      "type": "Feature",
      "geometry": {
        "type": "Point",
        "coordinates": [
          19.068671,
          47.6189143
        ]
      },
      "properties": {
        "id": 1845623551,
        "osm_type": "node",
        "name": "ENVI",
        "brand": "METRO",
        "opening_hours": "24/7"
      }
    },
    {
      "type": "Feature",
      "geometry": {
        "type": "Point",
        "coordinates": [
          19.0002941,
          47.6506579
        ]
      },
      "properties": {
        "id": 1847681145,
        "osm_type": "node",
        "opening_hours": "24/7"
      }
    },
    {
      "type": "Feature",
      "geometry": {
        "type": "Point",
        "coordinates": [
          19.7822462,
          47.0475422
        ]
      },
      "properties": {
        "id": 1940728876,
        "osm_type": "node",
        "name": "OMV",
        "brand": "OMV",
        "opening_hours": "Mo-Su 06:00-22:00"
      }
    },
    {
      "type": "Feature",
      "geometry": {
        "type": "Point",
        "coordinates": [
          18.9096253,
          47.3622755
        ]
      },
      "properties": {
        "id": 1979476229,
        "osm_type": "node",
        "name": "MOL",
        "brand": "MOL"
      }
    },
    {
      "type": "Feature",
      "geometry": {
        "type": "Point",
        "coordinates": [
          19.4262058,
          47.3412012
        ]
      },
      "properties": {
        "id": 1993171476,
        "osm_type": "node",
        "name": "Shell",
        "brand": "Shell"
      }
    },
    {
      "type": "Feature",
      "geometry": {
        "type": "Point",
        "coordinates": [
          19.3270189,
          47.2533257
        ]
      },
      "properties": {
        "id": 2007144522,
        "osm_type": "node",
        "name": "MOL",
        "brand": "MOL"
      }
    },
    {
      "type": "Feature",
      "geometry": {
        "type": "Point",
        "coordinates": [
          19.3630593,
          47.3745703
        ]
      },
      "properties": {
        "id": 2007148965,
        "osm_type": "node",
        "name": "Dragon Benz",
        "brand": "Dragon Benz",
        "opening_hours": "24/7"
      }
    },
    {
      "type": "Feature",
      "geometry": {
        "type": "Point",
        "coordinates": [
          18.7235398,
          47.5409395
        ]
      },
      "properties": {
        "id": 2129793657,
        "osm_type": "node",
        "name": "OMV",
        "brand": "OMV",
        "opening_hours": "24/7"
      }
    },
    {
      "type": "Feature",
      "geometry": {
        "type": "Point",
        "coordinates": [
          18.9008738,
          47.4565709
        ]
      },
      "properties": {
        "id": 2266896202,
        "osm_type": "node",
        "name": "Envi"
      }
    },
    {
      "type": "Feature",
      "geometry": {
        "type": "Point",
        "coordinates": [
          19.4611531,
          47.4325791
        ]
      },
      "properties": {
        "id": 2313702318,
        "osm_type": "node",
        "name": "Avia",
        "brand": "Avia"
      }
    },
    {
      "type": "Feature",
      "geometry": {
        "type": "Point",
        "coordinates": [
          19.7417184,
          47.4195987
        ]
      },
      "properties": {
        "id": 2313702325,
        "osm_type": "node",
        "name": "MOL",
        "brand": "MOL"
      }
    },
    {
      "type": "Feature",
      "geometry": {
        "type": "Point",
        "coordinates": [
          19.5321941,
          47.4487789
        ]
      },
      "properties": {
        "id": 2313702332,
        "osm_type": "node",
        "name": "Shell",
        "brand": "Shell"
      }
    },
    {
      "type": "Feature",
      "geometry": {
        "type": "Point",
        "coordinates": [
          19.0629979,
          47.6207353
        ]
      },
      "properties": {
        "id": 2366450330,
        "osm_type": "node",
        "name": "BSS"
      }
    },
    {
      "type": "Feature",
      "geometry": {
        "type": "Point",
        "coordinates": [
          18.9432066,
          47.1718465
        ]
      },
      "properties": {
        "id": 2410407241,
        "osm_type": "node",
        "name": "MOL",
        "brand": "MOL"
      }
    },
    {
      "type": "Feature",
      "geometry": {
        "type": "Point",
        "coordinates": [
          18.9651229,
          47.8007223
        ]
      },
      "properties": {
        "id": 2429396052,
        "osm_type": "node",
        "name": "MOL",
        "brand": "MOL",
        "opening_hours": "Mo-Su 06:00-21:00"
      }
    },
    {
      "type": "Feature",
      "geometry": {
        "type": "Point",
        "coordinates": [
          19.762001,
          47.3967188
        ]
      },
      "properties": {
        "id": 2439730904,
        "osm_type": "node",
        "brand": "KÁTA Benzinkút - Nagykáta"
      }
    },
    {
      "type": "Feature",
      "geometry": {
        "type": "Point",
        "coordinates": [
          19.7998344,
          47.1821437
        ]
      },
      "properties": {
        "id": 2450567757,
        "osm_type": "node",
        "name": "Shell",
        "brand": "Shell"
      }
    },
    {
      "type": "Feature",
      "geometry": {
        "type": "Point",
        "coordinates": [
          20.0027058,
          47.191519
        ]
      },
      "properties": {
        "id": 2663997529,
        "osm_type": "node",
        "name": "MOL",
        "brand": "MOL"
      }
    },
    {
      "type": "Feature",
      "geometry": {
        "type": "Point",
        "coordinates": [
          19.7980386,
          47.1831326
        ]
      },
      "properties": {
        "id": 2664313734,
        "osm_type": "node",
        "name": "HUNOIL",
        "brand": "Shell",
        "opening_hours": "Mo-Su 06:00-22:00"
      }
    },
    {
      "type": "Feature",
      "geometry": {
        "type": "Point",
        "coordinates": [
          19.523385,
          47.5104704
        ]
      },
      "properties": {
        "id": 2956185253,
        "osm_type": "node"
      }
    },
    {
      "type": "Feature",
      "geometry": {
        "type": "Point",
        "coordinates": [
          19.389703,
          47.5277796
        ]
      },
      "properties": {
        "id": 3053513636,
        "osm_type": "node",
        "name": "MOL",
        "brand": "MOL",
        "opening_hours": "Mo-Su 05:00-21:00"
      }
    },
    {
      "type": "Feature",
      "geometry": {
        "type": "Point",
        "coordinates": [
          19.1414121,
          47.7643756
        ]
      },
      "properties": {
        "id": 3138867978,
        "osm_type": "node",
        "name": "LPG Autógáz"
      }
    },
    {
      "type": "Feature",
      "geometry": {
        "type": "Point",
        "coordinates": [
          19.116779,
          47.3438485
        ]
      },
      "properties": {
        "id": 3147156783,
        "osm_type": "node",
        "name": "ENVi",
        "opening_hours": "24/7"
      }
    },
    {
      "type": "Feature",
      "geometry": {
        "type": "Point",
        "coordinates": [
          18.9929566,
          47.1728009
        ]
      },
      "properties": {
        "id": 3295037725,
        "osm_type": "node",
        "name": "Avia",
        "brand": "Avia"
      }
    },
    {
      "type": "Feature",
      "geometry": {
        "type": "Point",
        "coordinates": [
          18.9472222,
          47.4557776
        ]
      },
      "properties": {
        "id": 3309687402,
        "osm_type": "node",
        "name": "Auchan",
        "brand": "Auchan",
        "opening_hours": "24/7"
      }
    },
    {
      "type": "Feature",
      "geometry": {
        "type": "Point",
        "coordinates": [
          19.1316115,
          47.6582635
        ]
      },
      "properties": {
        "id": 3319390012,
        "osm_type": "node",
        "name": "MOL",
        "brand": "MOL",
        "opening_hours": "06:00-21:00"
      }
    },
    {
      "type": "Feature",
      "geometry": {
        "type": "Point",
        "coordinates": [
          19.5881563,
          47.2593097
        ]
      },
      "properties": {
        "id": 3344682043,
        "osm_type": "node",
        "name": "GPW OIL",
        "brand": "GPW OIL",
        "opening_hours": "Mo-Fr 05:00-22:00; Sa-Su 07:00-22:00"
      }
    },
    {
      "type": "Feature",
      "geometry": {
        "type": "Point",
        "coordinates": [
          18.7825262,
          47.9718554
        ]
      },
      "properties": {
        "id": 3439052091,
        "osm_type": "node",
        "brand": "Mol",
        "opening_hours": "Mo-Su 06:00-20:00"
      }
    },
    {
      "type": "Feature",
      "geometry": {
        "type": "Point",
        "coordinates": [
          19.1070812,
          47.3336419
        ]
      },
      "properties": {
        "id": 3445466199,
        "osm_type": "node",
        "name": "Benzinkút",
        "brand": "Benzinkút",
        "opening_hours": "05:00-22:00"
      }
    },
    {
      "type": "Feature",
      "geometry": {
        "type": "Point",
        "coordinates": [
          18.7182243,
          47.5447027
        ]
      },
      "properties": {
        "id": 3454542743,
        "osm_type": "node"
      }
    },
    {
      "type": "Feature",
      "geometry": {
        "type": "Point",
        "coordinates": [
          19.98155,
          47.188767
        ]
      },
      "properties": {
        "id": 3454580487,
        "osm_type": "node",
        "name": "Bezárt benzinkút"
      }
    },
    {
      "type": "Feature",
      "geometry": {
        "type": "Point",
        "coordinates": [
          19.7773428,
          47.1773241
        ]
      },
      "properties": {
        "id": 3454581638,
        "osm_type": "node",
        "name": "MOL",
        "brand": "MOL",
        "opening_hours": "Mo-Su 06:00-22:00"
      }
    },
    {
      "type": "Feature",
      "geometry": {
        "type": "Point",
        "coordinates": [
          18.97703,
          47.315468
        ]
      },
      "properties": {
        "id": 3465805189,
        "osm_type": "node",
        "name": "AVIA - benzinkút",
        "brand": "Avia"
      }
    },
    {
      "type": "Feature",
      "geometry": {
        "type": "Point",
        "coordinates": [
          19.324552,
          47.1937472
        ]
      },
      "properties": {
        "id": 3471930727,
        "osm_type": "node",
        "name": "MOL autógázkút",
        "brand": "MOL",
        "opening_hours": "24/7"
      }
    },
    {
      "type": "Feature",
      "geometry": {
        "type": "Point",
        "coordinates": [
          19.4123041,
          47.1707301
        ]
      },
      "properties": {
        "id": 3471930730,
        "osm_type": "node",
        "opening_hours": "Mo-Sa 06:00-20:00; Su 07:00-19:00"
      }
    },
    {
      "type": "Feature",
      "geometry": {
        "type": "Point",
        "coordinates": [
          19.329267,
          47.1928
        ]
      },
      "properties": {
        "id": 3471930774,
        "osm_type": "node",
        "name": "Shell",
        "brand": "Shell"
      }
    },
    {
      "type": "Feature",
      "geometry": {
        "type": "Point",
        "coordinates": [
          19.1444295,
          47.229856
        ]
      },
      "properties": {
        "id": 3471930925,
        "osm_type": "node",
        "opening_hours": "Mo-Fr 06:00-18:00; Sa 06:00-16:00; Su 07:00-12:00"
      }
    },
    {
      "type": "Feature",
      "geometry": {
        "type": "Point",
        "coordinates": [
          19.46315,
          47.354533
        ]
      },
      "properties": {
        "id": 3473637781,
        "osm_type": "node",
        "name": "Optima"
      }
    },
    {
      "type": "Feature",
      "geometry": {
        "type": "Point",
        "coordinates": [
          19.54216,
          47.281786
        ]
      },
      "properties": {
        "id": 3473637786,
        "osm_type": "node",
        "name": "Petro-Canada benzinkút"
      }
    },
    {
      "type": "Feature",
      "geometry": {
        "type": "Point",
        "coordinates": [
          19.7745138,
          47.0204364
        ]
      },
      "properties": {
        "id": 3488425497,
        "osm_type": "node",
        "name": "MOL",
        "brand": "MOL",
        "opening_hours": "06:00-20:00"
      }
    },
    {
      "type": "Feature",
      "geometry": {
        "type": "Point",
        "coordinates": [
          19.9182737,
          47.0029667
        ]
      },
      "properties": {
        "id": 3488425550,
        "osm_type": "node",
        "opening_hours": "06:00-20:00"
      }
    },
    {
      "type": "Feature",
      "geometry": {
        "type": "Point",
        "coordinates": [
          18.9008177,
          47.3168099
        ]
      },
      "properties": {
        "id": 3488447729,
        "osm_type": "node",
        "name": "MOL",
        "brand": "MOL"
      }
    },
    {
      "type": "Feature",
      "geometry": {
        "type": "Point",
        "coordinates": [
          18.9979251,
          47.3383018
        ]
      },
      "properties": {
        "id": 3659390740,
        "osm_type": "node",
        "name": "ENVI Tököl Airport Center",
        "brand": "ENVI",
        "opening_hours": "24/7"
      }
    },
    {
      "type": "Feature",
      "geometry": {
        "type": "Point",
        "coordinates": [
          19.0618263,
          47.6109823
        ]
      },
      "properties": {
        "id": 3759282485,
        "osm_type": "node",
        "name": "Auchan",
        "brand": "Auchan",
        "opening_hours": "24/7"
      }
    },
    {
      "type": "Feature",
      "geometry": {
        "type": "Point",
        "coordinates": [
          18.9341694,
          47.3783541
        ]
      },
      "properties": {
        "id": 4095005899,
        "osm_type": "node",
        "name": "M. Petrol",
        "brand": "M. Petrol",
        "opening_hours": "24/7"
      }
    },
    {
      "type": "Feature",
      "geometry": {
        "type": "Point",
        "coordinates": [
          19.2949006,
          47.60598
        ]
      },
      "properties": {
        "id": 4120610449,
        "osm_type": "node"
      }
    },
    {
      "type": "Feature",
      "geometry": {
        "type": "Point",
        "coordinates": [
          19.2437745,
          47.4149047
        ]
      },
      "properties": {
        "id": 4127799323,
        "osm_type": "node",
        "name": "EcoPont",
        "opening_hours": "24/7"
      }
    },
    {
      "type": "Feature",
      "geometry": {
        "type": "Point",
        "coordinates": [
          19.0438282,
          47.3780188
        ]
      },
      "properties": {
        "id": 4314688191,
        "osm_type": "node",
        "name": "Kántor",
        "opening_hours": "24/7"
      }
    },
    {
      "type": "Feature",
      "geometry": {
        "type": "Point",
        "coordinates": [
          19.2626294,
          47.5211896
        ]
      },
      "properties": {
        "id": 4314688291,
        "osm_type": "node",
        "name": "BGW",
        "brand": "BGW",
        "opening_hours": "Mo-Su 00:00-22:00"
      }
    },
    {
      "type": "Feature",
      "geometry": {
        "type": "Point",
        "coordinates": [
          19.2631576,
          47.5220971
        ]
      },
      "properties": {
        "id": 4386767289,
        "osm_type": "node",
        "name": "Avia",
        "brand": "Avia"
      }
    },
    {
      "type": "Feature",
      "geometry": {
        "type": "Point",
        "coordinates": [
          19.0633279,
          47.6144403
        ]
      },
      "properties": {
        "id": 4401266889,
        "osm_type": "node"
      }
    },
    {
      "type": "Feature",
      "geometry": {
        "type": "Point",
        "coordinates": [
          19.0185286,
          47.3177929
        ]
      },
      "properties": {
        "id": 4609572743,
        "osm_type": "node",
        "name": "OIL!",
        "brand": "OIL!"
      }
    },
    {
      "type": "Feature",
      "geometry": {
        "type": "Point",
        "coordinates": [
          19.5015477,
          47.6585917
        ]
      },
      "properties": {
        "id": 4855835829,
        "osm_type": "node",
        "name": "Avia",
        "brand": "Avia",
        "opening_hours": "05:00-22:00"
      }
    },
    {
      "type": "Feature",
      "geometry": {
        "type": "Point",
        "coordinates": [
          19.4711772,
          47.6371689
        ]
      },
      "properties": {
        "id": 4910845133,
        "osm_type": "node",
        "name": "M. Petrol",
        "brand": "M. Petrol",
        "opening_hours": "24/7"
      }
    },
    {
      "type": "Feature",
      "geometry": {
        "type": "Point",
        "coordinates": [
          18.7462772,
          47.4950223
        ]
      },
      "properties": {
        "id": 4933473907,
        "osm_type": "node",
        "name": "Hercegkút Benzinkút",
        "opening_hours": "Mo-Su 05:00-22:00"
      }
    },
    {
      "type": "Feature",
      "geometry": {
        "type": "Point",
        "coordinates": [
          19.0538356,
          47.3790785
        ]
      },
      "properties": {
        "id": 5034331931,
        "osm_type": "node",
        "name": "EW"
      }
    },
    {
      "type": "Feature",
      "geometry": {
        "type": "Point",
        "coordinates": [
          19.0940459,
          47.7573731
        ]
      },
      "properties": {
        "id": 5256604554,
        "osm_type": "node",
        "name": "OIL!",
        "brand": "OIL!"
      }
    },
    {
      "type": "Feature",
      "geometry": {
        "type": "Point",
        "coordinates": [
          19.0681404,
          47.6753232
        ]
      },
      "properties": {
        "id": 5350705246,
        "osm_type": "node",
        "name": "Avia",
        "brand": "Avia"
      }
    },
    {
      "type": "Feature",
      "geometry": {
        "type": "Point",
        "coordinates": [
          19.0644959,
          47.6620154
        ]
      },
      "properties": {
        "id": 5649304234,
        "osm_type": "node",
        "name": "LPG"
      }
    },
    {
      "type": "Feature",
      "geometry": {
        "type": "Point",
        "coordinates": [
          19.0478295,
          47.3693426
        ]
      },
      "properties": {
        "id": 6281954171,
        "osm_type": "node",
        "name": "Diszkont"
      }
    },
    {
      "type": "Feature",
      "geometry": {
        "type": "Point",
        "coordinates": [
          19.4042662,
          47.3534263
        ]
      },
      "properties": {
        "id": 6346365216,
        "osm_type": "node"
      }
    },
    {
      "type": "Feature",
      "geometry": {
        "type": "Point",
        "coordinates": [
          19.0064373,
          47.0822082
        ]
      },
      "properties": {
        "id": 6547008243,
        "osm_type": "node",
        "name": "OMV",
        "brand": "OMV",
        "opening_hours": "Mo-Su 06:00-21:00; PH off"
      }
    },
    {
      "type": "Feature",
      "geometry": {
        "type": "Point",
        "coordinates": [
          19.048968,
          47.3840804
        ]
      },
      "properties": {
        "id": 6688539720,
        "osm_type": "node"
      }
    },
    {
      "type": "Feature",
      "geometry": {
        "type": "Point",
        "coordinates": [
          19.7896111,
          47.1469546
        ]
      },
      "properties": {
        "id": 6952088912,
        "osm_type": "node",
        "name": "MOL",
        "brand": "MOL"
      }
    },
    {
      "type": "Feature",
      "geometry": {
        "type": "Point",
        "coordinates": [
          19.139047,
          47.770008
        ]
      },
      "properties": {
        "id": 6952088914,
        "osm_type": "node",
        "name": "MOL",
        "brand": "MOL",
        "opening_hours": "Mo-Su 06:00-21:00"
      }
    },
    {
      "type": "Feature",
      "geometry": {
        "type": "Point",
        "coordinates": [
          19.3356605,
          47.4899845
        ]
      },
      "properties": {
        "id": 6952088917,
        "osm_type": "node",
        "name": "MOL",
        "brand": "MOL"
      }
    },
    {
      "type": "Feature",
      "geometry": {
        "type": "Point",
        "coordinates": [
          19.3834939,
          47.4362574
        ]
      },
      "properties": {
        "id": 7110505130,
        "osm_type": "node",
        "name": "Avia",
        "brand": "Avia"
      }
    },
    {
      "type": "Feature",
      "geometry": {
        "type": "Point",
        "coordinates": [
          18.9162266,
          47.4990867
        ]
      },
      "properties": {
        "id": 8251764142,
        "osm_type": "node",
        "name": "Oranges Oil Company Budakeszi",
        "brand": "Oranges Oil Company",
        "opening_hours": "24/7"
      }
    },
    {
      "type": "Feature",
      "geometry": {
        "type": "Point",
        "coordinates": [
          19.148319,
          47.6787731
        ]
      },
      "properties": {
        "id": 9294401536,
        "osm_type": "node"
      }
    },
    {
      "type": "Feature",
      "geometry": {
        "type": "Point",
        "coordinates": [
          19.2949701,
          47.6461072
        ]
      },
      "properties": {
        "id": 9388103549,
        "osm_type": "node",
        "name": "Well-Gas LPG Autógáz",
        "opening_hours": "Mo-Fr 06:00-20:00; Sa 06:00-17:00"
      }
    },
    {
      "type": "Feature",
      "geometry": {
        "type": "Point",
        "coordinates": [
          18.9437972,
          47.4027119
        ]
      },
      "properties": {
        "id": 10007447071,
        "osm_type": "node",
        "name": "Moto+",
        "brand": "Moto+",
        "opening_hours": "Mo-Fr 06:00-18:00; Sa-Su 08:00-15:00"
      }
    },
    {
      "type": "Feature",
      "geometry": {
        "type": "Point",
        "coordinates": [
          18.9849565,
          47.356591
        ]
      },
      "properties": {
        "id": 10237948551,
        "osm_type": "node",
        "name": "MyPetrol Halásztelek",
        "brand": "MyPetrol"
      }
    },
    {
      "type": "Feature",
      "geometry": {
        "type": "Point",
        "coordinates": [
          19.2626294,
          47.5211917
        ]
      },
      "properties": {
        "id": 10801031585,
        "osm_type": "node",
        "name": "Avia",
        "brand": "Avia",
        "opening_hours": "Mo-Su 00:00-22:00"
      }
    },
    {
      "type": "Feature",
      "geometry": {
        "type": "Point",
        "coordinates": [
          18.8803577,
          47.4164848
        ]
      },
      "properties": {
        "id": 11206161846,
        "osm_type": "node",
        "name": "Shell",
        "brand": "Shell",
        "opening_hours": "24/7"
      }
    },
    {
      "type": "Feature",
      "geometry": {
        "type": "Point",
        "coordinates": [
          18.8946064,
          47.5747284
        ]
      },
      "properties": {
        "id": 11585030597,
        "osm_type": "node"
      }
    },
    {
      "type": "Feature",
      "geometry": {
        "type": "Point",
        "coordinates": [
          19.3532658,
          47.3809952
        ]
      },
      "properties": {
        "id": 11623667640,
        "osm_type": "node",
        "name": "OMV",
        "brand": "OMV",
        "opening_hours": "Mo-Su 00:00-22:00; PH off"
      }
    },
    {
      "type": "Feature",
      "geometry": {
        "type": "Point",
        "coordinates": [
          19.1852315,
          47.6107585
        ]
      },
      "properties": {
        "id": 11939305997,
        "osm_type": "node",
        "name": "Retro Benzinkút",
        "opening_hours": "Mo-Sa 06:00-20:00; Su off",
        "check_date": "2024-05-28"
      }
    },
    {
      "type": "Feature",
      "geometry": {
        "type": "Point",
        "coordinates": [
          19.0957779,
          47.1156843
        ]
      },
      "properties": {
        "id": 12056960194,
        "osm_type": "node"
      }
    },
    {
      "type": "Feature",
      "geometry": {
        "type": "Point",
        "coordinates": [
          19.3361959,
          47.4609174
        ]
      },
      "properties": {
        "id": 12349509186,
        "osm_type": "node",
        "name": "Auchan",
        "brand": "Auchan"
      }
    },
    {
      "type": "Feature",
      "geometry": {
        "type": "Point",
        "coordinates": [
          18.8522496,
          47.6282595
        ]
      },
      "properties": {
        "id": 41810757,
        "osm_type": "way",
        "name": "MOL",
        "brand": "MOL"
      }
    },
    {
      "type": "Feature",
      "geometry": {
        "type": "Point",
        "coordinates": [
          19.246613,
          47.5394972
        ]
      },
      "properties": {
        "id": 89979526,
        "osm_type": "way",
        "name": "Auchan benzinkút",
        "brand": "Auchan"
      }
    },
    {
      "type": "Feature",
      "geometry": {
        "type": "Point",
        "coordinates": [
          18.8331101,
          47.4730391
        ]
      },
      "properties": {
        "id": 98727058,
        "osm_type": "way",
        "name": "OMV",
        "brand": "OMV",
        "opening_hours": "Mo-Su 06:00-22:00"
      }
    },
    {
      "type": "Feature",
      "geometry": {
        "type": "Point",
        "coordinates": [
          19.0561625,
          47.3803052
        ]
      },
      "properties": {
        "id": 115921296,
        "osm_type": "way",
        "name": "Shell",
        "brand": "Shell"
      }
    },
    {
      "type": "Feature",
      "geometry": {
        "type": "Point",
        "coordinates": [
          19.1261527,
          47.6274896
        ]
      },
      "properties": {
        "id": 155572189,
        "osm_type": "way",
        "name": "Orlen"
      }
    },
    {
      "type": "Feature",
      "geometry": {
        "type": "Point",
        "coordinates": [
          18.8389244,
          47.3877618
        ]
      },
      "properties": {
        "id": 156197186,
        "osm_type": "way",
        "name": "Oil"
      }
    },
    {
      "type": "Feature",
      "geometry": {
        "type": "Point",
        "coordinates": [
          19.5999884,
          47.2623447
        ]
      },
      "properties": {
        "id": 193855568,
        "osm_type": "way",
        "name": "OMV",
        "brand": "OMV",
        "opening_hours": "Mo-Su 05:00-22:00; PH off"
      }
    },
    {
      "type": "Feature",
      "geometry": {
        "type": "Point",
        "coordinates": [
          18.8910772,
          47.4069642
        ]
      },
      "properties": {
        "id": 221268935,
        "osm_type": "way",
        "name": "OMV",
        "brand": "OMV",
        "opening_hours": "Mo-Su 06:00-21:00"
      }
    },
    {
      "type": "Feature",
      "geometry": {
        "type": "Point",
        "coordinates": [
          19.0672265,
          47.6417576
        ]
      },
      "properties": {
        "id": 223091922,
        "osm_type": "way",
        "name": "OMV",
        "brand": "OMV",
        "opening_hours": "24/7"
      }
    },
    {
      "type": "Feature",
      "geometry": {
        "type": "Point",
        "coordinates": [
          19.1126592,
          47.6060239
        ]
      },
      "properties": {
        "id": 229143616,
        "osm_type": "way",
        "name": "Auchan",
        "brand": "Auchan",
        "check_date": "2023-03-12"
      }
    },
    {
      "type": "Feature",
      "geometry": {
        "type": "Point",
        "coordinates": [
          18.9051708,
          47.3818659
        ]
      },
      "properties": {
        "id": 230182255,
        "osm_type": "way",
        "name": "Avia",
        "brand": "Avia",
        "opening_hours": "Mo-Fr 06:00-20:00; Sa 06:00-15:00; Su 07:00-12:00"
      }
    },
    {
      "type": "Feature",
      "geometry": {
        "type": "Point",
        "coordinates": [
          18.9191367,
          47.5017146
        ]
      },
      "properties": {
        "id": 248836479,
        "osm_type": "way",
        "name": "Shell",
        "brand": "Shell",
        "opening_hours": "24/7"
      }
    },
    {
      "type": "Feature",
      "geometry": {
        "type": "Point",
        "coordinates": [
          18.9571706,
          47.4527943
        ]
      },
      "properties": {
        "id": 262419016,
        "osm_type": "way",
        "name": "MOL",
        "brand": "MOL",
        "opening_hours": "24/7"
      }
    },
    {
      "type": "Feature",
      "geometry": {
        "type": "Point",
        "coordinates": [
          19.0012995,
          47.3326485
        ]
      },
      "properties": {
        "id": 265736719,
        "osm_type": "way",
        "name": "MOL",
        "brand": "MOL",
        "opening_hours": "Mo-Su 06:00-22:00"
      }
    },
    {
      "type": "Feature",
      "geometry": {
        "type": "Point",
        "coordinates": [
          19.3368855,
          47.6076145
        ]
      },
      "properties": {
        "id": 272150803,
        "osm_type": "way",
        "name": "Orlen",
        "brand": "Orlen",
        "opening_hours": "Mo-Su 06:00-22:00"
      }
    },
    {
      "type": "Feature",
      "geometry": {
        "type": "Point",
        "coordinates": [
          19.3282924,
          47.5912807
        ]
      },
      "properties": {
        "id": 272536099,
        "osm_type": "way",
        "name": "MOL",
        "brand": "MOL"
      }
    },
    {
      "type": "Feature",
      "geometry": {
        "type": "Point",
        "coordinates": [
          19.5953058,
          47.6053951
        ]
      },
      "properties": {
        "id": 273038287,
        "osm_type": "way"
      }
    },
    {
      "type": "Feature",
      "geometry": {
        "type": "Point",
        "coordinates": [
          19.0480665,
          47.3706505
        ]
      },
      "properties": {
        "id": 274201232,
        "osm_type": "way",
        "name": "Orlen",
        "brand": "Orlen"
      }
    },
    {
      "type": "Feature",
      "geometry": {
        "type": "Point",
        "coordinates": [
          19.4700817,
          47.6492816
        ]
      },
      "properties": {
        "id": 274978776,
        "osm_type": "way",
        "name": "MOL",
        "brand": "MOL"
      }
    },
    {
      "type": "Feature",
      "geometry": {
        "type": "Point",
        "coordinates": [
          19.0286834,
          47.3373002
        ]
      },
      "properties": {
        "id": 275440304,
        "osm_type": "way",
        "name": "OMV",
        "brand": "OMV",
        "opening_hours": "Mo-Su 06:00-22:00; PH off"
      }
    },
    {
      "type": "Feature",
      "geometry": {
        "type": "Point",
        "coordinates": [
          19.0478582,
          47.3602305
        ]
      },
      "properties": {
        "id": 276062372,
        "osm_type": "way",
        "name": "Shell",
        "brand": "Shell"
      }
    },
    {
      "type": "Feature",
      "geometry": {
        "type": "Point",
        "coordinates": [
          18.9218585,
          47.4198961
        ]
      },
      "properties": {
        "id": 278121443,
        "osm_type": "way",
        "name": "MOL",
        "brand": "MOL"
      }
    },
    {
      "type": "Feature",
      "geometry": {
        "type": "Point",
        "coordinates": [
          18.9221295,
          47.4211565
        ]
      },
      "properties": {
        "id": 278121445,
        "osm_type": "way",
        "name": "OMV",
        "brand": "OMV",
        "opening_hours": "24/7"
      }
    },
    {
      "type": "Feature",
      "geometry": {
        "type": "Point",
        "coordinates": [
          19.0887173,
          47.7167584
        ]
      },
      "properties": {
        "id": 282713871,
        "osm_type": "way",
        "name": "MOL",
        "brand": "MOL",
        "opening_hours": "Mo-Fr 06:00-20:00; Sa-Su 06:00-21:00"
      }
    },
    {
      "type": "Feature",
      "geometry": {
        "type": "Point",
        "coordinates": [
          19.338599,
          47.6074687
        ]
      },
      "properties": {
        "id": 283924473,
        "osm_type": "way",
        "name": "Shell",
        "brand": "Shell",
        "opening_hours": "24/7"
      }
    },
    {
      "type": "Feature",
      "geometry": {
        "type": "Point",
        "coordinates": [
          19.2948942,
          47.6075728
        ]
      },
      "properties": {
        "id": 283924476,
        "osm_type": "way",
        "name": "ORLEN"
      }
    },
    {
      "type": "Feature",
      "geometry": {
        "type": "Point",
        "coordinates": [
          19.2950423,
          47.6061307
        ]
      },
      "properties": {
        "id": 283924477,
        "osm_type": "way",
        "name": "ORLEN",
        "brand": "Orlen"
      }
    },
    {
      "type": "Feature",
      "geometry": {
        "type": "Point",
        "coordinates": [
          19.3553352,
          47.5993369
        ]
      },
      "properties": {
        "id": 284038328,
        "osm_type": "way",
        "name": "MOL",
        "brand": "MOL",
        "opening_hours": "24/7"
      }
    },
    {
      "type": "Feature",
      "geometry": {
        "type": "Point",
        "coordinates": [
          18.9314151,
          47.3788852
        ]
      },
      "properties": {
        "id": 284230267,
        "osm_type": "way",
        "name": "MOL",
        "brand": "MOL"
      }
    },
    {
      "type": "Feature",
      "geometry": {
        "type": "Point",
        "coordinates": [
          18.7652282,
          47.5869578
        ]
      },
      "properties": {
        "id": 286747095,
        "osm_type": "way",
        "name": "Perbál-Petrol Kft.",
        "opening_hours": "Mo-Fr 06:00-18:00; Sa 07:00-16:00"
      }
    },
    {
      "type": "Feature",
      "geometry": {
        "type": "Point",
        "coordinates": [
          19.0530198,
          47.3792583
        ]
      },
      "properties": {
        "id": 288017078,
        "osm_type": "way",
        "name": "OMV",
        "brand": "OMV",
        "opening_hours": "24/7"
      }
    },
    {
      "type": "Feature",
      "geometry": {
        "type": "Point",
        "coordinates": [
          18.9317766,
          47.3784555
        ]
      },
      "properties": {
        "id": 291964679,
        "osm_type": "way",
        "name": "MOL",
        "brand": "MOL"
      }
    },
    {
      "type": "Feature",
      "geometry": {
        "type": "Point",
        "coordinates": [
          18.957792,
          47.4111489
        ]
      },
      "properties": {
        "id": 292301090,
        "osm_type": "way",
        "name": "MOL",
        "brand": "MOL",
        "opening_hours": "Mo-Su 05:00-21:00"
      }
    },
    {
      "type": "Feature",
      "geometry": {
        "type": "Point",
        "coordinates": [
          18.9447484,
          47.4036488
        ]
      },
      "properties": {
        "id": 292469155,
        "osm_type": "way",
        "name": "Orlen",
        "brand": "Orlen"
      }
    },
    {
      "type": "Feature",
      "geometry": {
        "type": "Point",
        "coordinates": [
          19.5990743,
          47.549511
        ]
      },
      "properties": {
        "id": 293462091,
        "osm_type": "way"
      }
    },
    {
      "type": "Feature",
      "geometry": {
        "type": "Point",
        "coordinates": [
          18.936573,
          47.3773717
        ]
      },
      "properties": {
        "id": 293564658,
        "osm_type": "way",
        "name": "Shell",
        "brand": "Shell"
      }
    },
    {
      "type": "Feature",
      "geometry": {
        "type": "Point",
        "coordinates": [
          19.2410911,
          47.5833251
        ]
      },
      "properties": {
        "id": 295484975,
        "osm_type": "way",
        "name": "MOL",
        "brand": "MOL"
      }
    },
    {
      "type": "Feature",
      "geometry": {
        "type": "Point",
        "coordinates": [
          18.9422559,
          47.4008165
        ]
      },
      "properties": {
        "id": 295640762,
        "osm_type": "way",
        "name": "MOL",
        "brand": "MOL"
      }
    },
    {
      "type": "Feature",
      "geometry": {
        "type": "Point",
        "coordinates": [
          18.9062874,
          47.3565019
        ]
      },
      "properties": {
        "id": 295640766,
        "osm_type": "way",
        "name": "OMV",
        "brand": "OMV",
        "opening_hours": "Mo-Su 05:00-22:00; PH off"
      }
    },
    {
      "type": "Feature",
      "geometry": {
        "type": "Point",
        "coordinates": [
          18.90751,
          47.355938
        ]
      },
      "properties": {
        "id": 295640767,
        "osm_type": "way",
        "name": "OMV",
        "brand": "OMV",
        "opening_hours": "Mo-Su 05:00-23:00"
      }
    },
    {
      "type": "Feature",
      "geometry": {
        "type": "Point",
        "coordinates": [
          18.958944,
          47.4517727
        ]
      },
      "properties": {
        "id": 299767035,
        "osm_type": "way",
        "name": "Orlen",
        "brand": "Orlen"
      }
    },
    {
      "type": "Feature",
      "geometry": {
        "type": "Point",
        "coordinates": [
          19.1588878,
          47.6556656
        ]
      },
      "properties": {
        "id": 301290167,
        "osm_type": "way",
        "name": "Shell",
        "brand": "Shell",
        "opening_hours": "24/7"
      }
    },
    {
      "type": "Feature",
      "geometry": {
        "type": "Point",
        "coordinates": [
          19.1601504,
          47.6550227
        ]
      },
      "properties": {
        "id": 301290170,
        "osm_type": "way",
        "name": "Shell",
        "brand": "Shell",
        "opening_hours": "24/7"
      }
    },
    {
      "type": "Feature",
      "geometry": {
        "type": "Point",
        "coordinates": [
          19.1440748,
          47.7811846
        ]
      },
      "properties": {
        "id": 301811573,
        "osm_type": "way",
        "name": "M-Plus",
        "brand": "M-Plus",
        "opening_hours": "Mo-Su 06:00-20:00"
      }
    },
    {
      "type": "Feature",
      "geometry": {
        "type": "Point",
        "coordinates": [
          19.7762547,
          47.021354
        ]
      },
      "properties": {
        "id": 306244546,
        "osm_type": "way",
        "name": "Shell Benzinkút",
        "brand": "Shell"
      }
    },
    {
      "type": "Feature",
      "geometry": {
        "type": "Point",
        "coordinates": [
          19.3445297,
          47.5872863
        ]
      },
      "properties": {
        "id": 310070776,
        "osm_type": "way",
        "name": "T-Well"
      }
    },
    {
      "type": "Feature",
      "geometry": {
        "type": "Point",
        "coordinates": [
          18.9363933,
          47.3896283
        ]
      },
      "properties": {
        "id": 313038234,
        "osm_type": "way",
        "opening_hours": "Mo-Fr 06:00-18:00; Sa 06:00-16:00; Su 07:00-13:00"
      }
    },
    {
      "type": "Feature",
      "geometry": {
        "type": "Point",
        "coordinates": [
          18.9218167,
          47.5142939
        ]
      },
      "properties": {
        "id": 313526480,
        "osm_type": "way",
        "name": "MOL",
        "brand": "MOL",
        "opening_hours": "Mo-Su 06:00-22:00"
      }
    },
    {
      "type": "Feature",
      "geometry": {
        "type": "Point",
        "coordinates": [
          19.0118786,
          47.2020949
        ]
      },
      "properties": {
        "id": 337627278,
        "osm_type": "way",
        "name": "MOL",
        "brand": "MOL"
      }
    },
    {
      "type": "Feature",
      "geometry": {
        "type": "Point",
        "coordinates": [
          19.22985,
          47.2907139
        ]
      },
      "properties": {
        "id": 347103517,
        "osm_type": "way",
        "name": "OIL benzinkút"
      }
    },
    {
      "type": "Feature",
      "geometry": {
        "type": "Point",
        "coordinates": [
          19.1797704,
          47.3019883
        ]
      },
      "properties": {
        "id": 348324999,
        "osm_type": "way",
        "name": "OMV",
        "brand": "OMV",
        "opening_hours": "24/7"
      }
    },
    {
      "type": "Feature",
      "geometry": {
        "type": "Point",
        "coordinates": [
          18.9270652,
          47.3900833
        ]
      },
      "properties": {
        "id": 353146651,
        "osm_type": "way",
        "name": "Ecoil"
      }
    },
    {
      "type": "Feature",
      "geometry": {
        "type": "Point",
        "coordinates": [
          19.2613757,
          47.7230684
        ]
      },
      "properties": {
        "id": 354851864,
        "osm_type": "way",
        "name": "Skorpio-11 Kft."
      }
    },
    {
      "type": "Feature",
      "geometry": {
        "type": "Point",
        "coordinates": [
          18.8886779,
          47.3677225
        ]
      },
      "properties": {
        "id": 384038772,
        "osm_type": "way",
        "name": "Castrol"
      }
    },
    {
      "type": "Feature",
      "geometry": {
        "type": "Point",
        "coordinates": [
          18.8832423,
          47.3707883
        ]
      },
      "properties": {
        "id": 384687891,
        "osm_type": "way",
        "name": "NK"
      }
    },
    {
      "type": "Feature",
      "geometry": {
        "type": "Point",
        "coordinates": [
          19.0706148,
          47.6503549
        ]
      },
      "properties": {
        "id": 388875758,
        "osm_type": "way",
        "name": "MOL",
        "brand": "MOL"
      }
    },
    {
      "type": "Feature",
      "geometry": {
        "type": "Point",
        "coordinates": [
          19.1491767,
          47.6789709
        ]
      },
      "properties": {
        "id": 401987872,
        "osm_type": "way",
        "name": "Eco Smart CNG és üzemanyagtöltő állomás",
        "opening_hours": "Mo-Su 06:00-22:00"
      }
    },
    {
      "type": "Feature",
      "geometry": {
        "type": "Point",
        "coordinates": [
          19.2437736,
          47.414876
        ]
      },
      "properties": {
        "id": 411040231,
        "osm_type": "way"
      }
    },
    {
      "type": "Feature",
      "geometry": {
        "type": "Point",
        "coordinates": [
          18.9124807,
          47.3662293
        ]
      },
      "properties": {
        "id": 435990434,
        "osm_type": "way",
        "name": "GT",
        "brand": "GT"
      }
    },
    {
      "type": "Feature",
      "geometry": {
        "type": "Point",
        "coordinates": [
          19.7471257,
          47.3453153
        ]
      },
      "properties": {
        "id": 439050736,
        "osm_type": "way",
        "name": "Benzinkút",
        "brand": "Benzinkút"
      }
    },
    {
      "type": "Feature",
      "geometry": {
        "type": "Point",
        "coordinates": [
          19.6785148,
          47.4504072
        ]
      },
      "properties": {
        "id": 440037860,
        "osm_type": "way",
        "name": "Káta"
      }
    },
    {
      "type": "Feature",
      "geometry": {
        "type": "Point",
        "coordinates": [
          19.3140943,
          47.181343
        ]
      },
      "properties": {
        "id": 457085019,
        "osm_type": "way",
        "name": "Dabasi Belső Benzinkút"
      }
    },
    {
      "type": "Feature",
      "geometry": {
        "type": "Point",
        "coordinates": [
          19.8107926,
          47.1914885
        ]
      },
      "properties": {
        "id": 469022426,
        "osm_type": "way",
        "name": "OMV",
        "brand": "OMV",
        "opening_hours": "24/7"
      }
    },
    {
      "type": "Feature",
      "geometry": {
        "type": "Point",
        "coordinates": [
          19.6007153,
          47.2438544
        ]
      },
      "properties": {
        "id": 469168210,
        "osm_type": "way",
        "name": "Benzinkút"
      }
    },
    {
      "type": "Feature",
      "geometry": {
        "type": "Point",
        "coordinates": [
          18.9765502,
          47.4475133
        ]
      },
      "properties": {
        "id": 470202857,
        "osm_type": "way",
        "name": "MOL",
        "brand": "MOL"
      }
    },
    {
      "type": "Feature",
      "geometry": {
        "type": "Point",
        "coordinates": [
          19.909234,
          47.1307735
        ]
      },
      "properties": {
        "id": 471238127,
        "osm_type": "way",
        "name": "Avia",
        "brand": "Avia"
      }
    },
    {
      "type": "Feature",
      "geometry": {
        "type": "Point",
        "coordinates": [
          19.6995852,
          47.1204202
        ]
      },
      "properties": {
        "id": 473446699,
        "osm_type": "way",
        "name": "MOL",
        "brand": "MOL"
      }
    },
    {
      "type": "Feature",
      "geometry": {
        "type": "Point",
        "coordinates": [
          18.9952634,
          47.3675244
        ]
      },
      "properties": {
        "id": 480903315,
        "osm_type": "way",
        "name": "Shell",
        "brand": "Shell"
      }
    },
    {
      "type": "Feature",
      "geometry": {
        "type": "Point",
        "coordinates": [
          19.2513819,
          47.8010798
        ]
      },
      "properties": {
        "id": 492160970,
        "osm_type": "way",
        "name": "Penc OIL"
      }
    },
    {
      "type": "Feature",
      "geometry": {
        "type": "Point",
        "coordinates": [
          19.3630905,
          47.3745823
        ]
      },
      "properties": {
        "id": 494466933,
        "osm_type": "way",
        "name": "Dragon Benz",
        "brand": "Dragon Benz",
        "opening_hours": "24/7"
      }
    },
    {
      "type": "Feature",
      "geometry": {
        "type": "Point",
        "coordinates": [
          18.8412523,
          47.6314079
        ]
      },
      "properties": {
        "id": 495237566,
        "osm_type": "way"
      }
    },
    {
      "type": "Feature",
      "geometry": {
        "type": "Point",
        "coordinates": [
          19.3244472,
          47.1936666
        ]
      },
      "properties": {
        "id": 502651214,
        "osm_type": "way",
        "name": "MOL",
        "brand": "MOL",
        "opening_hours": "24/7"
      }
    },
    {
      "type": "Feature",
      "geometry": {
        "type": "Point",
        "coordinates": [
          19.4578397,
          47.1481525
        ]
      },
      "properties": {
        "id": 510389089,
        "osm_type": "way",
        "name": "Dallas töltőállomás"
      }
    },
    {
      "type": "Feature",
      "geometry": {
        "type": "Point",
        "coordinates": [
          18.9138737,
          47.3149363
        ]
      },
      "properties": {
        "id": 514139690,
        "osm_type": "way",
        "name": "Shell",
        "brand": "Shell"
      }
    },
    {
      "type": "Feature",
      "geometry": {
        "type": "Point",
        "coordinates": [
          19.3009098,
          47.6183884
        ]
      },
      "properties": {
        "id": 519266263,
        "osm_type": "way",
        "name": "Szadai-kút"
      }
    },
    {
      "type": "Feature",
      "geometry": {
        "type": "Point",
        "coordinates": [
          19.4716221,
          47.0985153
        ]
      },
      "properties": {
        "id": 527257963,
        "osm_type": "way",
        "name": "MRD Petrol"
      }
    },
    {
      "type": "Feature",
      "geometry": {
        "type": "Point",
        "coordinates": [
          19.1709914,
          47.61586
        ]
      },
      "properties": {
        "id": 536750423,
        "osm_type": "way",
        "name": "MOL",
        "brand": "MOL",
        "opening_hours": "24/7"
      }
    },
    {
      "type": "Feature",
      "geometry": {
        "type": "Point",
        "coordinates": [
          19.7794553,
          47.2035955
        ]
      },
      "properties": {
        "id": 541705102,
        "osm_type": "way",
        "name": "MOL",
        "brand": "MOL"
      }
    },
    {
      "type": "Feature",
      "geometry": {
        "type": "Point",
        "coordinates": [
          19.775151,
          47.2035406
        ]
      },
      "properties": {
        "id": 541705104,
        "osm_type": "way",
        "name": "MOL",
        "brand": "MOL",
        "opening_hours": "24/7"
      }
    },
    {
      "type": "Feature",
      "geometry": {
        "type": "Point",
        "coordinates": [
          19.0702249,
          47.3399956
        ]
      },
      "properties": {
        "id": 548992050,
        "osm_type": "way",
        "name": "MOL",
        "brand": "MOL"
      }
    },
    {
      "type": "Feature",
      "geometry": {
        "type": "Point",
        "coordinates": [
          19.1417973,
          47.7566808
        ]
      },
      "properties": {
        "id": 552960470,
        "osm_type": "way",
        "name": "Shell",
        "brand": "Shell"
      }
    },
    {
      "type": "Feature",
      "geometry": {
        "type": "Point",
        "coordinates": [
          19.2481943,
          47.3990986
        ]
      },
      "properties": {
        "id": 554450265,
        "osm_type": "way",
        "name": "OMV",
        "brand": "OMV",
        "opening_hours": "24/7"
      }
    },
    {
      "type": "Feature",
      "geometry": {
        "type": "Point",
        "coordinates": [
          19.023729,
          47.3636529
        ]
      },
      "properties": {
        "id": 554452775,
        "osm_type": "way",
        "name": "MOL",
        "brand": "MOL",
        "check_date": "2024-11-11"
      }
    },
    {
      "type": "Feature",
      "geometry": {
        "type": "Point",
        "coordinates": [
          19.8676908,
          47.2879603
        ]
      },
      "properties": {
        "id": 562485396,
        "osm_type": "way",
        "name": "Wecamo Kft.",
        "opening_hours": "24/7"
      }
    },
    {
      "type": "Feature",
      "geometry": {
        "type": "Point",
        "coordinates": [
          19.4750857,
          47.3197788
        ]
      },
      "properties": {
        "id": 570929574,
        "osm_type": "way",
        "name": "MOL",
        "brand": "MOL"
      }
    },
    {
      "type": "Feature",
      "geometry": {
        "type": "Point",
        "coordinates": [
          19.4011577,
          47.2168578
        ]
      },
      "properties": {
        "id": 593422435,
        "osm_type": "way",
        "name": "Dragon-Benz Kft.",
        "opening_hours": "Mo-Su 06:00-22:00"
      }
    },
    {
      "type": "Feature",
      "geometry": {
        "type": "Point",
        "coordinates": [
          19.2790957,
          47.411763
        ]
      },
      "properties": {
        "id": 597074837,
        "osm_type": "way"
      }
    },
    {
      "type": "Feature",
      "geometry": {
        "type": "Point",
        "coordinates": [
          19.9268032,
          47.2770708
        ]
      },
      "properties": {
        "id": 641194960,
        "osm_type": "way",
        "name": "Du-Fa Szilvánusz Kft.",
        "opening_hours": "Mo-Sa 05:00-21:00; Su 06:00-21:00"
      }
    },
    {
      "type": "Feature",
      "geometry": {
        "type": "Point",
        "coordinates": [
          18.8948257,
          47.4632592
        ]
      },
      "properties": {
        "id": 663085474,
        "osm_type": "way",
        "name": "ALDI Benzinkút",
        "brand": "ALDI",
        "opening_hours": "24/7"
      }
    },
    {
      "type": "Feature",
      "geometry": {
        "type": "Point",
        "coordinates": [
          19.1605333,
          47.579963
        ]
      },
      "properties": {
        "id": 675957556,
        "osm_type": "way",
        "name": "Auchan",
        "brand": "Auchan",
        "opening_hours": "Mo-Sa 06:00-22:00, Su 08:00-20:00"
      }
    },
    {
      "type": "Feature",
      "geometry": {
        "type": "Point",
        "coordinates": [
          19.2680251,
          47.5509659
        ]
      },
      "properties": {
        "id": 687556135,
        "osm_type": "way",
        "name": "MOL",
        "brand": "MOL"
      }
    },
    {
      "type": "Feature",
      "geometry": {
        "type": "Point",
        "coordinates": [
          19.2007975,
          47.3586174
        ]
      },
      "properties": {
        "id": 696521223,
        "osm_type": "way",
        "name": "M. Petrol",
        "brand": "M. Petrol",
        "opening_hours": "24/7"
      }
    },
    {
      "type": "Feature",
      "geometry": {
        "type": "Point",
        "coordinates": [
          19.2198689,
          47.3775476
        ]
      },
      "properties": {
        "id": 696540885,
        "osm_type": "way",
        "name": "MOL",
        "brand": "MOL",
        "opening_hours": "Mo-Su 05:00-22:00"
      }
    },
    {
      "type": "Feature",
      "geometry": {
        "type": "Point",
        "coordinates": [
          19.4738338,
          47.6375027
        ]
      },
      "properties": {
        "id": 731535899,
        "osm_type": "way",
        "name": "OMV",
        "brand": "OMV",
        "opening_hours": "24/7"
      }
    },
    {
      "type": "Feature",
      "geometry": {
        "type": "Point",
        "coordinates": [
          19.6637933,
          47.3687067
        ]
      },
      "properties": {
        "id": 758467020,
        "osm_type": "way",
        "name": "Avia",
        "brand": "Avia",
        "opening_hours": "Mo-Fr 05:00-19:00; Sa 06:00-19:00; Su 07:00-18:00",
        "check_date": "2025-10-26"
      }
    },
    {
      "type": "Feature",
      "geometry": {
        "type": "Point",
        "coordinates": [
          18.9429653,
          47.6073728
        ]
      },
      "properties": {
        "id": 763458463,
        "osm_type": "way",
        "name": "MOL",
        "brand": "MOL",
        "opening_hours": "Mo-Su 06:00-22:00"
      }
    },
    {
      "type": "Feature",
      "geometry": {
        "type": "Point",
        "coordinates": [
          19.240895,
          47.7290588
        ]
      },
      "properties": {
        "id": 805317593,
        "osm_type": "way"
      }
    },
    {
      "type": "Feature",
      "geometry": {
        "type": "Point",
        "coordinates": [
          19.0036206,
          47.3349047
        ]
      },
      "properties": {
        "id": 872865422,
        "osm_type": "way",
        "name": "OIL!",
        "brand": "OIL!"
      }
    },
    {
      "type": "Feature",
      "geometry": {
        "type": "Point",
        "coordinates": [
          19.1976072,
          47.616379
        ]
      },
      "properties": {
        "id": 893702142,
        "osm_type": "way",
        "name": "OMV",
        "brand": "OMV",
        "opening_hours": "24/7"
      }
    },
    {
      "type": "Feature",
      "geometry": {
        "type": "Point",
        "coordinates": [
          19.2419387,
          47.2984942
        ]
      },
      "properties": {
        "id": 924869921,
        "osm_type": "way",
        "name": "Mol Partner Üzemanyagkút",
        "brand": "MOL"
      }
    },
    {
      "type": "Feature",
      "geometry": {
        "type": "Point",
        "coordinates": [
          19.238499,
          47.5911705
        ]
      },
      "properties": {
        "id": 930389576,
        "osm_type": "way"
      }
    },
    {
      "type": "Feature",
      "geometry": {
        "type": "Point",
        "coordinates": [
          18.9491376,
          47.4610416
        ]
      },
      "properties": {
        "id": 1013355470,
        "osm_type": "way",
        "name": "Qutas Budaörs",
        "brand": "Qutas"
      }
    },
    {
      "type": "Feature",
      "geometry": {
        "type": "Point",
        "coordinates": [
          18.9564308,
          47.2235048
        ]
      },
      "properties": {
        "id": 1084311762,
        "osm_type": "way",
        "name": "AVIA Partner",
        "brand": "Avia"
      }
    },
    {
      "type": "Feature",
      "geometry": {
        "type": "Point",
        "coordinates": [
          19.1378611,
          47.7212635
        ]
      },
      "properties": {
        "id": 1169014240,
        "osm_type": "way",
        "name": "OIL!",
        "brand": "OIL!"
      }
    },
    {
      "type": "Feature",
      "geometry": {
        "type": "Point",
        "coordinates": [
          19.5755697,
          47.6169524
        ]
      },
      "properties": {
        "id": 1275489638,
        "osm_type": "way",
        "name": "MOL",
        "brand": "MOL"
      }
    },
    {
      "type": "Feature",
      "geometry": {
        "type": "Point",
        "coordinates": [
          19.5347298,
          47.622594
        ]
      },
      "properties": {
        "id": 1364966775,
        "osm_type": "way"
      }
    },
    {
      "type": "Feature",
      "geometry": {
        "type": "Point",
        "coordinates": [
          20.0063835,
          47.1809728
        ]
      },
      "properties": {
        "id": 1426458899,
        "osm_type": "way",
        "name": "RRQ Fuel"
      }
    }
  ]
}