{
  "type": "FeatureCollection",
  "features": [
    {
      "type": "Feature",
      "geometry": {
        "type": "Point",
        "coordinates": [
          18.9059592,
          47.3823406
        ]
      },
      "properties": {
        "id": 4717131412,
        "osm_type": "node",
        "vending": "drinks"
      }
    },
    {
      "type": "Feature",
      "geometry": {
        "type": "Point",
        "coordinates": [
          18.9060424,
          47.3823524
        ]
      },
      "properties": {
        "id": 4717131502,
        "osm_type": "node",
        "vending": "sweets;food;drinks"
      }
    },
    {
      "type": "Feature",
      "geometry": {
        "type": "Point",
        "coordinates": [
          19.4743505,
          47.1391532
        ]
      },
      "properties": {
        "id": 4939486497,
        "osm_type": "node",
        "vending": "drinks"
      }
    },
    {
      "type": "Feature",
      "geometry": {
        "type": "Point",
        "coordinates": [
          19.4743338,
          47.1391644
        ]
      },
      "properties": {
        "id": 4939486499,
        "osm_type": "node",
        "vending": "coffee"
      }
    },
    {
      "type": "Feature",
      "geometry": {
        "type": "Point",
        "coordinates": [
          18.9660563,
          47.4506399
        ]
      },
      "properties": {
        "id": 5383384280,
        "osm_type": "node",
        "vending": "coffee;drinks"
      }
    },
    {
      "type": "Feature",
      "geometry": {
        "type": "Point",
        "coordinates": [
          18.9636862,
          47.450652
        ]
      },
      "properties": {
        "id": 5383384282,
        "osm_type": "node",
        "vending": "coffee;drinks"
      }
    },
    {
      "type": "Feature",
      "geometry": {
        "type": "Point",
        "coordinates": [
          18.9712585,
          47.4532434
        ]
      },
      "properties": {
        "id": 5383384291,
        "osm_type": "node",
        "vending": "coffee;drinks",
        "check_date": "2024-01-20"
      }
    },
    {
      "type": "Feature",
      "geometry": {
        "type": "Point",
        "coordinates": [
          19.3642313,
          47.5958289
        ]
      },
      "properties": {
        "id": 6709127166,
        "osm_type": "node",
        "name": "Ital & Étel automaták",
        "vending": "drinks;food"
      }
    },
    {
      "type": "Feature",
      "geometry": {
        "type": "Point",
        "coordinates": [
          19.3620706,
          47.5940479
        ]
      },
      "properties": {
        "id": 6709182951,
        "osm_type": "node",
        "name": "Ital & Étel automaták",
        "vending": "drinks;food",
        "check_date": "2026-02-18"
      }
    },
    {
      "type": "Feature",
      "geometry": {
        "type": "Point",
        "coordinates": [
          19.5832912,
          47.2979037
        ]
      },
      "properties": {
        "id": 8804671868,
        "osm_type": "node",
        "name": "YellowRabbit",
        "vending": "drinks"
      }
    },
    {
      "type": "Feature",
      "geometry": {
        "type": "Point",
        "coordinates": [
          19.0638864,
          47.6462636
        ]
      },
      "properties": {
        "id": 8850204673,
        "osm_type": "node",
        "vending": "coffee"
      }
    },
    {
      "type": "Feature",
      "geometry": {
        "type": "Point",
        "coordinates": [
          19.1456911,
          47.7556499
        ]
      },
      "properties": {
        "id": 8944718704,
        "osm_type": "node",
        "vending": "drinks"
      }
    },
    {
      "type": "Feature",
      "geometry": {
        "type": "Point",
        "coordinates": [
          19.1457011,
          47.7556587
        ]
      },
      "properties": {
        "id": 8944718706,
        "osm_type": "node",
        "vending": "coffee"
      }
    },
    {
      "type": "Feature",
      "geometry": {
        "type": "Point",
        "coordinates": [
          18.8390684,
          47.4575806
        ]
      },
      "properties": {
        "id": 9212796896,
        "osm_type": "node",
        "name": "Becsületkasszás turistafalatozó",
        "vending": "drinks",
        "check_date": "2026-03-15"
      }
    },
    {
      "type": "Feature",
      "geometry": {
        "type": "Point",
        "coordinates": [
          19.1160522,
          47.6059953
        ]
      },
      "properties": {
        "id": 9214415237,
        "osm_type": "node",
        "vending": "coffee",
        "check_date": "2025-11-25"
      }
    },
    {
      "type": "Feature",
      "geometry": {
        "type": "Point",
        "coordinates": [
          18.9072918,
          47.3152059
        ]
      },
      "properties": {
        "id": 9523759416,
        "osm_type": "node",
        "vending": "drinks"
      }
    },
    {
      "type": "Feature",
      "geometry": {
        "type": "Point",
        "coordinates": [
          19.2164711,
          47.5618285
        ]
      },
      "properties": {
        "id": 9942272797,
        "osm_type": "node",
        "vending": "coffee"
      }
    },
    {
      "type": "Feature",
      "geometry": {
        "type": "Point",
        "coordinates": [
          18.9146227,
          47.3141882
        ]
      },
      "properties": {
        "id": 9951519488,
        "osm_type": "node",
        "vending": "coffee"
      }
    },
    {
      "type": "Feature",
      "geometry": {
        "type": "Point",
        "coordinates": [
          18.8848335,
          47.4663074
        ]
      },
      "properties": {
        "id": 10222548446,
        "osm_type": "node",
        "vending": "drinks"
      }
    },
    {
      "type": "Feature",
      "geometry": {
        "type": "Point",
        "coordinates": [
          18.9616818,
          47.5984482
        ]
      },
      "properties": {
        "id": 10228116831,
        "osm_type": "node",
        "vending": "coffee",
        "check_date": "2025-06-21"
      }
    },
    {
      "type": "Feature",
      "geometry": {
        "type": "Point",
        "coordinates": [
          18.9604565,
          47.598836
        ]
      },
      "properties": {
        "id": 10680363416,
        "osm_type": "node",
        "vending": "coffee",
        "check_date": "2025-06-21"
      }
    },
    {
      "type": "Feature",
      "geometry": {
        "type": "Point",
        "coordinates": [
          19.116495,
          47.607543
        ]
      },
      "properties": {
        "id": 10778142508,
        "osm_type": "node",
        "vending": "coffee",
        "check_date": "2025-08-18"
      }
    },
    {
      "type": "Feature",
      "geometry": {
        "type": "Point",
        "coordinates": [
          18.937358,
          47.4536016
        ]
      },
      "properties": {
        "id": 11486747261,
        "osm_type": "node",
        "vending": "drinks"
      }
    },
    {
      "type": "Feature",
      "geometry": {
        "type": "Point",
        "coordinates": [
          18.9373275,
          47.4536012
        ]
      },
      "properties": {
        "id": 11486747262,
        "osm_type": "node",
        "vending": "coffee"
      }
    },
    {
      "type": "Feature",
      "geometry": {
        "type": "Point",
        "coordinates": [
          19.1327533,
          47.7824459
        ]
      },
      "properties": {
        "id": 11688406879,
        "osm_type": "node",
        "vending": "coffee"
      }
    },
    {
      "type": "Feature",
      "geometry": {
        "type": "Point",
        "coordinates": [
          18.8607989,
          47.4749137
        ]
      },
      "properties": {
        "id": 11899028501,
        "osm_type": "node",
        "vending": "coffee"
      }
    },
    {
      "type": "Feature",
      "geometry": {
        "type": "Point",
        "coordinates": [
          19.3481597,
          47.5978925
        ]
      },
      "properties": {
        "id": 11948995262,
        "osm_type": "node",
        "vending": "coffee",
        "brand": "Utasellátó"
      }
    },
    {
      "type": "Feature",
      "geometry": {
        "type": "Point",
        "coordinates": [
          19.3481456,
          47.5978844
        ]
      },
      "properties": {
        "id": 11948995263,
        "osm_type": "node",
        "vending": "drinks;food;sweets",
        "brand": "Utasellátó"
      }
    },
    {
      "type": "Feature",
      "geometry": {
        "type": "Point",
        "coordinates": [
          19.1612042,
          47.5780312
        ]
      },
      "properties": {
        "id": 12077056858,
        "osm_type": "node",
        "vending": "coffee",
        "brand": "cafe+co"
      }
    },
    {
      "type": "Feature",
      "geometry": {
        "type": "Point",
        "coordinates": [
          19.1637101,
          47.580031
        ]
      },
      "properties": {
        "id": 12077134790,
        "osm_type": "node",
        "vending": "coffee",
        "brand": "cafe+co"
      }
    },
    {
      "type": "Feature",
      "geometry": {
        "type": "Point",
        "coordinates": [
          19.1625466,
          47.5807968
        ]
      },
      "properties": {
        "id": 12077134791,
        "osm_type": "node",
        "vending": "coffee",
        "brand": "cafe+co"
      }
    },
    {
      "type": "Feature",
      "geometry": {
        "type": "Point",
        "coordinates": [
          18.9254192,
          47.3795264
        ]
      },
      "properties": {
        "id": 12118686023,
        "osm_type": "node",
        "opening_hours": "24/7",
        "vending": "coffee",
        "operator": "VML Consulting Kft."
      }
    },
    {
      "type": "Feature",
      "geometry": {
        "type": "Point",
        "coordinates": [
          19.0612178,
          47.6130274
        ]
      },
      "properties": {
        "id": 12288692849,
        "osm_type": "node",
        "name": "KV",
        "vending": "drinks"
      }
    },
    {
      "type": "Feature",
      "geometry": {
        "type": "Point",
        "coordinates": [
          19.0323969,
          47.6428263
        ]
      },
      "properties": {
        "id": 12369296065,
        "osm_type": "node",
        "vending": "coffee"
      }
    },
    {
      "type": "Feature",
      "geometry": {
        "type": "Point",
        "coordinates": [
          19.0379647,
          47.6279245
        ]
      },
      "properties": {
        "id": 12407042287,
        "osm_type": "node",
        "name": "élelmiszer rászorulóknak",
        "vending": "food"
      }
    },
    {
      "type": "Feature",
      "geometry": {
        "type": "Point",
        "coordinates": [
          19.0036715,
          47.3335
        ]
      },
      "properties": {
        "id": 12861445430,
        "osm_type": "node",
        "vending": "food",
        "operator": "Utasellátó"
      }
    },
    {
      "type": "Feature",
      "geometry": {
        "type": "Point",
        "coordinates": [
          19.0608069,
          47.6120471
        ]
      },
      "properties": {
        "id": 13055948226,
        "osm_type": "node",
        "vending": "coffee"
      }
    },
    {
      "type": "Feature",
      "geometry": {
        "type": "Point",
        "coordinates": [
          19.0272511,
          47.382586
        ]
      },
      "properties": {
        "id": 13400880766,
        "osm_type": "node",
        "vending": "drinks"
      }
    },
    {
      "type": "Feature",
      "geometry": {
        "type": "Point",
        "coordinates": [
          19.0272578,
          47.3825774
        ]
      },
      "properties": {
        "id": 13400880767,
        "osm_type": "node",
        "vending": "coffee"
      }
    }
  ]
}