{
  "type": "FeatureCollection",
  "features": [
    {
      "type": "Feature",
      "geometry": {
        "type": "Point",
        "coordinates": [
          5.765375,
          58.855067
        ]
      },
      "properties": {
        "id": 29654676,
        "osm_type": "node",
        "name": "Circle K Hana",
        "brand": "Circle K",
        "opening_hours": "Mo-Fr 06:00-22:00, Sa 08:00-22:00, Su 09:00-22:00"
      }
    },
    {
      "type": "Feature",
      "geometry": {
        "type": "Point",
        "coordinates": [
          5.6176702,
          59.0011141
        ]
      },
      "properties": {
        "id": 33249114,
        "osm_type": "node",
        "name": "Circle K Randaberg",
        "brand": "Circle K",
        "opening_hours": "Mo-Fr 06:00-23:00, Sa-Su 08:00-23:00"
      }
    },
    {
      "type": "Feature",
      "geometry": {
        "type": "Point",
        "coordinates": [
          5.7322343,
          58.8918271
        ]
      },
      "properties": {
        "id": 266029941,
        "osm_type": "node",
        "name": "St1 Forus",
        "brand": "St1"
      }
    },
    {
      "type": "Feature",
      "geometry": {
        "type": "Point",
        "coordinates": [
          5.723628,
          58.892739
        ]
      },
      "properties": {
        "id": 266029959,
        "osm_type": "node",
        "name": "Circle K Forus",
        "brand": "Circle K",
        "opening_hours": "24/7"
      }
    },
    {
      "type": "Feature",
      "geometry": {
        "type": "Point",
        "coordinates": [
          5.726149,
          58.881853
        ]
      },
      "properties": {
        "id": 266033590,
        "osm_type": "node",
        "name": "Esso Forus",
        "brand": "Esso",
        "opening_hours": "Mo-Fr 06:00-22:00, Sa-Su 09:00-22:00"
      }
    },
    {
      "type": "Feature",
      "geometry": {
        "type": "Point",
        "coordinates": [
          5.725771,
          58.877611
        ]
      },
      "properties": {
        "id": 266033591,
        "osm_type": "node",
        "name": "Uno-X Forussletta",
        "brand": "Uno-X"
      }
    },
    {
      "type": "Feature",
      "geometry": {
        "type": "Point",
        "coordinates": [
          5.6266718,
          58.8890156
        ]
      },
      "properties": {
        "id": 266281059,
        "osm_type": "node",
        "name": "Circle K Automat Sola",
        "brand": "Circle K"
      }
    },
    {
      "type": "Feature",
      "geometry": {
        "type": "Point",
        "coordinates": [
          5.721285,
          58.873158
        ]
      },
      "properties": {
        "id": 268993784,
        "osm_type": "node",
        "name": "Circle K Lura",
        "brand": "Circle K",
        "opening_hours": "24/7"
      }
    },
    {
      "type": "Feature",
      "geometry": {
        "type": "Point",
        "coordinates": [
          6.001234,
          58.460584
        ]
      },
      "properties": {
        "id": 304130380,
        "osm_type": "node",
        "name": "St1 Eiekrysset",
        "brand": "St1",
        "opening_hours": "24/7"
      }
    },
    {
      "type": "Feature",
      "geometry": {
        "type": "Point",
        "coordinates": [
          5.736784,
          58.8493121
        ]
      },
      "properties": {
        "id": 308002469,
        "osm_type": "node",
        "name": "Esso Sandnes",
        "brand": "Esso",
        "opening_hours": "24/7"
      }
    },
    {
      "type": "Feature",
      "geometry": {
        "type": "Point",
        "coordinates": [
          5.611372,
          58.961638
        ]
      },
      "properties": {
        "id": 318691680,
        "osm_type": "node",
        "name": "Circle K Automat Hafrsfjord",
        "brand": "Circle K"
      }
    },
    {
      "type": "Feature",
      "geometry": {
        "type": "Point",
        "coordinates": [
          5.8612898,
          58.7672058
        ]
      },
      "properties": {
        "id": 322132057,
        "osm_type": "node",
        "name": "Driv Ålgård",
        "brand": "Driv"
      }
    },
    {
      "type": "Feature",
      "geometry": {
        "type": "Point",
        "coordinates": [
          5.6038493,
          58.9362358
        ]
      },
      "properties": {
        "id": 360859478,
        "osm_type": "node",
        "name": "St1 Hagakrossen",
        "brand": "St1",
        "opening_hours": "Mo-Fr 06:00-24:00, Sa-Su 08:00-24:00"
      }
    },
    {
      "type": "Feature",
      "geometry": {
        "type": "Point",
        "coordinates": [
          5.7065533,
          58.9775193
        ]
      },
      "properties": {
        "id": 373410303,
        "osm_type": "node",
        "name": "Uno-X Tasta",
        "brand": "Uno-X"
      }
    },
    {
      "type": "Feature",
      "geometry": {
        "type": "Point",
        "coordinates": [
          5.754169,
          58.821067
        ]
      },
      "properties": {
        "id": 380526212,
        "osm_type": "node",
        "name": "St1 Bogafjell",
        "brand": "St1"
      }
    },
    {
      "type": "Feature",
      "geometry": {
        "type": "Point",
        "coordinates": [
          5.586405,
          58.935551
        ]
      },
      "properties": {
        "id": 382930066,
        "osm_type": "node",
        "name": "Uno-X Tananger",
        "brand": "Uno-X"
      }
    },
    {
      "type": "Feature",
      "geometry": {
        "type": "Point",
        "coordinates": [
          5.7408938,
          58.9699883
        ]
      },
      "properties": {
        "id": 388585403,
        "osm_type": "node",
        "name": "Uno-X 7-Eleven Blåsenborg",
        "brand": "Uno-X"
      }
    },
    {
      "type": "Feature",
      "geometry": {
        "type": "Point",
        "coordinates": [
          5.599934,
          58.844704
        ]
      },
      "properties": {
        "id": 389996542,
        "osm_type": "node",
        "name": "Circle K Tjelta",
        "brand": "Circle K",
        "opening_hours": "Mo-Fr 06:00-23:00, Sa 08:00-21:00, Su 09:00-23:00"
      }
    },
    {
      "type": "Feature",
      "geometry": {
        "type": "Point",
        "coordinates": [
          5.720731,
          58.83445
        ]
      },
      "properties": {
        "id": 389996549,
        "osm_type": "node",
        "name": "St1 Jærveien",
        "brand": "St1"
      }
    },
    {
      "type": "Feature",
      "geometry": {
        "type": "Point",
        "coordinates": [
          5.8364723,
          58.7800005
        ]
      },
      "properties": {
        "id": 412755433,
        "osm_type": "node",
        "name": "Uno-X Kongeparken",
        "brand": "Uno-X"
      }
    },
    {
      "type": "Feature",
      "geometry": {
        "type": "Point",
        "coordinates": [
          5.646186,
          58.614632
        ]
      },
      "properties": {
        "id": 413998557,
        "osm_type": "node",
        "name": "Esso Varhaug",
        "brand": "Esso",
        "opening_hours": "Mo-Fr 06:30-22:00, Sa 08:00-22:00, Su 09:00-22:00"
      }
    },
    {
      "type": "Feature",
      "geometry": {
        "type": "Point",
        "coordinates": [
          6.540261,
          58.460881
        ]
      },
      "properties": {
        "id": 432701369,
        "osm_type": "node",
        "name": "YX Moi",
        "brand": "YX",
        "opening_hours": "Mo-Fr 08:00-21:00, Sa 09:00-22:00, Su 10:00-22:00"
      }
    },
    {
      "type": "Feature",
      "geometry": {
        "type": "Point",
        "coordinates": [
          5.2904782,
          59.4021706
        ]
      },
      "properties": {
        "id": 442149044,
        "osm_type": "node",
        "name": "St1 Karmsundgata",
        "brand": "St1",
        "opening_hours": "24/7"
      }
    },
    {
      "type": "Feature",
      "geometry": {
        "type": "Point",
        "coordinates": [
          5.287333,
          59.4057556
        ]
      },
      "properties": {
        "id": 443370472,
        "osm_type": "node",
        "name": "Uno-X Karmsundgata",
        "brand": "Uno-X"
      }
    },
    {
      "type": "Feature",
      "geometry": {
        "type": "Point",
        "coordinates": [
          5.717624,
          58.831389
        ]
      },
      "properties": {
        "id": 458687758,
        "osm_type": "node",
        "name": "Circle K Åsedalen",
        "brand": "Circle K",
        "opening_hours": "Mo-Fr 05:30-22:00, Sa 08:00-22:00, Su 09:00-22:00"
      }
    },
    {
      "type": "Feature",
      "geometry": {
        "type": "Point",
        "coordinates": [
          5.699528,
          58.811166
        ]
      },
      "properties": {
        "id": 487085050,
        "osm_type": "node",
        "name": "Circle K Truck Ganddal",
        "brand": "Circle K"
      }
    },
    {
      "type": "Feature",
      "geometry": {
        "type": "Point",
        "coordinates": [
          5.860292,
          58.768008
        ]
      },
      "properties": {
        "id": 492691626,
        "osm_type": "node",
        "name": "St1 Ålgård",
        "brand": "St1"
      }
    },
    {
      "type": "Feature",
      "geometry": {
        "type": "Point",
        "coordinates": [
          5.6770233,
          59.064234
        ]
      },
      "properties": {
        "id": 492859335,
        "osm_type": "node",
        "name": "St1 Rennesøy",
        "brand": "St1"
      }
    },
    {
      "type": "Feature",
      "geometry": {
        "type": "Point",
        "coordinates": [
          5.6762652,
          59.0699656
        ]
      },
      "properties": {
        "id": 493338034,
        "osm_type": "node",
        "name": "Jæren Olje Mosterøy",
        "brand": "Jæren Olje"
      }
    },
    {
      "type": "Feature",
      "geometry": {
        "type": "Point",
        "coordinates": [
          5.742411,
          58.933982
        ]
      },
      "properties": {
        "id": 506025391,
        "osm_type": "node",
        "name": "Circle K Automat Mariero",
        "brand": "Circle K"
      }
    },
    {
      "type": "Feature",
      "geometry": {
        "type": "Point",
        "coordinates": [
          5.6441059,
          58.6144093
        ]
      },
      "properties": {
        "id": 518610026,
        "osm_type": "node"
      }
    },
    {
      "type": "Feature",
      "geometry": {
        "type": "Point",
        "coordinates": [
          5.7374566,
          58.8719486
        ]
      },
      "properties": {
        "id": 559823717,
        "osm_type": "node",
        "name": "St1 Lura",
        "brand": "St1"
      }
    },
    {
      "type": "Feature",
      "geometry": {
        "type": "Point",
        "coordinates": [
          5.8076637,
          59.1671327
        ]
      },
      "properties": {
        "id": 565183224,
        "osm_type": "node"
      }
    },
    {
      "type": "Feature",
      "geometry": {
        "type": "Point",
        "coordinates": [
          5.8765674,
          59.1721701
        ]
      },
      "properties": {
        "id": 565183353,
        "osm_type": "node",
        "name": "Circle K Automat Finnøy",
        "brand": "Circle K"
      }
    },
    {
      "type": "Feature",
      "geometry": {
        "type": "Point",
        "coordinates": [
          5.743114,
          58.993509
        ]
      },
      "properties": {
        "id": 568089223,
        "osm_type": "node",
        "name": "Circle K Automat Hundvåg",
        "brand": "Circle K"
      }
    },
    {
      "type": "Feature",
      "geometry": {
        "type": "Point",
        "coordinates": [
          5.742928,
          59.597074
        ]
      },
      "properties": {
        "id": 597411361,
        "osm_type": "node",
        "name": "Circle K Ølensvåg",
        "brand": "Circle K",
        "opening_hours": "Mo-Fr 05:30-23:00, Sa 07:00-23:00, Su 08:00-23:00"
      }
    },
    {
      "type": "Feature",
      "geometry": {
        "type": "Point",
        "coordinates": [
          5.686764,
          59.52979
        ]
      },
      "properties": {
        "id": 597411368,
        "osm_type": "node",
        "name": "St1 Knapphus",
        "brand": "St1",
        "opening_hours": "24/7"
      }
    },
    {
      "type": "Feature",
      "geometry": {
        "type": "Point",
        "coordinates": [
          5.600334,
          58.801504
        ]
      },
      "properties": {
        "id": 666312346,
        "osm_type": "node",
        "name": "Esso Sele Servicesenter",
        "brand": "Esso",
        "opening_hours": "Mo-Su 05:00-23:00"
      }
    },
    {
      "type": "Feature",
      "geometry": {
        "type": "Point",
        "coordinates": [
          5.600677,
          59.508451
        ]
      },
      "properties": {
        "id": 667300224,
        "osm_type": "node",
        "name": "Esso Skjold",
        "brand": "Esso",
        "opening_hours": "Mo-Fr 09:00-17:00, Sa-Su 00:00-24:00"
      }
    },
    {
      "type": "Feature",
      "geometry": {
        "type": "Point",
        "coordinates": [
          5.277102,
          59.358171
        ]
      },
      "properties": {
        "id": 686544454,
        "osm_type": "node",
        "name": "Esso Express Avaldsnes",
        "brand": "Esso"
      }
    },
    {
      "type": "Feature",
      "geometry": {
        "type": "Point",
        "coordinates": [
          5.806319,
          59.604283
        ]
      },
      "properties": {
        "id": 705091528,
        "osm_type": "node",
        "name": "St1 Ølen",
        "brand": "St1"
      }
    },
    {
      "type": "Feature",
      "geometry": {
        "type": "Point",
        "coordinates": [
          5.4026688,
          59.4190454
        ]
      },
      "properties": {
        "id": 759816964,
        "osm_type": "node",
        "name": "LPG Steinsvik AS",
        "opening_hours": "Mo-Fr 08:00-15:00"
      }
    },
    {
      "type": "Feature",
      "geometry": {
        "type": "Point",
        "coordinates": [
          5.728766,
          58.944629
        ]
      },
      "properties": {
        "id": 800299426,
        "osm_type": "node",
        "name": "CNG Åsen",
        "opening_hours": "24/7"
      }
    },
    {
      "type": "Feature",
      "geometry": {
        "type": "Point",
        "coordinates": [
          6.0352904,
          59.0262251
        ]
      },
      "properties": {
        "id": 809251655,
        "osm_type": "node",
        "name": "Esso Jørpeland",
        "brand": "Esso",
        "opening_hours": "Mo-Fr 06:00-23:00, Sa 08:00-23:00, Su 09:00-23:00"
      }
    },
    {
      "type": "Feature",
      "geometry": {
        "type": "Point",
        "coordinates": [
          6.081946,
          58.629852
        ]
      },
      "properties": {
        "id": 825187146,
        "osm_type": "node",
        "name": "Esso Vikeså",
        "brand": "Esso",
        "opening_hours": "Mo-Fr 07:00-22:00, Sa 08:00-22:00, Su 09:00-22:00"
      }
    },
    {
      "type": "Feature",
      "geometry": {
        "type": "Point",
        "coordinates": [
          6.1271391,
          58.5272711
        ]
      },
      "properties": {
        "id": 844235430,
        "osm_type": "node",
        "name": "Uno-X 7-Eleven Helleland",
        "brand": "Uno-X"
      }
    },
    {
      "type": "Feature",
      "geometry": {
        "type": "Point",
        "coordinates": [
          5.6264655,
          58.7779496
        ]
      },
      "properties": {
        "id": 849975127,
        "osm_type": "node",
        "name": "Uno-X Klepp",
        "brand": "Uno-X"
      }
    },
    {
      "type": "Feature",
      "geometry": {
        "type": "Point",
        "coordinates": [
          5.697157,
          58.894853
        ]
      },
      "properties": {
        "id": 849975211,
        "osm_type": "node",
        "name": "Uno-X Forus",
        "brand": "Uno-X"
      }
    },
    {
      "type": "Feature",
      "geometry": {
        "type": "Point",
        "coordinates": [
          5.2740673,
          59.3472078
        ]
      },
      "properties": {
        "id": 849975480,
        "osm_type": "node",
        "name": "Uno-X Avaldsnes",
        "brand": "Uno-X"
      }
    },
    {
      "type": "Feature",
      "geometry": {
        "type": "Point",
        "coordinates": [
          5.729136,
          58.9663993
        ]
      },
      "properties": {
        "id": 849975736,
        "osm_type": "node",
        "name": "Esso Express Løkkeveien",
        "brand": "Esso"
      }
    },
    {
      "type": "Feature",
      "geometry": {
        "type": "Point",
        "coordinates": [
          5.6276719,
          58.7239047
        ]
      },
      "properties": {
        "id": 849975916,
        "osm_type": "node",
        "name": "Uno-X Bryne",
        "brand": "Uno-X"
      }
    },
    {
      "type": "Feature",
      "geometry": {
        "type": "Point",
        "coordinates": [
          6.28261,
          58.343009
        ]
      },
      "properties": {
        "id": 849975922,
        "osm_type": "node",
        "name": "YX Hauge i Dalane",
        "brand": "YX"
      }
    },
    {
      "type": "Feature",
      "geometry": {
        "type": "Point",
        "coordinates": [
          6.1538552,
          59.2305705
        ]
      },
      "properties": {
        "id": 849975979,
        "osm_type": "node",
        "name": "YX Hjelmeland",
        "brand": "YX",
        "opening_hours": "Mo-Fr 07:30-20:00, Sa 09:00-20:00, Su 10:00-20:00"
      }
    },
    {
      "type": "Feature",
      "geometry": {
        "type": "Point",
        "coordinates": [
          6.348893,
          59.648665
        ]
      },
      "properties": {
        "id": 884735303,
        "osm_type": "node",
        "name": "Esso Sauda",
        "brand": "Esso",
        "opening_hours": "Mo-Fr 08:00-22:00, Sa 09:00-21:00, Su 09:00-22:00"
      }
    },
    {
      "type": "Feature",
      "geometry": {
        "type": "Point",
        "coordinates": [
          5.243882,
          59.154892
        ]
      },
      "properties": {
        "id": 924263936,
        "osm_type": "node",
        "name": "Circle K Skudeneshavn",
        "brand": "Circle K",
        "opening_hours": "Mo-Fr 07:00-23:00, Sa 08:00-23:00, Su 09:00-23:00"
      }
    },
    {
      "type": "Feature",
      "geometry": {
        "type": "Point",
        "coordinates": [
          5.3046638,
          59.3772059
        ]
      },
      "properties": {
        "id": 1016676523,
        "osm_type": "node",
        "name": "Uno-X Norheim",
        "brand": "Uno-X"
      }
    },
    {
      "type": "Feature",
      "geometry": {
        "type": "Point",
        "coordinates": [
          5.639019,
          58.668695
        ]
      },
      "properties": {
        "id": 1186438172,
        "osm_type": "node",
        "name": "Circle K Automat Nærbø",
        "brand": "Circle K"
      }
    },
    {
      "type": "Feature",
      "geometry": {
        "type": "Point",
        "coordinates": [
          5.836567,
          58.779951
        ]
      },
      "properties": {
        "id": 1264613557,
        "osm_type": "node",
        "name": "Rogaland Gass",
        "opening_hours": "24/7"
      }
    },
    {
      "type": "Feature",
      "geometry": {
        "type": "Point",
        "coordinates": [
          6.245414,
          58.807803
        ]
      },
      "properties": {
        "id": 1277731003,
        "osm_type": "node",
        "name": "Driv Dirdal",
        "brand": "Driv"
      }
    },
    {
      "type": "Feature",
      "geometry": {
        "type": "Point",
        "coordinates": [
          6.003896,
          58.458606
        ]
      },
      "properties": {
        "id": 1386528976,
        "osm_type": "node",
        "name": "Circle K Egersund",
        "brand": "Circle K",
        "opening_hours": "Mo-Fr 06:00-22:00, Sa 08:00-20:00, Su 08:00-22:00"
      }
    },
    {
      "type": "Feature",
      "geometry": {
        "type": "Point",
        "coordinates": [
          6.2497085,
          59.4834348
        ]
      },
      "properties": {
        "id": 1393893700,
        "osm_type": "node",
        "name": "YX Sand",
        "brand": "YX",
        "opening_hours": "Mo-Fr 07:30-15:30, Sa-Su 12:00-21:00"
      }
    },
    {
      "type": "Feature",
      "geometry": {
        "type": "Point",
        "coordinates": [
          5.6475158,
          58.991387
        ]
      },
      "properties": {
        "id": 1770692205,
        "osm_type": "node",
        "name": "Randaberg veien"
      }
    },
    {
      "type": "Feature",
      "geometry": {
        "type": "Point",
        "coordinates": [
          6.068208,
          59.1758651
        ]
      },
      "properties": {
        "id": 1863740498,
        "osm_type": "node"
      }
    },
    {
      "type": "Feature",
      "geometry": {
        "type": "Point",
        "coordinates": [
          5.777901,
          59.091885
        ]
      },
      "properties": {
        "id": 1937378329,
        "osm_type": "node",
        "name": "Tanken Østhusvik",
        "brand": "Tanken",
        "opening_hours": "24/7"
      }
    },
    {
      "type": "Feature",
      "geometry": {
        "type": "Point",
        "coordinates": [
          6.0178177,
          58.8952946
        ]
      },
      "properties": {
        "id": 2038796636,
        "osm_type": "node",
        "name": "Tanken Høle",
        "brand": "Tanken"
      }
    },
    {
      "type": "Feature",
      "geometry": {
        "type": "Point",
        "coordinates": [
          6.08759,
          58.901203
        ]
      },
      "properties": {
        "id": 2671454919,
        "osm_type": "node",
        "name": "Tanken Forsand",
        "brand": "Tanken",
        "opening_hours": "24/7"
      }
    },
    {
      "type": "Feature",
      "geometry": {
        "type": "Point",
        "coordinates": [
          6.0978261,
          58.9056705
        ]
      },
      "properties": {
        "id": 2671456281,
        "osm_type": "node",
        "name": "Lysefjorden marina"
      }
    },
    {
      "type": "Feature",
      "geometry": {
        "type": "Point",
        "coordinates": [
          5.5675444,
          58.7184357
        ]
      },
      "properties": {
        "id": 2752027491,
        "osm_type": "node"
      }
    },
    {
      "type": "Feature",
      "geometry": {
        "type": "Point",
        "coordinates": [
          6.03518,
          59.02188
        ]
      },
      "properties": {
        "id": 2795594444,
        "osm_type": "node",
        "name": "Circle K Jørpeland",
        "brand": "Circle K",
        "opening_hours": "Mo-Fr 08:00-22:00, Sa 08:00-21:00, Su 09:00-22:00"
      }
    },
    {
      "type": "Feature",
      "geometry": {
        "type": "Point",
        "coordinates": [
          5.6940547,
          58.5709316
        ]
      },
      "properties": {
        "id": 2795694693,
        "osm_type": "node",
        "name": "Best Vigrestad (butikk)",
        "brand": "Best",
        "opening_hours": "Mo-Fr 08:00-22:00, Sa-Su 10:00-22:00"
      }
    },
    {
      "type": "Feature",
      "geometry": {
        "type": "Point",
        "coordinates": [
          5.7183037,
          58.9730886
        ]
      },
      "properties": {
        "id": 3545787812,
        "osm_type": "node",
        "name": "Tanken Svilandsgate",
        "brand": "Tanken"
      }
    },
    {
      "type": "Feature",
      "geometry": {
        "type": "Point",
        "coordinates": [
          5.590744,
          58.914346
        ]
      },
      "properties": {
        "id": 3603573067,
        "osm_type": "node",
        "name": "CNG Risavika",
        "opening_hours": "24/7"
      }
    },
    {
      "type": "Feature",
      "geometry": {
        "type": "Point",
        "coordinates": [
          6.336145,
          58.531686
        ]
      },
      "properties": {
        "id": 3689994035,
        "osm_type": "node",
        "name": "Circle K Truck Ualand",
        "brand": "Circle K"
      }
    },
    {
      "type": "Feature",
      "geometry": {
        "type": "Point",
        "coordinates": [
          5.7415893,
          58.954231
        ]
      },
      "properties": {
        "id": 3806413422,
        "osm_type": "node",
        "name": "Circle K Automat Lagårdsveien",
        "brand": "Circle K"
      }
    },
    {
      "type": "Feature",
      "geometry": {
        "type": "Point",
        "coordinates": [
          5.886624,
          59.622952
        ]
      },
      "properties": {
        "id": 3994311357,
        "osm_type": "node",
        "name": "Tanken Fikse (Ølen/Etne)",
        "brand": "Tanken",
        "opening_hours": "24/7"
      }
    },
    {
      "type": "Feature",
      "geometry": {
        "type": "Point",
        "coordinates": [
          5.402536,
          59.418767
        ]
      },
      "properties": {
        "id": 3994324879,
        "osm_type": "node",
        "name": "Tanken Frakkagjerd",
        "brand": "Tanken"
      }
    },
    {
      "type": "Feature",
      "geometry": {
        "type": "Point",
        "coordinates": [
          5.193291,
          59.220646
        ]
      },
      "properties": {
        "id": 3994324880,
        "osm_type": "node",
        "name": "Tanken Langåker",
        "brand": "Tanken",
        "opening_hours": "24/7"
      }
    },
    {
      "type": "Feature",
      "geometry": {
        "type": "Point",
        "coordinates": [
          5.9016581,
          59.4986154
        ]
      },
      "properties": {
        "id": 4232575021,
        "osm_type": "node",
        "name": "Tanken Vikedal",
        "brand": "Tanken",
        "opening_hours": "24/7"
      }
    },
    {
      "type": "Feature",
      "geometry": {
        "type": "Point",
        "coordinates": [
          5.8007677,
          59.3490016
        ]
      },
      "properties": {
        "id": 4278283580,
        "osm_type": "node",
        "brand": "knapphus energi"
      }
    },
    {
      "type": "Feature",
      "geometry": {
        "type": "Point",
        "coordinates": [
          5.6211866,
          59.4292141
        ]
      },
      "properties": {
        "id": 4283916596,
        "osm_type": "node",
        "name": "YX Skjoldastraumen",
        "brand": "YX",
        "opening_hours": "Mo-Fr 07:00-20:00, Sa 08:00-20:00, Su 10:00-20:00"
      }
    },
    {
      "type": "Feature",
      "geometry": {
        "type": "Point",
        "coordinates": [
          6.520524,
          59.493652
        ]
      },
      "properties": {
        "id": 4316091967,
        "osm_type": "node",
        "name": "Esso Express Suldal",
        "brand": "Esso"
      }
    },
    {
      "type": "Feature",
      "geometry": {
        "type": "Point",
        "coordinates": [
          5.6343678,
          58.7299147
        ]
      },
      "properties": {
        "id": 4340728429,
        "osm_type": "node",
        "name": "LPG Gas Tech",
        "brand": "Gas Tech",
        "opening_hours": "24/7"
      }
    },
    {
      "type": "Feature",
      "geometry": {
        "type": "Point",
        "coordinates": [
          6.4392711,
          58.2939592
        ]
      },
      "properties": {
        "id": 4340728444,
        "osm_type": "node"
      }
    },
    {
      "type": "Feature",
      "geometry": {
        "type": "Point",
        "coordinates": [
          5.8055395,
          58.5192288
        ]
      },
      "properties": {
        "id": 4407450693,
        "osm_type": "node",
        "name": "YX Ogna",
        "brand": "YX",
        "opening_hours": "Mo-Fr 06:00-22:00, Sa 07:00-22:00, Su 08:00-22:00"
      }
    },
    {
      "type": "Feature",
      "geometry": {
        "type": "Point",
        "coordinates": [
          5.3056676,
          59.3956445
        ]
      },
      "properties": {
        "id": 5384664322,
        "osm_type": "node",
        "name": "Uno-X Spannavegen",
        "brand": "Uno-X"
      }
    },
    {
      "type": "Feature",
      "geometry": {
        "type": "Point",
        "coordinates": [
          5.303631,
          59.396585
        ]
      },
      "properties": {
        "id": 5384664323,
        "osm_type": "node",
        "name": "Tanken Spannaveien",
        "brand": "Tanken"
      }
    },
    {
      "type": "Feature",
      "geometry": {
        "type": "Point",
        "coordinates": [
          5.288489,
          59.403546
        ]
      },
      "properties": {
        "id": 5384664821,
        "osm_type": "node",
        "name": "Circle K Automat Karmsundgata",
        "brand": "Circle K"
      }
    },
    {
      "type": "Feature",
      "geometry": {
        "type": "Point",
        "coordinates": [
          6.0547543,
          58.8336543
        ]
      },
      "properties": {
        "id": 5387485283,
        "osm_type": "node"
      }
    },
    {
      "type": "Feature",
      "geometry": {
        "type": "Point",
        "coordinates": [
          6.3064887,
          58.3435006
        ]
      },
      "properties": {
        "id": 5605011345,
        "osm_type": "node",
        "name": "Tanken Sokndal",
        "opening_hours": "24/7"
      }
    },
    {
      "type": "Feature",
      "geometry": {
        "type": "Point",
        "coordinates": [
          6.2684859,
          58.3551893
        ]
      },
      "properties": {
        "id": 5605011347,
        "osm_type": "node",
        "name": "Jæren Olje Sokndal",
        "brand": "Jæren Olje",
        "opening_hours": "24/7"
      }
    },
    {
      "type": "Feature",
      "geometry": {
        "type": "Point",
        "coordinates": [
          5.706659,
          58.784905
        ]
      },
      "properties": {
        "id": 5724305796,
        "osm_type": "node",
        "name": "Uno-X Kverneland",
        "brand": "Uno-X"
      }
    },
    {
      "type": "Feature",
      "geometry": {
        "type": "Point",
        "coordinates": [
          6.3092519,
          59.6403018
        ]
      },
      "properties": {
        "id": 5737619317,
        "osm_type": "node",
        "name": "Bunker Oil"
      }
    },
    {
      "type": "Feature",
      "geometry": {
        "type": "Point",
        "coordinates": [
          6.166624,
          59.2341345
        ]
      },
      "properties": {
        "id": 5803788409,
        "osm_type": "node",
        "name": "Hjelmeland kai",
        "brand": "Driv",
        "opening_hours": "24/7"
      }
    },
    {
      "type": "Feature",
      "geometry": {
        "type": "Point",
        "coordinates": [
          6.237876,
          59.347712
        ]
      },
      "properties": {
        "id": 5810949063,
        "osm_type": "node",
        "name": "YX Erfjord (automat)",
        "brand": "YX",
        "opening_hours": "Mo-Sa 09:00-18:00"
      }
    },
    {
      "type": "Feature",
      "geometry": {
        "type": "Point",
        "coordinates": [
          5.6647549,
          58.6194311
        ]
      },
      "properties": {
        "id": 5810949066,
        "osm_type": "node",
        "name": "Jæren Olje Varhaug",
        "brand": "Jæren Olje"
      }
    },
    {
      "type": "Feature",
      "geometry": {
        "type": "Point",
        "coordinates": [
          5.731124,
          58.833722
        ]
      },
      "properties": {
        "id": 5939245096,
        "osm_type": "node",
        "name": "Uno-X Hove",
        "brand": "Uno-X"
      }
    },
    {
      "type": "Feature",
      "geometry": {
        "type": "Point",
        "coordinates": [
          5.9247043,
          58.7474591
        ]
      },
      "properties": {
        "id": 5986584917,
        "osm_type": "node",
        "name": "Jæren Olje Skurve",
        "brand": "Jæren Olje"
      }
    },
    {
      "type": "Feature",
      "geometry": {
        "type": "Point",
        "coordinates": [
          5.6765347,
          58.952565
        ]
      },
      "properties": {
        "id": 6030391832,
        "osm_type": "node",
        "name": "St1 Madlakrossen",
        "brand": "St1",
        "opening_hours": "24/7"
      }
    },
    {
      "type": "Feature",
      "geometry": {
        "type": "Point",
        "coordinates": [
          5.852518,
          58.913063
        ]
      },
      "properties": {
        "id": 6030391924,
        "osm_type": "node",
        "name": "Circle K Hommersåk",
        "brand": "Circle K",
        "opening_hours": "Mo-Fr 06:00-22:00, Sa 08:00-22:00, Su 09:00-22:00"
      }
    },
    {
      "type": "Feature",
      "geometry": {
        "type": "Point",
        "coordinates": [
          5.631224,
          58.776149
        ]
      },
      "properties": {
        "id": 6066248793,
        "osm_type": "node",
        "name": "Circle K Klepp",
        "brand": "Circle K",
        "opening_hours": "Mo-Fr 05:00-24:00, Sa-Su 07:00-24:00"
      }
    },
    {
      "type": "Feature",
      "geometry": {
        "type": "Point",
        "coordinates": [
          5.646992,
          58.667287
        ]
      },
      "properties": {
        "id": 6066248794,
        "osm_type": "node",
        "name": "Circle K Nærbø",
        "brand": "Circle K",
        "opening_hours": "Mo-Fr 05:00-22:00, Sa 07:00-22:00, Su 08:00-22:00"
      }
    },
    {
      "type": "Feature",
      "geometry": {
        "type": "Point",
        "coordinates": [
          5.750702,
          58.968724
        ]
      },
      "properties": {
        "id": 6066248796,
        "osm_type": "node",
        "name": "Circle K Haugesundsgaten",
        "brand": "Circle K",
        "opening_hours": "Mo-Fr 06:00-22:00, Sa-Su 08:00-22:00"
      }
    },
    {
      "type": "Feature",
      "geometry": {
        "type": "Point",
        "coordinates": [
          5.31473,
          59.38781
        ]
      },
      "properties": {
        "id": 6066248797,
        "osm_type": "node",
        "name": "Circle K Truck Haugesund",
        "brand": "Circle K"
      }
    },
    {
      "type": "Feature",
      "geometry": {
        "type": "Point",
        "coordinates": [
          5.304498,
          59.395267
        ]
      },
      "properties": {
        "id": 6066248799,
        "osm_type": "node",
        "name": "Circle K Automat Spannaveien",
        "brand": "Circle K"
      }
    },
    {
      "type": "Feature",
      "geometry": {
        "type": "Point",
        "coordinates": [
          5.266959,
          59.437191
        ]
      },
      "properties": {
        "id": 6066248800,
        "osm_type": "node",
        "name": "Circle K Kvala",
        "brand": "Circle K",
        "opening_hours": "Mo-Fr 05:30-23:00, Sa 07:30-23:00, Su 08:00-23:00"
      }
    },
    {
      "type": "Feature",
      "geometry": {
        "type": "Point",
        "coordinates": [
          6.543416,
          58.461102
        ]
      },
      "properties": {
        "id": 6066248801,
        "osm_type": "node",
        "name": "Circle K Automat Moi",
        "brand": "Circle K"
      }
    },
    {
      "type": "Feature",
      "geometry": {
        "type": "Point",
        "coordinates": [
          5.847628,
          58.771458
        ]
      },
      "properties": {
        "id": 6066248803,
        "osm_type": "node",
        "name": "Circle K Ålgård",
        "brand": "Circle K",
        "opening_hours": "24/7"
      }
    },
    {
      "type": "Feature",
      "geometry": {
        "type": "Point",
        "coordinates": [
          5.40466,
          59.4181
        ]
      },
      "properties": {
        "id": 6066248804,
        "osm_type": "node",
        "name": "Circle K Truck Scania sør",
        "brand": "Circle K"
      }
    },
    {
      "type": "Feature",
      "geometry": {
        "type": "Point",
        "coordinates": [
          5.302389,
          59.280294
        ]
      },
      "properties": {
        "id": 6066248805,
        "osm_type": "node",
        "name": "Circle K Automat Kopervik",
        "brand": "Circle K"
      }
    },
    {
      "type": "Feature",
      "geometry": {
        "type": "Point",
        "coordinates": [
          5.201197,
          59.269356
        ]
      },
      "properties": {
        "id": 6066248806,
        "osm_type": "node",
        "name": "Circle K Sævelandsvik",
        "brand": "Circle K",
        "opening_hours": "Mo-Fr 05:00-23:00, Sa-Su 08:00-23:00"
      }
    },
    {
      "type": "Feature",
      "geometry": {
        "type": "Point",
        "coordinates": [
          5.4459896,
          59.42058
        ]
      },
      "properties": {
        "id": 6083131027,
        "osm_type": "node",
        "name": "St1 Aksdal",
        "brand": "St1",
        "opening_hours": "24/7"
      }
    },
    {
      "type": "Feature",
      "geometry": {
        "type": "Point",
        "coordinates": [
          5.6504958,
          58.8830637
        ]
      },
      "properties": {
        "id": 6083131330,
        "osm_type": "node",
        "name": "St1 Solakrossen",
        "brand": "St1",
        "opening_hours": "24/7"
      }
    },
    {
      "type": "Feature",
      "geometry": {
        "type": "Point",
        "coordinates": [
          5.8692369,
          59.5418014
        ]
      },
      "properties": {
        "id": 6083131331,
        "osm_type": "node",
        "name": "St1 Sandeid",
        "brand": "St1",
        "opening_hours": "Mo-Fr 07:00-21:00, Sa 08:00-21:00, Su 08:30-21:00"
      }
    },
    {
      "type": "Feature",
      "geometry": {
        "type": "Point",
        "coordinates": [
          5.641304,
          58.737704
        ]
      },
      "properties": {
        "id": 6083131332,
        "osm_type": "node",
        "name": "St1 Bryne",
        "brand": "St1",
        "opening_hours": "24/7"
      }
    },
    {
      "type": "Feature",
      "geometry": {
        "type": "Point",
        "coordinates": [
          5.2917265,
          59.2936386
        ]
      },
      "properties": {
        "id": 6083131333,
        "osm_type": "node",
        "name": "St1 Karmøy",
        "brand": "St1",
        "opening_hours": "24/7"
      }
    },
    {
      "type": "Feature",
      "geometry": {
        "type": "Point",
        "coordinates": [
          5.7013403,
          58.9782386
        ]
      },
      "properties": {
        "id": 6083131335,
        "osm_type": "node",
        "name": "St1 Randabergveien",
        "brand": "St1",
        "opening_hours": "24/7"
      }
    },
    {
      "type": "Feature",
      "geometry": {
        "type": "Point",
        "coordinates": [
          5.3030804,
          59.2911399
        ]
      },
      "properties": {
        "id": 6083131336,
        "osm_type": "node",
        "name": "St1 Kopervik",
        "brand": "St1",
        "opening_hours": "Mo-Fr 06:30-23:00, Sa 08:00-23:00, Su 09:00-23:00"
      }
    },
    {
      "type": "Feature",
      "geometry": {
        "type": "Point",
        "coordinates": [
          6.2711704,
          59.4806278
        ]
      },
      "properties": {
        "id": 6083131337,
        "osm_type": "node",
        "name": "St1 Sand",
        "brand": "St1",
        "opening_hours": "Mo-Fr 07:30-20:00, Sa-Su 09:00-20:00"
      }
    },
    {
      "type": "Feature",
      "geometry": {
        "type": "Point",
        "coordinates": [
          5.7306762,
          58.9457698
        ]
      },
      "properties": {
        "id": 6083131338,
        "osm_type": "node",
        "name": "St1 Haugåsveien",
        "brand": "St1",
        "opening_hours": "24/7"
      }
    },
    {
      "type": "Feature",
      "geometry": {
        "type": "Point",
        "coordinates": [
          5.458331,
          59.405614
        ]
      },
      "properties": {
        "id": 6083131340,
        "osm_type": "node",
        "name": "St1 Eikeskog",
        "brand": "St1"
      }
    },
    {
      "type": "Feature",
      "geometry": {
        "type": "Point",
        "coordinates": [
          5.651409,
          58.891333
        ]
      },
      "properties": {
        "id": 6093918072,
        "osm_type": "node",
        "name": "Esso Express Sola",
        "brand": "Esso"
      }
    },
    {
      "type": "Feature",
      "geometry": {
        "type": "Point",
        "coordinates": [
          5.330729,
          59.397236
        ]
      },
      "properties": {
        "id": 6093918073,
        "osm_type": "node",
        "name": "Esso Raglamyr",
        "brand": "Esso",
        "opening_hours": "24/7"
      }
    },
    {
      "type": "Feature",
      "geometry": {
        "type": "Point",
        "coordinates": [
          5.629732,
          58.961064
        ]
      },
      "properties": {
        "id": 6093918074,
        "osm_type": "node",
        "name": "Esso Revheimsveien",
        "brand": "Esso",
        "opening_hours": "Mo-Fr 06:00-21:00, Sa 09:00-21:00, Su 09:00-23:00"
      }
    },
    {
      "type": "Feature",
      "geometry": {
        "type": "Point",
        "coordinates": [
          5.7243732,
          58.9513984
        ]
      },
      "properties": {
        "id": 6093918075,
        "osm_type": "node",
        "name": "Esso Bekkefaret",
        "brand": "Esso",
        "opening_hours": "24/7"
      }
    },
    {
      "type": "Feature",
      "geometry": {
        "type": "Point",
        "coordinates": [
          5.727991,
          58.993844
        ]
      },
      "properties": {
        "id": 6093918076,
        "osm_type": "node",
        "name": "Esso Hundvåg",
        "brand": "Esso",
        "opening_hours": "Mo-Fr 06:30-22:00, Sa 08:00-22:00, Su 09:00-23:00"
      }
    },
    {
      "type": "Feature",
      "geometry": {
        "type": "Point",
        "coordinates": [
          5.7005225,
          58.9572767
        ]
      },
      "properties": {
        "id": 6093918077,
        "osm_type": "node",
        "name": "Esso Tjensvollkrysset",
        "brand": "Esso",
        "opening_hours": "Mo-Th 06:00-24:00, Fr 06:00-03:00, Sa 08:00-03:00, Su 08:00-24:00"
      }
    },
    {
      "type": "Feature",
      "geometry": {
        "type": "Point",
        "coordinates": [
          5.264658,
          59.4261096
        ]
      },
      "properties": {
        "id": 6093918078,
        "osm_type": "node",
        "name": "Esso Express Gard",
        "brand": "Esso"
      }
    },
    {
      "type": "Feature",
      "geometry": {
        "type": "Point",
        "coordinates": [
          5.636635,
          58.670137
        ]
      },
      "properties": {
        "id": 6093918248,
        "osm_type": "node",
        "name": "Uno-X Nærbø",
        "brand": "Uno-X"
      }
    },
    {
      "type": "Feature",
      "geometry": {
        "type": "Point",
        "coordinates": [
          5.6671,
          58.735465
        ]
      },
      "properties": {
        "id": 6093918249,
        "osm_type": "node",
        "name": "Esso Bryne",
        "brand": "Esso",
        "opening_hours": "Mo-Fr 06:00-23:00, Sa 07:00-23:00, Su 08:00-23:00"
      }
    },
    {
      "type": "Feature",
      "geometry": {
        "type": "Point",
        "coordinates": [
          5.275476,
          59.41446
        ]
      },
      "properties": {
        "id": 6093918250,
        "osm_type": "node",
        "name": "Esso Karmsundgaten",
        "brand": "Esso",
        "opening_hours": "24/7"
      }
    },
    {
      "type": "Feature",
      "geometry": {
        "type": "Point",
        "coordinates": [
          5.742298,
          58.94923
        ]
      },
      "properties": {
        "id": 6093918251,
        "osm_type": "node",
        "name": "Esso Hillevåg",
        "brand": "Esso",
        "opening_hours": "Mo-Fr 06:00-21:00, Sa 09:00-21:00, Su 09:00-23:00"
      }
    },
    {
      "type": "Feature",
      "geometry": {
        "type": "Point",
        "coordinates": [
          6.0079459,
          58.4387633
        ]
      },
      "properties": {
        "id": 6119738966,
        "osm_type": "node",
        "name": "Uno-X Egersund",
        "brand": "Uno-X"
      }
    },
    {
      "type": "Feature",
      "geometry": {
        "type": "Point",
        "coordinates": [
          5.7150766,
          58.9616466
        ]
      },
      "properties": {
        "id": 6119738967,
        "osm_type": "node",
        "name": "Uno-X Madlaveien",
        "brand": "Uno-X"
      }
    },
    {
      "type": "Feature",
      "geometry": {
        "type": "Point",
        "coordinates": [
          5.6542547,
          58.8812852
        ]
      },
      "properties": {
        "id": 6119739389,
        "osm_type": "node",
        "name": "Uno-X Sola",
        "brand": "Uno-X"
      }
    },
    {
      "type": "Feature",
      "geometry": {
        "type": "Point",
        "coordinates": [
          5.6470781,
          58.9922132
        ]
      },
      "properties": {
        "id": 6119739633,
        "osm_type": "node",
        "name": "Uno-X Randaberg",
        "brand": "Uno-X"
      }
    },
    {
      "type": "Feature",
      "geometry": {
        "type": "Point",
        "coordinates": [
          5.649531,
          58.88826
        ]
      },
      "properties": {
        "id": 6119739634,
        "osm_type": "node",
        "name": "YX Sande gård",
        "brand": "YX",
        "opening_hours": "Mo-Fr 06:00-22:00, Sa 08:00-22:00, Su 09:00-22:00"
      }
    },
    {
      "type": "Feature",
      "geometry": {
        "type": "Point",
        "coordinates": [
          5.9195542,
          59.0652696
        ]
      },
      "properties": {
        "id": 6119739635,
        "osm_type": "node",
        "name": "Uno-X Tau",
        "brand": "Uno-X"
      }
    },
    {
      "type": "Feature",
      "geometry": {
        "type": "Point",
        "coordinates": [
          5.7396969,
          58.9339037
        ]
      },
      "properties": {
        "id": 6119739637,
        "osm_type": "node",
        "name": "Uno-X Mariero",
        "brand": "Uno-X"
      }
    },
    {
      "type": "Feature",
      "geometry": {
        "type": "Point",
        "coordinates": [
          5.2392913,
          59.2771146
        ]
      },
      "properties": {
        "id": 6119739638,
        "osm_type": "node",
        "name": "Uno-X Karmøy",
        "brand": "Uno-X"
      }
    },
    {
      "type": "Feature",
      "geometry": {
        "type": "Point",
        "coordinates": [
          5.455791,
          59.405834
        ]
      },
      "properties": {
        "id": 6119739639,
        "osm_type": "node",
        "name": "YX Truck Aksdal",
        "brand": "YX Truck"
      }
    },
    {
      "type": "Feature",
      "geometry": {
        "type": "Point",
        "coordinates": [
          5.290904,
          59.3689995
        ]
      },
      "properties": {
        "id": 6121546394,
        "osm_type": "node",
        "name": "LPG Karmøy",
        "brand": "LPG Norge"
      }
    },
    {
      "type": "Feature",
      "geometry": {
        "type": "Point",
        "coordinates": [
          5.4393301,
          59.2326737
        ]
      },
      "properties": {
        "id": 6525671245,
        "osm_type": "node",
        "name": "Knapphus Bokn Føresvik",
        "brand": "Knapphus"
      }
    },
    {
      "type": "Feature",
      "geometry": {
        "type": "Point",
        "coordinates": [
          5.315036,
          59.384938
        ]
      },
      "properties": {
        "id": 6759202430,
        "osm_type": "node",
        "name": "St1 Norheim",
        "brand": "St1",
        "opening_hours": "24/7"
      }
    },
    {
      "type": "Feature",
      "geometry": {
        "type": "Point",
        "coordinates": [
          5.9105332,
          58.7533036
        ]
      },
      "properties": {
        "id": 6835770316,
        "osm_type": "node"
      }
    },
    {
      "type": "Feature",
      "geometry": {
        "type": "Point",
        "coordinates": [
          5.4292198,
          59.3134026
        ]
      },
      "properties": {
        "id": 6957386184,
        "osm_type": "node",
        "name": "Circle K Truck Gismarvik",
        "brand": "Circle K"
      }
    },
    {
      "type": "Feature",
      "geometry": {
        "type": "Point",
        "coordinates": [
          5.5783824,
          58.9212672
        ]
      },
      "properties": {
        "id": 6957437485,
        "osm_type": "node",
        "name": "Circle K Truck Risavika",
        "brand": "Circle K"
      }
    },
    {
      "type": "Feature",
      "geometry": {
        "type": "Point",
        "coordinates": [
          5.8604269,
          59.3459832
        ]
      },
      "properties": {
        "id": 7264937867,
        "osm_type": "node",
        "name": "Rasmussen Nedstrand"
      }
    },
    {
      "type": "Feature",
      "geometry": {
        "type": "Point",
        "coordinates": [
          6.5303468,
          58.4660374
        ]
      },
      "properties": {
        "id": 7633012850,
        "osm_type": "node",
        "name": "Agder Olje Moi",
        "brand": "Agder Olje"
      }
    },
    {
      "type": "Feature",
      "geometry": {
        "type": "Point",
        "coordinates": [
          5.8547084,
          59.1611947
        ]
      },
      "properties": {
        "id": 7633177206,
        "osm_type": "node",
        "name": "Finnøy Olje Finnøy",
        "brand": "Finnøy Olje"
      }
    },
    {
      "type": "Feature",
      "geometry": {
        "type": "Point",
        "coordinates": [
          5.6529607,
          58.7444801
        ]
      },
      "properties": {
        "id": 7633177207,
        "osm_type": "node",
        "name": "Jæren Olje Bryne",
        "brand": "Jæren Olje"
      }
    },
    {
      "type": "Feature",
      "geometry": {
        "type": "Point",
        "coordinates": [
          5.7365261,
          58.8930586
        ]
      },
      "properties": {
        "id": 7633177210,
        "osm_type": "node",
        "name": "Jæren Olje Forus",
        "brand": "Jæren Olje"
      }
    },
    {
      "type": "Feature",
      "geometry": {
        "type": "Point",
        "coordinates": [
          5.9148169,
          59.0866155
        ]
      },
      "properties": {
        "id": 7633177211,
        "osm_type": "node",
        "name": "Randøy Olje Nordmarka",
        "brand": "Randøy Olje"
      }
    },
    {
      "type": "Feature",
      "geometry": {
        "type": "Point",
        "coordinates": [
          5.7009196,
          58.7808192
        ]
      },
      "properties": {
        "id": 7633177212,
        "osm_type": "node",
        "name": "Jæren Olje Orstad",
        "brand": "Jæren Olje"
      }
    },
    {
      "type": "Feature",
      "geometry": {
        "type": "Point",
        "coordinates": [
          5.6404863,
          58.6743368
        ]
      },
      "properties": {
        "id": 7633177213,
        "osm_type": "node",
        "name": "Jæren Olje Nærbø",
        "brand": "Jæren Olje"
      }
    },
    {
      "type": "Feature",
      "geometry": {
        "type": "Point",
        "coordinates": [
          5.9998956,
          58.4762364
        ]
      },
      "properties": {
        "id": 7633177214,
        "osm_type": "node",
        "name": "Jæren Olje Tengs",
        "brand": "Jæren Olje"
      }
    },
    {
      "type": "Feature",
      "geometry": {
        "type": "Point",
        "coordinates": [
          6.1048891,
          59.2157504
        ]
      },
      "properties": {
        "id": 7633177216,
        "osm_type": "node",
        "name": "Randøy Olje Vikaneset",
        "brand": "Randøy Olje"
      }
    },
    {
      "type": "Feature",
      "geometry": {
        "type": "Point",
        "coordinates": [
          5.6928733,
          58.5714861
        ]
      },
      "properties": {
        "id": 7633366286,
        "osm_type": "node",
        "name": "Jæren Olje Vigrestad",
        "brand": "Jæren Olje"
      }
    },
    {
      "type": "Feature",
      "geometry": {
        "type": "Point",
        "coordinates": [
          6.2556463,
          58.8087934
        ]
      },
      "properties": {
        "id": 7633366287,
        "osm_type": "node",
        "name": "Jæren Olje Gilja",
        "brand": "Jæren Olje"
      }
    },
    {
      "type": "Feature",
      "geometry": {
        "type": "Point",
        "coordinates": [
          5.2890855,
          59.3397582
        ]
      },
      "properties": {
        "id": 7633366290,
        "osm_type": "node",
        "name": "Haugaland Olje Husøy",
        "brand": "Haugaland Olje"
      }
    },
    {
      "type": "Feature",
      "geometry": {
        "type": "Point",
        "coordinates": [
          5.7196109,
          58.882457
        ]
      },
      "properties": {
        "id": 7858334107,
        "osm_type": "node"
      }
    },
    {
      "type": "Feature",
      "geometry": {
        "type": "Point",
        "coordinates": [
          5.7168552,
          58.8124063
        ]
      },
      "properties": {
        "id": 8200055539,
        "osm_type": "node",
        "name": "YX Truck Vagle",
        "brand": "YX Truck"
      }
    },
    {
      "type": "Feature",
      "geometry": {
        "type": "Point",
        "coordinates": [
          5.6039146,
          58.9162264
        ]
      },
      "properties": {
        "id": 8364981160,
        "osm_type": "node",
        "name": "St1 Risavika",
        "brand": "St1"
      }
    },
    {
      "type": "Feature",
      "geometry": {
        "type": "Point",
        "coordinates": [
          5.7734811,
          58.6816436
        ]
      },
      "properties": {
        "id": 8635452614,
        "osm_type": "node",
        "name": "Circle K Automat Undheim",
        "brand": "Circle K"
      }
    },
    {
      "type": "Feature",
      "geometry": {
        "type": "Point",
        "coordinates": [
          6.0043933,
          58.459485
        ]
      },
      "properties": {
        "id": 8637102289,
        "osm_type": "node",
        "name": "Uno-X Eie",
        "brand": "Uno-X"
      }
    },
    {
      "type": "Feature",
      "geometry": {
        "type": "Point",
        "coordinates": [
          5.5685042,
          59.580278
        ]
      },
      "properties": {
        "id": 9608250562,
        "osm_type": "node",
        "name": "Tanken Vikebygd",
        "brand": "Tanken"
      }
    },
    {
      "type": "Feature",
      "geometry": {
        "type": "Point",
        "coordinates": [
          6.0217802,
          59.3408462
        ]
      },
      "properties": {
        "id": 9608250563,
        "osm_type": "node"
      }
    },
    {
      "type": "Feature",
      "geometry": {
        "type": "Point",
        "coordinates": [
          5.8523126,
          59.3432522
        ]
      },
      "properties": {
        "id": 9662820262,
        "osm_type": "node",
        "name": "Tanken Nedstrand Marina",
        "brand": "Tanken"
      }
    },
    {
      "type": "Feature",
      "geometry": {
        "type": "Point",
        "coordinates": [
          5.7233557,
          58.8399285
        ]
      },
      "properties": {
        "id": 9724938007,
        "osm_type": "node",
        "name": "Circle K Automat Sandnesporten",
        "brand": "Circle K"
      }
    },
    {
      "type": "Feature",
      "geometry": {
        "type": "Point",
        "coordinates": [
          5.7195961,
          58.8824633
        ]
      },
      "properties": {
        "id": 10009240947,
        "osm_type": "node",
        "name": "YX Truck Håkull",
        "brand": "YX Truck"
      }
    },
    {
      "type": "Feature",
      "geometry": {
        "type": "Point",
        "coordinates": [
          5.3299832,
          59.3930928
        ]
      },
      "properties": {
        "id": 10128289420,
        "osm_type": "node",
        "name": "Uno-X Raglamyr",
        "brand": "Uno-X"
      }
    },
    {
      "type": "Feature",
      "geometry": {
        "type": "Point",
        "coordinates": [
          5.7407877,
          58.8713123
        ]
      },
      "properties": {
        "id": 10732820050,
        "osm_type": "node",
        "name": "Uno-X Lura",
        "brand": "Uno-X"
      }
    },
    {
      "type": "Feature",
      "geometry": {
        "type": "Point",
        "coordinates": [
          6.1274029,
          58.5275983
        ]
      },
      "properties": {
        "id": 10984511760,
        "osm_type": "node",
        "name": "YX Truck Helleland",
        "brand": "YX Truck"
      }
    },
    {
      "type": "Feature",
      "geometry": {
        "type": "Point",
        "coordinates": [
          5.7238675,
          58.9208862
        ]
      },
      "properties": {
        "id": 11891790908,
        "osm_type": "node",
        "name": "Uno-X Hinna",
        "brand": "Uno-X"
      }
    },
    {
      "type": "Feature",
      "geometry": {
        "type": "Point",
        "coordinates": [
          6.0317282,
          59.4766069
        ]
      },
      "properties": {
        "id": 11951066039,
        "osm_type": "node"
      }
    },
    {
      "type": "Feature",
      "geometry": {
        "type": "Point",
        "coordinates": [
          5.6327527,
          58.7460396
        ]
      },
      "properties": {
        "id": 12050509965,
        "osm_type": "node",
        "name": "Tanken Kåsen",
        "brand": "Tanken"
      }
    },
    {
      "type": "Feature",
      "geometry": {
        "type": "Point",
        "coordinates": [
          5.2695997,
          59.3403633
        ]
      },
      "properties": {
        "id": 12050509966,
        "osm_type": "node",
        "name": "Tanken Helganes",
        "brand": "Tanken"
      }
    },
    {
      "type": "Feature",
      "geometry": {
        "type": "Point",
        "coordinates": [
          6.1788488,
          59.1510534
        ]
      },
      "properties": {
        "id": 12052586070,
        "osm_type": "node",
        "name": "Preem Årdal",
        "brand": "Preem"
      }
    },
    {
      "type": "Feature",
      "geometry": {
        "type": "Point",
        "coordinates": [
          5.9175043,
          59.0853607
        ]
      },
      "properties": {
        "id": 12052586071,
        "osm_type": "node",
        "name": "Preem Tau",
        "brand": "Preem"
      }
    },
    {
      "type": "Feature",
      "geometry": {
        "type": "Point",
        "coordinates": [
          5.6774004,
          59.0706215
        ]
      },
      "properties": {
        "id": 12052586072,
        "osm_type": "node",
        "name": "Preem Mosterøy",
        "brand": "Preem"
      }
    },
    {
      "type": "Feature",
      "geometry": {
        "type": "Point",
        "coordinates": [
          6.0877345,
          58.9015233
        ]
      },
      "properties": {
        "id": 12064366956,
        "osm_type": "node",
        "name": "Tanken Forsand",
        "brand": "Tanken"
      }
    },
    {
      "type": "Feature",
      "geometry": {
        "type": "Point",
        "coordinates": [
          6.0333717,
          59.0741573
        ]
      },
      "properties": {
        "id": 12978749656,
        "osm_type": "node",
        "name": "Tanken, Bjørheimsbygd",
        "brand": "Tanken",
        "opening_hours": "24/7"
      }
    },
    {
      "type": "Feature",
      "geometry": {
        "type": "Point",
        "coordinates": [
          5.7057472,
          58.8898316
        ]
      },
      "properties": {
        "id": 13519982827,
        "osm_type": "node"
      }
    },
    {
      "type": "Feature",
      "geometry": {
        "type": "Point",
        "coordinates": [
          5.7055736,
          58.8897492
        ]
      },
      "properties": {
        "id": 13519982828,
        "osm_type": "node"
      }
    },
    {
      "type": "Feature",
      "geometry": {
        "type": "Point",
        "coordinates": [
          6.077638,
          58.63263
        ]
      },
      "properties": {
        "id": 521373189,
        "osm_type": "way",
        "name": "Circle K Vikeså",
        "brand": "Circle K",
        "opening_hours": "Mo-Fr 06:30-22:00, Sa 08:00-22:00, Su 09:00-22:00"
      }
    },
    {
      "type": "Feature",
      "geometry": {
        "type": "Point",
        "coordinates": [
          5.915458,
          59.0653232
        ]
      },
      "properties": {
        "id": 660013735,
        "osm_type": "way",
        "name": "Circle K Tau",
        "brand": "Circle K",
        "opening_hours": "Mo-Fr 05:00-23:00, Sa 08:00-22:00, Su 09:00-23:00"
      }
    },
    {
      "type": "Feature",
      "geometry": {
        "type": "Point",
        "coordinates": [
          5.853086,
          59.3431243
        ]
      },
      "properties": {
        "id": 1059877851,
        "osm_type": "way",
        "name": "Tanken"
      }
    }
  ]
}