{
  "type": "FeatureCollection",
  "features": [
    {
      "type": "Feature",
      "geometry": {
        "type": "Point",
        "coordinates": [
          17.7809187,
          48.9258075
        ]
      },
      "properties": {
        "id": 1606823963,
        "osm_type": "node",
        "shelter_type": "weather_shelter",
        "description": "Dá se zde přespat"
      }
    },
    {
      "type": "Feature",
      "geometry": {
        "type": "Point",
        "coordinates": [
          17.7326226,
          49.248411
        ]
      },
      "properties": {
        "id": 1721481951,
        "osm_type": "node",
        "name": "Lesanka",
        "shelter_type": "weather_shelter"
      }
    },
    {
      "type": "Feature",
      "geometry": {
        "type": "Point",
        "coordinates": [
          17.3662096,
          49.1856613
        ]
      },
      "properties": {
        "id": 1760321031,
        "osm_type": "node",
        "shelter_type": "weather_shelter"
      }
    },
    {
      "type": "Feature",
      "geometry": {
        "type": "Point",
        "coordinates": [
          17.4050043,
          49.1895248
        ]
      },
      "properties": {
        "id": 1816237658,
        "osm_type": "node",
        "shelter_type": "weather_shelter",
        "bench": "yes"
      }
    },
    {
      "type": "Feature",
      "geometry": {
        "type": "Point",
        "coordinates": [
          17.9094176,
          49.159387
        ]
      },
      "properties": {
        "id": 2192995762,
        "osm_type": "node",
        "shelter_type": "weather_shelter"
      }
    },
    {
      "type": "Feature",
      "geometry": {
        "type": "Point",
        "coordinates": [
          17.2161256,
          49.0977836
        ]
      },
      "properties": {
        "id": 2835964165,
        "osm_type": "node",
        "shelter_type": "lean_to"
      }
    },
    {
      "type": "Feature",
      "geometry": {
        "type": "Point",
        "coordinates": [
          18.1303324,
          49.370145
        ]
      },
      "properties": {
        "id": 2859628633,
        "osm_type": "node",
        "shelter_type": "weather_shelter"
      }
    },
    {
      "type": "Feature",
      "geometry": {
        "type": "Point",
        "coordinates": [
          17.9192732,
          49.1552187
        ]
      },
      "properties": {
        "id": 2934878330,
        "osm_type": "node",
        "name": "Lyžařská chata Újezd"
      }
    },
    {
      "type": "Feature",
      "geometry": {
        "type": "Point",
        "coordinates": [
          17.7629523,
          49.2874913
        ]
      },
      "properties": {
        "id": 2940332705,
        "osm_type": "node",
        "name": "Boží muka - křížová cesta",
        "shelter_type": "weather_shelter"
      }
    },
    {
      "type": "Feature",
      "geometry": {
        "type": "Point",
        "coordinates": [
          18.3154744,
          49.3980697
        ]
      },
      "properties": {
        "id": 3879006123,
        "osm_type": "node",
        "shelter_type": "weather_shelter"
      }
    },
    {
      "type": "Feature",
      "geometry": {
        "type": "Point",
        "coordinates": [
          17.9259446,
          49.2270643
        ]
      },
      "properties": {
        "id": 3966260663,
        "osm_type": "node",
        "shelter_type": "weather_shelter"
      }
    },
    {
      "type": "Feature",
      "geometry": {
        "type": "Point",
        "coordinates": [
          17.2437834,
          49.1002461
        ]
      },
      "properties": {
        "id": 3993360576,
        "osm_type": "node",
        "shelter_type": "lean_to"
      }
    },
    {
      "type": "Feature",
      "geometry": {
        "type": "Point",
        "coordinates": [
          18.0751659,
          49.225931
        ]
      },
      "properties": {
        "id": 4059493471,
        "osm_type": "node",
        "shelter_type": "weather_shelter"
      }
    },
    {
      "type": "Feature",
      "geometry": {
        "type": "Point",
        "coordinates": [
          18.0753277,
          49.225951
        ]
      },
      "properties": {
        "id": 4059493472,
        "osm_type": "node",
        "shelter_type": "weather_shelter"
      }
    },
    {
      "type": "Feature",
      "geometry": {
        "type": "Point",
        "coordinates": [
          18.0754867,
          49.2259729
        ]
      },
      "properties": {
        "id": 4059493474,
        "osm_type": "node",
        "shelter_type": "weather_shelter"
      }
    },
    {
      "type": "Feature",
      "geometry": {
        "type": "Point",
        "coordinates": [
          18.0756862,
          49.2260002
        ]
      },
      "properties": {
        "id": 4059493475,
        "osm_type": "node",
        "shelter_type": "weather_shelter"
      }
    },
    {
      "type": "Feature",
      "geometry": {
        "type": "Point",
        "coordinates": [
          17.7669939,
          49.1528575
        ]
      },
      "properties": {
        "id": 4084884065,
        "osm_type": "node",
        "shelter_type": "weather_shelter"
      }
    },
    {
      "type": "Feature",
      "geometry": {
        "type": "Point",
        "coordinates": [
          17.7591022,
          49.1545128
        ]
      },
      "properties": {
        "id": 4084884134,
        "osm_type": "node",
        "shelter_type": "weather_shelter"
      }
    },
    {
      "type": "Feature",
      "geometry": {
        "type": "Point",
        "coordinates": [
          17.780947,
          49.1559871
        ]
      },
      "properties": {
        "id": 4084884191,
        "osm_type": "node",
        "shelter_type": "weather_shelter"
      }
    },
    {
      "type": "Feature",
      "geometry": {
        "type": "Point",
        "coordinates": [
          17.7607485,
          49.1588425
        ]
      },
      "properties": {
        "id": 4084884207,
        "osm_type": "node",
        "shelter_type": "weather_shelter"
      }
    },
    {
      "type": "Feature",
      "geometry": {
        "type": "Point",
        "coordinates": [
          17.7803849,
          49.1411022
        ]
      },
      "properties": {
        "id": 4089779179,
        "osm_type": "node",
        "shelter_type": "weather_shelter"
      }
    },
    {
      "type": "Feature",
      "geometry": {
        "type": "Point",
        "coordinates": [
          17.7033032,
          49.1823727
        ]
      },
      "properties": {
        "id": 4208762502,
        "osm_type": "node",
        "name": "přístřešek Pindula",
        "shelter_type": "weather_shelter"
      }
    },
    {
      "type": "Feature",
      "geometry": {
        "type": "Point",
        "coordinates": [
          17.8586278,
          48.9335673
        ]
      },
      "properties": {
        "id": 4984848180,
        "osm_type": "node",
        "shelter_type": "weather_shelter",
        "bench": "yes"
      }
    },
    {
      "type": "Feature",
      "geometry": {
        "type": "Point",
        "coordinates": [
          17.3702329,
          49.1457999
        ]
      },
      "properties": {
        "id": 5253156622,
        "osm_type": "node",
        "shelter_type": "weather_shelter"
      }
    },
    {
      "type": "Feature",
      "geometry": {
        "type": "Point",
        "coordinates": [
          17.3436946,
          49.0385194
        ]
      },
      "properties": {
        "id": 5368253477,
        "osm_type": "node",
        "shelter_type": "lean_to",
        "bench": "yes"
      }
    },
    {
      "type": "Feature",
      "geometry": {
        "type": "Point",
        "coordinates": [
          17.1677071,
          49.1167132
        ]
      },
      "properties": {
        "id": 6005751627,
        "osm_type": "node",
        "shelter_type": "weather_shelter"
      }
    },
    {
      "type": "Feature",
      "geometry": {
        "type": "Point",
        "coordinates": [
          17.3521295,
          49.1430708
        ]
      },
      "properties": {
        "id": 6695325210,
        "osm_type": "node",
        "shelter_type": "weather_shelter",
        "bench": "yes"
      }
    },
    {
      "type": "Feature",
      "geometry": {
        "type": "Point",
        "coordinates": [
          17.7143745,
          49.1406171
        ]
      },
      "properties": {
        "id": 7476163690,
        "osm_type": "node",
        "shelter_type": "lean_to"
      }
    },
    {
      "type": "Feature",
      "geometry": {
        "type": "Point",
        "coordinates": [
          17.734703,
          49.1525021
        ]
      },
      "properties": {
        "id": 7476380300,
        "osm_type": "node",
        "shelter_type": "lean_to"
      }
    },
    {
      "type": "Feature",
      "geometry": {
        "type": "Point",
        "coordinates": [
          17.63555,
          49.3222666
        ]
      },
      "properties": {
        "id": 11737632635,
        "osm_type": "node",
        "name": "T. O. Píšov"
      }
    },
    {
      "type": "Feature",
      "geometry": {
        "type": "Point",
        "coordinates": [
          17.5917225,
          49.0379405
        ]
      },
      "properties": {
        "id": 11936824391,
        "osm_type": "node",
        "shelter_type": "weather_shelter"
      }
    },
    {
      "type": "Feature",
      "geometry": {
        "type": "Point",
        "coordinates": [
          18.1340362,
          49.4988666
        ]
      },
      "properties": {
        "id": 12529533105,
        "osm_type": "node",
        "name": "Útulna Úvěz - Kamenárka",
        "access": "yes",
        "shelter_type": "basic_hut",
        "bench": "yes",
        "capacity": "3",
        "fee": "no",
        "operator": "Lesy ČR"
      }
    },
    {
      "type": "Feature",
      "geometry": {
        "type": "Point",
        "coordinates": [
          18.0610048,
          49.3331885
        ]
      },
      "properties": {
        "id": 13701952401,
        "osm_type": "node",
        "name": "Kusalíno",
        "check_date": "2026-04-02"
      }
    },
    {
      "type": "Feature",
      "geometry": {
        "type": "Point",
        "coordinates": [
          17.288593,
          49.2145868
        ]
      },
      "properties": {
        "id": 328441858,
        "osm_type": "way",
        "shelter_type": "lean_to"
      }
    },
    {
      "type": "Feature",
      "geometry": {
        "type": "Point",
        "coordinates": [
          17.9130274,
          49.2209617
        ]
      },
      "properties": {
        "id": 400794538,
        "osm_type": "way",
        "shelter_type": "weather_shelter"
      }
    },
    {
      "type": "Feature",
      "geometry": {
        "type": "Point",
        "coordinates": [
          17.8404708,
          49.1666776
        ]
      },
      "properties": {
        "id": 423079361,
        "osm_type": "way",
        "name": "chata Hlaďačka"
      }
    },
    {
      "type": "Feature",
      "geometry": {
        "type": "Point",
        "coordinates": [
          17.5948837,
          49.205306
        ]
      },
      "properties": {
        "id": 450024864,
        "osm_type": "way",
        "shelter_type": "weather_shelter"
      }
    },
    {
      "type": "Feature",
      "geometry": {
        "type": "Point",
        "coordinates": [
          17.3096611,
          49.1604701
        ]
      },
      "properties": {
        "id": 463118187,
        "osm_type": "way",
        "shelter_type": "lean_to"
      }
    },
    {
      "type": "Feature",
      "geometry": {
        "type": "Point",
        "coordinates": [
          17.7005251,
          49.1679829
        ]
      },
      "properties": {
        "id": 536458421,
        "osm_type": "way",
        "shelter_type": "weather_shelter"
      }
    },
    {
      "type": "Feature",
      "geometry": {
        "type": "Point",
        "coordinates": [
          18.3216102,
          49.4525654
        ]
      },
      "properties": {
        "id": 612754951,
        "osm_type": "way",
        "name": "Přístřešek Bařiny",
        "shelter_type": "weather_shelter"
      }
    },
    {
      "type": "Feature",
      "geometry": {
        "type": "Point",
        "coordinates": [
          17.3234628,
          49.1092121
        ]
      },
      "properties": {
        "id": 664912850,
        "osm_type": "way",
        "shelter_type": "weather_shelter",
        "bench": "yes"
      }
    },
    {
      "type": "Feature",
      "geometry": {
        "type": "Point",
        "coordinates": [
          17.8687122,
          49.0958495
        ]
      },
      "properties": {
        "id": 680735248,
        "osm_type": "way",
        "name": "altán",
        "shelter_type": "weather_shelter"
      }
    },
    {
      "type": "Feature",
      "geometry": {
        "type": "Point",
        "coordinates": [
          17.2767453,
          49.0974142
        ]
      },
      "properties": {
        "id": 694784398,
        "osm_type": "way",
        "shelter_type": "lean_to"
      }
    },
    {
      "type": "Feature",
      "geometry": {
        "type": "Point",
        "coordinates": [
          17.3138831,
          49.1094724
        ]
      },
      "properties": {
        "id": 702185993,
        "osm_type": "way",
        "shelter_type": "weather_shelter",
        "bench": "yes"
      }
    },
    {
      "type": "Feature",
      "geometry": {
        "type": "Point",
        "coordinates": [
          17.7525149,
          49.110646
        ]
      },
      "properties": {
        "id": 833499739,
        "osm_type": "way",
        "shelter_type": "weather_shelter"
      }
    },
    {
      "type": "Feature",
      "geometry": {
        "type": "Point",
        "coordinates": [
          17.7271497,
          49.1181284
        ]
      },
      "properties": {
        "id": 1026050995,
        "osm_type": "way",
        "shelter_type": "lean_to"
      }
    },
    {
      "type": "Feature",
      "geometry": {
        "type": "Point",
        "coordinates": [
          18.0614634,
          49.451094
        ]
      },
      "properties": {
        "id": 1236111221,
        "osm_type": "way",
        "shelter_type": "lean_to"
      }
    },
    {
      "type": "Feature",
      "geometry": {
        "type": "Point",
        "coordinates": [
          18.1013408,
          49.3820817
        ]
      },
      "properties": {
        "id": 1281240453,
        "osm_type": "way",
        "shelter_type": "lean_to"
      }
    }
  ]
}