{
  "type": "FeatureCollection",
  "features": [
    {
      "type": "Feature",
      "geometry": {
        "type": "Point",
        "coordinates": [
          12.5695482,
          55.6764661
        ]
      },
      "properties": {
        "id": 276203847,
        "osm_type": "node",
        "name": "Burger King",
        "brand": "Burger King",
        "opening_hours": "24/7",
        "brand:wikidata": "Q177054",
        "chain": "burger_king"
      }
    },
    {
      "type": "Feature",
      "geometry": {
        "type": "Point",
        "coordinates": [
          12.2844537,
          55.6589785
        ]
      },
      "properties": {
        "id": 281175696,
        "osm_type": "node",
        "name": "McDonald's Taastrup",
        "brand": "McDonald's",
        "opening_hours": "PH,Mo-Su 07:00-01:00",
        "operator": "McDonalds",
        "brand:wikidata": "Q38076",
        "chain": "mcdonalds"
      }
    },
    {
      "type": "Feature",
      "geometry": {
        "type": "Point",
        "coordinates": [
          12.5629528,
          55.662055
        ]
      },
      "properties": {
        "id": 292177709,
        "osm_type": "node",
        "name": "McDonald's",
        "brand": "McDonald's",
        "opening_hours": "Mo-Su 10:00-23:00",
        "brand:wikidata": "Q38076",
        "chain": "mcdonalds"
      }
    },
    {
      "type": "Feature",
      "geometry": {
        "type": "Point",
        "coordinates": [
          12.4630036,
          55.6925972
        ]
      },
      "properties": {
        "id": 307666493,
        "osm_type": "node",
        "name": "McDonald's",
        "brand": "McDonald's",
        "brand:wikidata": "Q38076",
        "chain": "mcdonalds"
      }
    },
    {
      "type": "Feature",
      "geometry": {
        "type": "Point",
        "coordinates": [
          12.6572543,
          55.6315622
        ]
      },
      "properties": {
        "id": 335626036,
        "osm_type": "node",
        "name": "McDonald's",
        "brand": "McDonald's",
        "opening_hours": "PH,Su-Th 07:00-02:00, Sa,Su 07:00-03:00",
        "brand:wikidata": "Q38076",
        "chain": "mcdonalds"
      }
    },
    {
      "type": "Feature",
      "geometry": {
        "type": "Point",
        "coordinates": [
          12.5722211,
          55.6831218
        ]
      },
      "properties": {
        "id": 578322670,
        "osm_type": "node",
        "name": "McDonald's",
        "brand": "McDonald's",
        "opening_hours": "Su-We 08:00-02:00, Th 08:00-05:00, Fr,Sa 08:00-06:00",
        "brand:wikidata": "Q38076",
        "chain": "mcdonalds"
      }
    },
    {
      "type": "Feature",
      "geometry": {
        "type": "Point",
        "coordinates": [
          12.5667167,
          55.675618
        ]
      },
      "properties": {
        "id": 660828308,
        "osm_type": "node",
        "name": "Burger King",
        "brand": "Burger King",
        "opening_hours": "Su-We 10:00-02:00, Th-Sa 10:00-05:00",
        "brand:wikidata": "Q177054",
        "chain": "burger_king"
      }
    },
    {
      "type": "Feature",
      "geometry": {
        "type": "Point",
        "coordinates": [
          12.5771361,
          55.6300005
        ]
      },
      "properties": {
        "id": 1271171744,
        "osm_type": "node",
        "name": "Burger King",
        "brand": "Burger King",
        "website": "http://www.burgerking.dk/",
        "operator": "Burger King",
        "brand:wikidata": "Q177054",
        "chain": "burger_king"
      }
    },
    {
      "type": "Feature",
      "geometry": {
        "type": "Point",
        "coordinates": [
          12.5776801,
          55.7046219
        ]
      },
      "properties": {
        "id": 1629913378,
        "osm_type": "node",
        "name": "McDonald's",
        "brand": "McDonald's",
        "opening_hours": "Th-Su 00:00-24:00; Su-We 07:00-02:00",
        "website": "https://www.mcdonalds.com/dk/da-dk/location/k-benhavn/k-benhavn----sterbrogade/sterbrogade-120/63.html",
        "brand:wikidata": "Q38076",
        "chain": "mcdonalds"
      }
    },
    {
      "type": "Feature",
      "geometry": {
        "type": "Point",
        "coordinates": [
          12.5175403,
          55.7547832
        ]
      },
      "properties": {
        "id": 1674558044,
        "osm_type": "node",
        "name": "McDonald's",
        "brand": "McDonald's",
        "brand:wikidata": "Q38076",
        "chain": "mcdonalds"
      }
    },
    {
      "type": "Feature",
      "geometry": {
        "type": "Point",
        "coordinates": [
          12.5847998,
          55.6796121
        ]
      },
      "properties": {
        "id": 2053552761,
        "osm_type": "node",
        "name": "McDonald's",
        "brand": "McDonald's",
        "opening_hours": "24/7",
        "operator": "McDonalds",
        "brand:wikidata": "Q38076",
        "chain": "mcdonalds"
      }
    },
    {
      "type": "Feature",
      "geometry": {
        "type": "Point",
        "coordinates": [
          12.6045122,
          55.6624713
        ]
      },
      "properties": {
        "id": 3530598640,
        "osm_type": "node",
        "name": "McDonald's",
        "brand": "McDonald's",
        "brand:wikidata": "Q38076",
        "chain": "mcdonalds"
      }
    },
    {
      "type": "Feature",
      "geometry": {
        "type": "Point",
        "coordinates": [
          12.5340444,
          55.6801399
        ]
      },
      "properties": {
        "id": 3739156327,
        "osm_type": "node",
        "name": "McDonald's",
        "brand": "McDonald's",
        "brand:wikidata": "Q38076",
        "chain": "mcdonalds"
      }
    },
    {
      "type": "Feature",
      "geometry": {
        "type": "Point",
        "coordinates": [
          12.3949911,
          55.6549898
        ]
      },
      "properties": {
        "id": 3901179858,
        "osm_type": "node",
        "name": "Burger King",
        "brand": "Burger King",
        "opening_hours": "10:00-22:00",
        "phone": "+45 53600131",
        "operator": "Burger King",
        "brand:wikidata": "Q177054",
        "chain": "burger_king"
      }
    },
    {
      "type": "Feature",
      "geometry": {
        "type": "Point",
        "coordinates": [
          12.2619692,
          55.9329166
        ]
      },
      "properties": {
        "id": 4104498602,
        "osm_type": "node",
        "name": "Burger King Hillerød",
        "brand": "Burger King",
        "opening_hours": "Mo-Su 10:00-23:00",
        "operator": "Burger King",
        "brand:wikidata": "Q177054",
        "chain": "burger_king"
      }
    },
    {
      "type": "Feature",
      "geometry": {
        "type": "Point",
        "coordinates": [
          12.5729917,
          55.6831891
        ]
      },
      "properties": {
        "id": 4176260525,
        "osm_type": "node",
        "name": "Burger King",
        "brand": "Burger King",
        "opening_hours": "24/7",
        "brand:wikidata": "Q177054",
        "chain": "burger_king"
      }
    },
    {
      "type": "Feature",
      "geometry": {
        "type": "Point",
        "coordinates": [
          12.5074355,
          55.7711795
        ]
      },
      "properties": {
        "id": 4393762268,
        "osm_type": "node",
        "name": "Burger King",
        "brand": "Burger King",
        "opening_hours": "11:00-22:00",
        "website": "http://www.burgerking.dk/restauranter/lyngby-kulturhus/",
        "operator": "Burger King",
        "brand:wikidata": "Q177054",
        "chain": "burger_king"
      }
    },
    {
      "type": "Feature",
      "geometry": {
        "type": "Point",
        "coordinates": [
          12.6497398,
          55.6291012
        ]
      },
      "properties": {
        "id": 4434134245,
        "osm_type": "node",
        "name": "Burger King",
        "brand": "Burger King",
        "opening_hours": "24/7",
        "brand:wikidata": "Q177054",
        "chain": "burger_king"
      }
    },
    {
      "type": "Feature",
      "geometry": {
        "type": "Point",
        "coordinates": [
          12.0642141,
          55.8363583
        ]
      },
      "properties": {
        "id": 5275071588,
        "osm_type": "node",
        "name": "Burger King",
        "brand": "Burger King",
        "opening_hours": "Mo-Su 10:00-21:00",
        "operator": "Burger King",
        "brand:wikidata": "Q177054",
        "chain": "burger_king"
      }
    },
    {
      "type": "Feature",
      "geometry": {
        "type": "Point",
        "coordinates": [
          12.4909971,
          55.6868917
        ]
      },
      "properties": {
        "id": 5304778597,
        "osm_type": "node",
        "name": "Burger King",
        "brand": "Burger King",
        "opening_hours": "Mo-Su 10:00-23:59",
        "phone": "+45 50768008",
        "operator": "Burger King",
        "brand:wikidata": "Q177054",
        "chain": "burger_king"
      }
    },
    {
      "type": "Feature",
      "geometry": {
        "type": "Point",
        "coordinates": [
          12.4340442,
          55.6922429
        ]
      },
      "properties": {
        "id": 5900438269,
        "osm_type": "node",
        "name": "Burger King",
        "brand": "Burger King",
        "opening_hours": "Mo-Su 09:00-24:00",
        "operator": "Burger King",
        "brand:wikidata": "Q177054",
        "chain": "burger_king"
      }
    },
    {
      "type": "Feature",
      "geometry": {
        "type": "Point",
        "coordinates": [
          12.5676221,
          55.6753878
        ]
      },
      "properties": {
        "id": 6704084348,
        "osm_type": "node",
        "name": "McDonald's",
        "brand": "McDonald's",
        "opening_hours": "Su-We 08:00-02:00; Th-Sa 08:00-05:00",
        "website": "https://www.mcdonalds.com/dk/da-dk.html",
        "operator": "McDonalds",
        "brand:wikidata": "Q38076",
        "chain": "mcdonalds"
      }
    },
    {
      "type": "Feature",
      "geometry": {
        "type": "Point",
        "coordinates": [
          12.5772295,
          55.6259068
        ]
      },
      "properties": {
        "id": 7827624856,
        "osm_type": "node",
        "name": "Burger King",
        "brand": "Burger King",
        "opening_hours": "Mo-Th 10:00-22:00; Fr,Sa 10:00-23:00; Su 10:00-22:00",
        "operator": "Burger King",
        "brand:wikidata": "Q177054",
        "chain": "burger_king"
      }
    },
    {
      "type": "Feature",
      "geometry": {
        "type": "Point",
        "coordinates": [
          12.2836057,
          55.661231
        ]
      },
      "properties": {
        "id": 10745491550,
        "osm_type": "node",
        "name": "Burger King - Taastrup",
        "brand": "Burger King",
        "website": "https://www.burgerking.dk/restauranter/taastrup",
        "operator": "Burger King",
        "chain": "burger_king"
      }
    },
    {
      "type": "Feature",
      "geometry": {
        "type": "Point",
        "coordinates": [
          12.4830218,
          55.6273076
        ]
      },
      "properties": {
        "id": 10827373078,
        "osm_type": "node",
        "name": "McDonald's",
        "brand": "McDonald's",
        "operator": "McDonalds",
        "brand:wikidata": "Q38076",
        "chain": "mcdonalds"
      }
    },
    {
      "type": "Feature",
      "geometry": {
        "type": "Point",
        "coordinates": [
          12.5787308,
          55.6299413
        ]
      },
      "properties": {
        "id": 10833912074,
        "osm_type": "node",
        "name": "McDonald's",
        "brand": "McDonald's",
        "opening_hours": "Mo-Su 10:00-24:00",
        "website": "https://www.mcdonalds.com/dk/da-dk/location/k-benhavn-s/k-benhavn---fields/arne-jacobsens-all--12/135.html",
        "operator": "McDonalds",
        "brand:wikidata": "Q38076",
        "chain": "mcdonalds"
      }
    },
    {
      "type": "Feature",
      "geometry": {
        "type": "Point",
        "coordinates": [
          12.3813123,
          55.8148429
        ]
      },
      "properties": {
        "id": 11379133468,
        "osm_type": "node",
        "name": "McDonald's",
        "brand": "McDonald's",
        "opening_hours": "08:00-01:00",
        "website": "https://www.mcdonalds.com/dk/da-dk.html",
        "brand:wikidata": "Q38076",
        "chain": "mcdonalds"
      }
    },
    {
      "type": "Feature",
      "geometry": {
        "type": "Point",
        "coordinates": [
          12.51412,
          55.6657422
        ]
      },
      "properties": {
        "id": 11837798763,
        "osm_type": "node",
        "name": "McDonalds Tingstedet Valby",
        "brand": "McDonald's",
        "chain": "mcdonalds"
      }
    },
    {
      "type": "Feature",
      "geometry": {
        "type": "Point",
        "coordinates": [
          12.5646378,
          55.6730909
        ]
      },
      "properties": {
        "id": 12001645974,
        "osm_type": "node",
        "name": "McDonald's",
        "brand": "McDonald's",
        "opening_hours": "Mo-Th 04:30-01:45, Fr 04:30-29:00, Sa 07:00-05:00, PH,Su 07:00-01:45",
        "operator": "McDonalds",
        "brand:wikidata": "Q38076",
        "chain": "mcdonalds"
      }
    },
    {
      "type": "Feature",
      "geometry": {
        "type": "Point",
        "coordinates": [
          12.49228,
          55.6874934
        ]
      },
      "properties": {
        "id": 12536146237,
        "osm_type": "node",
        "name": "McDonald's",
        "brand": "McDonald's",
        "brand:wikidata": "Q38076",
        "chain": "mcdonalds"
      }
    },
    {
      "type": "Feature",
      "geometry": {
        "type": "Point",
        "coordinates": [
          12.5379797,
          55.7025321
        ]
      },
      "properties": {
        "id": 12993612704,
        "osm_type": "node",
        "name": "McDonald's Nørrebro Bycenter",
        "brand": "McDonald's",
        "brand:wikidata": "Q38076",
        "chain": "mcdonalds"
      }
    },
    {
      "type": "Feature",
      "geometry": {
        "type": "Point",
        "coordinates": [
          12.5037497,
          55.7682508
        ]
      },
      "properties": {
        "id": 13028443902,
        "osm_type": "node",
        "name": "McDonald's Kongens Lyngby",
        "brand": "McDonald's",
        "opening_hours": "Su-We 07:00-01:00; Th-Sa 07:00-02:00",
        "phone": "+4525452800",
        "website": "https://www.mcdonalds.com/dk/da-dk/location/zeeland/kongens-lyngby/lyngby/jernbanepladsen-37-41/158.html",
        "chain": "mcdonalds"
      }
    },
    {
      "type": "Feature",
      "geometry": {
        "type": "Point",
        "coordinates": [
          12.5088269,
          55.6501258
        ]
      },
      "properties": {
        "id": 25896213,
        "osm_type": "way",
        "name": "McDonald's Valby",
        "brand": "McDonald's",
        "opening_hours": "Mo-Th 09:00-24:00, Fr 09:00-01:00, Sa 10:00-01:00, Su 10:00-24:00",
        "brand:wikidata": "Q38076",
        "chain": "mcdonalds"
      }
    },
    {
      "type": "Feature",
      "geometry": {
        "type": "Point",
        "coordinates": [
          12.4932267,
          55.7419326
        ]
      },
      "properties": {
        "id": 90671327,
        "osm_type": "way",
        "name": "McDonald's",
        "brand": "McDonald's",
        "opening_hours": "Su-We 08:00-01:00; Th-Sa 08:00-02:00",
        "operator": "McDonalds",
        "brand:wikidata": "Q38076",
        "chain": "mcdonalds"
      }
    },
    {
      "type": "Feature",
      "geometry": {
        "type": "Point",
        "coordinates": [
          12.3843732,
          55.7222692
        ]
      },
      "properties": {
        "id": 98751137,
        "osm_type": "way",
        "name": "McDonald's",
        "brand": "McDonald's",
        "opening_hours": "Su-Th 08:00-01:00; Fr-Sa 08:00-02:00",
        "brand:wikidata": "Q38076",
        "chain": "mcdonalds"
      }
    },
    {
      "type": "Feature",
      "geometry": {
        "type": "Point",
        "coordinates": [
          12.4602585,
          55.6449191
        ]
      },
      "properties": {
        "id": 121023065,
        "osm_type": "way",
        "name": "McDonald's",
        "brand": "McDonald's",
        "brand:wikidata": "Q38076",
        "chain": "mcdonalds"
      }
    },
    {
      "type": "Feature",
      "geometry": {
        "type": "Point",
        "coordinates": [
          12.4377945,
          55.7166887
        ]
      },
      "properties": {
        "id": 143759057,
        "osm_type": "way",
        "name": "McDonald's",
        "brand": "McDonald's",
        "opening_hours": "Su-Th 08:00-01:00; Fr-Sa 08:00-02:00",
        "brand:wikidata": "Q38076",
        "chain": "mcdonalds"
      }
    },
    {
      "type": "Feature",
      "geometry": {
        "type": "Point",
        "coordinates": [
          12.4369992,
          55.6687084
        ]
      },
      "properties": {
        "id": 166817158,
        "osm_type": "way",
        "name": "McDonald's",
        "brand": "McDonald's",
        "opening_hours": "Mo-Sa 08:00-01:00",
        "brand:wikidata": "Q38076",
        "chain": "mcdonalds"
      }
    },
    {
      "type": "Feature",
      "geometry": {
        "type": "Point",
        "coordinates": [
          12.2620946,
          55.9349122
        ]
      },
      "properties": {
        "id": 182824893,
        "osm_type": "way",
        "name": "McDonald's",
        "brand": "McDonald's",
        "opening_hours": "Su-Th 08:00-01:00; Fr-Sa 08:00-03:00",
        "phone": "48224823",
        "website": "https://www.mcdonalds.com/dk/da-dk/location/hiller-d/hiller-d/herredsvejen-16/103.html",
        "brand:wikidata": "Q38076",
        "chain": "mcdonalds"
      }
    },
    {
      "type": "Feature",
      "geometry": {
        "type": "Point",
        "coordinates": [
          12.0292659,
          55.9687373
        ]
      },
      "properties": {
        "id": 198502819,
        "osm_type": "way",
        "name": "McDonald's Frederiksværk",
        "brand": "McDonald's",
        "opening_hours": "Mo-Su 08:00-01:00",
        "phone": "+45 47770914",
        "brand:wikidata": "Q38076",
        "chain": "mcdonalds"
      }
    },
    {
      "type": "Feature",
      "geometry": {
        "type": "Point",
        "coordinates": [
          12.3903973,
          55.6229785
        ]
      },
      "properties": {
        "id": 218566205,
        "osm_type": "way",
        "name": "McDonald's",
        "brand": "McDonald's",
        "opening_hours": "Su-Th 07:00-01:00, Fr,Sa 07:00-03:00",
        "operator": "McDonalds",
        "brand:wikidata": "Q38076",
        "chain": "mcdonalds"
      }
    },
    {
      "type": "Feature",
      "geometry": {
        "type": "Point",
        "coordinates": [
          12.0754903,
          55.8434555
        ]
      },
      "properties": {
        "id": 219597716,
        "osm_type": "way",
        "name": "McDonald's",
        "brand": "McDonald's",
        "opening_hours": "Mo-Su 07:00-01:00",
        "website": "https://www.mcdonalds.dk/",
        "brand:wikidata": "Q38076",
        "chain": "mcdonalds"
      }
    },
    {
      "type": "Feature",
      "geometry": {
        "type": "Point",
        "coordinates": [
          12.4769239,
          55.9035257
        ]
      },
      "properties": {
        "id": 305991611,
        "osm_type": "way",
        "name": "McDonald's Hørsholm",
        "brand": "McDonald's",
        "operator": "McDonalds",
        "brand:wikidata": "Q38076",
        "chain": "mcdonalds"
      }
    },
    {
      "type": "Feature",
      "geometry": {
        "type": "Point",
        "coordinates": [
          12.5892494,
          56.0265383
        ]
      },
      "properties": {
        "id": 382753793,
        "osm_type": "way",
        "name": "McDonald's",
        "brand": "McDonald's",
        "brand:wikidata": "Q38076",
        "chain": "mcdonalds"
      }
    },
    {
      "type": "Feature",
      "geometry": {
        "type": "Point",
        "coordinates": [
          12.4409739,
          55.8409525
        ]
      },
      "properties": {
        "id": 447674569,
        "osm_type": "way",
        "name": "McDonald's",
        "brand": "McDonald's",
        "opening_hours": "Mo-Su 07:00-01:00",
        "brand:wikidata": "Q38076",
        "chain": "mcdonalds"
      }
    },
    {
      "type": "Feature",
      "geometry": {
        "type": "Point",
        "coordinates": [
          12.3219633,
          55.6234187
        ]
      },
      "properties": {
        "id": 514960389,
        "osm_type": "way",
        "name": "Burger King Ishøj",
        "brand": "Burger King",
        "opening_hours": "Mo-Su 10:00-24:00",
        "brand:wikidata": "Q177054",
        "chain": "burger_king"
      }
    },
    {
      "type": "Feature",
      "geometry": {
        "type": "Point",
        "coordinates": [
          12.3904324,
          55.6229819
        ]
      },
      "properties": {
        "id": 621442171,
        "osm_type": "way",
        "name": "McDrive",
        "brand": "McDonald's",
        "brand:wikidata": "Q38076",
        "chain": "mcdonalds"
      }
    },
    {
      "type": "Feature",
      "geometry": {
        "type": "Point",
        "coordinates": [
          12.3793197,
          55.6643192
        ]
      },
      "properties": {
        "id": 624437546,
        "osm_type": "way",
        "name": "McDonald's Glostrup",
        "brand": "McDonald's",
        "opening_hours": "Su-Th 08:00-01:00; Fr-Sa 08:00-03:00",
        "website": "https://www.mcdonalds.dk/",
        "brand:wikidata": "Q38076",
        "chain": "mcdonalds"
      }
    },
    {
      "type": "Feature",
      "geometry": {
        "type": "Point",
        "coordinates": [
          12.5094777,
          55.651091
        ]
      },
      "properties": {
        "id": 1162457508,
        "osm_type": "way",
        "name": "Burger King",
        "brand": "Burger King",
        "opening_hours": "24/7",
        "phone": "+45 50768008",
        "website": "https://burgerking.dk",
        "operator": "Burger King",
        "brand:wikidata": "Q177054",
        "chain": "burger_king"
      }
    },
    {
      "type": "Feature",
      "geometry": {
        "type": "Point",
        "coordinates": [
          12.4830695,
          55.6272917
        ]
      },
      "properties": {
        "id": 1408927791,
        "osm_type": "way",
        "name": "McDrive",
        "brand": "McDonald's",
        "brand:wikidata": "Q38076",
        "chain": "mcdonalds"
      }
    },
    {
      "type": "Feature",
      "geometry": {
        "type": "Point",
        "coordinates": [
          12.483358,
          55.6273693
        ]
      },
      "properties": {
        "id": 1408927792,
        "osm_type": "way",
        "name": "McDrive",
        "brand": "McDonald's",
        "brand:wikidata": "Q38076",
        "chain": "mcdonalds"
      }
    },
    {
      "type": "Feature",
      "geometry": {
        "type": "Point",
        "coordinates": [
          12.2618953,
          55.9350005
        ]
      },
      "properties": {
        "id": 1486526888,
        "osm_type": "way",
        "name": "McDrive",
        "brand": "McDonald's",
        "brand:wikidata": "Q38076",
        "chain": "mcdonalds"
      }
    },
    {
      "type": "Feature",
      "geometry": {
        "type": "Point",
        "coordinates": [
          12.2620017,
          55.9348975
        ]
      },
      "properties": {
        "id": 1486526897,
        "osm_type": "way",
        "name": "McDrive",
        "brand": "McDonald's",
        "brand:wikidata": "Q38076",
        "chain": "mcdonalds"
      }
    },
    {
      "type": "Feature",
      "geometry": {
        "type": "Point",
        "coordinates": [
          12.5085638,
          55.6500604
        ]
      },
      "properties": {
        "id": 1487143288,
        "osm_type": "way",
        "name": "McDrive",
        "brand": "McDonald's",
        "brand:wikidata": "Q38076",
        "chain": "mcdonalds"
      }
    },
    {
      "type": "Feature",
      "geometry": {
        "type": "Point",
        "coordinates": [
          12.4603572,
          55.6449097
        ]
      },
      "properties": {
        "id": 1487595434,
        "osm_type": "way",
        "name": "McDrive",
        "brand": "McDonald's",
        "brand:wikidata": "Q38076",
        "chain": "mcdonalds"
      }
    },
    {
      "type": "Feature",
      "geometry": {
        "type": "Point",
        "coordinates": [
          12.5084477,
          55.6499844
        ]
      },
      "properties": {
        "id": 1487989539,
        "osm_type": "way",
        "name": "McDrive",
        "brand": "McDonald's",
        "brand:wikidata": "Q38076",
        "chain": "mcdonalds"
      }
    }
  ]
}