{
  "type": "FeatureCollection",
  "features": [
    {
      "type": "Feature",
      "geometry": {
        "type": "Point",
        "coordinates": [
          16.7249562,
          43.4304005
        ]
      },
      "properties": {
        "id": 1204658673,
        "osm_type": "node",
        "name": "Sklonište Luda kuća",
        "capacity": "15",
        "operator": "Planinarsko društvo Imber",
        "description": "The door was closed on October the 17th, 2021",
        "check_date": "2025-04-08"
      }
    },
    {
      "type": "Feature",
      "geometry": {
        "type": "Point",
        "coordinates": [
          16.7406752,
          43.4244296
        ]
      },
      "properties": {
        "id": 1211927459,
        "osm_type": "node",
        "name": "Lovačko sklonište"
      }
    },
    {
      "type": "Feature",
      "geometry": {
        "type": "Point",
        "coordinates": [
          16.6994526,
          43.4968836
        ]
      },
      "properties": {
        "id": 1217328867,
        "osm_type": "node",
        "name": "Milino Sičišće"
      }
    },
    {
      "type": "Feature",
      "geometry": {
        "type": "Point",
        "coordinates": [
          16.611168,
          43.545593
        ]
      },
      "properties": {
        "id": 2723558069,
        "osm_type": "node",
        "name": "Planinarsko skloniste Ljubljan"
      }
    },
    {
      "type": "Feature",
      "geometry": {
        "type": "Point",
        "coordinates": [
          16.6397596,
          43.5202479
        ]
      },
      "properties": {
        "id": 5191750228,
        "osm_type": "node",
        "name": "Planinarsko sklonište Kontejner"
      }
    },
    {
      "type": "Feature",
      "geometry": {
        "type": "Point",
        "coordinates": [
          16.7278299,
          43.4734926
        ]
      },
      "properties": {
        "id": 5198836846,
        "osm_type": "node",
        "description": "Lovačko sklonište"
      }
    },
    {
      "type": "Feature",
      "geometry": {
        "type": "Point",
        "coordinates": [
          16.5715299,
          43.9343036
        ]
      },
      "properties": {
        "id": 7139936586,
        "osm_type": "node",
        "name": "Planinarsko sklonište Pume",
        "access": "yes",
        "capacity": "10",
        "fee": "donation",
        "operator": "PU Dinaridi, Split"
      }
    },
    {
      "type": "Feature",
      "geometry": {
        "type": "Point",
        "coordinates": [
          16.8586536,
          43.5218035
        ]
      },
      "properties": {
        "id": 8297694613,
        "osm_type": "node",
        "name": "Vrgočevac",
        "fee": "no"
      }
    },
    {
      "type": "Feature",
      "geometry": {
        "type": "Point",
        "coordinates": [
          16.6133455,
          43.9075924
        ]
      },
      "properties": {
        "id": 8384936701,
        "osm_type": "node",
        "name": "Vjetar s Dinare",
        "access": "yes",
        "fee": "no",
        "operator": "Planinarsko društvo Sv. Jakov - Bitelić"
      }
    },
    {
      "type": "Feature",
      "geometry": {
        "type": "Point",
        "coordinates": [
          16.9897485,
          43.3499353
        ]
      },
      "properties": {
        "id": 11306807935,
        "osm_type": "node",
        "shelter_type": "weather_shelter"
      }
    },
    {
      "type": "Feature",
      "geometry": {
        "type": "Point",
        "coordinates": [
          16.5882232,
          43.5415543
        ]
      },
      "properties": {
        "id": 159736204,
        "osm_type": "way",
        "name": "Lugarnica",
        "access": "yes",
        "capacity": "10",
        "fee": "yes",
        "operator": "HPD Mosor Split"
      }
    },
    {
      "type": "Feature",
      "geometry": {
        "type": "Point",
        "coordinates": [
          16.4797766,
          43.3485613
        ]
      },
      "properties": {
        "id": 216258357,
        "osm_type": "way",
        "shelter_type": "weather_shelter"
      }
    },
    {
      "type": "Feature",
      "geometry": {
        "type": "Point",
        "coordinates": [
          16.5296213,
          43.9412221
        ]
      },
      "properties": {
        "id": 534986194,
        "osm_type": "way",
        "name": "Debelašnica"
      }
    },
    {
      "type": "Feature",
      "geometry": {
        "type": "Point",
        "coordinates": [
          16.7217998,
          43.478229
        ]
      },
      "properties": {
        "id": 536744900,
        "osm_type": "way",
        "name": "Trpošnjik"
      }
    },
    {
      "type": "Feature",
      "geometry": {
        "type": "Point",
        "coordinates": [
          16.3793562,
          43.8705787
        ]
      },
      "properties": {
        "id": 544667369,
        "osm_type": "way",
        "name": "Planinarska kuća Sveti Jure",
        "operator": "HPD \"Zolj\" Vrlika"
      }
    },
    {
      "type": "Feature",
      "geometry": {
        "type": "Point",
        "coordinates": [
          16.5210949,
          43.9481493
        ]
      },
      "properties": {
        "id": 588423845,
        "osm_type": "way",
        "name": "Hrvatski vitez Josip Goreta",
        "operator": "PU Dinaridi"
      }
    },
    {
      "type": "Feature",
      "geometry": {
        "type": "Point",
        "coordinates": [
          16.5777312,
          43.5591016
        ]
      },
      "properties": {
        "id": 1097781189,
        "osm_type": "way",
        "name": "Vila Lozuša"
      }
    }
  ]
}